{"type":"FeatureCollection","features":[{"type":"Feature","id":"way/222350021","properties":{"addr:city":"Wien","addr:country":"AT","addr:housenumber":"165","addr:postcode":"1190","addr:street":"Eisernenhandgasse","amenity":"restaurant","building":"yes","building:colour":"#85552e","contact:email":"info@derhirt.at","contact:phone":"+43 1 318 59 66","cuisine":"heuriger","delivery":"no","diet:lactose_free":"limited","diet:vegan":"no","diet:vegetarian":"yes","image:menu":"https://i.imgur.com/Z6hhL9w.jpeg","image:menu:0":"https://i.imgur.com/0MocLAl.jpeg","indoor_seating":"no","name":"Der Hirt","note":"Parzelle 165","organic":"yes","outdoor_seating":"yes","payment:cards":"no","payment:cash":"yes","payment:credit_cards":"no","payment:debit_cards":"no","payment:qr_code":"no","reservation":"no","service:electricity":"no","takeaway":"yes","website":"https://www.derhirt.at","wheelchair":"no","id":"way/222350021"},"geometry":{"type":"Polygon","coordinates":[[[16.3469702,48.2730388],[16.3470495,48.2729408],[16.3471033,48.2729606],[16.3470955,48.27297],[16.3471419,48.2729871],[16.3470638,48.2730811],[16.3470345,48.2730714],[16.3470048,48.2730995],[16.346922,48.2730721],[16.3469558,48.2730375],[16.3469702,48.2730388]]]}},{"type":"Feature","id":"way/586100021","properties":{"addr:housenumber":"1B","addr:street":"Landstraßer Hauptstraße","amenity":"fast_food","brand":"Türkis","brand:wikidata":"Q112157842","check_date:opening_hours":"2024-04-10","cuisine":"turkish","delivery":"yes","diet:halal":"yes","diet:vegan":"yes","diet:vegetarian":"yes","email":"office@tuerkis.at","image":"https://i.imgur.com/Ilsyg0l.jpeg","image:menu":"https://i.imgur.com/1CDvjAs.jpeg","image:menu:0":"https://i.imgur.com/ekwGkQS.jpeg","image:menu:1":"https://i.imgur.com/WbkLOBM.jpeg","indoor":"room","indoor_seating":"yes","level":"0","name":"Türkis","opening_hours":"Mo-Sa 09:00-24:00","outdoor_seating":"no","payment:cards":"yes","payment:cash":"yes","payment:qr_code":"no","room":"restaurant","service:electricity":"no","smoking":"no","takeaway":"yes","website":"https://www.tuerkis.at/","website:menu":"https://tuerkis.at/speisekarte/","wheelchair":"yes","id":"way/586100021"},"geometry":{"type":"Polygon","coordinates":[[[16.3842701,48.2067001],[16.3842066,48.2066118],[16.3843835,48.2065559],[16.3844457,48.206644],[16.3842701,48.2067001]]]}},{"type":"Feature","id":"way/1275453385","properties":{"amenity":"fast_food","building":"yes","cuisine":"hot_dog;sausage","diet:vegan":"no","diet:vegetarian":"no","image:menu":"https://i.imgur.com/aoJmUn1.jpeg","image:menu:0":"https://i.imgur.com/chx6cfS.jpeg","indoor_seating":"no","internet_access":"no","name":"Wiener Würstelstand","organic":"no","outdoor_seating":"no","payment:cards":"yes","payment:cash":"yes","payment:qr_code":"no","service:electricity":"no","takeaway":"only","wheelchair":"yes","id":"way/1275453385"},"geometry":{"type":"Polygon","coordinates":[[[16.3921179,48.2178559],[16.3921179,48.2178198],[16.3921586,48.2178198],[16.3921586,48.2178559],[16.3921179,48.2178559]]]}},{"type":"Feature","id":"way/1275453396","properties":{"amenity":"fast_food","diet:vegan":"only","diet:vegetarian":"only","image:menu":"https://i.imgur.com/KD7rh3s.jpeg","image:menu:0":"https://i.imgur.com/QI3xlT7.jpeg","indoor":"room","indoor_seating":"yes","internet_access":"no","level":"0","name":"oses","outdoor_seating":"no","payment:cards":"yes","payment:cash":"yes","payment:credit_cards":"yes","payment:debit_cards":"yes","payment:qr_code":"no","smoking":"no","takeaway":"yes","wheelchair":"yes","id":"way/1275453396"},"geometry":{"type":"Polygon","coordinates":[[[16.3926225,48.2183529],[16.3925079,48.2183443],[16.3924603,48.2183407],[16.3924688,48.2182902],[16.3926178,48.2183017],[16.3926225,48.2183529]]]}},{"type":"Feature","id":"node/1210641219","properties":{"addr:city":"Wien","addr:country":"AT","addr:housenumber":"5","addr:postcode":"1020","addr:street":"Untere Augartenstraße","amenity":"restaurant","check_date:opening_hours":"2024-05-07","cuisine":"asian","delivery":"yes","diet:gluten_free":"limited","diet:lactose_free":"yes","diet:vegan":"limited","diet:vegetarian":"yes","image:menu":"https://i.imgur.com/p0849Od.jpeg","image:menu:0":"https://i.imgur.com/i9WMuFz.jpeg","image:menu:1":"https://i.imgur.com/xFa8SHU.jpeg","image:menu:2":"https://i.imgur.com/IiFLpjE.jpeg","image:menu:3":"https://i.imgur.com/fFW9Fk5.jpeg","image:menu:4":"https://i.imgur.com/7hQbHMk.jpeg","image:menu:5":"https://i.imgur.com/1zkblRX.jpeg","indoor_seating":"yes","internet_access":"no","name":"Flugfisch","opening_hours":"Mo-Su,PH 11:30-15:00,17:30-23:00","organic":"no","outdoor_seating":"no","service:electricity":"ask","smoking":"no","takeaway":"yes","website":"https://www.flugfischwien.at/","website:menu":"https://www.flugfischwien.at/","id":"node/1210641219"},"geometry":{"type":"Point","coordinates":[16.3714877,48.2199197]}}]}