{
  "version": 0.6,
  "generator": "Overpass API 0.7.56.8 7d656e78",
  "osm3s": {
    "timestamp_osm_base": "2021-12-11T04:33:10Z",
    "copyright": "The data included in this document is from www.openstreetmap.org. The data is made available under ODbL."
  },
  "elements": [
    {
      "type": "node",
      "id": 91139248,
      "lat": 51.1389023,
      "lon": 4.6290669,
      "tags": {
        "amenity": "parking",
        "created_by": "JOSM"
      }
    },
    {
      "type": "node",
      "id": 255510304,
      "lat": 51.1290383,
      "lon": 4.5848152,
      "tags": {
        "amenity": "parking",
        "created_by": "Potlatch 0.8a"
      }
    },
    {
      "type": "node",
      "id": 271718164,
      "lat": 51.1648074,
      "lon": 4.6202282,
      "tags": {
        "amenity": "bench"
      }
    },
    {
      "type": "node",
      "id": 271718165,
      "lat": 51.1622286,
      "lon": 4.6163772,
      "tags": {
        "amenity": "bench"
      }
    },
    {
      "type": "node",
      "id": 272496132,
      "lat": 51.173857,
      "lon": 4.6367342,
      "tags": {
        "amenity": "parking"
      }
    },
    {
      "type": "node",
      "id": 275128293,
      "lat": 51.1591411,
      "lon": 4.613737,
      "tags": {
        "amenity": "parking"
      }
    },
    {
      "type": "node",
      "id": 278782185,
      "lat": 51.1492435,
      "lon": 4.6209983,
      "tags": {
        "amenity": "parking"
      }
    },
    {
      "type": "node",
      "id": 278782972,
      "lat": 51.1514677,
      "lon": 4.6239211,
      "tags": {
        "amenity": "parking"
      }
    },
    {
      "type": "node",
      "id": 278782973,
      "lat": 51.1512451,
      "lon": 4.6232983,
      "tags": {
        "amenity": "parking"
      }
    },
    {
      "type": "node",
      "id": 299921134,
      "lat": 51.1483675,
      "lon": 4.5773235,
      "tags": {
        "amenity": "parking"
      }
    },
    {
      "type": "node",
      "id": 299922380,
      "lat": 51.1510663,
      "lon": 4.6176467,
      "tags": {
        "amenity": "parking"
      }
    },
    {
      "type": "node",
      "id": 464533565,
      "lat": 51.1374564,
      "lon": 4.6309208,
      "tags": {
        "amenity": "bench"
      }
    },
    {
      "type": "node",
      "id": 1136526592,
      "lat": 51.1264247,
      "lon": 4.5798979,
      "tags": {
        "amenity": "bench"
      }
    },
    {
      "type": "node",
      "id": 1136526628,
      "lat": 51.1264267,
      "lon": 4.5799265,
      "tags": {
        "amenity": "bench"
      }
    },
    {
      "type": "node",
      "id": 1136526654,
      "lat": 51.1264154,
      "lon": 4.5799116,
      "tags": {
        "amenity": "bench"
      }
    },
    {
      "type": "node",
      "id": 1271485633,
      "lat": 51.1569141,
      "lon": 4.631255,
      "tags": {
        "amenity": "drinking_water",
        "mapillary": "https://www.mapillary.com/app/?lat=51.157063374729766&lng=4.63112134943072&z=17&pKey=2orkVB0khczGsCezZLs6Rw&focus=photo",
        "opening_hours": "Mar 16-Oct 14"
      }
    },
    {
      "type": "node",
      "id": 1271485835,
      "lat": 51.1592933,
      "lon": 4.6297923,
      "tags": {
        "amenity": "bench"
      }
    },
    {
      "type": "node",
      "id": 1271485861,
      "lat": 51.1615626,
      "lon": 4.6307585,
      "tags": {
        "amenity": "bench"
      }
    },
    {
      "type": "node",
      "id": 1271486152,
      "lat": 51.1597405,
      "lon": 4.6133869,
      "tags": {
        "amenity": "bench"
      }
    },
    {
      "type": "node",
      "id": 1271486243,
      "lat": 51.1578879,
      "lon": 4.6107778,
      "tags": {
        "board_type": "nature",
        "information": "board",
        "tourism": "information"
      }
    },
    {
      "type": "node",
      "id": 1395382816,
      "lat": 51.1571745,
      "lon": 4.6310744,
      "tags": {
        "amenity": "parking",
        "capacity": "40",
        "fee": "no",
        "name": "Parking Kesselse Heide"
      }
    },
    {
      "type": "node",
      "id": 1799251072,
      "lat": 51.1371084,
      "lon": 4.5717004,
      "tags": {
        "amenity": "drinking_water",
        "mapillary": "https://www.mapillary.com/app/?lat=51.13704924274956&lng=4.571753116871506&z=17&pKey=qqLk3xscORsz3kAajXD_7Q&focus=photo"
      }
    },
    {
      "type": "node",
      "id": 1938210751,
      "lat": 51.1503168,
      "lon": 4.5956057,
      "tags": {
        "board_type": "nature",
        "description": "Welkom in Steenbeemden",
        "information": "board",
        "operator": "Natuurpunt",
        "tourism": "information"
      }
    },
    {
      "type": "node",
      "id": 1995547216,
      "lat": 51.1507666,
      "lon": 4.6263843,
      "tags": {
        "amenity": "bench"
      }
    },
    {
      "type": "node",
      "id": 1995547220,
      "lat": 51.1508196,
      "lon": 4.6264035,
      "tags": {
        "amenity": "bench"
      }
    },
    {
      "type": "node",
      "id": 1995547228,
      "lat": 51.1516266,
      "lon": 4.6264565,
      "tags": {
        "amenity": "bench"
      }
    },
    {
      "type": "node",
      "id": 2007169561,
      "lat": 51.1583935,
      "lon": 4.6374577,
      "tags": {
        "amenity": "bench"
      }
    },
    {
      "type": "node",
      "id": 2007169566,
      "lat": 51.158245,
      "lon": 4.6325507,
      "tags": {
        "amenity": "bench"
      }
    },
    {
      "type": "node",
      "id": 2007169570,
      "lat": 51.1583366,
      "lon": 4.6267209,
      "tags": {
        "amenity": "bench"
      }
    },
    {
      "type": "node",
      "id": 2007169575,
      "lat": 51.1588509,
      "lon": 4.6279922,
      "tags": {
        "amenity": "bench"
      }
    },
    {
      "type": "node",
      "id": 2007169593,
      "lat": 51.159022,
      "lon": 4.6333925,
      "tags": {
        "amenity": "bench"
      }
    },
    {
      "type": "node",
      "id": 2007169602,
      "lat": 51.1599355,
      "lon": 4.6329919,
      "tags": {
        "amenity": "bench"
      }
    },
    {
      "type": "node",
      "id": 2080377607,
      "lat": 51.1583704,
      "lon": 4.6476793,
      "tags": {
        "board_type": "nature",
        "description": "Welkom in het Goor",
        "information": "board",
        "operator": "Natuurpunt",
        "tourism": "information"
      }
    },
    {
      "type": "node",
      "id": 2080377620,
      "lat": 51.1596744,
      "lon": 4.6467775,
      "tags": {
        "amenity": "bench"
      }
    },
    {
      "type": "node",
      "id": 2080500377,
      "lat": 51.1374945,
      "lon": 4.631124,
      "tags": {
        "amenity": "bench"
      }
    },
    {
      "type": "node",
      "id": 2080500379,
      "lat": 51.138521,
      "lon": 4.6291999,
      "tags": {
        "amenity": "bench"
      }
    },
    {
      "type": "node",
      "id": 2080500381,
      "lat": 51.1385509,
      "lon": 4.6291958,
      "tags": {
        "amenity": "bench"
      }
    },
    {
      "type": "node",
      "id": 2080500442,
      "lat": 51.1401502,
      "lon": 4.6360477,
      "tags": {
        "amenity": "bench"
      }
    },
    {
      "type": "node",
      "id": 2120597169,
      "lat": 51.1342156,
      "lon": 4.6307721,
      "tags": {
        "amenity": "bench"
      }
    },
    {
      "type": "node",
      "id": 2337935631,
      "lat": 51.1735731,
      "lon": 4.6195398,
      "tags": {
        "amenity": "parking",
        "parking": "surface"
      }
    },
    {
      "type": "node",
      "id": 2403553049,
      "lat": 51.1281993,
      "lon": 4.5818358,
      "tags": {
        "amenity": "drinking_water",
        "mapillary": "https://www.mapillary.com/app/?lat=51.12837470937794&lng=4.581958273409445&z=17&pKey=rXBGXPBm7SFRAWLmB0KztA&focus=photo",
        "stateofrepair": "ok"
      }
    },
    {
      "type": "node",
      "id": 3669139502,
      "lat": 51.159345,
      "lon": 4.6409038,
      "tags": {
        "amenity": "bench",
        "backrest": "yes"
      }
    },
    {
      "type": "node",
      "id": 5054492980,
      "lat": 51.159548,
      "lon": 4.6565953,
      "tags": {
        "leisure": "picnic_table"
      }
    },
    {
      "type": "node",
      "id": 5054516415,
      "lat": 51.1590686,
      "lon": 4.6511572,
      "tags": {
        "amenity": "bench",
        "backrest": "yes"
      }
    },
    {
      "type": "node",
      "id": 5054516416,
      "lat": 51.1597701,
      "lon": 4.6398824,
      "tags": {
        "board_type": "nature",
        "information": "board",
        "tourism": "information"
      }
    },
    {
      "type": "node",
      "id": 5381974981,
      "lat": 51.1509023,
      "lon": 4.6261691,
      "tags": {
        "board_type": "nature",
        "description": "Information board on local fauna and flora surrounding Kessel Fort.",
        "information": "board",
        "tourism": "information"
      }
    },
    {
      "type": "node",
      "id": 5381974982,
      "lat": 51.1510214,
      "lon": 4.6262324,
      "tags": {
        "description": "Large picnic table.",
        "leisure": "picnic_table"
      }
    },
    {
      "type": "node",
      "id": 5383989382,
      "lat": 51.1508623,
      "lon": 4.6263318,
      "tags": {
        "board_type": "history",
        "description": "Information sign on Fort history.",
        "information": "board",
        "tourism": "information"
      }
    },
    {
      "type": "node",
      "id": 5384138673,
      "lat": 51.1467579,
      "lon": 4.6206463,
      "tags": {
        "amenity": "bench"
      }
    },
    {
      "type": "node",
      "id": 5391068748,
      "lat": 51.1395961,
      "lon": 4.5708682,
      "tags": {
        "amenity": "bench"
      }
    },
    {
      "type": "node",
      "id": 5391107253,
      "lat": 51.1510504,
      "lon": 4.6176948,
      "tags": {
        "amenity": "bench"
      }
    },
    {
      "type": "node",
      "id": 5391107254,
      "lat": 51.1509811,
      "lon": 4.6178513,
      "tags": {
        "board_type": "map",
        "information": "board",
        "tourism": "information"
      }
    },
    {
      "type": "node",
      "id": 5849588478,
      "lat": 51.1343764,
      "lon": 4.6514731,
      "tags": {
        "amenity": "bench",
        "backrest": "yes",
        "note": "dit is het solide recycle plastic type dat door gemeenten en zo wordt neergezet"
      }
    },
    {
      "type": "node",
      "id": 5952278021,
      "lat": 51.1317227,
      "lon": 4.5753646,
      "tags": {
        "amenity": "bench"
      }
    },
    {
      "type": "node",
      "id": 5952278022,
      "lat": 51.13441,
      "lon": 4.5767188,
      "tags": {
        "amenity": "bench"
      }
    },
    {
      "type": "node",
      "id": 5952278023,
      "lat": 51.1354006,
      "lon": 4.5755785,
      "tags": {
        "amenity": "bench"
      }
    },
    {
      "type": "node",
      "id": 5952278024,
      "lat": 51.1364447,
      "lon": 4.5735697,
      "tags": {
        "amenity": "bench"
      }
    },
    {
      "type": "node",
      "id": 5952278025,
      "lat": 51.1451986,
      "lon": 4.5863987,
      "tags": {
        "amenity": "bench"
      }
    },
    {
      "type": "node",
      "id": 5952278027,
      "lat": 51.1526818,
      "lon": 4.5965853,
      "tags": {
        "amenity": "bench",
        "backrest": "yes",
        "material": "wood"
      }
    },
    {
      "type": "node",
      "id": 5952278028,
      "lat": 51.1482775,
      "lon": 4.5953263,
      "tags": {
        "amenity": "bench"
      }
    },
    {
      "type": "node",
      "id": 5952278029,
      "lat": 51.1508618,
      "lon": 4.6034868,
      "tags": {
        "amenity": "bench"
      }
    },
    {
      "type": "node",
      "id": 5952278030,
      "lat": 51.1507568,
      "lon": 4.6183593,
      "tags": {
        "amenity": "bench"
      }
    },
    {
      "type": "node",
      "id": 5952278031,
      "lat": 51.1522851,
      "lon": 4.6268197,
      "tags": {
        "amenity": "bench"
      }
    },
    {
      "type": "node",
      "id": 6252592041,
      "lat": 51.1514365,
      "lon": 4.6238054,
      "tags": {
        "amenity": "bench",
        "backrest": "yes"
      }
    },
    {
      "type": "node",
      "id": 7619679285,
      "lat": 51.1606213,
      "lon": 4.6022136,
      "tags": {
        "amenity": "drinking_water",
        "in_cemetery": "yes"
      }
    },
    {
      "type": "node",
      "id": 7676444619,
      "lat": 51.1612935,
      "lon": 4.6322225,
      "tags": {
        "amenity": "bench"
      }
    },
    {
      "type": "node",
      "id": 7676444620,
      "lat": 51.1587436,
      "lon": 4.6302052,
      "tags": {
        "amenity": "bench"
      }
    },
    {
      "type": "node",
      "id": 7676444621,
      "lat": 51.158873,
      "lon": 4.6311237,
      "tags": {
        "amenity": "bench"
      }
    },
    {
      "type": "node",
      "id": 7676444622,
      "lat": 51.1595914,
      "lon": 4.6317016,
      "tags": {
        "amenity": "bench"
      }
    },
    {
      "type": "node",
      "id": 7676444623,
      "lat": 51.1591513,
      "lon": 4.6320835,
      "tags": {
        "amenity": "bench"
      }
    },
    {
      "type": "node",
      "id": 7676444624,
      "lat": 51.1578633,
      "lon": 4.6320525,
      "tags": {
        "leisure": "picnic_table"
      }
    },
    {
      "type": "node",
      "id": 7676444625,
      "lat": 51.1585882,
      "lon": 4.6297099,
      "tags": {
        "leisure": "picnic_table"
      }
    },
    {
      "type": "node",
      "id": 7676444626,
      "lat": 51.1594879,
      "lon": 4.630649,
      "tags": {
        "leisure": "picnic_table"
      }
    },
    {
      "type": "node",
      "id": 7676444627,
      "lat": 51.1598244,
      "lon": 4.6314952,
      "tags": {
        "leisure": "picnic_table"
      }
    },
    {
      "type": "node",
      "id": 7676444628,
      "lat": 51.1629568,
      "lon": 4.6341165,
      "tags": {
        "amenity": "bench"
      }
    },
    {
      "type": "node",
      "id": 7676444629,
      "lat": 51.163701,
      "lon": 4.6361495,
      "tags": {
        "amenity": "bench"
      }
    },
    {
      "type": "node",
      "id": 7676444630,
      "lat": 51.1643547,
      "lon": 4.6392661,
      "tags": {
        "amenity": "bench"
      }
    },
    {
      "type": "node",
      "id": 7676444631,
      "lat": 51.1590348,
      "lon": 4.6388843,
      "tags": {
        "amenity": "bench"
      }
    },
    {
      "type": "node",
      "id": 7676444632,
      "lat": 51.1581675,
      "lon": 4.6388224,
      "tags": {
        "amenity": "bench"
      }
    },
    {
      "type": "node",
      "id": 7676444633,
      "lat": 51.1589183,
      "lon": 4.638038,
      "tags": {
        "amenity": "bench"
      }
    },
    {
      "type": "node",
      "id": 7676444634,
      "lat": 51.1584588,
      "lon": 4.6362424,
      "tags": {
        "amenity": "bench"
      }
    },
    {
      "type": "node",
      "id": 7676444635,
      "lat": 51.1582711,
      "lon": 4.6358193,
      "tags": {
        "leisure": "picnic_table"
      }
    },
    {
      "type": "node",
      "id": 7884678719,
      "lat": 51.1441712,
      "lon": 4.5768447,
      "tags": {
        "amenity": "bench"
      }
    },
    {
      "type": "node",
      "id": 7884678720,
      "lat": 51.1441129,
      "lon": 4.5767857,
      "tags": {
        "amenity": "bench"
      }
    },
    {
      "type": "node",
      "id": 8264971054,
      "lat": 51.1767455,
      "lon": 4.6514138,
      "tags": {
        "amenity": "bench",
        "backrest": "yes",
        "colour": "grey",
        "material": "plastic",
        "seats": "4"
      }
    },
    {
      "type": "node",
      "id": 8264971057,
      "lat": 51.1752075,
      "lon": 4.6479575,
      "tags": {
        "amenity": "bench",
        "backrest": "yes",
        "colour": "grey",
        "material": "plastic",
        "seats": "4"
      }
    },
    {
      "type": "node",
      "id": 8264971059,
      "lat": 51.1752123,
      "lon": 4.642214,
      "tags": {
        "amenity": "bench",
        "backrest": "yes",
        "colour": "grey",
        "material": "plastic",
        "seats": "4"
      }
    },
    {
      "type": "node",
      "id": 8367507762,
      "lat": 51.1557461,
      "lon": 4.6065712,
      "tags": {
        "amenity": "bench",
        "backrest": "yes",
        "material": "wood"
      }
    },
    {
      "type": "node",
      "id": 8367706858,
      "lat": 51.1275156,
      "lon": 4.6495666,
      "tags": {
        "amenity": "parking",
        "parking": "surface",
        "surface": "ground"
      }
    },
    {
      "type": "node",
      "id": 8367723154,
      "lat": 51.1270156,
      "lon": 4.6485705,
      "tags": {
        "amenity": "parking",
        "parking": "surface"
      }
    },
    {
      "type": "node",
      "id": 8479305644,
      "lat": 51.1267283,
      "lon": 4.5722141,
      "tags": {
        "leisure": "picnic_table"
      }
    },
    {
      "type": "node",
      "id": 8479305645,
      "lat": 51.1266963,
      "lon": 4.5722511,
      "tags": {
        "leisure": "picnic_table"
      }
    },
    {
      "type": "node",
      "id": 8479305646,
      "lat": 51.126665,
      "lon": 4.572269,
      "tags": {
        "leisure": "picnic_table"
      }
    },
    {
      "type": "node",
      "id": 8479305648,
      "lat": 51.1309026,
      "lon": 4.572358,
      "tags": {
        "amenity": "bench"
      }
    },
    {
      "type": "node",
      "id": 8479305649,
      "lat": 51.1309635,
      "lon": 4.5721653,
      "tags": {
        "amenity": "bench"
      }
    },
    {
      "type": "node",
      "id": 8479305662,
      "lat": 51.1340032,
      "lon": 4.5771902,
      "tags": {
        "amenity": "bench"
      }
    },
    {
      "type": "node",
      "id": 8479305681,
      "lat": 51.1378524,
      "lon": 4.5748777,
      "tags": {
        "amenity": "bench"
      }
    },
    {
      "type": "node",
      "id": 8479305684,
      "lat": 51.1359341,
      "lon": 4.5795507,
      "tags": {
        "amenity": "bench"
      }
    },
    {
      "type": "node",
      "id": 8536247067,
      "lat": 51.1372874,
      "lon": 4.5705372,
      "tags": {
        "amenity": "bench"
      }
    },
    {
      "type": "node",
      "id": 8631072289,
      "lat": 51.1335788,
      "lon": 4.5825772,
      "tags": {
        "information": "board",
        "operator": "Natuurpunt",
        "tourism": "information"
      }
    },
    {
      "type": "node",
      "id": 8637967544,
      "lat": 51.1619081,
      "lon": 4.610308,
      "tags": {
        "amenity": "bench",
        "backrest": "yes"
      }
    },
    {
      "type": "node",
      "id": 8637995975,
      "lat": 51.1629837,
      "lon": 4.6068283,
      "tags": {
        "amenity": "bench",
        "backrest": "yes"
      }
    },
    {
      "type": "node",
      "id": 8756017685,
      "lat": 51.1622909,
      "lon": 4.6155511,
      "tags": {
        "amenity": "bench",
        "backrest": "yes",
        "direction": "120",
        "material": "plastic",
        "seats": "4"
      }
    },
    {
      "type": "node",
      "id": 8756072226,
      "lat": 51.160099,
      "lon": 4.5992596,
      "tags": {
        "amenity": "bench",
        "backrest": "yes",
        "direction": "260",
        "material": "plastic",
        "seats": "4"
      }
    },
    {
      "type": "node",
      "id": 9258466322,
      "lat": 51.1446402,
      "lon": 4.5876905,
      "tags": {
        "amenity": "bench",
        "backrest": "yes"
      }
    },
    {
      "type": "way",
      "id": 23422321,
      "nodes": [
        253626836,
        1037320184,
        5345607728,
        5345607727,
        5345607726,
        6981425605,
        6981425606,
        6981425607,
        5345607725,
        5345607724,
        1037320125,
        253626832,
        6981425608,
        6981425609,
        253626834,
        253626836
      ],
      "tags": {
        "amenity": "parking",
        "name": "SION1"
      }
    },
    {
      "type": "way",
      "id": 23584146,
      "nodes": [
        255390620,
        1538401812,
        325825095,
        1538401801,
        1538401788,
        255390621,
        255390622,
        325825114,
        1538401800,
        325825124,
        1538401802,
        1538401816,
        1538401818,
        1538401820,
        1538401823,
        325825133,
        255390623,
        255390624,
        255390620
      ],
      "tags": {
        "amenity": "parking"
      }
    },
    {
      "type": "way",
      "id": 23607467,
      "nodes": [
        255679546,
        255679547,
        255679548,
        4264171746,
        4264171765,
        4264171768,
        255679549,
        4264171773,
        1038115310,
        255755401,
        4264171799,
        1038115498,
        255679545,
        4264171781,
        1038115686,
        253342085,
        255679546
      ],
      "tags": {
        "access": "yes",
        "amenity": "parking",
        "capacity": "120",
        "name": "Wallehof"
      }
    },
    {
      "type": "way",
      "id": 23657876,
      "nodes": [
        256322940,
        256322941,
        1131088917,
        256322942,
        256322943,
        256322944,
        256322945,
        1043322065,
        1043327008,
        1043326539,
        1043324461,
        1043327230,
        256322946,
        1544638482,
        1043325670,
        1043325093,
        1043322723,
        1043325582,
        1043323236,
        1043322546,
        1043327177,
        1043323940,
        1043321423,
        256322947,
        1043326085,
        256322940
      ],
      "tags": {
        "amenity": "parking",
        "capacity": "423",
        "fee": "no",
        "parking": "surface"
      }
    },
    {
      "type": "way",
      "id": 25501162,
      "nodes": [
        275200383,
        275200381,
        277872136,
        277872137,
        275200383
      ],
      "tags": {
        "amenity": "parking"
      }
    },
    {
      "type": "way",
      "id": 41871872,
      "nodes": [
        517874320,
        1072718142,
        1072717976,
        517874334,
        517874325,
        517874321,
        8756072227,
        517874320
      ],
      "tags": {
        "amenity": "parking"
      }
    },
    {
      "type": "way",
      "id": 59077030,
      "nodes": [
        732231021,
        732230981,
        732230766,
        1040962583,
        732231305,
        732231272,
        732231073,
        732230855,
        1040962777,
        732230652,
        732231203,
        732230968,
        732230742,
        732230566,
        732231021
      ],
      "tags": {
        "amenity": "parking"
      }
    },
    {
      "type": "way",
      "id": 75873766,
      "nodes": [
        1036060082,
        895648713,
        895648715,
        1545702903,
        895648717,
        1036060082
      ],
      "tags": {
        "amenity": "parking",
        "capacity": "90",
        "name": "Zaat"
      }
    },
    {
      "type": "way",
      "id": 88789197,
      "nodes": [
        1030434159,
        1030434125,
        1030434068,
        1030434154,
        1030434077,
        1030434082,
        1030434159
      ],
      "tags": {
        "amenity": "parking",
        "parking": "surface"
      }
    },
    {
      "type": "way",
      "id": 92416791,
      "nodes": [
        275129681,
        275129680,
        1072812006,
        1271486198,
        275129684,
        5381963119,
        275129682,
        1271486172,
        1072811999,
        1072811991,
        275129681
      ],
      "tags": {
        "amenity": "parking"
      }
    },
    {
      "type": "way",
      "id": 92419714,
      "nodes": [
        1072625074,
        1072625090,
        1072625063,
        475365541,
        1072625070,
        475365542,
        1073811618,
        1073048917,
        1072625077,
        1072625051,
        1072625096,
        1072625074
      ],
      "tags": {
        "amenity": "parking"
      }
    },
    {
      "type": "way",
      "id": 116920142,
      "nodes": [
        1317052377,
        1317052390,
        1317052387,
        1317052383,
        1317052398,
        1317052396,
        1317052393,
        1317052388,
        1317052386,
        1317052397,
        1317052379,
        1107432114,
        1107432144,
        1107432170,
        1107432135,
        1317052385,
        1317052382,
        1317052377
      ],
      "tags": {
        "amenity": "parking",
        "parking": "surface"
      }
    },
    {
      "type": "way",
      "id": 138730120,
      "nodes": [
        523381814,
        1521244395,
        1521244357,
        1036554261,
        1036554372,
        1036554137,
        1036554473,
        1036554292,
        1036554577,
        1036554394,
        523381805,
        523381814
      ],
      "tags": {
        "amenity": "parking",
        "parking": "surface"
      }
    },
    {
      "type": "way",
      "id": 138730182,
      "nodes": [
        1114022823,
        1521244373,
        1521244413,
        1521244451,
        1114022823
      ],
      "tags": {
        "amenity": "parking",
        "parking": "surface"
      }
    },
    {
      "type": "way",
      "id": 138744265,
      "nodes": [
        1521407456,
        1521407454,
        1521407431,
        1521407437,
        1521407446,
        1521407439,
        1521407442,
        1521407444,
        1521407449,
        1521407452,
        1521407456
      ],
      "tags": {
        "amenity": "parking",
        "capacity:disabled": "4",
        "parking": "surface"
      }
    },
    {
      "type": "way",
      "id": 140411861,
      "nodes": [
        1538401774,
        1538401775,
        1538401764,
        1538401760,
        1538401765,
        1538401767,
        1538401770,
        1538401772,
        1538401774
      ],
      "tags": {
        "amenity": "parking",
        "parking": "surface"
      }
    },
    {
      "type": "way",
      "id": 155406375,
      "nodes": [
        1678025278,
        1678025236,
        1678025279,
        1678025280,
        1678025278
      ],
      "tags": {
        "access": "customers",
        "amenity": "parking",
        "parking": "surface"
      }
    },
    {
      "type": "way",
      "id": 155408236,
      "nodes": [
        1678035864,
        1678035860,
        1678035858,
        1678035861,
        1678035864
      ],
      "tags": {
        "amenity": "parking",
        "parking": "surface"
      }
    },
    {
      "type": "way",
      "id": 155408237,
      "nodes": [
        1072642952,
        1072642972,
        1072642963,
        1072642959,
        1072642952
      ],
      "tags": {
        "amenity": "parking",
        "parking": "surface"
      }
    },
    {
      "type": "way",
      "id": 160003115,
      "nodes": [
        1720672007,
        1720672050,
        1720671999,
        1720672003,
        1720671993,
        1720672048,
        1720672007
      ],
      "tags": {
        "amenity": "parking"
      }
    },
    {
      "type": "way",
      "id": 189029216,
      "nodes": [
        1996755940,
        1996755942,
        1996755941,
        1996755938,
        1996755940
      ],
      "tags": {
        "amenity": "parking",
        "fee": "no",
        "parking": "surface"
      }
    },
    {
      "type": "way",
      "id": 192121052,
      "nodes": [
        2026821280,
        2026821278,
        2026821277,
        2026821279,
        2026821280
      ],
      "tags": {
        "amenity": "parking"
      }
    },
    {
      "type": "way",
      "id": 197841229,
      "nodes": [
        2080377605,
        2080377600,
        2080377598,
        2080377596,
        9193044058,
        2080377624,
        1072917913,
        1072917863,
        9193044051,
        9193044053,
        9193044055,
        475365566,
        475365567,
        1014875738,
        1014875749,
        1073221117,
        2080377605
      ],
      "tags": {
        "landuse": "forest",
        "leisure": "nature_reserve",
        "name": "Goor",
        "natural": "wood",
        "operator": "Natuurpunt"
      }
    },
    {
      "type": "way",
      "id": 224952832,
      "nodes": [
        2337935618,
        2337935608,
        2337935610,
        2337935614,
        2337935618
      ],
      "tags": {
        "amenity": "parking",
        "capacity": "100",
        "name": "Campus Vesta",
        "parking": "surface"
      }
    },
    {
      "type": "way",
      "id": 228266006,
      "nodes": [
        2369124407,
        2369124399,
        2369124364,
        2369124280,
        2369124296,
        2369124320,
        2369124355,
        2369124373,
        2369124351,
        2369124376,
        2369124407
      ],
      "tags": {
        "amenity": "parking"
      }
    },
    {
      "type": "way",
      "id": 228266009,
      "nodes": [
        2369124345,
        2369124323,
        2369124229,
        2369124219,
        2369124300,
        2369124345
      ],
      "tags": {
        "amenity": "parking"
      }
    },
    {
      "type": "way",
      "id": 231099870,
      "nodes": [
        2395068317,
        2395068316,
        2395068314,
        2395068315,
        2395068317
      ],
      "tags": {
        "amenity": "parking"
      }
    },
    {
      "type": "way",
      "id": 231099871,
      "nodes": [
        2395068311,
        5391073033,
        5391073039,
        5391073034,
        5391073038,
        5391073037,
        5391073036,
        5391073035,
        2395068313,
        2395068312,
        2395068308,
        2395068307,
        2395068310,
        2395068309,
        2395068311
      ],
      "tags": {
        "amenity": "parking"
      }
    },
    {
      "type": "way",
      "id": 239724957,
      "nodes": [
        2475015438,
        2475015444,
        1037443370,
        2475015434,
        1535233278,
        8017372963,
        2475015416,
        8017372964,
        8017372966,
        2475015438
      ],
      "tags": {
        "amenity": "parking",
        "capacity": "135",
        "fee": "yes",
        "name": "KTA - Spui"
      }
    },
    {
      "type": "way",
      "id": 437714322,
      "nodes": [
        4355095977,
        4355095976,
        4355095971,
        4355095972,
        4355095977
      ],
      "tags": {
        "amenity": "parking"
      }
    },
    {
      "type": "way",
      "id": 437714486,
      "nodes": [
        4355097149,
        4355097153,
        4355097150,
        4355097152,
        4355097146,
        4355097145,
        4355097144,
        4355097143,
        4355097140,
        4355097139,
        4355097138,
        4355097135,
        4355097137,
        4355097142,
        4355097148,
        4355097149
      ],
      "tags": {
        "amenity": "parking"
      }
    },
    {
      "type": "way",
      "id": 462164774,
      "nodes": [
        4575676317,
        4575676316,
        4575676315,
        4575676314,
        4575676317
      ],
      "tags": {
        "amenity": "parking",
        "parking": "surface"
      }
    },
    {
      "type": "way",
      "id": 488812881,
      "nodes": [
        4811029761,
        4811029762,
        4811029763,
        4811029764,
        4811029765,
        4811029766,
        4811029767,
        4811029768,
        4811029769,
        4811029770,
        4811029771,
        4811029761
      ],
      "tags": {
        "addr:city": "Lier",
        "addr:street": "Spekkestraat",
        "amenity": "parking",
        "capacity": "30",
        "park_ride": "no",
        "supervised": "no"
      }
    },
    {
      "type": "way",
      "id": 489225604,
      "nodes": [
        4814958692,
        4814958693,
        4814958694,
        4814958695,
        5295405211,
        5295405210,
        5295405212,
        5295405213,
        4814958692
      ],
      "tags": {
        "amenity": "parking"
      }
    },
    {
      "type": "way",
      "id": 529582537,
      "nodes": [
        5144178265,
        5144178272,
        5144178271,
        5144178266,
        5144178267,
        5144178268,
        5144178265
      ],
      "tags": {
        "amenity": "parking"
      }
    },
    {
      "type": "way",
      "id": 664931896,
      "nodes": [
        6223798942,
        6223798943,
        6223798944,
        6223798945,
        6223798946,
        6223798947,
        6223798948,
        6223798942
      ],
      "tags": {
        "access": "customers",
        "amenity": "parking",
        "capacity": "100",
        "park_ride": "no",
        "parking": "surface",
        "surface": "asphalt"
      }
    },
    {
      "type": "way",
      "id": 697648731,
      "nodes": [
        6551733439,
        6551733440,
        6551733441,
        6551733442,
        6551733439
      ],
      "tags": {
        "access": "permit",
        "amenity": "parking",
        "area": "yes",
        "capacity": "10",
        "parking": "surface",
        "surface": "paved"
      }
    },
    {
      "type": "way",
      "id": 697648732,
      "nodes": [
        6551733443,
        6551733444,
        6551733445,
        6551733446,
        6551733447,
        6551733443
      ],
      "tags": {
        "access": "yes",
        "amenity": "parking",
        "capacity": "30",
        "parking": "surface",
        "surface": "paved"
      }
    },
    {
      "type": "way",
      "id": 734153555,
      "nodes": [
        6875328015,
        6875328016,
        6875328017,
        6875328018,
        6875328019,
        6875328015
      ],
      "tags": {
        "access": "customers",
        "amenity": "parking"
      }
    },
    {
      "type": "way",
      "id": 875813358,
      "nodes": [
        8151669084,
        8151669085,
        8151669086,
        8151669087,
        8151669084
      ],
      "tags": {
        "access": "customers",
        "amenity": "parking",
        "capacity": "90",
        "parking": "surface",
        "surface": "paved"
      }
    },
    {
      "type": "way",
      "id": 912795074,
      "nodes": [
        8479305709,
        8479305710,
        1557699810,
        8479305711,
        1116636339,
        8479305713,
        8479305709
      ],
      "tags": {
        "amenity": "parking",
        "parking": "surface",
        "surface": "ground"
      }
    },
    {
      "type": "way",
      "id": 912795078,
      "nodes": [
        8479328217,
        8479328218,
        8479328219,
        8479328220,
        8479328221,
        8479328222,
        8479328223,
        8479328224,
        8479328217
      ],
      "tags": {
        "amenity": "parking",
        "surface": "ground"
      }
    },
    {
      "type": "way",
      "id": 912795079,
      "nodes": [
        8479328225,
        8479328226,
        8479328227,
        8479328228,
        8479328229,
        8479328230,
        8479328225
      ],
      "tags": {
        "amenity": "parking",
        "surface": "ground"
      }
    },
    {
      "type": "way",
      "id": 913304163,
      "nodes": [
        8483937369,
        8483937370,
        8483937371,
        8483937372,
        8483937373,
        8483937374,
        8483937375,
        8483937376,
        8483937369
      ],
      "tags": {
        "amenity": "parking"
      }
    },
    {
      "type": "way",
      "id": 918738183,
      "nodes": [
        8532538010,
        8532538011,
        8532538012,
        8532538004,
        8532538003,
        8532538013,
        8532538010
      ],
      "tags": {
        "access": "private",
        "amenity": "parking"
      }
    },
    {
      "type": "way",
      "id": 925847682,
      "nodes": [
        8592230439,
        8592230440,
        8592230441,
        8592230442,
        8592230439
      ],
      "tags": {
        "amenity": "parking"
      }
    },
    {
      "type": "way",
      "id": 926281524,
      "nodes": [
        8595843218,
        8595843219,
        8595843220,
        8595843221,
        8595843218
      ],
      "tags": {
        "access": "yes",
        "amenity": "parking",
        "fee": "yes",
        "surface": "paved"
      }
    },
    {
      "type": "way",
      "id": 990570587,
      "nodes": [
        9153171287,
        1116609075,
        9153171284,
        9153171285,
        9153171287
      ],
      "tags": {
        "access": "customers",
        "amenity": "parking"
      }
    },
    {
      "type": "way",
      "id": 990570588,
      "nodes": [
        9153171288,
        9153171289,
        9153171290,
        9153171291,
        9153171292,
        9153171293,
        9153171294,
        9153171295,
        9153171296,
        1546439323,
        1546439324,
        9153171288
      ],
      "tags": {
        "access": "customers",
        "amenity": "parking"
      }
    },
    {
      "type": "way",
      "id": 993491135,
      "nodes": [
        9178549497,
        9178549498,
        9178549499,
        9178549500,
        9178549501,
        9178549502,
        9178549503,
        9178549504,
        9178549505,
        9178549506,
        9178549507,
        9178549497
      ],
      "tags": {
        "access": "private",
        "amenity": "parking"
      }
    },
    {
      "type": "way",
      "id": 993491140,
      "nodes": [
        9178564918,
        9178564919,
        9178564920,
        9178564921,
        9178564918
      ],
      "tags": {
        "access": "private",
        "amenity": "parking"
      }
    },
    {
      "type": "node",
      "id": 91139248,
      "lat": 51.1389023,
      "lon": 4.6290669,
      "timestamp": "2007-10-29T08:30:01Z",
      "version": 1,
      "changeset": 349877,
      "user": "Toi",
      "uid": 8323,
      "tags": {
        "amenity": "parking",
        "created_by": "JOSM"
      }
    },
    {
      "type": "node",
      "id": 255510304,
      "lat": 51.1290383,
      "lon": 4.5848152,
      "timestamp": "2008-04-03T10:51:33Z",
      "version": 1,
      "changeset": 34668,
      "user": "go4itnow",
      "uid": 17230,
      "tags": {
        "amenity": "parking",
        "created_by": "Potlatch 0.8a"
      }
    },
    {
      "type": "node",
      "id": 271718164,
      "lat": 51.1648074,
      "lon": 4.6202282,
      "timestamp": "2011-05-03T20:49:11Z",
      "version": 3,
      "changeset": 8043712,
      "user": "escada",
      "uid": 436365,
      "tags": {
        "amenity": "bench"
      }
    },
    {
      "type": "node",
      "id": 271718165,
      "lat": 51.1622286,
      "lon": 4.6163772,
      "timestamp": "2011-05-03T20:49:15Z",
      "version": 3,
      "changeset": 8043712,
      "user": "escada",
      "uid": 436365,
      "tags": {
        "amenity": "bench"
      }
    },
    {
      "type": "node",
      "id": 272496132,
      "lat": 51.173857,
      "lon": 4.6367342,
      "timestamp": "2021-01-27T14:24:20Z",
      "version": 2,
      "changeset": 98235487,
      "user": "LethPhaos",
      "uid": 1448599,
      "tags": {
        "amenity": "parking"
      }
    },
    {
      "type": "node",
      "id": 275128293,
      "lat": 51.1591411,
      "lon": 4.613737,
      "timestamp": "2010-12-30T15:13:12Z",
      "version": 2,
      "changeset": 6810484,
      "user": "Toi",
      "uid": 8323,
      "tags": {
        "amenity": "parking"
      }
    },
    {
      "type": "node",
      "id": 278782185,
      "lat": 51.1492435,
      "lon": 4.6209983,
      "timestamp": "2008-07-15T19:12:48Z",
      "version": 1,
      "changeset": 498175,
      "user": "Toi",
      "uid": 8323,
      "tags": {
        "amenity": "parking"
      }
    },
    {
      "type": "node",
      "id": 278782972,
      "lat": 51.1514677,
      "lon": 4.6239211,
      "timestamp": "2010-12-30T15:56:07Z",
      "version": 2,
      "changeset": 6810872,
      "user": "Toi",
      "uid": 8323,
      "tags": {
        "amenity": "parking"
      }
    },
    {
      "type": "node",
      "id": 278782973,
      "lat": 51.1512451,
      "lon": 4.6232983,
      "timestamp": "2010-12-30T15:56:10Z",
      "version": 2,
      "changeset": 6810872,
      "user": "Toi",
      "uid": 8323,
      "tags": {
        "amenity": "parking"
      }
    },
    {
      "type": "node",
      "id": 299921134,
      "lat": 51.1483675,
      "lon": 4.5773235,
      "timestamp": "2016-06-13T09:39:40Z",
      "version": 2,
      "changeset": 39988305,
      "user": "lodde1949",
      "uid": 138772,
      "tags": {
        "amenity": "parking"
      }
    },
    {
      "type": "node",
      "id": 299922380,
      "lat": 51.1510663,
      "lon": 4.6176467,
      "timestamp": "2010-12-30T21:28:04Z",
      "version": 2,
      "changeset": 6814294,
      "user": "Toi",
      "uid": 8323,
      "tags": {
        "amenity": "parking"
      }
    },
    {
      "type": "node",
      "id": 464533565,
      "lat": 51.1374564,
      "lon": 4.6309208,
      "timestamp": "2009-08-13T19:47:42Z",
      "version": 1,
      "changeset": 2135170,
      "user": "Toi",
      "uid": 8323,
      "tags": {
        "amenity": "bench"
      }
    },
    {
      "type": "node",
      "id": 1136526592,
      "lat": 51.1264247,
      "lon": 4.5798979,
      "timestamp": "2011-02-04T23:12:18Z",
      "version": 1,
      "changeset": 7188315,
      "user": "ivom",
      "uid": 10613,
      "tags": {
        "amenity": "bench"
      }
    },
    {
      "type": "node",
      "id": 1136526628,
      "lat": 51.1264267,
      "lon": 4.5799265,
      "timestamp": "2011-02-04T23:12:19Z",
      "version": 1,
      "changeset": 7188315,
      "user": "ivom",
      "uid": 10613,
      "tags": {
        "amenity": "bench"
      }
    },
    {
      "type": "node",
      "id": 1136526654,
      "lat": 51.1264154,
      "lon": 4.5799116,
      "timestamp": "2011-02-04T23:12:21Z",
      "version": 1,
      "changeset": 7188315,
      "user": "ivom",
      "uid": 10613,
      "tags": {
        "amenity": "bench"
      }
    },
    {
      "type": "node",
      "id": 1271485633,
      "lat": 51.1569141,
      "lon": 4.631255,
      "timestamp": "2017-01-09T10:48:46Z",
      "version": 2,
      "changeset": 45023048,
      "user": "philippec",
      "uid": 76884,
      "tags": {
        "amenity": "drinking_water",
        "mapillary": "https://www.mapillary.com/app/?lat=51.157063374729766&lng=4.63112134943072&z=17&pKey=2orkVB0khczGsCezZLs6Rw&focus=photo",
        "opening_hours": "Mar 16-Oct 14"
      }
    },
    {
      "type": "node",
      "id": 1271485835,
      "lat": 51.1592933,
      "lon": 4.6297923,
      "timestamp": "2011-05-03T20:48:50Z",
      "version": 1,
      "changeset": 8043712,
      "user": "escada",
      "uid": 436365,
      "tags": {
        "amenity": "bench"
      }
    },
    {
      "type": "node",
      "id": 1271485861,
      "lat": 51.1615626,
      "lon": 4.6307585,
      "timestamp": "2011-05-03T20:48:51Z",
      "version": 1,
      "changeset": 8043712,
      "user": "escada",
      "uid": 436365,
      "tags": {
        "amenity": "bench"
      }
    },
    {
      "type": "node",
      "id": 1271486152,
      "lat": 51.1597405,
      "lon": 4.6133869,
      "timestamp": "2011-05-03T20:48:58Z",
      "version": 1,
      "changeset": 8043712,
      "user": "escada",
      "uid": 436365,
      "tags": {
        "amenity": "bench"
      }
    },
    {
      "type": "node",
      "id": 1271486243,
      "lat": 51.1578879,
      "lon": 4.6107778,
      "timestamp": "2011-05-03T20:49:00Z",
      "version": 1,
      "changeset": 8043712,
      "user": "escada",
      "uid": 436365,
      "tags": {
        "board_type": "nature",
        "information": "board",
        "tourism": "information"
      }
    },
    {
      "type": "node",
      "id": 1395382816,
      "lat": 51.1571745,
      "lon": 4.6310744,
      "timestamp": "2012-01-19T13:07:57Z",
      "version": 2,
      "changeset": 10437082,
      "user": "Head",
      "uid": 25504,
      "tags": {
        "amenity": "parking",
        "capacity": "40",
        "fee": "no",
        "name": "Parking Kesselse Heide"
      }
    },
    {
      "type": "node",
      "id": 1799251072,
      "lat": 51.1371084,
      "lon": 4.5717004,
      "timestamp": "2017-01-09T10:18:17Z",
      "version": 2,
      "changeset": 45022463,
      "user": "philippec",
      "uid": 76884,
      "tags": {
        "amenity": "drinking_water",
        "mapillary": "https://www.mapillary.com/app/?lat=51.13704924274956&lng=4.571753116871506&z=17&pKey=qqLk3xscORsz3kAajXD_7Q&focus=photo"
      }
    },
    {
      "type": "node",
      "id": 1938210751,
      "lat": 51.1503168,
      "lon": 4.5956057,
      "timestamp": "2012-09-29T16:59:01Z",
      "version": 1,
      "changeset": 13299282,
      "user": "escada",
      "uid": 436365,
      "tags": {
        "board_type": "nature",
        "description": "Welkom in Steenbeemden",
        "information": "board",
        "operator": "Natuurpunt",
        "tourism": "information"
      }
    },
    {
      "type": "node",
      "id": 1995547216,
      "lat": 51.1507666,
      "lon": 4.6263843,
      "timestamp": "2012-11-03T16:15:21Z",
      "version": 1,
      "changeset": 13736133,
      "user": "escada",
      "uid": 436365,
      "tags": {
        "amenity": "bench"
      }
    },
    {
      "type": "node",
      "id": 1995547220,
      "lat": 51.1508196,
      "lon": 4.6264035,
      "timestamp": "2012-11-03T16:15:21Z",
      "version": 1,
      "changeset": 13736133,
      "user": "escada",
      "uid": 436365,
      "tags": {
        "amenity": "bench"
      }
    },
    {
      "type": "node",
      "id": 1995547228,
      "lat": 51.1516266,
      "lon": 4.6264565,
      "timestamp": "2012-11-03T16:15:22Z",
      "version": 1,
      "changeset": 13736133,
      "user": "escada",
      "uid": 436365,
      "tags": {
        "amenity": "bench"
      }
    },
    {
      "type": "node",
      "id": 2007169561,
      "lat": 51.1583935,
      "lon": 4.6374577,
      "timestamp": "2020-07-02T09:06:53Z",
      "version": 2,
      "changeset": 87442525,
      "user": "Rembrandt De Vlaeminck",
      "uid": 504998,
      "tags": {
        "amenity": "bench"
      }
    },
    {
      "type": "node",
      "id": 2007169566,
      "lat": 51.158245,
      "lon": 4.6325507,
      "timestamp": "2012-11-10T21:10:36Z",
      "version": 1,
      "changeset": 13825923,
      "user": "escada",
      "uid": 436365,
      "tags": {
        "amenity": "bench"
      }
    },
    {
      "type": "node",
      "id": 2007169570,
      "lat": 51.1583366,
      "lon": 4.6267209,
      "timestamp": "2012-11-10T21:10:36Z",
      "version": 1,
      "changeset": 13825923,
      "user": "escada",
      "uid": 436365,
      "tags": {
        "amenity": "bench"
      }
    },
    {
      "type": "node",
      "id": 2007169575,
      "lat": 51.1588509,
      "lon": 4.6279922,
      "timestamp": "2012-11-10T21:10:36Z",
      "version": 1,
      "changeset": 13825923,
      "user": "escada",
      "uid": 436365,
      "tags": {
        "amenity": "bench"
      }
    },
    {
      "type": "node",
      "id": 2007169593,
      "lat": 51.159022,
      "lon": 4.6333925,
      "timestamp": "2012-11-10T21:10:36Z",
      "version": 1,
      "changeset": 13825923,
      "user": "escada",
      "uid": 436365,
      "tags": {
        "amenity": "bench"
      }
    },
    {
      "type": "node",
      "id": 2007169602,
      "lat": 51.1599355,
      "lon": 4.6329919,
      "timestamp": "2012-11-10T21:10:36Z",
      "version": 1,
      "changeset": 13825923,
      "user": "escada",
      "uid": 436365,
      "tags": {
        "amenity": "bench"
      }
    },
    {
      "type": "node",
      "id": 2080377607,
      "lat": 51.1583704,
      "lon": 4.6476793,
      "timestamp": "2012-12-23T19:49:04Z",
      "version": 1,
      "changeset": 14382401,
      "user": "escada",
      "uid": 436365,
      "tags": {
        "board_type": "nature",
        "description": "Welkom in het Goor",
        "information": "board",
        "operator": "Natuurpunt",
        "tourism": "information"
      }
    },
    {
      "type": "node",
      "id": 2080377620,
      "lat": 51.1596744,
      "lon": 4.6467775,
      "timestamp": "2012-12-23T19:49:05Z",
      "version": 1,
      "changeset": 14382401,
      "user": "escada",
      "uid": 436365,
      "tags": {
        "amenity": "bench"
      }
    },
    {
      "type": "node",
      "id": 2080500377,
      "lat": 51.1374945,
      "lon": 4.631124,
      "timestamp": "2012-12-23T21:55:43Z",
      "version": 1,
      "changeset": 14383607,
      "user": "escada",
      "uid": 436365,
      "tags": {
        "amenity": "bench"
      }
    },
    {
      "type": "node",
      "id": 2080500379,
      "lat": 51.138521,
      "lon": 4.6291999,
      "timestamp": "2012-12-23T21:55:43Z",
      "version": 1,
      "changeset": 14383607,
      "user": "escada",
      "uid": 436365,
      "tags": {
        "amenity": "bench"
      }
    },
    {
      "type": "node",
      "id": 2080500381,
      "lat": 51.1385509,
      "lon": 4.6291958,
      "timestamp": "2012-12-23T21:55:43Z",
      "version": 1,
      "changeset": 14383607,
      "user": "escada",
      "uid": 436365,
      "tags": {
        "amenity": "bench"
      }
    },
    {
      "type": "node",
      "id": 2080500442,
      "lat": 51.1401502,
      "lon": 4.6360477,
      "timestamp": "2012-12-23T21:55:44Z",
      "version": 1,
      "changeset": 14383607,
      "user": "escada",
      "uid": 436365,
      "tags": {
        "amenity": "bench"
      }
    },
    {
      "type": "node",
      "id": 2120597169,
      "lat": 51.1342156,
      "lon": 4.6307721,
      "timestamp": "2013-01-20T10:53:47Z",
      "version": 1,
      "changeset": 14718282,
      "user": "escada",
      "uid": 436365,
      "tags": {
        "amenity": "bench"
      }
    },
    {
      "type": "node",
      "id": 2337935631,
      "lat": 51.1735731,
      "lon": 4.6195398,
      "timestamp": "2013-06-09T09:14:33Z",
      "version": 1,
      "changeset": 16478428,
      "user": "Brammeke",
      "uid": 51986,
      "tags": {
        "amenity": "parking",
        "parking": "surface"
      }
    },
    {
      "type": "node",
      "id": 2403553049,
      "lat": 51.1281993,
      "lon": 4.5818358,
      "timestamp": "2017-06-07T13:21:21Z",
      "version": 3,
      "changeset": 49336066,
      "user": "philippec",
      "uid": 76884,
      "tags": {
        "amenity": "drinking_water",
        "mapillary": "https://www.mapillary.com/app/?lat=51.12837470937794&lng=4.581958273409445&z=17&pKey=rXBGXPBm7SFRAWLmB0KztA&focus=photo",
        "stateofrepair": "ok"
      }
    },
    {
      "type": "node",
      "id": 3669139502,
      "lat": 51.159345,
      "lon": 4.6409038,
      "timestamp": "2015-07-27T19:14:44Z",
      "version": 1,
      "changeset": 32916644,
      "user": "Joeken",
      "uid": 3081701,
      "tags": {
        "amenity": "bench",
        "backrest": "yes"
      }
    },
    {
      "type": "node",
      "id": 5054492980,
      "lat": 51.159548,
      "lon": 4.6565953,
      "timestamp": "2017-08-23T19:09:25Z",
      "version": 1,
      "changeset": 51385526,
      "user": "yentlvt",
      "uid": 6509508,
      "tags": {
        "leisure": "picnic_table"
      }
    },
    {
      "type": "node",
      "id": 5054516415,
      "lat": 51.1590686,
      "lon": 4.6511572,
      "timestamp": "2017-08-23T19:27:06Z",
      "version": 2,
      "changeset": 51386117,
      "user": "yentlvt",
      "uid": 6509508,
      "tags": {
        "amenity": "bench",
        "backrest": "yes"
      }
    },
    {
      "type": "node",
      "id": 5054516416,
      "lat": 51.1597701,
      "lon": 4.6398824,
      "timestamp": "2017-08-23T19:19:53Z",
      "version": 1,
      "changeset": 51385879,
      "user": "yentlvt",
      "uid": 6509508,
      "tags": {
        "board_type": "nature",
        "information": "board",
        "tourism": "information"
      }
    },
    {
      "type": "node",
      "id": 5381974981,
      "lat": 51.1509023,
      "lon": 4.6261691,
      "timestamp": "2019-02-01T22:56:48Z",
      "version": 2,
      "changeset": 66846439,
      "user": "Zebbyz",
      "uid": 7540436,
      "tags": {
        "board_type": "nature",
        "description": "Information board on local fauna and flora surrounding Kessel Fort.",
        "information": "board",
        "tourism": "information"
      }
    },
    {
      "type": "node",
      "id": 5381974982,
      "lat": 51.1510214,
      "lon": 4.6262324,
      "timestamp": "2019-02-01T22:56:48Z",
      "version": 2,
      "changeset": 66846439,
      "user": "Zebbyz",
      "uid": 7540436,
      "tags": {
        "description": "Large picnic table.",
        "leisure": "picnic_table"
      }
    },
    {
      "type": "node",
      "id": 5383989382,
      "lat": 51.1508623,
      "lon": 4.6263318,
      "timestamp": "2018-02-03T20:00:12Z",
      "version": 1,
      "changeset": 56038492,
      "user": "Zebbyz",
      "uid": 7540436,
      "tags": {
        "board_type": "history",
        "description": "Information sign on Fort history.",
        "information": "board",
        "tourism": "information"
      }
    },
    {
      "type": "node",
      "id": 5384138673,
      "lat": 51.1467579,
      "lon": 4.6206463,
      "timestamp": "2018-02-03T21:20:38Z",
      "version": 1,
      "changeset": 56040111,
      "user": "Zebbyz",
      "uid": 7540436,
      "tags": {
        "amenity": "bench"
      }
    },
    {
      "type": "node",
      "id": 5391068748,
      "lat": 51.1395961,
      "lon": 4.5708682,
      "timestamp": "2018-02-05T22:17:43Z",
      "version": 1,
      "changeset": 56099138,
      "user": "Zebbyz",
      "uid": 7540436,
      "tags": {
        "amenity": "bench"
      }
    },
    {
      "type": "node",
      "id": 5391107253,
      "lat": 51.1510504,
      "lon": 4.6176948,
      "timestamp": "2018-02-05T22:43:57Z",
      "version": 1,
      "changeset": 56099721,
      "user": "Zebbyz",
      "uid": 7540436,
      "tags": {
        "amenity": "bench"
      }
    },
    {
      "type": "node",
      "id": 5391107254,
      "lat": 51.1509811,
      "lon": 4.6178513,
      "timestamp": "2018-02-05T22:43:57Z",
      "version": 1,
      "changeset": 56099721,
      "user": "Zebbyz",
      "uid": 7540436,
      "tags": {
        "board_type": "map",
        "information": "board",
        "tourism": "information"
      }
    },
    {
      "type": "node",
      "id": 5849588478,
      "lat": 51.1343764,
      "lon": 4.6514731,
      "timestamp": "2018-08-22T17:29:11Z",
      "version": 1,
      "changeset": 61896611,
      "user": "koninklijke",
      "uid": 2029979,
      "tags": {
        "amenity": "bench",
        "backrest": "yes",
        "note": "dit is het solide recycle plastic type dat door gemeenten en zo wordt neergezet"
      }
    },
    {
      "type": "node",
      "id": 5952278021,
      "lat": 51.1317227,
      "lon": 4.5753646,
      "timestamp": "2018-10-03T19:21:14Z",
      "version": 1,
      "changeset": 63172002,
      "user": "Traildino",
      "uid": 716637,
      "tags": {
        "amenity": "bench"
      }
    },
    {
      "type": "node",
      "id": 5952278022,
      "lat": 51.13441,
      "lon": 4.5767188,
      "timestamp": "2018-10-03T19:21:14Z",
      "version": 1,
      "changeset": 63172002,
      "user": "Traildino",
      "uid": 716637,
      "tags": {
        "amenity": "bench"
      }
    },
    {
      "type": "node",
      "id": 5952278023,
      "lat": 51.1354006,
      "lon": 4.5755785,
      "timestamp": "2018-10-03T19:21:14Z",
      "version": 1,
      "changeset": 63172002,
      "user": "Traildino",
      "uid": 716637,
      "tags": {
        "amenity": "bench"
      }
    },
    {
      "type": "node",
      "id": 5952278024,
      "lat": 51.1364447,
      "lon": 4.5735697,
      "timestamp": "2018-10-03T19:21:15Z",
      "version": 1,
      "changeset": 63172002,
      "user": "Traildino",
      "uid": 716637,
      "tags": {
        "amenity": "bench"
      }
    },
    {
      "type": "node",
      "id": 5952278025,
      "lat": 51.1451986,
      "lon": 4.5863987,
      "timestamp": "2018-10-03T19:21:15Z",
      "version": 1,
      "changeset": 63172002,
      "user": "Traildino",
      "uid": 716637,
      "tags": {
        "amenity": "bench"
      }
    },
    {
      "type": "node",
      "id": 5952278027,
      "lat": 51.1526818,
      "lon": 4.5965853,
      "timestamp": "2021-01-27T13:49:32Z",
      "version": 2,
      "changeset": 98233936,
      "user": "LethPhaos",
      "uid": 1448599,
      "tags": {
        "amenity": "bench",
        "backrest": "yes",
        "material": "wood"
      }
    },
    {
      "type": "node",
      "id": 5952278028,
      "lat": 51.1482775,
      "lon": 4.5953263,
      "timestamp": "2018-10-03T19:21:15Z",
      "version": 1,
      "changeset": 63172002,
      "user": "Traildino",
      "uid": 716637,
      "tags": {
        "amenity": "bench"
      }
    },
    {
      "type": "node",
      "id": 5952278029,
      "lat": 51.1508618,
      "lon": 4.6034868,
      "timestamp": "2018-10-03T19:21:15Z",
      "version": 1,
      "changeset": 63172002,
      "user": "Traildino",
      "uid": 716637,
      "tags": {
        "amenity": "bench"
      }
    },
    {
      "type": "node",
      "id": 5952278030,
      "lat": 51.1507568,
      "lon": 4.6183593,
      "timestamp": "2018-10-03T19:21:15Z",
      "version": 1,
      "changeset": 63172002,
      "user": "Traildino",
      "uid": 716637,
      "tags": {
        "amenity": "bench"
      }
    },
    {
      "type": "node",
      "id": 5952278031,
      "lat": 51.1522851,
      "lon": 4.6268197,
      "timestamp": "2018-10-03T19:21:15Z",
      "version": 1,
      "changeset": 63172002,
      "user": "Traildino",
      "uid": 716637,
      "tags": {
        "amenity": "bench"
      }
    },
    {
      "type": "node",
      "id": 6252592041,
      "lat": 51.1514365,
      "lon": 4.6238054,
      "timestamp": "2019-02-01T22:56:48Z",
      "version": 1,
      "changeset": 66846439,
      "user": "Zebbyz",
      "uid": 7540436,
      "tags": {
        "amenity": "bench",
        "backrest": "yes"
      }
    },
    {
      "type": "node",
      "id": 7619679285,
      "lat": 51.1606213,
      "lon": 4.6022136,
      "timestamp": "2020-07-09T14:02:28Z",
      "version": 2,
      "changeset": 87769858,
      "user": "philippec",
      "uid": 76884,
      "tags": {
        "amenity": "drinking_water",
        "in_cemetery": "yes"
      }
    },
    {
      "type": "node",
      "id": 7676444619,
      "lat": 51.1612935,
      "lon": 4.6322225,
      "timestamp": "2020-07-02T09:06:53Z",
      "version": 1,
      "changeset": 87442525,
      "user": "Rembrandt De Vlaeminck",
      "uid": 504998,
      "tags": {
        "amenity": "bench"
      }
    },
    {
      "type": "node",
      "id": 7676444620,
      "lat": 51.1587436,
      "lon": 4.6302052,
      "timestamp": "2020-07-02T09:06:53Z",
      "version": 1,
      "changeset": 87442525,
      "user": "Rembrandt De Vlaeminck",
      "uid": 504998,
      "tags": {
        "amenity": "bench"
      }
    },
    {
      "type": "node",
      "id": 7676444621,
      "lat": 51.158873,
      "lon": 4.6311237,
      "timestamp": "2020-07-02T09:06:53Z",
      "version": 1,
      "changeset": 87442525,
      "user": "Rembrandt De Vlaeminck",
      "uid": 504998,
      "tags": {
        "amenity": "bench"
      }
    },
    {
      "type": "node",
      "id": 7676444622,
      "lat": 51.1595914,
      "lon": 4.6317016,
      "timestamp": "2020-07-02T09:06:53Z",
      "version": 1,
      "changeset": 87442525,
      "user": "Rembrandt De Vlaeminck",
      "uid": 504998,
      "tags": {
        "amenity": "bench"
      }
    },
    {
      "type": "node",
      "id": 7676444623,
      "lat": 51.1591513,
      "lon": 4.6320835,
      "timestamp": "2020-07-02T09:06:53Z",
      "version": 1,
      "changeset": 87442525,
      "user": "Rembrandt De Vlaeminck",
      "uid": 504998,
      "tags": {
        "amenity": "bench"
      }
    },
    {
      "type": "node",
      "id": 7676444624,
      "lat": 51.1578633,
      "lon": 4.6320525,
      "timestamp": "2020-07-02T09:06:53Z",
      "version": 1,
      "changeset": 87442525,
      "user": "Rembrandt De Vlaeminck",
      "uid": 504998,
      "tags": {
        "leisure": "picnic_table"
      }
    },
    {
      "type": "node",
      "id": 7676444625,
      "lat": 51.1585882,
      "lon": 4.6297099,
      "timestamp": "2020-07-02T09:06:53Z",
      "version": 1,
      "changeset": 87442525,
      "user": "Rembrandt De Vlaeminck",
      "uid": 504998,
      "tags": {
        "leisure": "picnic_table"
      }
    },
    {
      "type": "node",
      "id": 7676444626,
      "lat": 51.1594879,
      "lon": 4.630649,
      "timestamp": "2020-07-02T09:06:53Z",
      "version": 1,
      "changeset": 87442525,
      "user": "Rembrandt De Vlaeminck",
      "uid": 504998,
      "tags": {
        "leisure": "picnic_table"
      }
    },
    {
      "type": "node",
      "id": 7676444627,
      "lat": 51.1598244,
      "lon": 4.6314952,
      "timestamp": "2020-07-02T09:06:53Z",
      "version": 1,
      "changeset": 87442525,
      "user": "Rembrandt De Vlaeminck",
      "uid": 504998,
      "tags": {
        "leisure": "picnic_table"
      }
    },
    {
      "type": "node",
      "id": 7676444628,
      "lat": 51.1629568,
      "lon": 4.6341165,
      "timestamp": "2020-07-02T09:06:53Z",
      "version": 1,
      "changeset": 87442525,
      "user": "Rembrandt De Vlaeminck",
      "uid": 504998,
      "tags": {
        "amenity": "bench"
      }
    },
    {
      "type": "node",
      "id": 7676444629,
      "lat": 51.163701,
      "lon": 4.6361495,
      "timestamp": "2020-07-02T09:06:53Z",
      "version": 1,
      "changeset": 87442525,
      "user": "Rembrandt De Vlaeminck",
      "uid": 504998,
      "tags": {
        "amenity": "bench"
      }
    },
    {
      "type": "node",
      "id": 7676444630,
      "lat": 51.1643547,
      "lon": 4.6392661,
      "timestamp": "2020-07-02T09:06:53Z",
      "version": 1,
      "changeset": 87442525,
      "user": "Rembrandt De Vlaeminck",
      "uid": 504998,
      "tags": {
        "amenity": "bench"
      }
    },
    {
      "type": "node",
      "id": 7676444631,
      "lat": 51.1590348,
      "lon": 4.6388843,
      "timestamp": "2020-07-02T09:06:53Z",
      "version": 1,
      "changeset": 87442525,
      "user": "Rembrandt De Vlaeminck",
      "uid": 504998,
      "tags": {
        "amenity": "bench"
      }
    },
    {
      "type": "node",
      "id": 7676444632,
      "lat": 51.1581675,
      "lon": 4.6388224,
      "timestamp": "2020-07-02T09:06:53Z",
      "version": 1,
      "changeset": 87442525,
      "user": "Rembrandt De Vlaeminck",
      "uid": 504998,
      "tags": {
        "amenity": "bench"
      }
    },
    {
      "type": "node",
      "id": 7676444633,
      "lat": 51.1589183,
      "lon": 4.638038,
      "timestamp": "2020-07-02T09:06:53Z",
      "version": 1,
      "changeset": 87442525,
      "user": "Rembrandt De Vlaeminck",
      "uid": 504998,
      "tags": {
        "amenity": "bench"
      }
    },
    {
      "type": "node",
      "id": 7676444634,
      "lat": 51.1584588,
      "lon": 4.6362424,
      "timestamp": "2020-07-02T09:06:53Z",
      "version": 1,
      "changeset": 87442525,
      "user": "Rembrandt De Vlaeminck",
      "uid": 504998,
      "tags": {
        "amenity": "bench"
      }
    },
    {
      "type": "node",
      "id": 7676444635,
      "lat": 51.1582711,
      "lon": 4.6358193,
      "timestamp": "2020-07-02T09:06:53Z",
      "version": 1,
      "changeset": 87442525,
      "user": "Rembrandt De Vlaeminck",
      "uid": 504998,
      "tags": {
        "leisure": "picnic_table"
      }
    },
    {
      "type": "node",
      "id": 7884678719,
      "lat": 51.1441712,
      "lon": 4.5768447,
      "timestamp": "2020-09-07T18:02:34Z",
      "version": 1,
      "changeset": 90544316,
      "user": "Jakka",
      "uid": 2403313,
      "tags": {
        "amenity": "bench"
      }
    },
    {
      "type": "node",
      "id": 7884678720,
      "lat": 51.1441129,
      "lon": 4.5767857,
      "timestamp": "2020-09-07T18:02:34Z",
      "version": 1,
      "changeset": 90544316,
      "user": "Jakka",
      "uid": 2403313,
      "tags": {
        "amenity": "bench"
      }
    },
    {
      "type": "node",
      "id": 8264971054,
      "lat": 51.1767455,
      "lon": 4.6514138,
      "timestamp": "2020-12-27T19:51:04Z",
      "version": 1,
      "changeset": 96496773,
      "user": "Stinus_Clasius",
      "uid": 1086503,
      "tags": {
        "amenity": "bench",
        "backrest": "yes",
        "colour": "grey",
        "material": "plastic",
        "seats": "4"
      }
    },
    {
      "type": "node",
      "id": 8264971057,
      "lat": 51.1752075,
      "lon": 4.6479575,
      "timestamp": "2020-12-27T19:51:04Z",
      "version": 1,
      "changeset": 96496773,
      "user": "Stinus_Clasius",
      "uid": 1086503,
      "tags": {
        "amenity": "bench",
        "backrest": "yes",
        "colour": "grey",
        "material": "plastic",
        "seats": "4"
      }
    },
    {
      "type": "node",
      "id": 8264971059,
      "lat": 51.1752123,
      "lon": 4.642214,
      "timestamp": "2020-12-27T19:51:04Z",
      "version": 1,
      "changeset": 96496773,
      "user": "Stinus_Clasius",
      "uid": 1086503,
      "tags": {
        "amenity": "bench",
        "backrest": "yes",
        "colour": "grey",
        "material": "plastic",
        "seats": "4"
      }
    },
    {
      "type": "node",
      "id": 8367507762,
      "lat": 51.1557461,
      "lon": 4.6065712,
      "timestamp": "2021-01-27T13:49:32Z",
      "version": 1,
      "changeset": 98233936,
      "user": "LethPhaos",
      "uid": 1448599,
      "tags": {
        "amenity": "bench",
        "backrest": "yes",
        "material": "wood"
      }
    },
    {
      "type": "node",
      "id": 8367706858,
      "lat": 51.1275156,
      "lon": 4.6495666,
      "timestamp": "2021-01-27T14:57:13Z",
      "version": 1,
      "changeset": 98236966,
      "user": "LethPhaos",
      "uid": 1448599,
      "tags": {
        "amenity": "parking",
        "parking": "surface",
        "surface": "ground"
      }
    },
    {
      "type": "node",
      "id": 8367723154,
      "lat": 51.1270156,
      "lon": 4.6485705,
      "timestamp": "2021-01-27T14:57:53Z",
      "version": 1,
      "changeset": 98236998,
      "user": "LethPhaos",
      "uid": 1448599,
      "tags": {
        "amenity": "parking",
        "parking": "surface"
      }
    },
    {
      "type": "node",
      "id": 8479305644,
      "lat": 51.1267283,
      "lon": 4.5722141,
      "timestamp": "2021-03-02T14:51:23Z",
      "version": 1,
      "changeset": 100287908,
      "user": "sh85",
      "uid": 1721850,
      "tags": {
        "leisure": "picnic_table"
      }
    },
    {
      "type": "node",
      "id": 8479305645,
      "lat": 51.1266963,
      "lon": 4.5722511,
      "timestamp": "2021-03-02T14:51:23Z",
      "version": 1,
      "changeset": 100287908,
      "user": "sh85",
      "uid": 1721850,
      "tags": {
        "leisure": "picnic_table"
      }
    },
    {
      "type": "node",
      "id": 8479305646,
      "lat": 51.126665,
      "lon": 4.572269,
      "timestamp": "2021-03-02T14:51:23Z",
      "version": 1,
      "changeset": 100287908,
      "user": "sh85",
      "uid": 1721850,
      "tags": {
        "leisure": "picnic_table"
      }
    },
    {
      "type": "node",
      "id": 8479305648,
      "lat": 51.1309026,
      "lon": 4.572358,
      "timestamp": "2021-03-02T14:51:23Z",
      "version": 1,
      "changeset": 100287908,
      "user": "sh85",
      "uid": 1721850,
      "tags": {
        "amenity": "bench"
      }
    },
    {
      "type": "node",
      "id": 8479305649,
      "lat": 51.1309635,
      "lon": 4.5721653,
      "timestamp": "2021-03-02T14:51:23Z",
      "version": 1,
      "changeset": 100287908,
      "user": "sh85",
      "uid": 1721850,
      "tags": {
        "amenity": "bench"
      }
    },
    {
      "type": "node",
      "id": 8479305662,
      "lat": 51.1340032,
      "lon": 4.5771902,
      "timestamp": "2021-03-02T14:51:23Z",
      "version": 1,
      "changeset": 100287908,
      "user": "sh85",
      "uid": 1721850,
      "tags": {
        "amenity": "bench"
      }
    },
    {
      "type": "node",
      "id": 8479305681,
      "lat": 51.1378524,
      "lon": 4.5748777,
      "timestamp": "2021-03-02T14:51:23Z",
      "version": 1,
      "changeset": 100287908,
      "user": "sh85",
      "uid": 1721850,
      "tags": {
        "amenity": "bench"
      }
    },
    {
      "type": "node",
      "id": 8479305684,
      "lat": 51.1359341,
      "lon": 4.5795507,
      "timestamp": "2021-03-02T14:51:23Z",
      "version": 1,
      "changeset": 100287908,
      "user": "sh85",
      "uid": 1721850,
      "tags": {
        "amenity": "bench"
      }
    },
    {
      "type": "node",
      "id": 8536247067,
      "lat": 51.1372874,
      "lon": 4.5705372,
      "timestamp": "2021-03-19T09:58:52Z",
      "version": 1,
      "changeset": 101317267,
      "user": "sh85",
      "uid": 1721850,
      "tags": {
        "amenity": "bench"
      }
    },
    {
      "type": "node",
      "id": 8631072289,
      "lat": 51.1335788,
      "lon": 4.5825772,
      "timestamp": "2021-04-15T06:28:38Z",
      "version": 1,
      "changeset": 102969197,
      "user": "sh85",
      "uid": 1721850,
      "tags": {
        "information": "board",
        "operator": "Natuurpunt",
        "tourism": "information"
      }
    },
    {
      "type": "node",
      "id": 8637967544,
      "lat": 51.1619081,
      "lon": 4.610308,
      "timestamp": "2021-04-17T14:02:34Z",
      "version": 1,
      "changeset": 103104669,
      "user": "staf",
      "uid": 377797,
      "tags": {
        "amenity": "bench",
        "backrest": "yes"
      }
    },
    {
      "type": "node",
      "id": 8637995975,
      "lat": 51.1629837,
      "lon": 4.6068283,
      "timestamp": "2021-04-17T14:09:52Z",
      "version": 1,
      "changeset": 103104927,
      "user": "staf",
      "uid": 377797,
      "tags": {
        "amenity": "bench",
        "backrest": "yes"
      }
    },
    {
      "type": "node",
      "id": 8756017685,
      "lat": 51.1622909,
      "lon": 4.6155511,
      "timestamp": "2021-05-22T17:50:38Z",
      "version": 1,
      "changeset": 105142272,
      "user": "Stinus_Clasius",
      "uid": 1086503,
      "tags": {
        "amenity": "bench",
        "backrest": "yes",
        "direction": "120",
        "material": "plastic",
        "seats": "4"
      }
    },
    {
      "type": "node",
      "id": 8756072226,
      "lat": 51.160099,
      "lon": 4.5992596,
      "timestamp": "2021-05-22T18:13:00Z",
      "version": 1,
      "changeset": 105142933,
      "user": "Stinus_Clasius",
      "uid": 1086503,
      "tags": {
        "amenity": "bench",
        "backrest": "yes",
        "direction": "260",
        "material": "plastic",
        "seats": "4"
      }
    },
    {
      "type": "node",
      "id": 9258466322,
      "lat": 51.1446402,
      "lon": 4.5876905,
      "timestamp": "2021-11-16T22:01:20Z",
      "version": 1,
      "changeset": 113871399,
      "user": "Dampee",
      "uid": 2175714,
      "tags": {
        "amenity": "bench",
        "backrest": "yes"
      }
    },
    {
      "type": "way",
      "id": 23422321,
      "timestamp": "2019-11-15T20:30:14Z",
      "version": 6,
      "changeset": 77146318,
      "user": "Mr_Johny_Lier",
      "uid": 5209815,
      "nodes": [
        253626836,
        1037320184,
        5345607728,
        5345607727,
        5345607726,
        6981425605,
        6981425606,
        6981425607,
        5345607725,
        5345607724,
        1037320125,
        253626832,
        6981425608,
        6981425609,
        253626834,
        253626836
      ],
      "tags": {
        "amenity": "parking",
        "name": "SION1"
      }
    },
    {
      "type": "way",
      "id": 23584146,
      "timestamp": "2011-12-09T16:58:10Z",
      "version": 9,
      "changeset": 10074535,
      "user": "lodde1949",
      "uid": 138772,
      "nodes": [
        255390620,
        1538401812,
        325825095,
        1538401801,
        1538401788,
        255390621,
        255390622,
        325825114,
        1538401800,
        325825124,
        1538401802,
        1538401816,
        1538401818,
        1538401820,
        1538401823,
        325825133,
        255390623,
        255390624,
        255390620
      ],
      "tags": {
        "amenity": "parking"
      }
    },
    {
      "type": "way",
      "id": 23607467,
      "timestamp": "2020-09-21T23:06:59Z",
      "version": 30,
      "changeset": 91252612,
      "user": "stijneman",
      "uid": 289401,
      "nodes": [
        255679546,
        255679547,
        255679548,
        4264171746,
        4264171765,
        4264171768,
        255679549,
        4264171773,
        1038115310,
        255755401,
        4264171799,
        1038115498,
        255679545,
        4264171781,
        1038115686,
        253342085,
        255679546
      ],
      "tags": {
        "access": "yes",
        "amenity": "parking",
        "capacity": "120",
        "name": "Wallehof"
      }
    },
    {
      "type": "way",
      "id": 23657876,
      "timestamp": "2018-06-29T01:13:10Z",
      "version": 7,
      "changeset": 60263193,
      "user": "Ronnie Nys",
      "uid": 2479598,
      "nodes": [
        256322940,
        256322941,
        1131088917,
        256322942,
        256322943,
        256322944,
        256322945,
        1043322065,
        1043327008,
        1043326539,
        1043324461,
        1043327230,
        256322946,
        1544638482,
        1043325670,
        1043325093,
        1043322723,
        1043325582,
        1043323236,
        1043322546,
        1043327177,
        1043323940,
        1043321423,
        256322947,
        1043326085,
        256322940
      ],
      "tags": {
        "amenity": "parking",
        "capacity": "423",
        "fee": "no",
        "parking": "surface"
      }
    },
    {
      "type": "way",
      "id": 25501162,
      "timestamp": "2021-11-22T12:31:35Z",
      "version": 2,
      "changeset": 114096855,
      "user": "Jakka",
      "uid": 2403313,
      "nodes": [
        275200383,
        275200381,
        277872136,
        277872137,
        275200383
      ],
      "tags": {
        "amenity": "parking"
      }
    },
    {
      "type": "way",
      "id": 41871872,
      "timestamp": "2021-05-22T18:13:00Z",
      "version": 3,
      "changeset": 105142933,
      "user": "Stinus_Clasius",
      "uid": 1086503,
      "nodes": [
        517874320,
        1072718142,
        1072717976,
        517874334,
        517874325,
        517874321,
        8756072227,
        517874320
      ],
      "tags": {
        "amenity": "parking"
      }
    },
    {
      "type": "way",
      "id": 59077030,
      "timestamp": "2010-12-16T10:46:56Z",
      "version": 2,
      "changeset": 6675372,
      "user": "lodde1949",
      "uid": 138772,
      "nodes": [
        732231021,
        732230981,
        732230766,
        1040962583,
        732231305,
        732231272,
        732231073,
        732230855,
        1040962777,
        732230652,
        732231203,
        732230968,
        732230742,
        732230566,
        732231021
      ],
      "tags": {
        "amenity": "parking"
      }
    },
    {
      "type": "way",
      "id": 75873766,
      "timestamp": "2018-06-29T01:13:10Z",
      "version": 4,
      "changeset": 60263193,
      "user": "Ronnie Nys",
      "uid": 2479598,
      "nodes": [
        1036060082,
        895648713,
        895648715,
        1545702903,
        895648717,
        1036060082
      ],
      "tags": {
        "amenity": "parking",
        "capacity": "90",
        "name": "Zaat"
      }
    },
    {
      "type": "way",
      "id": 88789197,
      "timestamp": "2010-12-10T06:59:59Z",
      "version": 1,
      "changeset": 6602390,
      "user": "Toi",
      "uid": 8323,
      "nodes": [
        1030434159,
        1030434125,
        1030434068,
        1030434154,
        1030434077,
        1030434082,
        1030434159
      ],
      "tags": {
        "amenity": "parking",
        "parking": "surface"
      }
    },
    {
      "type": "way",
      "id": 92416791,
      "timestamp": "2021-10-22T09:21:09Z",
      "version": 3,
      "changeset": 112828624,
      "user": "Rembrandt De Vlaeminck",
      "uid": 504998,
      "nodes": [
        275129681,
        275129680,
        1072812006,
        1271486198,
        275129684,
        5381963119,
        275129682,
        1271486172,
        1072811999,
        1072811991,
        275129681
      ],
      "tags": {
        "amenity": "parking"
      }
    },
    {
      "type": "way",
      "id": 92419714,
      "timestamp": "2010-12-30T21:10:21Z",
      "version": 3,
      "changeset": 6814111,
      "user": "Toi",
      "uid": 8323,
      "nodes": [
        1072625074,
        1072625090,
        1072625063,
        475365541,
        1072625070,
        475365542,
        1073811618,
        1073048917,
        1072625077,
        1072625051,
        1072625096,
        1072625074
      ],
      "tags": {
        "amenity": "parking"
      }
    },
    {
      "type": "way",
      "id": 116920142,
      "timestamp": "2011-06-09T10:34:43Z",
      "version": 1,
      "changeset": 8387194,
      "user": "Toi",
      "uid": 8323,
      "nodes": [
        1317052377,
        1317052390,
        1317052387,
        1317052383,
        1317052398,
        1317052396,
        1317052393,
        1317052388,
        1317052386,
        1317052397,
        1317052379,
        1107432114,
        1107432144,
        1107432170,
        1107432135,
        1317052385,
        1317052382,
        1317052377
      ],
      "tags": {
        "amenity": "parking",
        "parking": "surface"
      }
    },
    {
      "type": "way",
      "id": 138730120,
      "timestamp": "2011-11-28T15:14:07Z",
      "version": 1,
      "changeset": 9978684,
      "user": "lodde1949",
      "uid": 138772,
      "nodes": [
        523381814,
        1521244395,
        1521244357,
        1036554261,
        1036554372,
        1036554137,
        1036554473,
        1036554292,
        1036554577,
        1036554394,
        523381805,
        523381814
      ],
      "tags": {
        "amenity": "parking",
        "parking": "surface"
      }
    },
    {
      "type": "way",
      "id": 138730182,
      "timestamp": "2011-11-28T15:14:13Z",
      "version": 1,
      "changeset": 9978684,
      "user": "lodde1949",
      "uid": 138772,
      "nodes": [
        1114022823,
        1521244373,
        1521244413,
        1521244451,
        1114022823
      ],
      "tags": {
        "amenity": "parking",
        "parking": "surface"
      }
    },
    {
      "type": "way",
      "id": 138744265,
      "timestamp": "2012-12-23T21:56:30Z",
      "version": 2,
      "changeset": 14383607,
      "user": "escada",
      "uid": 436365,
      "nodes": [
        1521407456,
        1521407454,
        1521407431,
        1521407437,
        1521407446,
        1521407439,
        1521407442,
        1521407444,
        1521407449,
        1521407452,
        1521407456
      ],
      "tags": {
        "amenity": "parking",
        "capacity:disabled": "4",
        "parking": "surface"
      }
    },
    {
      "type": "way",
      "id": 140411861,
      "timestamp": "2011-12-09T16:58:08Z",
      "version": 1,
      "changeset": 10074535,
      "user": "lodde1949",
      "uid": 138772,
      "nodes": [
        1538401774,
        1538401775,
        1538401764,
        1538401760,
        1538401765,
        1538401767,
        1538401770,
        1538401772,
        1538401774
      ],
      "tags": {
        "amenity": "parking",
        "parking": "surface"
      }
    },
    {
      "type": "way",
      "id": 155406375,
      "timestamp": "2017-08-23T19:19:53Z",
      "version": 2,
      "changeset": 51385879,
      "user": "yentlvt",
      "uid": 6509508,
      "nodes": [
        1678025278,
        1678025236,
        1678025279,
        1678025280,
        1678025278
      ],
      "tags": {
        "access": "customers",
        "amenity": "parking",
        "parking": "surface"
      }
    },
    {
      "type": "way",
      "id": 155408236,
      "timestamp": "2012-03-17T09:04:24Z",
      "version": 1,
      "changeset": 11005707,
      "user": "Toi",
      "uid": 8323,
      "nodes": [
        1678035864,
        1678035860,
        1678035858,
        1678035861,
        1678035864
      ],
      "tags": {
        "amenity": "parking",
        "parking": "surface"
      }
    },
    {
      "type": "way",
      "id": 155408237,
      "timestamp": "2012-03-17T09:04:25Z",
      "version": 1,
      "changeset": 11005707,
      "user": "Toi",
      "uid": 8323,
      "nodes": [
        1072642952,
        1072642972,
        1072642963,
        1072642959,
        1072642952
      ],
      "tags": {
        "amenity": "parking",
        "parking": "surface"
      }
    },
    {
      "type": "way",
      "id": 160003115,
      "timestamp": "2021-03-18T14:33:02Z",
      "version": 2,
      "changeset": 101267352,
      "user": "sh85",
      "uid": 1721850,
      "nodes": [
        1720672007,
        1720672050,
        1720671999,
        1720672003,
        1720671993,
        1720672048,
        1720672007
      ],
      "tags": {
        "amenity": "parking"
      }
    },
    {
      "type": "way",
      "id": 189029216,
      "timestamp": "2012-11-04T10:15:56Z",
      "version": 1,
      "changeset": 13744357,
      "user": "escada",
      "uid": 436365,
      "nodes": [
        1996755940,
        1996755942,
        1996755941,
        1996755938,
        1996755940
      ],
      "tags": {
        "amenity": "parking",
        "fee": "no",
        "parking": "surface"
      }
    },
    {
      "type": "way",
      "id": 192121052,
      "timestamp": "2012-11-22T19:30:03Z",
      "version": 1,
      "changeset": 13989885,
      "user": "Toi",
      "uid": 8323,
      "nodes": [
        2026821280,
        2026821278,
        2026821277,
        2026821279,
        2026821280
      ],
      "tags": {
        "amenity": "parking"
      }
    },
    {
      "type": "way",
      "id": 197841229,
      "timestamp": "2021-10-22T12:10:31Z",
      "version": 3,
      "changeset": 112835511,
      "user": "Rembrandt De Vlaeminck",
      "uid": 504998,
      "nodes": [
        2080377605,
        2080377600,
        2080377598,
        2080377596,
        9193044058,
        2080377624,
        1072917913,
        1072917863,
        9193044051,
        9193044053,
        9193044055,
        475365566,
        475365567,
        1014875738,
        1014875749,
        1073221117,
        2080377605
      ],
      "tags": {
        "landuse": "forest",
        "leisure": "nature_reserve",
        "name": "Goor",
        "natural": "wood",
        "operator": "Natuurpunt"
      }
    },
    {
      "type": "way",
      "id": 224952832,
      "timestamp": "2013-06-09T12:52:39Z",
      "version": 2,
      "changeset": 16481560,
      "user": "Brammeke",
      "uid": 51986,
      "nodes": [
        2337935618,
        2337935608,
        2337935610,
        2337935614,
        2337935618
      ],
      "tags": {
        "amenity": "parking",
        "capacity": "100",
        "name": "Campus Vesta",
        "parking": "surface"
      }
    },
    {
      "type": "way",
      "id": 228266006,
      "timestamp": "2013-07-01T18:59:03Z",
      "version": 1,
      "changeset": 16781767,
      "user": "D!zzy",
      "uid": 586389,
      "nodes": [
        2369124407,
        2369124399,
        2369124364,
        2369124280,
        2369124296,
        2369124320,
        2369124355,
        2369124373,
        2369124351,
        2369124376,
        2369124407
      ],
      "tags": {
        "amenity": "parking"
      }
    },
    {
      "type": "way",
      "id": 228266009,
      "timestamp": "2013-07-01T18:59:03Z",
      "version": 1,
      "changeset": 16781767,
      "user": "D!zzy",
      "uid": 586389,
      "nodes": [
        2369124345,
        2369124323,
        2369124229,
        2369124219,
        2369124300,
        2369124345
      ],
      "tags": {
        "amenity": "parking"
      }
    },
    {
      "type": "way",
      "id": 231099870,
      "timestamp": "2013-07-24T13:56:59Z",
      "version": 1,
      "changeset": 17075863,
      "user": "D!zzy",
      "uid": 586389,
      "nodes": [
        2395068317,
        2395068316,
        2395068314,
        2395068315,
        2395068317
      ],
      "tags": {
        "amenity": "parking"
      }
    },
    {
      "type": "way",
      "id": 231099871,
      "timestamp": "2018-02-05T22:22:00Z",
      "version": 2,
      "changeset": 56099232,
      "user": "Zebbyz",
      "uid": 7540436,
      "nodes": [
        2395068311,
        5391073033,
        5391073039,
        5391073034,
        5391073038,
        5391073037,
        5391073036,
        5391073035,
        2395068313,
        2395068312,
        2395068308,
        2395068307,
        2395068310,
        2395068309,
        2395068311
      ],
      "tags": {
        "amenity": "parking"
      }
    },
    {
      "type": "way",
      "id": 239724957,
      "timestamp": "2020-10-17T20:39:49Z",
      "version": 3,
      "changeset": 92641517,
      "user": "Stinus_Clasius",
      "uid": 1086503,
      "nodes": [
        2475015438,
        2475015444,
        1037443370,
        2475015434,
        1535233278,
        8017372963,
        2475015416,
        8017372964,
        8017372966,
        2475015438
      ],
      "tags": {
        "amenity": "parking",
        "capacity": "135",
        "fee": "yes",
        "name": "KTA - Spui"
      }
    },
    {
      "type": "way",
      "id": 437714322,
      "timestamp": "2016-08-18T06:56:28Z",
      "version": 1,
      "changeset": 41527481,
      "user": "Jakka",
      "uid": 2403313,
      "nodes": [
        4355095977,
        4355095976,
        4355095971,
        4355095972,
        4355095977
      ],
      "tags": {
        "amenity": "parking"
      }
    },
    {
      "type": "way",
      "id": 437714486,
      "timestamp": "2018-01-28T20:57:28Z",
      "version": 2,
      "changeset": 55841167,
      "user": "koninklijke",
      "uid": 2029979,
      "nodes": [
        4355097149,
        4355097153,
        4355097150,
        4355097152,
        4355097146,
        4355097145,
        4355097144,
        4355097143,
        4355097140,
        4355097139,
        4355097138,
        4355097135,
        4355097137,
        4355097142,
        4355097148,
        4355097149
      ],
      "tags": {
        "amenity": "parking"
      }
    },
    {
      "type": "way",
      "id": 462164774,
      "timestamp": "2016-12-27T17:15:55Z",
      "version": 1,
      "changeset": 44711312,
      "user": "escada",
      "uid": 436365,
      "nodes": [
        4575676317,
        4575676316,
        4575676315,
        4575676314,
        4575676317
      ],
      "tags": {
        "amenity": "parking",
        "parking": "surface"
      }
    },
    {
      "type": "way",
      "id": 488812881,
      "timestamp": "2017-04-23T08:25:50Z",
      "version": 1,
      "changeset": 48053318,
      "user": "koninklijke",
      "uid": 2029979,
      "nodes": [
        4811029761,
        4811029762,
        4811029763,
        4811029764,
        4811029765,
        4811029766,
        4811029767,
        4811029768,
        4811029769,
        4811029770,
        4811029771,
        4811029761
      ],
      "tags": {
        "addr:city": "Lier",
        "addr:street": "Spekkestraat",
        "amenity": "parking",
        "capacity": "30",
        "park_ride": "no",
        "supervised": "no"
      }
    },
    {
      "type": "way",
      "id": 489225604,
      "timestamp": "2017-12-20T10:22:55Z",
      "version": 2,
      "changeset": 54782372,
      "user": "lodde1949",
      "uid": 138772,
      "nodes": [
        4814958692,
        4814958693,
        4814958694,
        4814958695,
        5295405211,
        5295405210,
        5295405212,
        5295405213,
        4814958692
      ],
      "tags": {
        "amenity": "parking"
      }
    },
    {
      "type": "way",
      "id": 529582537,
      "timestamp": "2017-10-03T01:16:10Z",
      "version": 1,
      "changeset": 52581995,
      "user": "wesleyvc",
      "uid": 5492501,
      "nodes": [
        5144178265,
        5144178272,
        5144178271,
        5144178266,
        5144178267,
        5144178268,
        5144178265
      ],
      "tags": {
        "amenity": "parking"
      }
    },
    {
      "type": "way",
      "id": 664931896,
      "timestamp": "2019-01-20T23:28:53Z",
      "version": 1,
      "changeset": 66488274,
      "user": "koninklijke",
      "uid": 2029979,
      "nodes": [
        6223798942,
        6223798943,
        6223798944,
        6223798945,
        6223798946,
        6223798947,
        6223798948,
        6223798942
      ],
      "tags": {
        "access": "customers",
        "amenity": "parking",
        "capacity": "100",
        "park_ride": "no",
        "parking": "surface",
        "surface": "asphalt"
      }
    },
    {
      "type": "way",
      "id": 697648731,
      "timestamp": "2019-06-16T21:37:23Z",
      "version": 1,
      "changeset": 71310650,
      "user": "koninklijke",
      "uid": 2029979,
      "nodes": [
        6551733439,
        6551733440,
        6551733441,
        6551733442,
        6551733439
      ],
      "tags": {
        "access": "permit",
        "amenity": "parking",
        "area": "yes",
        "capacity": "10",
        "parking": "surface",
        "surface": "paved"
      }
    },
    {
      "type": "way",
      "id": 697648732,
      "timestamp": "2019-06-16T21:37:23Z",
      "version": 1,
      "changeset": 71310650,
      "user": "koninklijke",
      "uid": 2029979,
      "nodes": [
        6551733443,
        6551733444,
        6551733445,
        6551733446,
        6551733447,
        6551733443
      ],
      "tags": {
        "access": "yes",
        "amenity": "parking",
        "capacity": "30",
        "parking": "surface",
        "surface": "paved"
      }
    },
    {
      "type": "way",
      "id": 734153555,
      "timestamp": "2019-10-13T12:57:05Z",
      "version": 1,
      "changeset": 75623262,
      "user": "armando3cd6",
      "uid": 146888,
      "nodes": [
        6875328015,
        6875328016,
        6875328017,
        6875328018,
        6875328019,
        6875328015
      ],
      "tags": {
        "access": "customers",
        "amenity": "parking"
      }
    },
    {
      "type": "way",
      "id": 875813358,
      "timestamp": "2020-11-22T17:14:28Z",
      "version": 1,
      "changeset": 94591233,
      "user": "H4N5-antw",
      "uid": 10846743,
      "nodes": [
        8151669084,
        8151669085,
        8151669086,
        8151669087,
        8151669084
      ],
      "tags": {
        "access": "customers",
        "amenity": "parking",
        "capacity": "90",
        "parking": "surface",
        "surface": "paved"
      }
    },
    {
      "type": "way",
      "id": 912795074,
      "timestamp": "2021-03-02T14:51:23Z",
      "version": 1,
      "changeset": 100287908,
      "user": "sh85",
      "uid": 1721850,
      "nodes": [
        8479305709,
        8479305710,
        1557699810,
        8479305711,
        1116636339,
        8479305713,
        8479305709
      ],
      "tags": {
        "amenity": "parking",
        "parking": "surface",
        "surface": "ground"
      }
    },
    {
      "type": "way",
      "id": 912795078,
      "timestamp": "2021-03-02T14:51:23Z",
      "version": 1,
      "changeset": 100287908,
      "user": "sh85",
      "uid": 1721850,
      "nodes": [
        8479328217,
        8479328218,
        8479328219,
        8479328220,
        8479328221,
        8479328222,
        8479328223,
        8479328224,
        8479328217
      ],
      "tags": {
        "amenity": "parking",
        "surface": "ground"
      }
    },
    {
      "type": "way",
      "id": 912795079,
      "timestamp": "2021-03-02T14:51:23Z",
      "version": 1,
      "changeset": 100287908,
      "user": "sh85",
      "uid": 1721850,
      "nodes": [
        8479328225,
        8479328226,
        8479328227,
        8479328228,
        8479328229,
        8479328230,
        8479328225
      ],
      "tags": {
        "amenity": "parking",
        "surface": "ground"
      }
    },
    {
      "type": "way",
      "id": 913304163,
      "timestamp": "2021-03-03T21:24:13Z",
      "version": 1,
      "changeset": 100375394,
      "user": "Stinus_Clasius",
      "uid": 1086503,
      "nodes": [
        8483937369,
        8483937370,
        8483937371,
        8483937372,
        8483937373,
        8483937374,
        8483937375,
        8483937376,
        8483937369
      ],
      "tags": {
        "amenity": "parking"
      }
    },
    {
      "type": "way",
      "id": 918738183,
      "timestamp": "2021-03-18T14:33:02Z",
      "version": 1,
      "changeset": 101267352,
      "user": "sh85",
      "uid": 1721850,
      "nodes": [
        8532538010,
        8532538011,
        8532538012,
        8532538004,
        8532538003,
        8532538013,
        8532538010
      ],
      "tags": {
        "access": "private",
        "amenity": "parking"
      }
    },
    {
      "type": "way",
      "id": 925847682,
      "timestamp": "2021-04-04T11:31:12Z",
      "version": 1,
      "changeset": 102266717,
      "user": "sh85",
      "uid": 1721850,
      "nodes": [
        8592230439,
        8592230440,
        8592230441,
        8592230442,
        8592230439
      ],
      "tags": {
        "amenity": "parking"
      }
    },
    {
      "type": "way",
      "id": 926281524,
      "timestamp": "2021-04-05T16:25:29Z",
      "version": 2,
      "changeset": 102346850,
      "user": "ponipino",
      "uid": 121976,
      "nodes": [
        8595843218,
        8595843219,
        8595843220,
        8595843221,
        8595843218
      ],
      "tags": {
        "access": "yes",
        "amenity": "parking",
        "fee": "yes",
        "surface": "paved"
      }
    },
    {
      "type": "way",
      "id": 990570587,
      "timestamp": "2021-10-06T20:32:16Z",
      "version": 1,
      "changeset": 112186383,
      "user": "Stinus_Clasius",
      "uid": 1086503,
      "nodes": [
        9153171287,
        1116609075,
        9153171284,
        9153171285,
        9153171287
      ],
      "tags": {
        "access": "customers",
        "amenity": "parking"
      }
    },
    {
      "type": "way",
      "id": 990570588,
      "timestamp": "2021-10-06T20:32:16Z",
      "version": 1,
      "changeset": 112186383,
      "user": "Stinus_Clasius",
      "uid": 1086503,
      "nodes": [
        9153171288,
        9153171289,
        9153171290,
        9153171291,
        9153171292,
        9153171293,
        9153171294,
        9153171295,
        9153171296,
        1546439323,
        1546439324,
        9153171288
      ],
      "tags": {
        "access": "customers",
        "amenity": "parking"
      }
    },
    {
      "type": "way",
      "id": 993491135,
      "timestamp": "2021-10-17T19:11:32Z",
      "version": 1,
      "changeset": 112624332,
      "user": "Stinus_Clasius",
      "uid": 1086503,
      "nodes": [
        9178549497,
        9178549498,
        9178549499,
        9178549500,
        9178549501,
        9178549502,
        9178549503,
        9178549504,
        9178549505,
        9178549506,
        9178549507,
        9178549497
      ],
      "tags": {
        "access": "private",
        "amenity": "parking"
      }
    },
    {
      "type": "way",
      "id": 993491140,
      "timestamp": "2021-10-17T19:11:32Z",
      "version": 1,
      "changeset": 112624332,
      "user": "Stinus_Clasius",
      "uid": 1086503,
      "nodes": [
        9178564918,
        9178564919,
        9178564920,
        9178564921,
        9178564918
      ],
      "tags": {
        "access": "private",
        "amenity": "parking"
      }
    },
    {
      "type": "node",
      "id": 256322940,
      "lat": 51.1260973,
      "lon": 4.5728389
    },
    {
      "type": "node",
      "id": 256322941,
      "lat": 51.1261024,
      "lon": 4.5742419
    },
    {
      "type": "node",
      "id": 256322942,
      "lat": 51.1254527,
      "lon": 4.574263
    },
    {
      "type": "node",
      "id": 256322945,
      "lat": 51.1251273,
      "lon": 4.5740359
    },
    {
      "type": "node",
      "id": 256322946,
      "lat": 51.1255071,
      "lon": 4.5736618
    },
    {
      "type": "node",
      "id": 256322947,
      "lat": 51.125967,
      "lon": 4.5730106
    },
    {
      "type": "node",
      "id": 1030434068,
      "lat": 51.1255152,
      "lon": 4.5719852
    },
    {
      "type": "node",
      "id": 1030434077,
      "lat": 51.1249147,
      "lon": 4.5737297
    },
    {
      "type": "node",
      "id": 1030434082,
      "lat": 51.1253054,
      "lon": 4.5728613
    },
    {
      "type": "node",
      "id": 1030434125,
      "lat": 51.1255887,
      "lon": 4.5720621
    },
    {
      "type": "node",
      "id": 1030434154,
      "lat": 51.124764,
      "lon": 4.5736048
    },
    {
      "type": "node",
      "id": 1030434159,
      "lat": 51.1256369,
      "lon": 4.5724924
    },
    {
      "type": "node",
      "id": 1043321423,
      "lat": 51.125923,
      "lon": 4.5730088
    },
    {
      "type": "node",
      "id": 1043322065,
      "lat": 51.1251647,
      "lon": 4.5738609
    },
    {
      "type": "node",
      "id": 1043322546,
      "lat": 51.1257254,
      "lon": 4.5733952
    },
    {
      "type": "node",
      "id": 1043322723,
      "lat": 51.1255412,
      "lon": 4.5734782
    },
    {
      "type": "node",
      "id": 1043323236,
      "lat": 51.125626,
      "lon": 4.5733963
    },
    {
      "type": "node",
      "id": 1043323940,
      "lat": 51.125923,
      "lon": 4.573477
    },
    {
      "type": "node",
      "id": 1043324461,
      "lat": 51.1254478,
      "lon": 4.5740271
    },
    {
      "type": "node",
      "id": 1043325093,
      "lat": 51.1253991,
      "lon": 4.5732796
    },
    {
      "type": "node",
      "id": 1043325582,
      "lat": 51.1256271,
      "lon": 4.5734882
    },
    {
      "type": "node",
      "id": 1043325670,
      "lat": 51.1253431,
      "lon": 4.5733896
    },
    {
      "type": "node",
      "id": 1043326085,
      "lat": 51.1259527,
      "lon": 4.5728453
    },
    {
      "type": "node",
      "id": 1043326539,
      "lat": 51.1253232,
      "lon": 4.5740658
    },
    {
      "type": "node",
      "id": 1043327008,
      "lat": 51.1253276,
      "lon": 4.5739216
    },
    {
      "type": "node",
      "id": 1043327177,
      "lat": 51.1257227,
      "lon": 4.5735169
    },
    {
      "type": "node",
      "id": 1043327230,
      "lat": 51.1254439,
      "lon": 4.5736585
    },
    {
      "type": "node",
      "id": 1131088917,
      "lat": 51.12586,
      "lon": 4.5742498
    },
    {
      "type": "node",
      "id": 1544638482,
      "lat": 51.125508,
      "lon": 4.5736098
    },
    {
      "type": "node",
      "id": 2369124351,
      "lat": 51.1245978,
      "lon": 4.5741056
    },
    {
      "type": "node",
      "id": 2369124373,
      "lat": 51.1247368,
      "lon": 4.5742811
    },
    {
      "type": "node",
      "id": 2369124376,
      "lat": 51.1247582,
      "lon": 4.5737494
    },
    {
      "type": "node",
      "id": 2369124399,
      "lat": 51.1248448,
      "lon": 4.574034
    },
    {
      "type": "node",
      "id": 2369124407,
      "lat": 51.1249036,
      "lon": 4.5737886
    },
    {
      "type": "node",
      "id": 255390620,
      "lat": 51.128585,
      "lon": 4.5740564
    },
    {
      "type": "node",
      "id": 255390621,
      "lat": 51.1283011,
      "lon": 4.5740707
    },
    {
      "type": "node",
      "id": 325825095,
      "lat": 51.1284547,
      "lon": 4.5739735
    },
    {
      "type": "node",
      "id": 1538401788,
      "lat": 51.1283047,
      "lon": 4.5739977
    },
    {
      "type": "node",
      "id": 1538401801,
      "lat": 51.1283903,
      "lon": 4.5739695
    },
    {
      "type": "node",
      "id": 1538401812,
      "lat": 51.1285214,
      "lon": 4.5739896
    },
    {
      "type": "node",
      "id": 256322943,
      "lat": 51.1253252,
      "lon": 4.5749989
    },
    {
      "type": "node",
      "id": 256322944,
      "lat": 51.1249819,
      "lon": 4.5748677
    },
    {
      "type": "node",
      "id": 1538401760,
      "lat": 51.1267644,
      "lon": 4.5776641
    },
    {
      "type": "node",
      "id": 1538401764,
      "lat": 51.1267795,
      "lon": 4.5772225
    },
    {
      "type": "node",
      "id": 1538401765,
      "lat": 51.1267945,
      "lon": 4.5777409
    },
    {
      "type": "node",
      "id": 1538401767,
      "lat": 51.1268488,
      "lon": 4.5777937
    },
    {
      "type": "node",
      "id": 1538401770,
      "lat": 51.126915,
      "lon": 4.5778297
    },
    {
      "type": "node",
      "id": 1538401772,
      "lat": 51.1270461,
      "lon": 4.5778872
    },
    {
      "type": "node",
      "id": 1538401774,
      "lat": 51.1271409,
      "lon": 4.5778992
    },
    {
      "type": "node",
      "id": 1538401775,
      "lat": 51.1272313,
      "lon": 4.5774361
    },
    {
      "type": "node",
      "id": 2369124219,
      "lat": 51.1240867,
      "lon": 4.5768085
    },
    {
      "type": "node",
      "id": 2369124229,
      "lat": 51.1241165,
      "lon": 4.5768366
    },
    {
      "type": "node",
      "id": 2369124280,
      "lat": 51.1242962,
      "lon": 4.5748502
    },
    {
      "type": "node",
      "id": 2369124296,
      "lat": 51.1243401,
      "lon": 4.5747377
    },
    {
      "type": "node",
      "id": 2369124300,
      "lat": 51.124361,
      "lon": 4.5754457
    },
    {
      "type": "node",
      "id": 2369124320,
      "lat": 51.1244138,
      "lon": 4.5748195
    },
    {
      "type": "node",
      "id": 2369124323,
      "lat": 51.1244311,
      "lon": 4.5762101
    },
    {
      "type": "node",
      "id": 2369124345,
      "lat": 51.1245611,
      "lon": 4.5755162
    },
    {
      "type": "node",
      "id": 2369124355,
      "lat": 51.1246427,
      "lon": 4.5749234
    },
    {
      "type": "node",
      "id": 2369124364,
      "lat": 51.1246812,
      "lon": 4.5750052
    },
    {
      "type": "node",
      "id": 8532538003,
      "lat": 51.1271741,
      "lon": 4.5754001
    },
    {
      "type": "node",
      "id": 8532538004,
      "lat": 51.1271579,
      "lon": 4.5757703
    },
    {
      "type": "node",
      "id": 8532538010,
      "lat": 51.1273366,
      "lon": 4.5753559
    },
    {
      "type": "node",
      "id": 8532538011,
      "lat": 51.127313,
      "lon": 4.5759613
    },
    {
      "type": "node",
      "id": 8532538012,
      "lat": 51.1271439,
      "lon": 4.5759456
    },
    {
      "type": "node",
      "id": 8532538013,
      "lat": 51.1271773,
      "lon": 4.5753243
    },
    {
      "type": "node",
      "id": 1116609075,
      "lat": 51.1261501,
      "lon": 4.5871289
    },
    {
      "type": "node",
      "id": 1546439324,
      "lat": 51.1266097,
      "lon": 4.587517
    },
    {
      "type": "node",
      "id": 9153171285,
      "lat": 51.1266923,
      "lon": 4.5874711
    },
    {
      "type": "node",
      "id": 9153171287,
      "lat": 51.1261597,
      "lon": 4.5870777
    },
    {
      "type": "node",
      "id": 9153171288,
      "lat": 51.1266219,
      "lon": 4.5875176
    },
    {
      "type": "node",
      "id": 255390622,
      "lat": 51.1282887,
      "lon": 4.5759574
    },
    {
      "type": "node",
      "id": 255390623,
      "lat": 51.1286162,
      "lon": 4.576135
    },
    {
      "type": "node",
      "id": 255390624,
      "lat": 51.1285853,
      "lon": 4.575184
    },
    {
      "type": "node",
      "id": 325825114,
      "lat": 51.128335,
      "lon": 4.5762247
    },
    {
      "type": "node",
      "id": 325825124,
      "lat": 51.1283822,
      "lon": 4.5764345
    },
    {
      "type": "node",
      "id": 325825133,
      "lat": 51.1286549,
      "lon": 4.5765042
    },
    {
      "type": "node",
      "id": 1037443370,
      "lat": 51.1326625,
      "lon": 4.5757876
    },
    {
      "type": "node",
      "id": 1535233278,
      "lat": 51.1324419,
      "lon": 4.5757633
    },
    {
      "type": "node",
      "id": 1538401800,
      "lat": 51.128356,
      "lon": 4.5763736
    },
    {
      "type": "node",
      "id": 1538401802,
      "lat": 51.1284263,
      "lon": 4.5765739
    },
    {
      "type": "node",
      "id": 1538401816,
      "lat": 51.1285626,
      "lon": 4.5768114
    },
    {
      "type": "node",
      "id": 1538401818,
      "lat": 51.1286392,
      "lon": 4.5769064
    },
    {
      "type": "node",
      "id": 1538401820,
      "lat": 51.1287361,
      "lon": 4.5769862
    },
    {
      "type": "node",
      "id": 1538401823,
      "lat": 51.1288213,
      "lon": 4.5768199
    },
    {
      "type": "node",
      "id": 1720671993,
      "lat": 51.1285143,
      "lon": 4.5775063
    },
    {
      "type": "node",
      "id": 1720671999,
      "lat": 51.1287685,
      "lon": 4.5773937
    },
    {
      "type": "node",
      "id": 1720672003,
      "lat": 51.1286658,
      "lon": 4.577627
    },
    {
      "type": "node",
      "id": 1720672007,
      "lat": 51.1288712,
      "lon": 4.5772944
    },
    {
      "type": "node",
      "id": 1720672048,
      "lat": 51.1286541,
      "lon": 4.5770986
    },
    {
      "type": "node",
      "id": 1720672050,
      "lat": 51.1287938,
      "lon": 4.5774285
    },
    {
      "type": "node",
      "id": 2475015416,
      "lat": 51.1322039,
      "lon": 4.5755815
    },
    {
      "type": "node",
      "id": 2475015434,
      "lat": 51.1325972,
      "lon": 4.5758758
    },
    {
      "type": "node",
      "id": 2475015438,
      "lat": 51.1327967,
      "lon": 4.5748447
    },
    {
      "type": "node",
      "id": 2475015444,
      "lat": 51.133033,
      "lon": 4.5752873
    },
    {
      "type": "node",
      "id": 8017372963,
      "lat": 51.1323495,
      "lon": 4.5756964
    },
    {
      "type": "node",
      "id": 8017372964,
      "lat": 51.132161,
      "lon": 4.5755089
    },
    {
      "type": "node",
      "id": 8017372966,
      "lat": 51.1327321,
      "lon": 4.5747254
    },
    {
      "type": "node",
      "id": 253626832,
      "lat": 51.1292235,
      "lon": 4.5814405
    },
    {
      "type": "node",
      "id": 253626834,
      "lat": 51.1292602,
      "lon": 4.5812993
    },
    {
      "type": "node",
      "id": 253626836,
      "lat": 51.1288268,
      "lon": 4.5814268
    },
    {
      "type": "node",
      "id": 895648713,
      "lat": 51.1303351,
      "lon": 4.582235
    },
    {
      "type": "node",
      "id": 895648715,
      "lat": 51.1289402,
      "lon": 4.5824718
    },
    {
      "type": "node",
      "id": 895648717,
      "lat": 51.1288253,
      "lon": 4.5822852
    },
    {
      "type": "node",
      "id": 1036060082,
      "lat": 51.1303155,
      "lon": 4.5819544
    },
    {
      "type": "node",
      "id": 1037320125,
      "lat": 51.1291405,
      "lon": 4.5814729
    },
    {
      "type": "node",
      "id": 1037320184,
      "lat": 51.1285511,
      "lon": 4.5815064
    },
    {
      "type": "node",
      "id": 1545702903,
      "lat": 51.1288998,
      "lon": 4.5824392
    },
    {
      "type": "node",
      "id": 5345607724,
      "lat": 51.1291211,
      "lon": 4.5814752
    },
    {
      "type": "node",
      "id": 5345607725,
      "lat": 51.1289392,
      "lon": 4.5815044
    },
    {
      "type": "node",
      "id": 5345607726,
      "lat": 51.1286274,
      "lon": 4.5817144
    },
    {
      "type": "node",
      "id": 5345607727,
      "lat": 51.1286281,
      "lon": 4.5816612
    },
    {
      "type": "node",
      "id": 5345607728,
      "lat": 51.1285489,
      "lon": 4.5816653
    },
    {
      "type": "node",
      "id": 6981425605,
      "lat": 51.1286916,
      "lon": 4.5817025
    },
    {
      "type": "node",
      "id": 6981425606,
      "lat": 51.1286894,
      "lon": 4.5815627
    },
    {
      "type": "node",
      "id": 6981425607,
      "lat": 51.1289051,
      "lon": 4.5815141
    },
    {
      "type": "node",
      "id": 6981425608,
      "lat": 51.129219,
      "lon": 4.5813551
    },
    {
      "type": "node",
      "id": 6981425609,
      "lat": 51.1292639,
      "lon": 4.5813363
    },
    {
      "type": "node",
      "id": 1546439323,
      "lat": 51.1262352,
      "lon": 4.5877386
    },
    {
      "type": "node",
      "id": 4811029761,
      "lat": 51.1251352,
      "lon": 4.5887959
    },
    {
      "type": "node",
      "id": 4811029762,
      "lat": 51.1254107,
      "lon": 4.5882581
    },
    {
      "type": "node",
      "id": 4811029763,
      "lat": 51.1254554,
      "lon": 4.5883263
    },
    {
      "type": "node",
      "id": 4811029764,
      "lat": 51.1254907,
      "lon": 4.5882551
    },
    {
      "type": "node",
      "id": 4811029765,
      "lat": 51.1256489,
      "lon": 4.5883293
    },
    {
      "type": "node",
      "id": 4811029766,
      "lat": 51.1256043,
      "lon": 4.5884083
    },
    {
      "type": "node",
      "id": 4811029767,
      "lat": 51.125546,
      "lon": 4.5883668
    },
    {
      "type": "node",
      "id": 4811029768,
      "lat": 51.1255118,
      "lon": 4.5883609
    },
    {
      "type": "node",
      "id": 4811029769,
      "lat": 51.1255019,
      "lon": 4.5883688
    },
    {
      "type": "node",
      "id": 4811029770,
      "lat": 51.125536,
      "lon": 4.5884103
    },
    {
      "type": "node",
      "id": 4811029771,
      "lat": 51.1252531,
      "lon": 4.5889432
    },
    {
      "type": "node",
      "id": 9153171284,
      "lat": 51.1266979,
      "lon": 4.5875362
    },
    {
      "type": "node",
      "id": 9153171289,
      "lat": 51.1266547,
      "lon": 4.5876598
    },
    {
      "type": "node",
      "id": 9153171290,
      "lat": 51.1261531,
      "lon": 4.5879575
    },
    {
      "type": "node",
      "id": 9153171291,
      "lat": 51.1260655,
      "lon": 4.5880031
    },
    {
      "type": "node",
      "id": 9153171292,
      "lat": 51.1260277,
      "lon": 4.5879428
    },
    {
      "type": "node",
      "id": 9153171293,
      "lat": 51.1260899,
      "lon": 4.5877604
    },
    {
      "type": "node",
      "id": 9153171294,
      "lat": 51.1261101,
      "lon": 4.5877765
    },
    {
      "type": "node",
      "id": 9153171295,
      "lat": 51.1262061,
      "lon": 4.5877295
    },
    {
      "type": "node",
      "id": 9153171296,
      "lat": 51.1262137,
      "lon": 4.5877537
    },
    {
      "type": "node",
      "id": 253342085,
      "lat": 51.135644,
      "lon": 4.5726286
    },
    {
      "type": "node",
      "id": 255679545,
      "lat": 51.1359086,
      "lon": 4.5725771
    },
    {
      "type": "node",
      "id": 255679546,
      "lat": 51.1355139,
      "lon": 4.5725895
    },
    {
      "type": "node",
      "id": 255679547,
      "lat": 51.1353283,
      "lon": 4.5725435
    },
    {
      "type": "node",
      "id": 255679548,
      "lat": 51.1352644,
      "lon": 4.5731344
    },
    {
      "type": "node",
      "id": 255679549,
      "lat": 51.1356722,
      "lon": 4.5733653
    },
    {
      "type": "node",
      "id": 255755401,
      "lat": 51.1358778,
      "lon": 4.5730501
    },
    {
      "type": "node",
      "id": 1038115310,
      "lat": 51.1357635,
      "lon": 4.5732611
    },
    {
      "type": "node",
      "id": 1038115498,
      "lat": 51.1360095,
      "lon": 4.5726108
    },
    {
      "type": "node",
      "id": 1038115686,
      "lat": 51.1357735,
      "lon": 4.5725799
    },
    {
      "type": "node",
      "id": 2395068307,
      "lat": 51.1391711,
      "lon": 4.5722885
    },
    {
      "type": "node",
      "id": 2395068308,
      "lat": 51.1392672,
      "lon": 4.5723465
    },
    {
      "type": "node",
      "id": 2395068309,
      "lat": 51.1393496,
      "lon": 4.5705812
    },
    {
      "type": "node",
      "id": 2395068310,
      "lat": 51.1394618,
      "lon": 4.5712613
    },
    {
      "type": "node",
      "id": 2395068311,
      "lat": 51.1394882,
      "lon": 4.570521
    },
    {
      "type": "node",
      "id": 2395068312,
      "lat": 51.1395832,
      "lon": 4.5712938
    },
    {
      "type": "node",
      "id": 2395068313,
      "lat": 51.1394871,
      "lon": 4.5712197
    },
    {
      "type": "node",
      "id": 2395068314,
      "lat": 51.1397073,
      "lon": 4.5704798
    },
    {
      "type": "node",
      "id": 2395068315,
      "lat": 51.1397727,
      "lon": 4.5702457
    },
    {
      "type": "node",
      "id": 2395068316,
      "lat": 51.1397905,
      "lon": 4.5705389
    },
    {
      "type": "node",
      "id": 2395068317,
      "lat": 51.1398559,
      "lon": 4.5703047
    },
    {
      "type": "node",
      "id": 4264171746,
      "lat": 51.1354729,
      "lon": 4.5732646
    },
    {
      "type": "node",
      "id": 4264171765,
      "lat": 51.1356095,
      "lon": 4.573349
    },
    {
      "type": "node",
      "id": 4264171768,
      "lat": 51.135636,
      "lon": 4.5733614
    },
    {
      "type": "node",
      "id": 4264171773,
      "lat": 51.1357196,
      "lon": 4.5733279
    },
    {
      "type": "node",
      "id": 4264171781,
      "lat": 51.1358603,
      "lon": 4.5725598
    },
    {
      "type": "node",
      "id": 4264171799,
      "lat": 51.1359695,
      "lon": 4.5728875
    },
    {
      "type": "node",
      "id": 5391073033,
      "lat": 51.1394975,
      "lon": 4.5705765
    },
    {
      "type": "node",
      "id": 5391073034,
      "lat": 51.1394706,
      "lon": 4.57066
    },
    {
      "type": "node",
      "id": 5391073035,
      "lat": 51.1395261,
      "lon": 4.5710981
    },
    {
      "type": "node",
      "id": 5391073036,
      "lat": 51.1395255,
      "lon": 4.5710714
    },
    {
      "type": "node",
      "id": 5391073037,
      "lat": 51.1395844,
      "lon": 4.5710427
    },
    {
      "type": "node",
      "id": 5391073038,
      "lat": 51.1395243,
      "lon": 4.5706463
    },
    {
      "type": "node",
      "id": 5391073039,
      "lat": 51.1394836,
      "lon": 4.5706191
    },
    {
      "type": "node",
      "id": 732230968,
      "lat": 51.1432781,
      "lon": 4.573686
    },
    {
      "type": "node",
      "id": 732231203,
      "lat": 51.1430593,
      "lon": 4.5736513
    },
    {
      "type": "node",
      "id": 8592230439,
      "lat": 51.1442012,
      "lon": 4.5708907
    },
    {
      "type": "node",
      "id": 8592230440,
      "lat": 51.1442062,
      "lon": 4.5712496
    },
    {
      "type": "node",
      "id": 8592230441,
      "lat": 51.1441512,
      "lon": 4.5712703
    },
    {
      "type": "node",
      "id": 8592230442,
      "lat": 51.1440041,
      "lon": 4.5708811
    },
    {
      "type": "node",
      "id": 4575676314,
      "lat": 51.1381408,
      "lon": 4.5749628
    },
    {
      "type": "node",
      "id": 4575676315,
      "lat": 51.137998,
      "lon": 4.5750218
    },
    {
      "type": "node",
      "id": 4575676316,
      "lat": 51.137965,
      "lon": 4.5747694
    },
    {
      "type": "node",
      "id": 4575676317,
      "lat": 51.1381103,
      "lon": 4.5747258
    },
    {
      "type": "node",
      "id": 1116636339,
      "lat": 51.1409709,
      "lon": 4.5838321
    },
    {
      "type": "node",
      "id": 1557699810,
      "lat": 51.1408736,
      "lon": 4.5846834
    },
    {
      "type": "node",
      "id": 8479305711,
      "lat": 51.1407595,
      "lon": 4.5839251
    },
    {
      "type": "node",
      "id": 732230566,
      "lat": 51.1437088,
      "lon": 4.5750175
    },
    {
      "type": "node",
      "id": 732230652,
      "lat": 51.1430532,
      "lon": 4.5751564
    },
    {
      "type": "node",
      "id": 732230742,
      "lat": 51.1435527,
      "lon": 4.5747357
    },
    {
      "type": "node",
      "id": 732230766,
      "lat": 51.1434361,
      "lon": 4.5751752
    },
    {
      "type": "node",
      "id": 732230855,
      "lat": 51.1431177,
      "lon": 4.5752977
    },
    {
      "type": "node",
      "id": 732230981,
      "lat": 51.1434106,
      "lon": 4.5753812
    },
    {
      "type": "node",
      "id": 732231021,
      "lat": 51.1435835,
      "lon": 4.5754176
    },
    {
      "type": "node",
      "id": 732231073,
      "lat": 51.1431504,
      "lon": 4.5750175
    },
    {
      "type": "node",
      "id": 732231272,
      "lat": 51.1431942,
      "lon": 4.5746861
    },
    {
      "type": "node",
      "id": 732231305,
      "lat": 51.1434259,
      "lon": 4.5747607
    },
    {
      "type": "node",
      "id": 1040962583,
      "lat": 51.1433691,
      "lon": 4.57514
    },
    {
      "type": "node",
      "id": 1040962777,
      "lat": 51.1430537,
      "lon": 4.5752865
    },
    {
      "type": "node",
      "id": 8479305709,
      "lat": 51.1412774,
      "lon": 4.5837143
    },
    {
      "type": "node",
      "id": 8479305710,
      "lat": 51.1414052,
      "lon": 4.5844484
    },
    {
      "type": "node",
      "id": 8479305713,
      "lat": 51.1410964,
      "lon": 4.5837768
    },
    {
      "type": "node",
      "id": 8479328217,
      "lat": 51.1427579,
      "lon": 4.5830565
    },
    {
      "type": "node",
      "id": 8479328218,
      "lat": 51.1428939,
      "lon": 4.5837837
    },
    {
      "type": "node",
      "id": 8479328219,
      "lat": 51.1430877,
      "lon": 4.583697
    },
    {
      "type": "node",
      "id": 8479328220,
      "lat": 51.1430636,
      "lon": 4.5839879
    },
    {
      "type": "node",
      "id": 8479328221,
      "lat": 51.142577,
      "lon": 4.5841589
    },
    {
      "type": "node",
      "id": 8479328222,
      "lat": 51.1424841,
      "lon": 4.5839266
    },
    {
      "type": "node",
      "id": 8479328223,
      "lat": 51.1426522,
      "lon": 4.5833755
    },
    {
      "type": "node",
      "id": 8479328224,
      "lat": 51.1427371,
      "lon": 4.5830948
    },
    {
      "type": "node",
      "id": 8479328225,
      "lat": 51.1427827,
      "lon": 4.5819854
    },
    {
      "type": "node",
      "id": 8479328226,
      "lat": 51.1431044,
      "lon": 4.5818337
    },
    {
      "type": "node",
      "id": 8479328227,
      "lat": 51.143153,
      "lon": 4.5820294
    },
    {
      "type": "node",
      "id": 8479328228,
      "lat": 51.1431454,
      "lon": 4.5820886
    },
    {
      "type": "node",
      "id": 8479328229,
      "lat": 51.1431054,
      "lon": 4.5821796
    },
    {
      "type": "node",
      "id": 8479328230,
      "lat": 51.1428722,
      "lon": 4.5823617
    },
    {
      "type": "node",
      "id": 6223798942,
      "lat": 51.148779,
      "lon": 4.577309
    },
    {
      "type": "node",
      "id": 6223798943,
      "lat": 51.1482378,
      "lon": 4.5768896
    },
    {
      "type": "node",
      "id": 6223798944,
      "lat": 51.147984,
      "lon": 4.5776268
    },
    {
      "type": "node",
      "id": 6223798945,
      "lat": 51.1481544,
      "lon": 4.5777709
    },
    {
      "type": "node",
      "id": 6223798946,
      "lat": 51.1482193,
      "lon": 4.577599
    },
    {
      "type": "node",
      "id": 6223798947,
      "lat": 51.1485044,
      "lon": 4.5778244
    },
    {
      "type": "node",
      "id": 6223798948,
      "lat": 51.148589,
      "lon": 4.577902
    },
    {
      "type": "node",
      "id": 4814958692,
      "lat": 51.1536151,
      "lon": 4.5815257
    },
    {
      "type": "node",
      "id": 4814958693,
      "lat": 51.1534277,
      "lon": 4.5818402
    },
    {
      "type": "node",
      "id": 4814958694,
      "lat": 51.1530582,
      "lon": 4.5813143
    },
    {
      "type": "node",
      "id": 4814958695,
      "lat": 51.15324,
      "lon": 4.5809917
    },
    {
      "type": "node",
      "id": 5295405210,
      "lat": 51.1533083,
      "lon": 4.5809995
    },
    {
      "type": "node",
      "id": 5295405211,
      "lat": 51.1532771,
      "lon": 4.5810534
    },
    {
      "type": "node",
      "id": 5295405212,
      "lat": 51.1534422,
      "lon": 4.5812018
    },
    {
      "type": "node",
      "id": 5295405213,
      "lat": 51.1534167,
      "lon": 4.5812516
    },
    {
      "type": "node",
      "id": 523381805,
      "lat": 51.1398262,
      "lon": 4.5994856
    },
    {
      "type": "node",
      "id": 523381814,
      "lat": 51.1400594,
      "lon": 4.5994843
    },
    {
      "type": "node",
      "id": 1036554137,
      "lat": 51.1394155,
      "lon": 4.598613
    },
    {
      "type": "node",
      "id": 1036554261,
      "lat": 51.1392833,
      "lon": 4.5984375
    },
    {
      "type": "node",
      "id": 1036554292,
      "lat": 51.1395614,
      "lon": 4.5989947
    },
    {
      "type": "node",
      "id": 1036554372,
      "lat": 51.1393604,
      "lon": 4.5985253
    },
    {
      "type": "node",
      "id": 1036554394,
      "lat": 51.1396632,
      "lon": 4.5993325
    },
    {
      "type": "node",
      "id": 1036554473,
      "lat": 51.1394788,
      "lon": 4.5987665
    },
    {
      "type": "node",
      "id": 1036554577,
      "lat": 51.1396109,
      "lon": 4.5991877
    },
    {
      "type": "node",
      "id": 1114022823,
      "lat": 51.1395821,
      "lon": 4.5977749
    },
    {
      "type": "node",
      "id": 1521244357,
      "lat": 51.1392694,
      "lon": 4.5984014
    },
    {
      "type": "node",
      "id": 1521244373,
      "lat": 51.1394054,
      "lon": 4.5972614
    },
    {
      "type": "node",
      "id": 1521244395,
      "lat": 51.1395562,
      "lon": 4.5981007
    },
    {
      "type": "node",
      "id": 1521244413,
      "lat": 51.1396837,
      "lon": 4.5970003
    },
    {
      "type": "node",
      "id": 1521244451,
      "lat": 51.1398726,
      "lon": 4.5975113
    },
    {
      "type": "node",
      "id": 9178549497,
      "lat": 51.1430541,
      "lon": 4.5898861
    },
    {
      "type": "node",
      "id": 9178549498,
      "lat": 51.1430745,
      "lon": 4.5901259
    },
    {
      "type": "node",
      "id": 9178549499,
      "lat": 51.1429393,
      "lon": 4.5907317
    },
    {
      "type": "node",
      "id": 9178549500,
      "lat": 51.1423042,
      "lon": 4.5910325
    },
    {
      "type": "node",
      "id": 9178549501,
      "lat": 51.1423986,
      "lon": 4.5915163
    },
    {
      "type": "node",
      "id": 9178549502,
      "lat": 51.1420874,
      "lon": 4.5916789
    },
    {
      "type": "node",
      "id": 9178549503,
      "lat": 51.1420772,
      "lon": 4.591187
    },
    {
      "type": "node",
      "id": 9178549504,
      "lat": 51.1421002,
      "lon": 4.5910285
    },
    {
      "type": "node",
      "id": 9178549505,
      "lat": 51.1423501,
      "lon": 4.5908943
    },
    {
      "type": "node",
      "id": 9178549506,
      "lat": 51.1422522,
      "lon": 4.5902967
    },
    {
      "type": "node",
      "id": 9178549507,
      "lat": 51.1430385,
      "lon": 4.5898285
    },
    {
      "type": "node",
      "id": 9178564918,
      "lat": 51.1424082,
      "lon": 4.5916079
    },
    {
      "type": "node",
      "id": 9178564919,
      "lat": 51.1424718,
      "lon": 4.5919063
    },
    {
      "type": "node",
      "id": 9178564920,
      "lat": 51.14219,
      "lon": 4.592376
    },
    {
      "type": "node",
      "id": 9178564921,
      "lat": 51.1420677,
      "lon": 4.591805
    },
    {
      "type": "node",
      "id": 8595843218,
      "lat": 51.1437377,
      "lon": 4.5948301
    },
    {
      "type": "node",
      "id": 8595843219,
      "lat": 51.1435747,
      "lon": 4.5946258
    },
    {
      "type": "node",
      "id": 8595843220,
      "lat": 51.1436648,
      "lon": 4.5944433
    },
    {
      "type": "node",
      "id": 8595843221,
      "lat": 51.1438277,
      "lon": 4.5946477
    },
    {
      "type": "node",
      "id": 517874320,
      "lat": 51.1604638,
      "lon": 4.5991186
    },
    {
      "type": "node",
      "id": 517874321,
      "lat": 51.1599086,
      "lon": 4.5993493
    },
    {
      "type": "node",
      "id": 1072717976,
      "lat": 51.1602593,
      "lon": 4.5993875
    },
    {
      "type": "node",
      "id": 1072718142,
      "lat": 51.1604918,
      "lon": 4.5992909
    },
    {
      "type": "node",
      "id": 8756072227,
      "lat": 51.1599988,
      "lon": 4.5993187
    },
    {
      "type": "node",
      "id": 517874325,
      "lat": 51.1602989,
      "lon": 4.6016671
    },
    {
      "type": "node",
      "id": 517874334,
      "lat": 51.1606082,
      "lon": 4.6015398
    },
    {
      "type": "node",
      "id": 2026821277,
      "lat": 51.1593815,
      "lon": 4.6058786
    },
    {
      "type": "node",
      "id": 2026821278,
      "lat": 51.1594153,
      "lon": 4.6058342
    },
    {
      "type": "node",
      "id": 2026821279,
      "lat": 51.1597214,
      "lon": 4.6065364
    },
    {
      "type": "node",
      "id": 2026821280,
      "lat": 51.1597552,
      "lon": 4.6064919
    },
    {
      "type": "node",
      "id": 1521407431,
      "lat": 51.1376051,
      "lon": 4.6329746
    },
    {
      "type": "node",
      "id": 1521407439,
      "lat": 51.1378474,
      "lon": 4.6333307
    },
    {
      "type": "node",
      "id": 1521407442,
      "lat": 51.1378496,
      "lon": 4.6332887
    },
    {
      "type": "node",
      "id": 1521407444,
      "lat": 51.1378606,
      "lon": 4.6332572
    },
    {
      "type": "node",
      "id": 1521407449,
      "lat": 51.1378727,
      "lon": 4.6332519
    },
    {
      "type": "node",
      "id": 1521407452,
      "lat": 51.1378946,
      "lon": 4.6333254
    },
    {
      "type": "node",
      "id": 1521407454,
      "lat": 51.1380827,
      "lon": 4.6326159
    },
    {
      "type": "node",
      "id": 1521407456,
      "lat": 51.1381629,
      "lon": 4.6331181
    },
    {
      "type": "node",
      "id": 6551733439,
      "lat": 51.1396063,
      "lon": 4.6284151
    },
    {
      "type": "node",
      "id": 6551733440,
      "lat": 51.1395626,
      "lon": 4.6284252
    },
    {
      "type": "node",
      "id": 6551733441,
      "lat": 51.139534,
      "lon": 4.6280466
    },
    {
      "type": "node",
      "id": 6551733442,
      "lat": 51.1395733,
      "lon": 4.6280404
    },
    {
      "type": "node",
      "id": 6551733443,
      "lat": 51.1390584,
      "lon": 4.6278803
    },
    {
      "type": "node",
      "id": 6551733444,
      "lat": 51.1395541,
      "lon": 4.6278794
    },
    {
      "type": "node",
      "id": 6551733445,
      "lat": 51.1395604,
      "lon": 4.6277672
    },
    {
      "type": "node",
      "id": 6551733446,
      "lat": 51.1395087,
      "lon": 4.6277315
    },
    {
      "type": "node",
      "id": 6551733447,
      "lat": 51.1390491,
      "lon": 4.6277513
    },
    {
      "type": "node",
      "id": 1521407437,
      "lat": 51.137818,
      "lon": 4.6334316
    },
    {
      "type": "node",
      "id": 1521407446,
      "lat": 51.1378664,
      "lon": 4.6333964
    },
    {
      "type": "node",
      "id": 1996755938,
      "lat": 51.1509356,
      "lon": 4.6187818
    },
    {
      "type": "node",
      "id": 1996755940,
      "lat": 51.1509841,
      "lon": 4.6187546
    },
    {
      "type": "node",
      "id": 1996755941,
      "lat": 51.1513539,
      "lon": 4.6203146
    },
    {
      "type": "node",
      "id": 1996755942,
      "lat": 51.1513733,
      "lon": 4.6203024
    },
    {
      "type": "node",
      "id": 4355095971,
      "lat": 51.148207,
      "lon": 4.6305893
    },
    {
      "type": "node",
      "id": 4355095972,
      "lat": 51.1482112,
      "lon": 4.6301682
    },
    {
      "type": "node",
      "id": 4355095976,
      "lat": 51.1484888,
      "lon": 4.6305965
    },
    {
      "type": "node",
      "id": 4355095977,
      "lat": 51.148493,
      "lon": 4.6301754
    },
    {
      "type": "node",
      "id": 4355097135,
      "lat": 51.1476181,
      "lon": 4.6304891
    },
    {
      "type": "node",
      "id": 4355097137,
      "lat": 51.1476873,
      "lon": 4.6304413
    },
    {
      "type": "node",
      "id": 4355097138,
      "lat": 51.1476903,
      "lon": 4.630755
    },
    {
      "type": "node",
      "id": 4355097139,
      "lat": 51.1477278,
      "lon": 4.6307291
    },
    {
      "type": "node",
      "id": 4355097140,
      "lat": 51.147736,
      "lon": 4.6307592
    },
    {
      "type": "node",
      "id": 4355097142,
      "lat": 51.147809,
      "lon": 4.6303574
    },
    {
      "type": "node",
      "id": 4355097143,
      "lat": 51.1478293,
      "lon": 4.6306949
    },
    {
      "type": "node",
      "id": 4355097144,
      "lat": 51.1478474,
      "lon": 4.6307617
    },
    {
      "type": "node",
      "id": 4355097145,
      "lat": 51.1478871,
      "lon": 4.6307343
    },
    {
      "type": "node",
      "id": 4355097146,
      "lat": 51.1478948,
      "lon": 4.6307626
    },
    {
      "type": "node",
      "id": 4355097148,
      "lat": 51.147941,
      "lon": 4.6302664
    },
    {
      "type": "node",
      "id": 4355097149,
      "lat": 51.1480139,
      "lon": 4.6302161
    },
    {
      "type": "node",
      "id": 4355097150,
      "lat": 51.1480381,
      "lon": 4.6305034
    },
    {
      "type": "node",
      "id": 4355097152,
      "lat": 51.1480747,
      "lon": 4.6306385
    },
    {
      "type": "node",
      "id": 4355097153,
      "lat": 51.1480834,
      "lon": 4.6304721
    },
    {
      "type": "node",
      "id": 6875328015,
      "lat": 51.1484091,
      "lon": 4.6356847
    },
    {
      "type": "node",
      "id": 6875328016,
      "lat": 51.1483401,
      "lon": 4.6357893
    },
    {
      "type": "node",
      "id": 6875328017,
      "lat": 51.1484579,
      "lon": 4.6364813
    },
    {
      "type": "node",
      "id": 6875328018,
      "lat": 51.1486026,
      "lon": 4.636433
    },
    {
      "type": "node",
      "id": 6875328019,
      "lat": 51.1487119,
      "lon": 4.6362506
    },
    {
      "type": "node",
      "id": 275129680,
      "lat": 51.1569442,
      "lon": 4.6313934
    },
    {
      "type": "node",
      "id": 275129681,
      "lat": 51.1569094,
      "lon": 4.6313053
    },
    {
      "type": "node",
      "id": 275129682,
      "lat": 51.1574709,
      "lon": 4.6306291
    },
    {
      "type": "node",
      "id": 275129684,
      "lat": 51.1575629,
      "lon": 4.6308582
    },
    {
      "type": "node",
      "id": 1072811991,
      "lat": 51.1569533,
      "lon": 4.6312473
    },
    {
      "type": "node",
      "id": 1072811999,
      "lat": 51.1569437,
      "lon": 4.6311861
    },
    {
      "type": "node",
      "id": 1072812006,
      "lat": 51.1570684,
      "lon": 4.6313238
    },
    {
      "type": "node",
      "id": 1271486172,
      "lat": 51.1574279,
      "lon": 4.6306746
    },
    {
      "type": "node",
      "id": 1271486198,
      "lat": 51.1573303,
      "lon": 4.6310772
    },
    {
      "type": "node",
      "id": 5381963119,
      "lat": 51.1575152,
      "lon": 4.6307395
    },
    {
      "type": "node",
      "id": 1072917913,
      "lat": 51.1600093,
      "lon": 4.6399382
    },
    {
      "type": "node",
      "id": 1678025236,
      "lat": 51.1591136,
      "lon": 4.6369561
    },
    {
      "type": "node",
      "id": 1678025278,
      "lat": 51.1592803,
      "lon": 4.6367855
    },
    {
      "type": "node",
      "id": 1678025279,
      "lat": 51.1592865,
      "lon": 4.6373854
    },
    {
      "type": "node",
      "id": 1678025280,
      "lat": 51.1594531,
      "lon": 4.6372148
    },
    {
      "type": "node",
      "id": 2080377624,
      "lat": 51.1599222,
      "lon": 4.6397249
    },
    {
      "type": "node",
      "id": 475365567,
      "lat": 51.1604231,
      "lon": 4.6462129
    },
    {
      "type": "node",
      "id": 1072917863,
      "lat": 51.1603559,
      "lon": 4.6407203
    },
    {
      "type": "node",
      "id": 2080377596,
      "lat": 51.1576382,
      "lon": 4.6443822
    },
    {
      "type": "node",
      "id": 2080377598,
      "lat": 51.1578478,
      "lon": 4.6453404
    },
    {
      "type": "node",
      "id": 9193044058,
      "lat": 51.1574567,
      "lon": 4.6436188
    },
    {
      "type": "node",
      "id": 1014875738,
      "lat": 51.158536,
      "lon": 4.6476927
    },
    {
      "type": "node",
      "id": 1014875749,
      "lat": 51.1584547,
      "lon": 4.6483799
    },
    {
      "type": "node",
      "id": 1073221117,
      "lat": 51.1584022,
      "lon": 4.6483784
    },
    {
      "type": "node",
      "id": 2080377600,
      "lat": 51.1582916,
      "lon": 4.6479399
    },
    {
      "type": "node",
      "id": 2080377605,
      "lat": 51.1583519,
      "lon": 4.6483796
    },
    {
      "type": "node",
      "id": 8151669084,
      "lat": 51.158914,
      "lon": 4.6577283
    },
    {
      "type": "node",
      "id": 8151669085,
      "lat": 51.1586029,
      "lon": 4.6578028
    },
    {
      "type": "node",
      "id": 8151669086,
      "lat": 51.1585319,
      "lon": 4.6565097
    },
    {
      "type": "node",
      "id": 8151669087,
      "lat": 51.1588159,
      "lon": 4.6564487
    },
    {
      "type": "node",
      "id": 5144178266,
      "lat": 51.1735465,
      "lon": 4.619838
    },
    {
      "type": "node",
      "id": 5144178267,
      "lat": 51.172913,
      "lon": 4.6194947
    },
    {
      "type": "node",
      "id": 5144178268,
      "lat": 51.1732154,
      "lon": 4.618075
    },
    {
      "type": "node",
      "id": 5144178271,
      "lat": 51.1737377,
      "lon": 4.6189393
    },
    {
      "type": "node",
      "id": 5144178272,
      "lat": 51.1737665,
      "lon": 4.6187948
    },
    {
      "type": "node",
      "id": 475365541,
      "lat": 51.1652581,
      "lon": 4.62887
    },
    {
      "type": "node",
      "id": 475365542,
      "lat": 51.1654493,
      "lon": 4.6296756
    },
    {
      "type": "node",
      "id": 1072625051,
      "lat": 51.1655482,
      "lon": 4.6291114
    },
    {
      "type": "node",
      "id": 1072625063,
      "lat": 51.1652732,
      "lon": 4.6286616
    },
    {
      "type": "node",
      "id": 1072625070,
      "lat": 51.165252,
      "lon": 4.6291024
    },
    {
      "type": "node",
      "id": 1072625074,
      "lat": 51.1654212,
      "lon": 4.6286832
    },
    {
      "type": "node",
      "id": 1072625077,
      "lat": 51.1656082,
      "lon": 4.6294071
    },
    {
      "type": "node",
      "id": 1072625090,
      "lat": 51.1653668,
      "lon": 4.6286857
    },
    {
      "type": "node",
      "id": 1072625096,
      "lat": 51.1654641,
      "lon": 4.6288784
    },
    {
      "type": "node",
      "id": 1073048917,
      "lat": 51.1655042,
      "lon": 4.6295834
    },
    {
      "type": "node",
      "id": 1073811618,
      "lat": 51.1654647,
      "lon": 4.6296497
    },
    {
      "type": "node",
      "id": 5144178265,
      "lat": 51.1738489,
      "lon": 4.6184183
    },
    {
      "type": "node",
      "id": 2337935608,
      "lat": 51.1755104,
      "lon": 4.622372
    },
    {
      "type": "node",
      "id": 2337935610,
      "lat": 51.1749051,
      "lon": 4.6218999
    },
    {
      "type": "node",
      "id": 2337935614,
      "lat": 51.1751136,
      "lon": 4.6211703
    },
    {
      "type": "node",
      "id": 2337935618,
      "lat": 51.1757257,
      "lon": 4.6216102
    },
    {
      "type": "node",
      "id": 1107432114,
      "lat": 51.1793541,
      "lon": 4.6322051
    },
    {
      "type": "node",
      "id": 1107432135,
      "lat": 51.1794629,
      "lon": 4.6320393
    },
    {
      "type": "node",
      "id": 1107432144,
      "lat": 51.1794003,
      "lon": 4.6320669
    },
    {
      "type": "node",
      "id": 1107432170,
      "lat": 51.1794413,
      "lon": 4.6321044
    },
    {
      "type": "node",
      "id": 1317052377,
      "lat": 51.1792861,
      "lon": 4.6318407
    },
    {
      "type": "node",
      "id": 1317052379,
      "lat": 51.1792406,
      "lon": 4.6321915
    },
    {
      "type": "node",
      "id": 1317052382,
      "lat": 51.179335,
      "lon": 4.6318985
    },
    {
      "type": "node",
      "id": 1317052383,
      "lat": 51.1791168,
      "lon": 4.6318313
    },
    {
      "type": "node",
      "id": 1317052385,
      "lat": 51.1793931,
      "lon": 4.6319711
    },
    {
      "type": "node",
      "id": 1317052386,
      "lat": 51.178788,
      "lon": 4.631857
    },
    {
      "type": "node",
      "id": 1317052387,
      "lat": 51.1792036,
      "lon": 4.6318058
    },
    {
      "type": "node",
      "id": 1317052388,
      "lat": 51.1788489,
      "lon": 4.6317655
    },
    {
      "type": "node",
      "id": 1317052390,
      "lat": 51.1792389,
      "lon": 4.6318434
    },
    {
      "type": "node",
      "id": 1317052393,
      "lat": 51.1789061,
      "lon": 4.6317561
    },
    {
      "type": "node",
      "id": 1317052396,
      "lat": 51.1789457,
      "lon": 4.6318058
    },
    {
      "type": "node",
      "id": 1317052397,
      "lat": 51.1792071,
      "lon": 4.6322891
    },
    {
      "type": "node",
      "id": 1317052398,
      "lat": 51.1790275,
      "lon": 4.631834
    },
    {
      "type": "node",
      "id": 475365566,
      "lat": 51.1610407,
      "lon": 4.6450096
    },
    {
      "type": "node",
      "id": 1072642952,
      "lat": 51.1619099,
      "lon": 4.6462863
    },
    {
      "type": "node",
      "id": 1072642959,
      "lat": 51.1619079,
      "lon": 4.6463637
    },
    {
      "type": "node",
      "id": 1072642963,
      "lat": 51.1617492,
      "lon": 4.6463532
    },
    {
      "type": "node",
      "id": 1072642972,
      "lat": 51.1617512,
      "lon": 4.6462758
    },
    {
      "type": "node",
      "id": 1678035858,
      "lat": 51.1615234,
      "lon": 4.6461023
    },
    {
      "type": "node",
      "id": 1678035860,
      "lat": 51.1615346,
      "lon": 4.6457317
    },
    {
      "type": "node",
      "id": 1678035861,
      "lat": 51.161566,
      "lon": 4.6461056
    },
    {
      "type": "node",
      "id": 1678035864,
      "lat": 51.1615772,
      "lon": 4.645735
    },
    {
      "type": "node",
      "id": 9193044051,
      "lat": 51.161309,
      "lon": 4.6426077
    },
    {
      "type": "node",
      "id": 9193044053,
      "lat": 51.1612224,
      "lon": 4.6427262
    },
    {
      "type": "node",
      "id": 9193044055,
      "lat": 51.1609716,
      "lon": 4.6448735
    },
    {
      "type": "node",
      "id": 8483937369,
      "lat": 51.167013,
      "lon": 4.6488181
    },
    {
      "type": "node",
      "id": 8483937370,
      "lat": 51.1668155,
      "lon": 4.6487544
    },
    {
      "type": "node",
      "id": 8483937371,
      "lat": 51.166834,
      "lon": 4.6486086
    },
    {
      "type": "node",
      "id": 8483937372,
      "lat": 51.1668891,
      "lon": 4.6486264
    },
    {
      "type": "node",
      "id": 8483937373,
      "lat": 51.1668996,
      "lon": 4.6485441
    },
    {
      "type": "node",
      "id": 8483937374,
      "lat": 51.1669881,
      "lon": 4.6485727
    },
    {
      "type": "node",
      "id": 8483937375,
      "lat": 51.1669773,
      "lon": 4.648658
    },
    {
      "type": "node",
      "id": 8483937376,
      "lat": 51.1670311,
      "lon": 4.6486754
    },
    {
      "type": "node",
      "id": 275200381,
      "lat": 51.1691625,
      "lon": 4.6513946
    },
    {
      "type": "node",
      "id": 275200383,
      "lat": 51.1694311,
      "lon": 4.6504824
    },
    {
      "type": "node",
      "id": 277872136,
      "lat": 51.1694234,
      "lon": 4.6515858
    },
    {
      "type": "node",
      "id": 277872137,
      "lat": 51.1696888,
      "lon": 4.6506917
    }
  ]
}