{
  "version": 0.6,
  "generator": "Overpass API 0.7.56.8 7d656e78",
  "osm3s": {
    "timestamp_osm_base": "2021-12-11T05:05:42Z",
    "copyright": "The data included in this document is from www.openstreetmap.org. The data is made available under ODbL."
  },
  "elements": [
    {
      "type": "node",
      "id": 802273098,
      "lat": 50.7920856,
      "lon": 5.9563965,
      "tags": {
        "amenity": "bench",
        "backrest": "yes"
      }
    },
    {
      "type": "node",
      "id": 890974605,
      "lat": 50.8202148,
      "lon": 5.9211588,
      "tags": {
        "access": "yes",
        "amenity": "parking",
        "capacity": "14",
        "fee": "no",
        "parking": "surface"
      }
    },
    {
      "type": "node",
      "id": 1452632867,
      "lat": 50.8202051,
      "lon": 5.9008328,
      "tags": {
        "board_type": "geology",
        "information": "board",
        "ref": "Waar de Geul en de Gulp samenstromen",
        "ref:de": "Wo sich die Wässer der Göhl und der Gülp vereinigen..",
        "ref:fr": "Ou les rivières Guele et Gulpe se réunissent",
        "tourism": "information"
      }
    },
    {
      "type": "node",
      "id": 1713189613,
      "lat": 50.8032106,
      "lon": 5.9410425,
      "tags": {
        "amenity": "bench",
        "backrest": "yes"
      }
    },
    {
      "type": "node",
      "id": 1713197077,
      "lat": 50.8009507,
      "lon": 5.9483978,
      "tags": {
        "amenity": "bench"
      }
    },
    {
      "type": "node",
      "id": 1747727113,
      "lat": 50.8363063,
      "lon": 5.9577745,
      "tags": {
        "amenity": "bench",
        "backrest": "yes",
        "colour": "brown",
        "material": "plastic",
        "seats": "4"
      }
    },
    {
      "type": "node",
      "id": 1747792636,
      "lat": 50.8300575,
      "lon": 5.9730037,
      "tags": {
        "amenity": "bench",
        "backrest": "yes",
        "colour": "brown",
        "material": "plastic",
        "seats": "4"
      }
    },
    {
      "type": "node",
      "id": 1747792637,
      "lat": 50.8300677,
      "lon": 5.9730695,
      "tags": {
        "amenity": "bench",
        "backrest": "yes",
        "colour": "brown",
        "material": "plastic",
        "seats": "4"
      }
    },
    {
      "type": "node",
      "id": 1844094895,
      "lat": 50.8124742,
      "lon": 5.9006585,
      "tags": {
        "amenity": "bench",
        "backrest": "yes"
      }
    },
    {
      "type": "node",
      "id": 1844094900,
      "lat": 50.8127826,
      "lon": 5.9002133,
      "tags": {
        "amenity": "bench"
      }
    },
    {
      "type": "node",
      "id": 1844114903,
      "lat": 50.8135079,
      "lon": 5.8944847,
      "tags": {
        "amenity": "bench",
        "backrest": "yes"
      }
    },
    {
      "type": "node",
      "id": 1844114907,
      "lat": 50.8132445,
      "lon": 5.8979964,
      "tags": {
        "amenity": "bench"
      }
    },
    {
      "type": "node",
      "id": 1951041704,
      "lat": 50.8297421,
      "lon": 5.9236116,
      "tags": {
        "amenity": "bench",
        "backrest": "yes",
        "direction": "S"
      }
    },
    {
      "type": "node",
      "id": 1952504522,
      "lat": 50.8202037,
      "lon": 5.8988939,
      "tags": {
        "amenity": "bench",
        "backrest": "yes"
      }
    },
    {
      "type": "node",
      "id": 1952504544,
      "lat": 50.8208121,
      "lon": 5.9033113,
      "tags": {
        "amenity": "bench",
        "backrest": "yes"
      }
    },
    {
      "type": "node",
      "id": 1952504578,
      "lat": 50.8305287,
      "lon": 5.9171881,
      "tags": {
        "amenity": "bench",
        "backrest": "yes"
      }
    },
    {
      "type": "node",
      "id": 1954470569,
      "lat": 50.8195103,
      "lon": 5.8959946,
      "tags": {
        "amenity": "bench",
        "backrest": "yes"
      }
    },
    {
      "type": "node",
      "id": 2023262464,
      "lat": 50.7948051,
      "lon": 5.919608,
      "tags": {
        "amenity": "bench",
        "backrest": "yes",
        "seats": "4"
      }
    },
    {
      "type": "node",
      "id": 2023262470,
      "lat": 50.7986492,
      "lon": 5.9399925,
      "tags": {
        "amenity": "bench",
        "seats": "4"
      }
    },
    {
      "type": "node",
      "id": 2306053390,
      "lat": 50.7980295,
      "lon": 5.9750541,
      "tags": {
        "amenity": "bench",
        "backrest": "yes",
        "colour": "brown",
        "material": "wood",
        "seats": "3"
      }
    },
    {
      "type": "node",
      "id": 2362828118,
      "lat": 50.8028582,
      "lon": 5.9286399,
      "tags": {
        "amenity": "bench"
      }
    },
    {
      "type": "node",
      "id": 2362828119,
      "lat": 50.8042273,
      "lon": 5.9364465,
      "tags": {
        "amenity": "bench"
      }
    },
    {
      "type": "node",
      "id": 2362828120,
      "lat": 50.8052467,
      "lon": 5.9537677,
      "tags": {
        "amenity": "bench"
      }
    },
    {
      "type": "node",
      "id": 2408849139,
      "lat": 50.7930407,
      "lon": 5.8962514,
      "tags": {
        "amenity": "bench",
        "backrest": "yes",
        "colour": "red",
        "material": "wood",
        "seats": "4"
      }
    },
    {
      "type": "node",
      "id": 2408849148,
      "lat": 50.801262,
      "lon": 5.9043213,
      "tags": {
        "amenity": "bench",
        "backrest": "yes",
        "colour": "red",
        "material": "wood",
        "seats": "4"
      }
    },
    {
      "type": "node",
      "id": 2408849152,
      "lat": 50.8045704,
      "lon": 5.9017316,
      "tags": {
        "amenity": "bench",
        "backrest": "yes",
        "colour": "red",
        "material": "wood",
        "seats": "4"
      }
    },
    {
      "type": "node",
      "id": 2408849153,
      "lat": 50.8062561,
      "lon": 5.9064923,
      "tags": {
        "amenity": "bench",
        "backrest": "yes",
        "colour": "brown",
        "material": "wood",
        "seats": "4"
      }
    },
    {
      "type": "node",
      "id": 2408849154,
      "lat": 50.8065845,
      "lon": 5.9110296,
      "tags": {
        "amenity": "bench",
        "backrest": "yes",
        "colour": "red",
        "material": "wood",
        "seats": "4"
      }
    },
    {
      "type": "node",
      "id": 2466903867,
      "lat": 50.8016196,
      "lon": 5.8997896,
      "tags": {
        "amenity": "bench"
      }
    },
    {
      "type": "node",
      "id": 2493256258,
      "lat": 50.8106869,
      "lon": 5.9372838,
      "tags": {
        "amenity": "parking"
      }
    },
    {
      "type": "node",
      "id": 2493259596,
      "lat": 50.7950376,
      "lon": 5.9193025,
      "tags": {
        "amenity": "bench"
      }
    },
    {
      "type": "node",
      "id": 2807568563,
      "lat": 50.8261523,
      "lon": 5.9275451,
      "tags": {
        "amenity": "bench"
      }
    },
    {
      "type": "node",
      "id": 2807579264,
      "lat": 50.8116376,
      "lon": 5.9400659,
      "tags": {
        "amenity": "bench"
      }
    },
    {
      "type": "node",
      "id": 2807579265,
      "lat": 50.8137235,
      "lon": 5.9408045,
      "tags": {
        "amenity": "bench",
        "backrest": "yes",
        "colour": "green",
        "material": "wood",
        "seats": "3"
      }
    },
    {
      "type": "node",
      "id": 2807579267,
      "lat": 50.8168517,
      "lon": 5.9478323,
      "tags": {
        "amenity": "bench",
        "backrest": "yes"
      }
    },
    {
      "type": "node",
      "id": 2807579268,
      "lat": 50.8147777,
      "lon": 5.9464937,
      "tags": {
        "amenity": "bench"
      }
    },
    {
      "type": "node",
      "id": 3160688240,
      "lat": 50.8322422,
      "lon": 5.923221,
      "tags": {
        "amenity": "bench",
        "backrest": "yes"
      }
    },
    {
      "type": "node",
      "id": 3160688241,
      "lat": 50.8322255,
      "lon": 5.9233378,
      "tags": {
        "amenity": "bench",
        "backrest": "yes"
      }
    },
    {
      "type": "node",
      "id": 3160688242,
      "lat": 50.8318128,
      "lon": 5.9097301,
      "tags": {
        "amenity": "bench"
      }
    },
    {
      "type": "node",
      "id": 3160688243,
      "lat": 50.8313517,
      "lon": 5.9107669,
      "tags": {
        "amenity": "bench",
        "backrest": "yes"
      }
    },
    {
      "type": "node",
      "id": 3160688244,
      "lat": 50.8359771,
      "lon": 5.9213278,
      "tags": {
        "amenity": "bench"
      }
    },
    {
      "type": "node",
      "id": 3160698245,
      "lat": 50.8380128,
      "lon": 5.9125041,
      "tags": {
        "amenity": "bench",
        "backrest": "yes"
      }
    },
    {
      "type": "node",
      "id": 3160748657,
      "lat": 50.8455892,
      "lon": 5.937828,
      "tags": {
        "amenity": "bench",
        "backrest": "yes"
      }
    },
    {
      "type": "node",
      "id": 3160750112,
      "lat": 50.8454897,
      "lon": 5.9522639,
      "tags": {
        "amenity": "bench",
        "backrest": "yes"
      }
    },
    {
      "type": "node",
      "id": 3160750113,
      "lat": 50.8454016,
      "lon": 5.9531861,
      "tags": {
        "amenity": "bench",
        "backrest": "yes"
      }
    },
    {
      "type": "node",
      "id": 3327553145,
      "lat": 50.8272031,
      "lon": 5.9310208,
      "tags": {
        "amenity": "bench",
        "backrest": "yes",
        "material": "wood",
        "seats": "4"
      }
    },
    {
      "type": "node",
      "id": 3581664495,
      "lat": 50.8250049,
      "lon": 5.9067398,
      "tags": {
        "amenity": "bench",
        "backrest": "yes",
        "material": "wood"
      }
    },
    {
      "type": "node",
      "id": 3662558571,
      "lat": 50.8335086,
      "lon": 5.9257389,
      "tags": {
        "amenity": "bench",
        "backrest": "yes"
      }
    },
    {
      "type": "node",
      "id": 3682128086,
      "lat": 50.8155269,
      "lon": 5.8949632,
      "tags": {
        "amenity": "drinking_water",
        "bottle": "yes",
        "operator": "WML Limburgs drinkwater",
        "seasonal": "yes"
      }
    },
    {
      "type": "node",
      "id": 3837113262,
      "lat": 50.8437463,
      "lon": 5.9756921,
      "tags": {
        "amenity": "bench"
      }
    },
    {
      "type": "node",
      "id": 3837825115,
      "lat": 50.8451891,
      "lon": 5.9690126,
      "tags": {
        "amenity": "bench",
        "backrest": "yes",
        "colour": "brown",
        "material": "wood",
        "seats": "5"
      }
    },
    {
      "type": "node",
      "id": 4805053186,
      "lat": 50.8409497,
      "lon": 5.9102629,
      "tags": {
        "amenity": "bench"
      }
    },
    {
      "type": "node",
      "id": 4858539259,
      "lat": 50.8419629,
      "lon": 5.9652416,
      "tags": {
        "amenity": "bench"
      }
    },
    {
      "type": "node",
      "id": 4919854746,
      "lat": 50.7970085,
      "lon": 5.9410041,
      "tags": {
        "amenity": "bench",
        "backrest": "yes",
        "material": "wood",
        "seats": "4",
        "survey:date": "2021-06-06"
      }
    },
    {
      "type": "node",
      "id": 4919864877,
      "lat": 50.7922962,
      "lon": 5.926016,
      "tags": {
        "amenity": "bench",
        "backrest": "yes"
      }
    },
    {
      "type": "node",
      "id": 5024963315,
      "lat": 50.8138189,
      "lon": 5.9003422,
      "tags": {
        "amenity": "bench",
        "backrest": "yes"
      }
    },
    {
      "type": "node",
      "id": 5024963316,
      "lat": 50.813866,
      "lon": 5.9002941,
      "tags": {
        "amenity": "bench",
        "backrest": "yes"
      }
    },
    {
      "type": "node",
      "id": 5024963317,
      "lat": 50.8139172,
      "lon": 5.9002479,
      "tags": {
        "leisure": "picnic_table"
      }
    },
    {
      "type": "node",
      "id": 5024963318,
      "lat": 50.8140191,
      "lon": 5.9001338,
      "tags": {
        "leisure": "picnic_table"
      }
    },
    {
      "type": "node",
      "id": 5024963423,
      "lat": 50.8142212,
      "lon": 5.8992386,
      "tags": {
        "amenity": "bench",
        "backrest": "yes"
      }
    },
    {
      "type": "node",
      "id": 5024963424,
      "lat": 50.8141532,
      "lon": 5.8992075,
      "tags": {
        "amenity": "bench",
        "backrest": "yes"
      }
    },
    {
      "type": "node",
      "id": 5024963425,
      "lat": 50.8140877,
      "lon": 5.8992103,
      "tags": {
        "amenity": "bench",
        "backrest": "yes"
      }
    },
    {
      "type": "node",
      "id": 5024963436,
      "lat": 50.8140773,
      "lon": 5.8999668,
      "tags": {
        "amenity": "bench"
      }
    },
    {
      "type": "node",
      "id": 5024963437,
      "lat": 50.8140343,
      "lon": 5.8999178,
      "tags": {
        "amenity": "bench"
      }
    },
    {
      "type": "node",
      "id": 5024963438,
      "lat": 50.8139998,
      "lon": 5.8998913,
      "tags": {
        "amenity": "bench",
        "backrest": "yes"
      }
    },
    {
      "type": "node",
      "id": 5024963439,
      "lat": 50.8139509,
      "lon": 5.8998847,
      "tags": {
        "leisure": "picnic_table"
      }
    },
    {
      "type": "node",
      "id": 5024963480,
      "lat": 50.8130888,
      "lon": 5.9008751,
      "tags": {
        "amenity": "bench",
        "backrest": "yes"
      }
    },
    {
      "type": "node",
      "id": 5024963481,
      "lat": 50.8129965,
      "lon": 5.9007695,
      "tags": {
        "amenity": "bench",
        "backrest": "yes"
      }
    },
    {
      "type": "node",
      "id": 5024963482,
      "lat": 50.8129017,
      "lon": 5.9006591,
      "tags": {
        "amenity": "bench",
        "backrest": "yes"
      }
    },
    {
      "type": "node",
      "id": 5024963507,
      "lat": 50.8124017,
      "lon": 5.9005478,
      "tags": {
        "leisure": "picnic_table"
      }
    },
    {
      "type": "node",
      "id": 5024963508,
      "lat": 50.8124374,
      "lon": 5.9005601,
      "tags": {
        "amenity": "bench",
        "backrest": "yes"
      }
    },
    {
      "type": "node",
      "id": 5024963545,
      "lat": 50.8140728,
      "lon": 5.9015788,
      "tags": {
        "leisure": "picnic_table"
      }
    },
    {
      "type": "node",
      "id": 5024963546,
      "lat": 50.8141068,
      "lon": 5.9016193,
      "tags": {
        "amenity": "bench",
        "backrest": "yes"
      }
    },
    {
      "type": "node",
      "id": 5024963550,
      "lat": 50.8136076,
      "lon": 5.9035798,
      "tags": {
        "amenity": "bench"
      }
    },
    {
      "type": "node",
      "id": 5024963906,
      "lat": 50.7948008,
      "lon": 5.9196846,
      "tags": {
        "amenity": "bench",
        "backrest": "yes",
        "seats": "4"
      }
    },
    {
      "type": "node",
      "id": 5024964173,
      "lat": 50.8026764,
      "lon": 5.9147404,
      "tags": {
        "amenity": "bench",
        "backrest": "yes"
      }
    },
    {
      "type": "node",
      "id": 5024964176,
      "lat": 50.7978256,
      "lon": 5.9176571,
      "tags": {
        "amenity": "bench",
        "backrest": "yes"
      }
    },
    {
      "type": "node",
      "id": 5025287319,
      "lat": 50.8151211,
      "lon": 5.8997744,
      "tags": {
        "leisure": "picnic_table"
      }
    },
    {
      "type": "node",
      "id": 5025287495,
      "lat": 50.8135045,
      "lon": 5.8953766,
      "tags": {
        "leisure": "picnic_table"
      }
    },
    {
      "type": "node",
      "id": 5025287496,
      "lat": 50.8135197,
      "lon": 5.8954412,
      "tags": {
        "amenity": "bench",
        "backrest": "yes"
      }
    },
    {
      "type": "node",
      "id": 5025287497,
      "lat": 50.8134646,
      "lon": 5.8953105,
      "tags": {
        "amenity": "bench",
        "backrest": "yes"
      }
    },
    {
      "type": "node",
      "id": 5025287500,
      "lat": 50.8141044,
      "lon": 5.8967891,
      "tags": {
        "amenity": "bench",
        "backrest": "yes"
      }
    },
    {
      "type": "node",
      "id": 5025287521,
      "lat": 50.8150889,
      "lon": 5.8998414,
      "tags": {
        "amenity": "bench",
        "backrest": "yes"
      }
    },
    {
      "type": "node",
      "id": 5025287522,
      "lat": 50.8150812,
      "lon": 5.8998951,
      "tags": {
        "amenity": "bench",
        "backrest": "yes"
      }
    },
    {
      "type": "node",
      "id": 5025287523,
      "lat": 50.8151479,
      "lon": 5.8999229,
      "tags": {
        "amenity": "bench",
        "backrest": "yes"
      }
    },
    {
      "type": "node",
      "id": 5025287524,
      "lat": 50.8150782,
      "lon": 5.9000083,
      "tags": {
        "leisure": "picnic_table"
      }
    },
    {
      "type": "node",
      "id": 5025287535,
      "lat": 50.8150377,
      "lon": 5.9001507,
      "tags": {
        "amenity": "bench",
        "backrest": "yes"
      }
    },
    {
      "type": "node",
      "id": 5025287536,
      "lat": 50.8150186,
      "lon": 5.9001852,
      "tags": {
        "leisure": "picnic_table"
      }
    },
    {
      "type": "node",
      "id": 5036733863,
      "lat": 50.8032642,
      "lon": 5.940812,
      "tags": {
        "amenity": "bench",
        "backrest": "yes"
      }
    },
    {
      "type": "node",
      "id": 5036733865,
      "lat": 50.8031247,
      "lon": 5.941186,
      "tags": {
        "amenity": "bench",
        "backrest": "yes"
      }
    },
    {
      "type": "node",
      "id": 5171788266,
      "lat": 50.8183925,
      "lon": 5.8990996,
      "tags": {
        "amenity": "bench",
        "backrest": "yes"
      }
    },
    {
      "type": "node",
      "id": 5173313613,
      "lat": 50.8203154,
      "lon": 5.9213882,
      "tags": {
        "amenity": "bench",
        "backrest": "yes"
      }
    },
    {
      "type": "node",
      "id": 5173313830,
      "lat": 50.8233014,
      "lon": 5.9254987,
      "tags": {
        "amenity": "bench",
        "backrest": "yes"
      }
    },
    {
      "type": "node",
      "id": 5177180572,
      "lat": 50.8318966,
      "lon": 5.9095906,
      "tags": {
        "leisure": "picnic_table"
      }
    },
    {
      "type": "node",
      "id": 5177180656,
      "lat": 50.8313777,
      "lon": 5.9024027,
      "tags": {
        "amenity": "bench",
        "backrest": "yes"
      }
    },
    {
      "type": "node",
      "id": 5177180993,
      "lat": 50.8300968,
      "lon": 5.9280062,
      "tags": {
        "amenity": "bench",
        "backrest": "no"
      }
    },
    {
      "type": "node",
      "id": 5230572088,
      "lat": 50.8312735,
      "lon": 5.91098,
      "tags": {
        "leisure": "picnic_table"
      }
    },
    {
      "type": "node",
      "id": 5534662611,
      "lat": 50.8282738,
      "lon": 5.9365384,
      "tags": {
        "amenity": "bench"
      }
    },
    {
      "type": "node",
      "id": 5534749064,
      "lat": 50.8409296,
      "lon": 5.9483553,
      "tags": {
        "amenity": "bench"
      }
    },
    {
      "type": "node",
      "id": 5538877230,
      "lat": 50.840817,
      "lon": 5.9484683,
      "tags": {
        "amenity": "bench"
      }
    },
    {
      "type": "node",
      "id": 5538877232,
      "lat": 50.8262278,
      "lon": 5.9502519,
      "tags": {
        "amenity": "bench",
        "backrest": "yes",
        "material": "wood"
      }
    },
    {
      "type": "node",
      "id": 5538877238,
      "lat": 50.8407687,
      "lon": 5.9485328,
      "tags": {
        "amenity": "bench"
      }
    },
    {
      "type": "node",
      "id": 5538902306,
      "lat": 50.8252908,
      "lon": 5.935396,
      "tags": {
        "amenity": "bench"
      }
    },
    {
      "type": "node",
      "id": 5538902445,
      "lat": 50.8403808,
      "lon": 5.9408856,
      "tags": {
        "amenity": "bench"
      }
    },
    {
      "type": "node",
      "id": 5539897767,
      "lat": 50.8364023,
      "lon": 5.9699487,
      "tags": {
        "amenity": "bench"
      }
    },
    {
      "type": "node",
      "id": 5539900022,
      "lat": 50.8357407,
      "lon": 5.9615957,
      "tags": {
        "amenity": "bench"
      }
    },
    {
      "type": "node",
      "id": 5539912369,
      "lat": 50.8225531,
      "lon": 5.8907244,
      "tags": {
        "amenity": "bench"
      }
    },
    {
      "type": "node",
      "id": 5540017152,
      "lat": 50.8175647,
      "lon": 5.9432816,
      "tags": {
        "amenity": "bench"
      }
    },
    {
      "type": "node",
      "id": 5562911862,
      "lat": 50.8184828,
      "lon": 5.974695,
      "tags": {
        "amenity": "bench",
        "backrest": "yes",
        "material": "wood"
      }
    },
    {
      "type": "node",
      "id": 5601950432,
      "lat": 50.8075155,
      "lon": 5.8942436,
      "tags": {
        "amenity": "parking"
      }
    },
    {
      "type": "node",
      "id": 5604328093,
      "lat": 50.814615,
      "lon": 5.8926925,
      "tags": {
        "amenity": "bench"
      }
    },
    {
      "type": "node",
      "id": 5620570992,
      "lat": 50.8118122,
      "lon": 5.889055,
      "tags": {
        "man_made": "watermill",
        "name": "Molen Roex"
      }
    },
    {
      "type": "node",
      "id": 6053239217,
      "lat": 50.7921194,
      "lon": 5.9643808,
      "tags": {
        "amenity": "bench",
        "backrest": "yes"
      }
    },
    {
      "type": "node",
      "id": 6068330668,
      "lat": 50.8304232,
      "lon": 5.9288195,
      "tags": {
        "amenity": "bench",
        "backrest": "yes",
        "material": "wood",
        "seats": "5"
      }
    },
    {
      "type": "node",
      "id": 6068401089,
      "lat": 50.8403103,
      "lon": 5.9414237,
      "tags": {
        "amenity": "bench",
        "backrest": "yes",
        "material": "wood",
        "seats": "4"
      }
    },
    {
      "type": "node",
      "id": 6127184720,
      "lat": 50.7944477,
      "lon": 5.9607384,
      "tags": {
        "amenity": "bench",
        "backrest": "yes"
      }
    },
    {
      "type": "node",
      "id": 6172487101,
      "lat": 50.7989101,
      "lon": 5.941825,
      "tags": {
        "amenity": "bench"
      }
    },
    {
      "type": "node",
      "id": 6172495367,
      "lat": 50.8094631,
      "lon": 5.9133867,
      "tags": {
        "amenity": "bench"
      }
    },
    {
      "type": "node",
      "id": 6174776765,
      "lat": 50.7956393,
      "lon": 5.9117243,
      "tags": {
        "amenity": "bench"
      }
    },
    {
      "type": "node",
      "id": 6174784926,
      "lat": 50.7956245,
      "lon": 5.9157895,
      "tags": {
        "amenity": "bench"
      }
    },
    {
      "type": "node",
      "id": 6174796240,
      "lat": 50.7949082,
      "lon": 5.9223583,
      "tags": {
        "amenity": "bench",
        "backrest": "yes"
      }
    },
    {
      "type": "node",
      "id": 6174796275,
      "lat": 50.7949697,
      "lon": 5.9225844,
      "tags": {
        "amenity": "bench",
        "backrest": "yes"
      }
    },
    {
      "type": "node",
      "id": 6174829045,
      "lat": 50.796687,
      "lon": 5.9260363,
      "tags": {
        "amenity": "bench"
      }
    },
    {
      "type": "node",
      "id": 6174830035,
      "lat": 50.7958069,
      "lon": 5.924557,
      "tags": {
        "amenity": "bench"
      }
    },
    {
      "type": "node",
      "id": 6174832558,
      "lat": 50.796059,
      "lon": 5.9255433,
      "tags": {
        "amenity": "bench"
      }
    },
    {
      "type": "node",
      "id": 6174833465,
      "lat": 50.7966582,
      "lon": 5.926041,
      "tags": {
        "amenity": "bench"
      }
    },
    {
      "type": "node",
      "id": 6174848687,
      "lat": 50.7988902,
      "lon": 5.9378431,
      "tags": {
        "leisure": "picnic_table"
      }
    },
    {
      "type": "node",
      "id": 6174850340,
      "lat": 50.7988753,
      "lon": 5.9377032,
      "tags": {
        "amenity": "bench"
      }
    },
    {
      "type": "node",
      "id": 6174850341,
      "lat": 50.7989441,
      "lon": 5.9377015,
      "tags": {
        "leisure": "picnic_table"
      }
    },
    {
      "type": "node",
      "id": 6174897694,
      "lat": 50.793133,
      "lon": 5.9602773,
      "tags": {
        "leisure": "picnic_table"
      }
    },
    {
      "type": "node",
      "id": 6176539942,
      "lat": 50.7925075,
      "lon": 5.9274758,
      "tags": {
        "amenity": "bench"
      }
    },
    {
      "type": "node",
      "id": 6176542244,
      "lat": 50.7921232,
      "lon": 5.927504,
      "tags": {
        "amenity": "bench"
      }
    },
    {
      "type": "node",
      "id": 6300940959,
      "lat": 50.8147825,
      "lon": 5.8924856,
      "tags": {
        "amenity": "bench"
      }
    },
    {
      "type": "node",
      "id": 6300943217,
      "lat": 50.8147878,
      "lon": 5.8927668,
      "tags": {
        "amenity": "bench"
      }
    },
    {
      "type": "node",
      "id": 6300951600,
      "lat": 50.8144093,
      "lon": 5.8936743,
      "tags": {
        "amenity": "bench"
      }
    },
    {
      "type": "node",
      "id": 6300953378,
      "lat": 50.8142702,
      "lon": 5.8934269,
      "tags": {
        "amenity": "bench"
      }
    },
    {
      "type": "node",
      "id": 6300959226,
      "lat": 50.8134635,
      "lon": 5.8949178,
      "tags": {
        "amenity": "bench"
      }
    },
    {
      "type": "node",
      "id": 6300997879,
      "lat": 50.8112705,
      "lon": 5.9062318,
      "tags": {
        "amenity": "bench"
      }
    },
    {
      "type": "node",
      "id": 6301081719,
      "lat": 50.7985507,
      "lon": 5.9046729,
      "tags": {
        "amenity": "bench",
        "backrest": "yes",
        "colour": "brown",
        "material": "wood",
        "name": "Harrie America"
      }
    },
    {
      "type": "node",
      "id": 6336693055,
      "lat": 50.8080251,
      "lon": 5.9648375,
      "tags": {
        "amenity": "bench",
        "backrest": "yes"
      }
    },
    {
      "type": "node",
      "id": 6336693058,
      "lat": 50.8090929,
      "lon": 5.9628124,
      "tags": {
        "amenity": "bench",
        "backrest": "yes"
      }
    },
    {
      "type": "node",
      "id": 6336921957,
      "lat": 50.8092978,
      "lon": 5.9520103,
      "tags": {
        "amenity": "bench",
        "backrest": "yes"
      }
    },
    {
      "type": "node",
      "id": 6338310831,
      "lat": 50.8201836,
      "lon": 5.9647951,
      "tags": {
        "amenity": "bench",
        "backrest": "yes"
      }
    },
    {
      "type": "node",
      "id": 6339963980,
      "lat": 50.8179864,
      "lon": 5.9394929,
      "tags": {
        "amenity": "bench",
        "backrest": "yes"
      }
    },
    {
      "type": "node",
      "id": 6340554256,
      "lat": 50.8221855,
      "lon": 5.9376439,
      "tags": {
        "amenity": "bench",
        "backrest": "yes"
      }
    },
    {
      "type": "node",
      "id": 6348479133,
      "lat": 50.8449288,
      "lon": 5.9603095,
      "tags": {
        "amenity": "bench",
        "backrest": "yes"
      }
    },
    {
      "type": "node",
      "id": 6348479250,
      "lat": 50.8467062,
      "lon": 5.9592824,
      "tags": {
        "amenity": "bench",
        "backrest": "yes"
      }
    },
    {
      "type": "node",
      "id": 6386074436,
      "lat": 50.8303727,
      "lon": 5.9622691,
      "tags": {
        "amenity": "bench",
        "backrest": "yes"
      }
    },
    {
      "type": "node",
      "id": 6386075305,
      "lat": 50.8289317,
      "lon": 5.9460297,
      "tags": {
        "amenity": "bench",
        "backrest": "yes"
      }
    },
    {
      "type": "node",
      "id": 6452068118,
      "lat": 50.7946507,
      "lon": 5.930307,
      "tags": {
        "amenity": "bench",
        "backrest": "yes"
      }
    },
    {
      "type": "node",
      "id": 6452068119,
      "lat": 50.7952225,
      "lon": 5.926052,
      "tags": {
        "amenity": "bench",
        "backrest": "yes"
      }
    },
    {
      "type": "node",
      "id": 6452068126,
      "lat": 50.7952826,
      "lon": 5.9268711,
      "tags": {
        "amenity": "bench",
        "backrest": "yes"
      }
    },
    {
      "type": "node",
      "id": 6452068129,
      "lat": 50.7954162,
      "lon": 5.9289455,
      "tags": {
        "amenity": "bench",
        "backrest": "yes"
      }
    },
    {
      "type": "node",
      "id": 6452068132,
      "lat": 50.7937432,
      "lon": 5.925622,
      "tags": {
        "amenity": "bench",
        "backrest": "yes"
      }
    },
    {
      "type": "node",
      "id": 6452068137,
      "lat": 50.7950141,
      "lon": 5.9246202,
      "tags": {
        "amenity": "bench",
        "backrest": "yes"
      }
    },
    {
      "type": "node",
      "id": 6452068142,
      "lat": 50.7952026,
      "lon": 5.9246036,
      "tags": {
        "amenity": "bench",
        "backrest": "yes"
      }
    },
    {
      "type": "node",
      "id": 6452068143,
      "lat": 50.7936938,
      "lon": 5.9301521,
      "tags": {
        "amenity": "bench",
        "backrest": "yes"
      }
    },
    {
      "type": "node",
      "id": 6452068144,
      "lat": 50.795198,
      "lon": 5.9260671,
      "tags": {
        "amenity": "bench",
        "backrest": "yes"
      }
    },
    {
      "type": "node",
      "id": 6452068163,
      "lat": 50.7951349,
      "lon": 5.9245638,
      "tags": {
        "amenity": "bench",
        "backrest": "yes"
      }
    },
    {
      "type": "node",
      "id": 6452068172,
      "lat": 50.7953917,
      "lon": 5.9276605,
      "tags": {
        "amenity": "bench",
        "backrest": "yes"
      }
    },
    {
      "type": "node",
      "id": 6452068175,
      "lat": 50.7937198,
      "lon": 5.9244581,
      "tags": {
        "amenity": "bench",
        "backrest": "yes"
      }
    },
    {
      "type": "node",
      "id": 6452068180,
      "lat": 50.7942915,
      "lon": 5.9243396,
      "tags": {
        "leisure": "picnic_table"
      }
    },
    {
      "type": "node",
      "id": 6456539465,
      "lat": 50.8202812,
      "lon": 5.9007322,
      "tags": {
        "amenity": "bench",
        "backrest": "yes"
      }
    },
    {
      "type": "node",
      "id": 6456539466,
      "lat": 50.8202973,
      "lon": 5.9008964,
      "tags": {
        "amenity": "bench",
        "backrest": "yes"
      }
    },
    {
      "type": "node",
      "id": 6576849843,
      "lat": 50.8157952,
      "lon": 5.9424969,
      "tags": {
        "amenity": "bench"
      }
    },
    {
      "type": "node",
      "id": 7018173302,
      "lat": 50.8292092,
      "lon": 5.9531308,
      "tags": {
        "amenity": "bench",
        "backrest": "yes",
        "colour": "brown",
        "direction": "45",
        "material": "wood",
        "seats": "3"
      }
    },
    {
      "type": "node",
      "id": 7100083681,
      "lat": 50.8135037,
      "lon": 5.9476245,
      "tags": {
        "amenity": "bench"
      }
    },
    {
      "type": "node",
      "id": 7100091824,
      "lat": 50.8001625,
      "lon": 5.9285152,
      "tags": {
        "amenity": "bench"
      }
    },
    {
      "type": "node",
      "id": 7100109184,
      "lat": 50.8182713,
      "lon": 5.8949759,
      "tags": {
        "amenity": "bench"
      }
    },
    {
      "type": "node",
      "id": 7100117109,
      "lat": 50.8207828,
      "lon": 5.911192,
      "tags": {
        "amenity": "bench",
        "direction": "270"
      }
    },
    {
      "type": "node",
      "id": 7100120207,
      "lat": 50.8109778,
      "lon": 5.9070435,
      "tags": {
        "amenity": "bench"
      }
    },
    {
      "type": "node",
      "id": 7100120460,
      "lat": 50.8171956,
      "lon": 5.8941088,
      "tags": {
        "amenity": "bench"
      }
    },
    {
      "type": "node",
      "id": 7100140977,
      "lat": 50.8155875,
      "lon": 5.8917299,
      "tags": {
        "amenity": "bench"
      }
    },
    {
      "type": "node",
      "id": 7100141361,
      "lat": 50.800183,
      "lon": 5.9285151,
      "tags": {
        "amenity": "bench"
      }
    },
    {
      "type": "node",
      "id": 7100143438,
      "lat": 50.817142,
      "lon": 5.8940742,
      "tags": {
        "amenity": "bench"
      }
    },
    {
      "type": "node",
      "id": 7100144863,
      "lat": 50.7924351,
      "lon": 5.9379281,
      "tags": {
        "amenity": "bench"
      }
    },
    {
      "type": "node",
      "id": 7100145016,
      "lat": 50.8177507,
      "lon": 5.8943,
      "tags": {
        "amenity": "bench"
      }
    },
    {
      "type": "node",
      "id": 7160507184,
      "lat": 50.8201268,
      "lon": 5.9210789,
      "tags": {
        "amenity": "bench",
        "backrest": "yes",
        "material": "wood",
        "seats": "4"
      }
    },
    {
      "type": "node",
      "id": 7160548585,
      "lat": 50.8201062,
      "lon": 5.9212313,
      "tags": {
        "covered": "no",
        "leisure": "picnic_table"
      }
    },
    {
      "type": "node",
      "id": 7160548586,
      "lat": 50.8200493,
      "lon": 5.9212735,
      "tags": {
        "amenity": "bench",
        "backrest": "yes",
        "material": "wood",
        "seats": "5"
      }
    },
    {
      "type": "node",
      "id": 7160548587,
      "lat": 50.8203531,
      "lon": 5.9204253,
      "tags": {
        "amenity": "bench",
        "backrest": "yes",
        "material": "wood",
        "seats": "4"
      }
    },
    {
      "type": "node",
      "id": 7160548588,
      "lat": 50.8201671,
      "lon": 5.9209454,
      "tags": {
        "covered": "no",
        "leisure": "picnic_table"
      }
    },
    {
      "type": "node",
      "id": 7160548589,
      "lat": 50.8205319,
      "lon": 5.9203429,
      "tags": {
        "amenity": "bench",
        "backrest": "yes",
        "material": "wood",
        "seats": "4"
      }
    },
    {
      "type": "node",
      "id": 7496673485,
      "lat": 50.8301699,
      "lon": 5.9173926,
      "tags": {
        "amenity": "bench"
      }
    },
    {
      "type": "node",
      "id": 7504306552,
      "lat": 50.8302565,
      "lon": 5.9282911,
      "tags": {
        "amenity": "bench",
        "backrest": "yes",
        "material": "wood",
        "seats": "5"
      }
    },
    {
      "type": "node",
      "id": 7544802649,
      "lat": 50.8087082,
      "lon": 5.9069915,
      "tags": {
        "amenity": "bench",
        "backrest": "yes",
        "material": "wood",
        "seats": "4"
      }
    },
    {
      "type": "node",
      "id": 7928209207,
      "lat": 50.814772,
      "lon": 5.9465368,
      "tags": {
        "information": "board",
        "tourism": "information"
      }
    },
    {
      "type": "node",
      "id": 8010514819,
      "lat": 50.8342834,
      "lon": 5.9750048,
      "tags": {
        "amenity": "drinking_water",
        "bottle": "yes",
        "fee": "no",
        "operator": "Waterleiding Maatschappij Limburg",
        "seasonal": "yes",
        "website": "https://www.wml.nl/alles-over-water/limburgs-water-drinken/watertaps-in-de-buurt"
      }
    },
    {
      "type": "node",
      "id": 8246074948,
      "lat": 50.8203131,
      "lon": 5.9207155,
      "tags": {
        "covered": "no",
        "leisure": "picnic_table"
      }
    },
    {
      "type": "node",
      "id": 8246074949,
      "lat": 50.8205279,
      "lon": 5.9205406,
      "tags": {
        "amenity": "bench",
        "backrest": "yes",
        "material": "wood",
        "seats": "4"
      }
    },
    {
      "type": "node",
      "id": 8594545795,
      "lat": 50.8128659,
      "lon": 5.9280935,
      "tags": {
        "amenity": "bench",
        "backrest": "yes"
      }
    },
    {
      "type": "node",
      "id": 8594545797,
      "lat": 50.8133216,
      "lon": 5.9306572,
      "tags": {
        "amenity": "bench",
        "backrest": "yes"
      }
    },
    {
      "type": "node",
      "id": 8594545798,
      "lat": 50.8132438,
      "lon": 5.9305662,
      "tags": {
        "information": "board",
        "tourism": "information"
      }
    },
    {
      "type": "node",
      "id": 8594545799,
      "lat": 50.8135954,
      "lon": 5.9332742,
      "tags": {
        "information": "board",
        "tourism": "information"
      }
    },
    {
      "type": "node",
      "id": 8594545800,
      "lat": 50.8132888,
      "lon": 5.9331921,
      "tags": {
        "information": "board",
        "tourism": "information"
      }
    },
    {
      "type": "node",
      "id": 8594545801,
      "lat": 50.8129026,
      "lon": 5.9328148,
      "tags": {
        "amenity": "bench",
        "backrest": "yes"
      }
    },
    {
      "type": "node",
      "id": 8594545802,
      "lat": 50.8121683,
      "lon": 5.9322857,
      "tags": {
        "information": "board",
        "tourism": "information"
      }
    },
    {
      "type": "node",
      "id": 8594545804,
      "lat": 50.8143142,
      "lon": 5.9444996,
      "tags": {
        "amenity": "bench",
        "backrest": "yes"
      }
    },
    {
      "type": "node",
      "id": 8594545805,
      "lat": 50.8240643,
      "lon": 5.9489677,
      "tags": {
        "amenity": "bench",
        "backrest": "yes"
      }
    },
    {
      "type": "node",
      "id": 8594545806,
      "lat": 50.8241168,
      "lon": 5.9488922,
      "tags": {
        "amenity": "bench",
        "backrest": "yes"
      }
    },
    {
      "type": "node",
      "id": 8594572524,
      "lat": 50.8202785,
      "lon": 5.9208881,
      "tags": {
        "information": "board",
        "tourism": "information"
      }
    },
    {
      "type": "node",
      "id": 8594704754,
      "lat": 50.8283977,
      "lon": 5.9369455,
      "tags": {
        "information": "board",
        "tourism": "information"
      }
    },
    {
      "type": "node",
      "id": 8594704758,
      "lat": 50.8265166,
      "lon": 5.9208148,
      "tags": {
        "amenity": "bench",
        "backrest": "yes"
      }
    },
    {
      "type": "node",
      "id": 8693202480,
      "lat": 50.8304078,
      "lon": 5.972583,
      "tags": {
        "amenity": "bench"
      }
    },
    {
      "type": "node",
      "id": 8762602988,
      "lat": 50.8321396,
      "lon": 5.9224476,
      "tags": {
        "amenity": "parking"
      }
    },
    {
      "type": "node",
      "id": 8781450725,
      "lat": 50.804694,
      "lon": 5.9184155,
      "tags": {
        "amenity": "bench"
      }
    },
    {
      "type": "way",
      "id": 41526933,
      "nodes": [
        508572039,
        508572040,
        508572034,
        5035461836,
        508572036,
        508572037,
        5035461837,
        508572041,
        508572044,
        508572039
      ],
      "tags": {
        "access": "yes",
        "amenity": "parking",
        "capacity:disabled": "1",
        "fee": "no",
        "lit": "yes",
        "name": "Dokter Janssenplein",
        "opening_hours": "24/7",
        "parking": "surface",
        "smoothness": "good",
        "supervised": "no",
        "surface": "paving_stones"
      }
    },
    {
      "type": "way",
      "id": 147948738,
      "nodes": [
        908775856,
        908896243,
        908781644,
        908804001,
        908769172,
        908774473,
        2795968053,
        908857684,
        908863573,
        1610664920,
        908775856
      ],
      "tags": {
        "access": "yes",
        "amenity": "parking",
        "capacity:disabled": "yes",
        "capacity:parent": "no",
        "capacity:women": "no",
        "fee": "no",
        "park_ride": "no",
        "parking": "surface"
      }
    },
    {
      "type": "way",
      "id": 148683525,
      "nodes": [
        1617633738,
        908823733,
        6456399017,
        6456399014,
        6456399018,
        6456399013,
        6456399012,
        6456399015,
        6456399016,
        6456399009,
        6456399011,
        6456399010,
        1617633731,
        1617633728,
        6456399008,
        6456399006,
        6456399005,
        6456399007,
        6456399004,
        1617633732,
        8286020145,
        8286020146,
        8286020147,
        8286020148,
        8286020149,
        6456398989,
        6456398990,
        6456398991,
        8286020150,
        8286020151,
        8286020152,
        8286020153,
        8286020154,
        2526135646,
        1617633740,
        6456396346,
        5171788775,
        5171788774,
        5171788776,
        5171788773,
        6456396344,
        6456396345,
        1617633738
      ],
      "tags": {
        "access": "yes",
        "amenity": "parking",
        "capacity": "200",
        "fee": "no",
        "parking": "surface"
      }
    },
    {
      "type": "way",
      "id": 220018829,
      "nodes": [
        2291413442,
        3837299190,
        2291413448,
        2291413445,
        3837299189,
        2291413432,
        2291413435,
        2291413437,
        3837299191,
        2291413444,
        2291413454,
        2291413441,
        2291413457,
        3837299182,
        2291413436,
        2291413456,
        2291413451,
        2291413450,
        2291413433,
        2291413442
      ],
      "tags": {
        "amenity": "parking"
      }
    },
    {
      "type": "way",
      "id": 220018958,
      "nodes": [
        2291416421,
        2291416427,
        2291416430,
        2291416419,
        2291416420,
        2291416415,
        2291416421
      ],
      "tags": {
        "amenity": "parking"
      }
    },
    {
      "type": "way",
      "id": 233783391,
      "nodes": [
        2421195976,
        2421195978,
        2421195985,
        2421197073,
        1747794272,
        2421195970,
        2421195984,
        2421195972,
        2421195971,
        3304833272,
        2421195976
      ],
      "tags": {
        "access": "customers",
        "amenity": "parking",
        "fee": "no",
        "parking": "surface",
        "surface": "asphalt"
      }
    },
    {
      "type": "way",
      "id": 247126103,
      "nodes": [
        2540655156,
        2540655149,
        6793872961,
        6793872960,
        2540655163,
        2540655160,
        2540655171,
        6793872959,
        2540655168,
        2540655164,
        2540655156
      ],
      "tags": {
        "amenity": "parking"
      }
    },
    {
      "type": "way",
      "id": 274354921,
      "nodes": [
        2790947935,
        2790947451,
        9326680666,
        2790947494,
        2790947957,
        7862619195,
        2790947935
      ],
      "tags": {
        "man_made": "watermill",
        "name": "Onderste Molen",
        "start_date": "1876",
        "wikidata": "Q1894780",
        "wikipedia": "nl:Onderste Molen (Mechelen)"
      }
    },
    {
      "type": "way",
      "id": 276810405,
      "nodes": [
        2813893536,
        2813893523,
        2813893529,
        2813893503,
        2813895191,
        2813893958,
        6351573616,
        2813893938,
        7209405933,
        2041932795,
        6351574548,
        2813893552,
        2813893563,
        2813893588,
        2813893536
      ],
      "tags": {
        "building": "yes",
        "man_made": "watermill",
        "name": "Molen Otten",
        "ref:bag": "1729100001035853",
        "source": "BAG",
        "source:date": "2014-03-24",
        "start_date": "1776",
        "wikidata": "Q2566957",
        "wikipedia": "nl:Molen van Otten"
      }
    },
    {
      "type": "way",
      "id": 285798061,
      "nodes": [
        2894287465,
        2894287462,
        2894287460,
        2894287456,
        2894287457,
        2894287458,
        2894287461,
        2894287465
      ],
      "tags": {
        "amenity": "parking"
      }
    },
    {
      "type": "way",
      "id": 310622255,
      "nodes": [
        3160748658,
        3160748659,
        6452623216,
        6452623217,
        6452623218,
        6452623219,
        3160748660,
        3160749864,
        3160749861,
        6452623210,
        6452623221,
        908852515,
        6452623220,
        3160749862,
        6452623222,
        3160748658
      ],
      "tags": {
        "amenity": "parking"
      }
    },
    {
      "type": "way",
      "id": 320279408,
      "nodes": [
        908905167,
        5024963487,
        5024963431,
        5024963430,
        5024963429,
        5024963488,
        5024963489,
        908788844,
        908786615,
        5024963427,
        5024963426,
        5024963428,
        908881770,
        5024963435,
        5024963434,
        908905167
      ],
      "tags": {
        "amenity": "parking",
        "name": "Panoramaweg"
      }
    },
    {
      "type": "way",
      "id": 326270043,
      "nodes": [
        3328896726,
        5029659546,
        908881451,
        5029659582,
        5029659579,
        5029659578,
        5029659580,
        5029659581,
        5029659559,
        5029659560,
        5029659561,
        5029659565,
        5029659563,
        5029659562,
        5029659564,
        5029659557,
        3328896729,
        5029659549,
        3328896728,
        5029659570,
        5029659568,
        5029659566,
        5029659567,
        5029659569,
        3328896727,
        5029659572,
        5029659571,
        5029659573,
        5029659576,
        5029659575,
        5029659574,
        5029659577,
        3328896726
      ],
      "tags": {
        "amenity": "parking"
      }
    },
    {
      "type": "way",
      "id": 326270046,
      "nodes": [
        3328896739,
        2791542974,
        2791542846,
        3328896730,
        3328896731,
        3328896733,
        908775589,
        908874858,
        908807207,
        908863585,
        908851080,
        3328896741,
        3328896739
      ],
      "tags": {
        "amenity": "parking"
      }
    },
    {
      "type": "way",
      "id": 326270048,
      "nodes": [
        3328896740,
        3328896736,
        3328896734,
        3328896737,
        3328896735,
        3328896738,
        3328896740
      ],
      "tags": {
        "amenity": "parking"
      }
    },
    {
      "type": "way",
      "id": 361832196,
      "nodes": [
        5177180553,
        5177180552,
        3662558566,
        5177180557,
        5177180550,
        3662558567,
        908793445,
        5177180553
      ],
      "tags": {
        "amenity": "parking"
      }
    },
    {
      "type": "way",
      "id": 380413010,
      "nodes": [
        3837471468,
        3837471466,
        3837471465,
        3837471467,
        3837471468
      ],
      "tags": {
        "amenity": "parking",
        "parking": "surface",
        "surface": "paving_stones"
      }
    },
    {
      "type": "way",
      "id": 421948600,
      "nodes": [
        4216839613,
        4216839614,
        4216839615,
        4216839616,
        4216839613
      ],
      "tags": {
        "access": "customers",
        "amenity": "parking",
        "fee": "no",
        "parking": "surface",
        "surface": "concrete"
      }
    },
    {
      "type": "way",
      "id": 454379106,
      "nodes": [
        4509413116,
        4509413115,
        4509413114,
        6336921976,
        908778348,
        908893337,
        8920721163,
        8920721162,
        8920721164,
        4509413117,
        4509413116
      ],
      "tags": {
        "amenity": "parking"
      }
    },
    {
      "type": "way",
      "id": 461571633,
      "nodes": [
        908898163,
        6382799806,
        908877962,
        6382799805,
        6382799804,
        908909095,
        908770090,
        6382799803,
        6382799802,
        908789487,
        908849913,
        909327431,
        6382799801,
        6382799794,
        908870605,
        6382799795,
        6382799796,
        6382799797,
        6382799798,
        6382799799,
        6382799800,
        908898163
      ],
      "tags": {
        "amenity": "parking"
      }
    },
    {
      "type": "way",
      "id": 484206325,
      "nodes": [
        908843200,
        908784335,
        4769464899,
        4769464901,
        908775436,
        908843200
      ],
      "tags": {
        "amenity": "parking"
      }
    },
    {
      "type": "way",
      "id": 490490974,
      "nodes": [
        4826751536,
        4826751535,
        4826751549,
        4826751550,
        4826751551,
        4826751552,
        4826751553,
        4826751554,
        4826751536
      ],
      "tags": {
        "amenity": "parking",
        "parking": "surface"
      }
    },
    {
      "type": "way",
      "id": 493043885,
      "nodes": [
        4849873859,
        4849873858,
        4849873857,
        4849873856,
        5380019057,
        908895957,
        4849873859
      ],
      "tags": {
        "amenity": "parking"
      }
    },
    {
      "type": "way",
      "id": 493043888,
      "nodes": [
        4849873864,
        4849873863,
        2813892660,
        4849873862,
        4849873861,
        4849873864
      ],
      "tags": {
        "amenity": "parking",
        "capacity": "3"
      }
    },
    {
      "type": "way",
      "id": 520025480,
      "nodes": [
        5069464655,
        5069464656,
        5069464657,
        5069464658,
        5069464659,
        5069464660,
        5069464661,
        5069464662,
        5069464663,
        5069464664,
        5069464665,
        5069464666,
        5069464655
      ],
      "tags": {
        "amenity": "parking",
        "landuse": "residential"
      }
    },
    {
      "type": "way",
      "id": 577878421,
      "nodes": [
        5538902303,
        5538902429,
        5538902430,
        5538902290,
        5538902303
      ],
      "tags": {
        "amenity": "parking"
      }
    },
    {
      "type": "way",
      "id": 577878426,
      "nodes": [
        5538902305,
        5538902426,
        6384488334,
        6384488335,
        5538902307,
        5538902308,
        5538902305
      ],
      "tags": {
        "amenity": "parking"
      }
    },
    {
      "type": "way",
      "id": 586598842,
      "nodes": [
        5604323972,
        5604323971,
        9269938175,
        9269938174,
        5604323970,
        5604323972
      ],
      "tags": {
        "access": "yes",
        "amenity": "parking",
        "fee": "no",
        "name": "Prins Willem Alexanderplein",
        "parking": "surface"
      }
    },
    {
      "type": "way",
      "id": 640073525,
      "nodes": [
        6030127498,
        6030127497,
        6030127496,
        6030127495,
        6030127498
      ],
      "tags": {
        "access": "customers",
        "amenity": "parking",
        "parking": "surface",
        "surface": "fine_gravel"
      }
    },
    {
      "type": "way",
      "id": 648248631,
      "nodes": [
        6086303828,
        6086303827,
        6502506000,
        6502505999,
        6502505998,
        6502505997,
        6502505996,
        6502505995,
        6502505994,
        6502505993,
        6086303826,
        6502505992,
        6502506001,
        6086303825,
        6502506002,
        6502506003,
        6086303828
      ],
      "tags": {
        "amenity": "parking"
      }
    },
    {
      "type": "way",
      "id": 648248632,
      "nodes": [
        6086303832,
        6086303831,
        6086303830,
        6086303829,
        6086303832
      ],
      "tags": {
        "amenity": "parking"
      }
    },
    {
      "type": "way",
      "id": 648248637,
      "nodes": [
        6086303852,
        6086303851,
        6502506038,
        6502506037,
        6502506017,
        6086303850,
        6086303849,
        6086303852
      ],
      "tags": {
        "amenity": "parking"
      }
    },
    {
      "type": "way",
      "id": 662841312,
      "nodes": [
        6205101736,
        6205101735,
        6205101734,
        6205101733,
        6205101732,
        6205101731,
        6205101730,
        6205101729,
        6205101728,
        6205101727,
        6205101736
      ],
      "tags": {
        "amenity": "parking"
      }
    },
    {
      "type": "way",
      "id": 686276537,
      "nodes": [
        6432460898,
        6432460900,
        6432460899,
        908901544,
        6432460897,
        6514633798,
        6514633797,
        6432460898
      ],
      "tags": {
        "amenity": "parking"
      }
    },
    {
      "type": "way",
      "id": 688413590,
      "nodes": [
        6455392074,
        6455392073,
        6455392072,
        6455392070,
        6455392075,
        6455392071,
        7575762326,
        6455392074
      ],
      "tags": {
        "amenity": "parking",
        "motorcar": "yes",
        "surface": "grass"
      }
    },
    {
      "type": "way",
      "id": 692681788,
      "nodes": [
        6503116130,
        6503116129,
        6503116128,
        6503116127,
        6503116126,
        6503116125,
        6503116130
      ],
      "tags": {
        "access": "yes",
        "amenity": "parking",
        "fee": "no",
        "opening_hours": "24/7",
        "parking": "surface",
        "surface": "asphalt"
      }
    },
    {
      "type": "way",
      "id": 776719429,
      "nodes": [
        7247170230,
        7247170231,
        41955665,
        7247170232,
        7247170230
      ],
      "tags": {
        "amenity": "parking"
      }
    },
    {
      "type": "way",
      "id": 776719439,
      "nodes": [
        7247170251,
        7247170256,
        7247170252,
        7247170253,
        7247170254,
        7247170251
      ],
      "tags": {
        "amenity": "parking",
        "operator": "Van Wachtendonckplein"
      }
    },
    {
      "type": "way",
      "id": 776719442,
      "nodes": [
        908811511,
        908769826,
        41952201,
        7247170264,
        7247170265,
        7247170266,
        908877543,
        908811511
      ],
      "tags": {
        "amenity": "parking"
      }
    },
    {
      "type": "way",
      "id": 879577157,
      "nodes": [
        2512446465,
        8182417508,
        8182417507,
        8182417506,
        9239927837,
        9239927839,
        9239927838,
        8182417505,
        2512446465
      ],
      "tags": {
        "amenity": "parking",
        "parking": "surface"
      }
    },
    {
      "type": "way",
      "id": 891188928,
      "nodes": [
        8283051054,
        8283051053,
        8283051052,
        8283051051,
        8283051050,
        8283051049,
        8283051048,
        8283051047,
        8283051046,
        8283051045,
        8283051044,
        8283051043,
        8283051042,
        8283051041,
        8283051040,
        8283051054
      ],
      "tags": {
        "amenity": "parking"
      }
    },
    {
      "type": "way",
      "id": 914400654,
      "nodes": [
        8494240754,
        8494240755,
        8494240756,
        8494240757,
        8494240758,
        8494240759,
        8494240763,
        8494240754
      ],
      "tags": {
        "amenity": "parking"
      }
    },
    {
      "type": "way",
      "id": 1004715628,
      "nodes": [
        41933403,
        9269938180,
        9269938179,
        9269938178,
        9269938177,
        9269938176,
        41933403
      ],
      "tags": {
        "amenity": "parking",
        "fee": "no",
        "parking": "surface"
      }
    },
    {
      "type": "node",
      "id": 802273098,
      "lat": 50.7920856,
      "lon": 5.9563965,
      "timestamp": "2017-08-14T20:46:07Z",
      "version": 2,
      "changeset": 51122165,
      "user": "Allroads",
      "uid": 388804,
      "tags": {
        "amenity": "bench",
        "backrest": "yes"
      }
    },
    {
      "type": "node",
      "id": 890974605,
      "lat": 50.8202148,
      "lon": 5.9211588,
      "timestamp": "2020-01-26T15:06:07Z",
      "version": 9,
      "changeset": 80100345,
      "user": "open-steet-map-editor",
      "uid": 7434674,
      "tags": {
        "access": "yes",
        "amenity": "parking",
        "capacity": "14",
        "fee": "no",
        "parking": "surface"
      }
    },
    {
      "type": "node",
      "id": 1452632867,
      "lat": 50.8202051,
      "lon": 5.9008328,
      "timestamp": "2019-05-07T21:31:47Z",
      "version": 6,
      "changeset": 69999853,
      "user": "Allroads",
      "uid": 388804,
      "tags": {
        "board_type": "geology",
        "information": "board",
        "ref": "Waar de Geul en de Gulp samenstromen",
        "ref:de": "Wo sich die Wässer der Göhl und der Gülp vereinigen..",
        "ref:fr": "Ou les rivières Guele et Gulpe se réunissent",
        "tourism": "information"
      }
    },
    {
      "type": "node",
      "id": 1713189613,
      "lat": 50.8032106,
      "lon": 5.9410425,
      "timestamp": "2017-08-15T11:44:56Z",
      "version": 2,
      "changeset": 51138716,
      "user": "Allroads",
      "uid": 388804,
      "tags": {
        "amenity": "bench",
        "backrest": "yes"
      }
    },
    {
      "type": "node",
      "id": 1713197077,
      "lat": 50.8009507,
      "lon": 5.9483978,
      "timestamp": "2012-04-12T19:09:46Z",
      "version": 1,
      "changeset": 11279749,
      "user": "taeke63",
      "uid": 567682,
      "tags": {
        "amenity": "bench"
      }
    },
    {
      "type": "node",
      "id": 1747727113,
      "lat": 50.8363063,
      "lon": 5.9577745,
      "timestamp": "2020-07-05T23:21:58Z",
      "version": 2,
      "changeset": 87568633,
      "user": "Buxtehude",
      "uid": 1433710,
      "tags": {
        "amenity": "bench",
        "backrest": "yes",
        "colour": "brown",
        "material": "plastic",
        "seats": "4"
      }
    },
    {
      "type": "node",
      "id": 1747792636,
      "lat": 50.8300575,
      "lon": 5.9730037,
      "timestamp": "2019-03-10T11:05:35Z",
      "version": 2,
      "changeset": 67985230,
      "user": "dvdhoven",
      "uid": 294028,
      "tags": {
        "amenity": "bench",
        "backrest": "yes",
        "colour": "brown",
        "material": "plastic",
        "seats": "4"
      }
    },
    {
      "type": "node",
      "id": 1747792637,
      "lat": 50.8300677,
      "lon": 5.9730695,
      "timestamp": "2019-03-10T11:05:36Z",
      "version": 2,
      "changeset": 67985230,
      "user": "dvdhoven",
      "uid": 294028,
      "tags": {
        "amenity": "bench",
        "backrest": "yes",
        "colour": "brown",
        "material": "plastic",
        "seats": "4"
      }
    },
    {
      "type": "node",
      "id": 1844094895,
      "lat": 50.8124742,
      "lon": 5.9006585,
      "timestamp": "2017-08-09T18:39:28Z",
      "version": 2,
      "changeset": 50980956,
      "user": "Allroads",
      "uid": 388804,
      "tags": {
        "amenity": "bench",
        "backrest": "yes"
      }
    },
    {
      "type": "node",
      "id": 1844094900,
      "lat": 50.8127826,
      "lon": 5.9002133,
      "timestamp": "2012-07-30T14:55:00Z",
      "version": 1,
      "changeset": 12549193,
      "user": "wimvantklooster",
      "uid": 551953,
      "tags": {
        "amenity": "bench"
      }
    },
    {
      "type": "node",
      "id": 1844114903,
      "lat": 50.8135079,
      "lon": 5.8944847,
      "timestamp": "2017-08-09T22:55:20Z",
      "version": 2,
      "changeset": 50985897,
      "user": "Allroads",
      "uid": 388804,
      "tags": {
        "amenity": "bench",
        "backrest": "yes"
      }
    },
    {
      "type": "node",
      "id": 1844114907,
      "lat": 50.8132445,
      "lon": 5.8979964,
      "timestamp": "2019-05-07T14:51:02Z",
      "version": 2,
      "changeset": 69982872,
      "user": "Allroads",
      "uid": 388804,
      "tags": {
        "amenity": "bench"
      }
    },
    {
      "type": "node",
      "id": 1951041704,
      "lat": 50.8297421,
      "lon": 5.9236116,
      "timestamp": "2021-04-05T09:05:27Z",
      "version": 3,
      "changeset": 102317515,
      "user": "Wolderik",
      "uid": 471204,
      "tags": {
        "amenity": "bench",
        "backrest": "yes",
        "direction": "S"
      }
    },
    {
      "type": "node",
      "id": 1952504522,
      "lat": 50.8202037,
      "lon": 5.8988939,
      "timestamp": "2012-10-08T12:54:46Z",
      "version": 1,
      "changeset": 13412260,
      "user": "Frankl2009",
      "uid": 91749,
      "tags": {
        "amenity": "bench",
        "backrest": "yes"
      }
    },
    {
      "type": "node",
      "id": 1952504544,
      "lat": 50.8208121,
      "lon": 5.9033113,
      "timestamp": "2017-10-16T20:13:30Z",
      "version": 2,
      "changeset": 52994437,
      "user": "Allroads",
      "uid": 388804,
      "tags": {
        "amenity": "bench",
        "backrest": "yes"
      }
    },
    {
      "type": "node",
      "id": 1952504578,
      "lat": 50.8305287,
      "lon": 5.9171881,
      "timestamp": "2012-10-08T12:54:47Z",
      "version": 1,
      "changeset": 13412260,
      "user": "Frankl2009",
      "uid": 91749,
      "tags": {
        "amenity": "bench",
        "backrest": "yes"
      }
    },
    {
      "type": "node",
      "id": 1954470569,
      "lat": 50.8195103,
      "lon": 5.8959946,
      "timestamp": "2012-10-09T08:18:51Z",
      "version": 1,
      "changeset": 13423254,
      "user": "Frankl2009",
      "uid": 91749,
      "tags": {
        "amenity": "bench",
        "backrest": "yes"
      }
    },
    {
      "type": "node",
      "id": 2023262464,
      "lat": 50.7948051,
      "lon": 5.919608,
      "timestamp": "2017-08-09T18:39:28Z",
      "version": 2,
      "changeset": 50980956,
      "user": "Allroads",
      "uid": 388804,
      "tags": {
        "amenity": "bench",
        "backrest": "yes",
        "seats": "4"
      }
    },
    {
      "type": "node",
      "id": 2023262470,
      "lat": 50.7986492,
      "lon": 5.9399925,
      "timestamp": "2017-06-16T23:28:59Z",
      "version": 2,
      "changeset": 49604640,
      "user": "Allroads",
      "uid": 388804,
      "tags": {
        "amenity": "bench",
        "seats": "4"
      }
    },
    {
      "type": "node",
      "id": 2306053390,
      "lat": 50.7980295,
      "lon": 5.9750541,
      "timestamp": "2017-06-19T23:49:10Z",
      "version": 2,
      "changeset": 49680110,
      "user": "Allroads",
      "uid": 388804,
      "tags": {
        "amenity": "bench",
        "backrest": "yes",
        "colour": "brown",
        "material": "wood",
        "seats": "3"
      }
    },
    {
      "type": "node",
      "id": 2362828118,
      "lat": 50.8028582,
      "lon": 5.9286399,
      "timestamp": "2017-08-15T11:44:57Z",
      "version": 2,
      "changeset": 51138716,
      "user": "Allroads",
      "uid": 388804,
      "tags": {
        "amenity": "bench"
      }
    },
    {
      "type": "node",
      "id": 2362828119,
      "lat": 50.8042273,
      "lon": 5.9364465,
      "timestamp": "2013-06-27T08:27:40Z",
      "version": 1,
      "changeset": 16723271,
      "user": "stefffan",
      "uid": 318543,
      "tags": {
        "amenity": "bench"
      }
    },
    {
      "type": "node",
      "id": 2362828120,
      "lat": 50.8052467,
      "lon": 5.9537677,
      "timestamp": "2013-06-27T08:27:40Z",
      "version": 1,
      "changeset": 16723271,
      "user": "stefffan",
      "uid": 318543,
      "tags": {
        "amenity": "bench"
      }
    },
    {
      "type": "node",
      "id": 2408849139,
      "lat": 50.7930407,
      "lon": 5.8962514,
      "timestamp": "2013-08-06T12:45:49Z",
      "version": 1,
      "changeset": 17240848,
      "user": "taeke63",
      "uid": 567682,
      "tags": {
        "amenity": "bench",
        "backrest": "yes",
        "colour": "red",
        "material": "wood",
        "seats": "4"
      }
    },
    {
      "type": "node",
      "id": 2408849148,
      "lat": 50.801262,
      "lon": 5.9043213,
      "timestamp": "2013-08-06T12:45:50Z",
      "version": 1,
      "changeset": 17240848,
      "user": "taeke63",
      "uid": 567682,
      "tags": {
        "amenity": "bench",
        "backrest": "yes",
        "colour": "red",
        "material": "wood",
        "seats": "4"
      }
    },
    {
      "type": "node",
      "id": 2408849152,
      "lat": 50.8045704,
      "lon": 5.9017316,
      "timestamp": "2013-08-06T12:45:50Z",
      "version": 1,
      "changeset": 17240848,
      "user": "taeke63",
      "uid": 567682,
      "tags": {
        "amenity": "bench",
        "backrest": "yes",
        "colour": "red",
        "material": "wood",
        "seats": "4"
      }
    },
    {
      "type": "node",
      "id": 2408849153,
      "lat": 50.8062561,
      "lon": 5.9064923,
      "timestamp": "2013-08-06T12:45:50Z",
      "version": 1,
      "changeset": 17240848,
      "user": "taeke63",
      "uid": 567682,
      "tags": {
        "amenity": "bench",
        "backrest": "yes",
        "colour": "brown",
        "material": "wood",
        "seats": "4"
      }
    },
    {
      "type": "node",
      "id": 2408849154,
      "lat": 50.8065845,
      "lon": 5.9110296,
      "timestamp": "2017-08-09T18:39:29Z",
      "version": 2,
      "changeset": 50980956,
      "user": "Allroads",
      "uid": 388804,
      "tags": {
        "amenity": "bench",
        "backrest": "yes",
        "colour": "red",
        "material": "wood",
        "seats": "4"
      }
    },
    {
      "type": "node",
      "id": 2466903867,
      "lat": 50.8016196,
      "lon": 5.8997896,
      "timestamp": "2021-03-30T18:50:31Z",
      "version": 3,
      "changeset": 102004353,
      "user": "Luc Heres",
      "uid": 11259305,
      "tags": {
        "amenity": "bench"
      }
    },
    {
      "type": "node",
      "id": 2493256258,
      "lat": 50.8106869,
      "lon": 5.9372838,
      "timestamp": "2013-10-12T00:29:57Z",
      "version": 1,
      "changeset": 18306854,
      "user": "padvinder",
      "uid": 978786,
      "tags": {
        "amenity": "parking"
      }
    },
    {
      "type": "node",
      "id": 2493259596,
      "lat": 50.7950376,
      "lon": 5.9193025,
      "timestamp": "2013-10-12T00:38:12Z",
      "version": 1,
      "changeset": 18306957,
      "user": "padvinder",
      "uid": 978786,
      "tags": {
        "amenity": "bench"
      }
    },
    {
      "type": "node",
      "id": 2807568563,
      "lat": 50.8261523,
      "lon": 5.9275451,
      "timestamp": "2017-10-17T17:19:14Z",
      "version": 2,
      "changeset": 53017931,
      "user": "Allroads",
      "uid": 388804,
      "tags": {
        "amenity": "bench"
      }
    },
    {
      "type": "node",
      "id": 2807579264,
      "lat": 50.8116376,
      "lon": 5.9400659,
      "timestamp": "2019-03-14T04:40:16Z",
      "version": 2,
      "changeset": 68123272,
      "user": "Allroads",
      "uid": 388804,
      "tags": {
        "amenity": "bench"
      }
    },
    {
      "type": "node",
      "id": 2807579265,
      "lat": 50.8137235,
      "lon": 5.9408045,
      "timestamp": "2021-07-15T21:50:34Z",
      "version": 5,
      "changeset": 108075352,
      "user": "fghj753",
      "uid": 10394095,
      "tags": {
        "amenity": "bench",
        "backrest": "yes",
        "colour": "green",
        "material": "wood",
        "seats": "3"
      }
    },
    {
      "type": "node",
      "id": 2807579267,
      "lat": 50.8168517,
      "lon": 5.9478323,
      "timestamp": "2019-03-14T18:33:15Z",
      "version": 2,
      "changeset": 68147149,
      "user": "Allroads",
      "uid": 388804,
      "tags": {
        "amenity": "bench",
        "backrest": "yes"
      }
    },
    {
      "type": "node",
      "id": 2807579268,
      "lat": 50.8147777,
      "lon": 5.9464937,
      "timestamp": "2019-03-14T18:33:15Z",
      "version": 2,
      "changeset": 68147149,
      "user": "Allroads",
      "uid": 388804,
      "tags": {
        "amenity": "bench"
      }
    },
    {
      "type": "node",
      "id": 3160688240,
      "lat": 50.8322422,
      "lon": 5.923221,
      "timestamp": "2014-11-01T07:47:56Z",
      "version": 1,
      "changeset": 26476713,
      "user": "EOSfoto",
      "uid": 1296171,
      "tags": {
        "amenity": "bench",
        "backrest": "yes"
      }
    },
    {
      "type": "node",
      "id": 3160688241,
      "lat": 50.8322255,
      "lon": 5.9233378,
      "timestamp": "2014-11-01T07:47:56Z",
      "version": 1,
      "changeset": 26476713,
      "user": "EOSfoto",
      "uid": 1296171,
      "tags": {
        "amenity": "bench",
        "backrest": "yes"
      }
    },
    {
      "type": "node",
      "id": 3160688242,
      "lat": 50.8318128,
      "lon": 5.9097301,
      "timestamp": "2017-10-19T21:36:14Z",
      "version": 2,
      "changeset": 53082958,
      "user": "Allroads",
      "uid": 388804,
      "tags": {
        "amenity": "bench"
      }
    },
    {
      "type": "node",
      "id": 3160688243,
      "lat": 50.8313517,
      "lon": 5.9107669,
      "timestamp": "2014-11-01T07:47:56Z",
      "version": 1,
      "changeset": 26476713,
      "user": "EOSfoto",
      "uid": 1296171,
      "tags": {
        "amenity": "bench",
        "backrest": "yes"
      }
    },
    {
      "type": "node",
      "id": 3160688244,
      "lat": 50.8359771,
      "lon": 5.9213278,
      "timestamp": "2014-12-07T20:55:10Z",
      "version": 2,
      "changeset": 27320578,
      "user": "Martin Borsje",
      "uid": 99810,
      "tags": {
        "amenity": "bench"
      }
    },
    {
      "type": "node",
      "id": 3160698245,
      "lat": 50.8380128,
      "lon": 5.9125041,
      "timestamp": "2014-11-01T07:48:44Z",
      "version": 1,
      "changeset": 26476734,
      "user": "EOSfoto",
      "uid": 1296171,
      "tags": {
        "amenity": "bench",
        "backrest": "yes"
      }
    },
    {
      "type": "node",
      "id": 3160748657,
      "lat": 50.8455892,
      "lon": 5.937828,
      "timestamp": "2019-03-31T00:17:41Z",
      "version": 3,
      "changeset": 68712573,
      "user": "Allroads",
      "uid": 388804,
      "tags": {
        "amenity": "bench",
        "backrest": "yes"
      }
    },
    {
      "type": "node",
      "id": 3160750112,
      "lat": 50.8454897,
      "lon": 5.9522639,
      "timestamp": "2018-07-23T18:43:20Z",
      "version": 3,
      "changeset": 60996393,
      "user": "EOSfoto",
      "uid": 1296171,
      "tags": {
        "amenity": "bench",
        "backrest": "yes"
      }
    },
    {
      "type": "node",
      "id": 3160750113,
      "lat": 50.8454016,
      "lon": 5.9531861,
      "timestamp": "2019-05-06T18:17:34Z",
      "version": 3,
      "changeset": 69946981,
      "user": "Allroads",
      "uid": 388804,
      "tags": {
        "amenity": "bench",
        "backrest": "yes"
      }
    },
    {
      "type": "node",
      "id": 3327553145,
      "lat": 50.8272031,
      "lon": 5.9310208,
      "timestamp": "2018-11-17T21:19:55Z",
      "version": 4,
      "changeset": 64607075,
      "user": "open-steet-map-editor",
      "uid": 7434674,
      "tags": {
        "amenity": "bench",
        "backrest": "yes",
        "material": "wood",
        "seats": "4"
      }
    },
    {
      "type": "node",
      "id": 3581664495,
      "lat": 50.8250049,
      "lon": 5.9067398,
      "timestamp": "2015-06-08T20:16:06Z",
      "version": 1,
      "changeset": 31828248,
      "user": "Jarien",
      "uid": 395348,
      "tags": {
        "amenity": "bench",
        "backrest": "yes",
        "material": "wood"
      }
    },
    {
      "type": "node",
      "id": 3662558571,
      "lat": 50.8335086,
      "lon": 5.9257389,
      "timestamp": "2017-10-19T21:36:15Z",
      "version": 2,
      "changeset": 53082958,
      "user": "Allroads",
      "uid": 388804,
      "tags": {
        "amenity": "bench",
        "backrest": "yes"
      }
    },
    {
      "type": "node",
      "id": 3682128086,
      "lat": 50.8155269,
      "lon": 5.8949632,
      "timestamp": "2019-12-03T12:31:40Z",
      "version": 2,
      "changeset": 77876588,
      "user": "Infodisiac",
      "uid": 8367,
      "tags": {
        "amenity": "drinking_water",
        "bottle": "yes",
        "operator": "WML Limburgs drinkwater",
        "seasonal": "yes"
      }
    },
    {
      "type": "node",
      "id": 3837113262,
      "lat": 50.8437463,
      "lon": 5.9756921,
      "timestamp": "2015-11-15T11:37:55Z",
      "version": 1,
      "changeset": 35325690,
      "user": "Hendrikklaas",
      "uid": 657581,
      "tags": {
        "amenity": "bench"
      }
    },
    {
      "type": "node",
      "id": 3837825115,
      "lat": 50.8451891,
      "lon": 5.9690126,
      "timestamp": "2015-11-15T19:28:09Z",
      "version": 1,
      "changeset": 35335046,
      "user": "Hendrikklaas",
      "uid": 657581,
      "tags": {
        "amenity": "bench",
        "backrest": "yes",
        "colour": "brown",
        "material": "wood",
        "seats": "5"
      }
    },
    {
      "type": "node",
      "id": 4805053186,
      "lat": 50.8409497,
      "lon": 5.9102629,
      "timestamp": "2017-04-20T05:10:26Z",
      "version": 1,
      "changeset": 47959105,
      "user": "EOSfoto",
      "uid": 1296171,
      "tags": {
        "amenity": "bench"
      }
    },
    {
      "type": "node",
      "id": 4858539259,
      "lat": 50.8419629,
      "lon": 5.9652416,
      "timestamp": "2017-05-16T21:24:28Z",
      "version": 1,
      "changeset": 48746355,
      "user": "stefffan",
      "uid": 318543,
      "tags": {
        "amenity": "bench"
      }
    },
    {
      "type": "node",
      "id": 4919854746,
      "lat": 50.7970085,
      "lon": 5.9410041,
      "timestamp": "2021-06-06T08:59:12Z",
      "version": 2,
      "changeset": 105908162,
      "user": "henkvanderspek",
      "uid": 518500,
      "tags": {
        "amenity": "bench",
        "backrest": "yes",
        "material": "wood",
        "seats": "4",
        "survey:date": "2021-06-06"
      }
    },
    {
      "type": "node",
      "id": 4919864877,
      "lat": 50.7922962,
      "lon": 5.926016,
      "timestamp": "2017-06-16T23:28:44Z",
      "version": 1,
      "changeset": 49604640,
      "user": "Allroads",
      "uid": 388804,
      "tags": {
        "amenity": "bench",
        "backrest": "yes"
      }
    },
    {
      "type": "node",
      "id": 5024963315,
      "lat": 50.8138189,
      "lon": 5.9003422,
      "timestamp": "2017-08-09T18:38:52Z",
      "version": 1,
      "changeset": 50980956,
      "user": "Allroads",
      "uid": 388804,
      "tags": {
        "amenity": "bench",
        "backrest": "yes"
      }
    },
    {
      "type": "node",
      "id": 5024963316,
      "lat": 50.813866,
      "lon": 5.9002941,
      "timestamp": "2017-08-09T18:38:52Z",
      "version": 1,
      "changeset": 50980956,
      "user": "Allroads",
      "uid": 388804,
      "tags": {
        "amenity": "bench",
        "backrest": "yes"
      }
    },
    {
      "type": "node",
      "id": 5024963317,
      "lat": 50.8139172,
      "lon": 5.9002479,
      "timestamp": "2017-08-09T18:38:52Z",
      "version": 1,
      "changeset": 50980956,
      "user": "Allroads",
      "uid": 388804,
      "tags": {
        "leisure": "picnic_table"
      }
    },
    {
      "type": "node",
      "id": 5024963318,
      "lat": 50.8140191,
      "lon": 5.9001338,
      "timestamp": "2017-08-09T18:38:52Z",
      "version": 1,
      "changeset": 50980956,
      "user": "Allroads",
      "uid": 388804,
      "tags": {
        "leisure": "picnic_table"
      }
    },
    {
      "type": "node",
      "id": 5024963423,
      "lat": 50.8142212,
      "lon": 5.8992386,
      "timestamp": "2017-08-09T18:38:52Z",
      "version": 1,
      "changeset": 50980956,
      "user": "Allroads",
      "uid": 388804,
      "tags": {
        "amenity": "bench",
        "backrest": "yes"
      }
    },
    {
      "type": "node",
      "id": 5024963424,
      "lat": 50.8141532,
      "lon": 5.8992075,
      "timestamp": "2017-08-09T18:38:52Z",
      "version": 1,
      "changeset": 50980956,
      "user": "Allroads",
      "uid": 388804,
      "tags": {
        "amenity": "bench",
        "backrest": "yes"
      }
    },
    {
      "type": "node",
      "id": 5024963425,
      "lat": 50.8140877,
      "lon": 5.8992103,
      "timestamp": "2017-08-09T18:38:52Z",
      "version": 1,
      "changeset": 50980956,
      "user": "Allroads",
      "uid": 388804,
      "tags": {
        "amenity": "bench",
        "backrest": "yes"
      }
    },
    {
      "type": "node",
      "id": 5024963436,
      "lat": 50.8140773,
      "lon": 5.8999668,
      "timestamp": "2017-08-09T18:38:53Z",
      "version": 1,
      "changeset": 50980956,
      "user": "Allroads",
      "uid": 388804,
      "tags": {
        "amenity": "bench"
      }
    },
    {
      "type": "node",
      "id": 5024963437,
      "lat": 50.8140343,
      "lon": 5.8999178,
      "timestamp": "2017-08-09T18:38:53Z",
      "version": 1,
      "changeset": 50980956,
      "user": "Allroads",
      "uid": 388804,
      "tags": {
        "amenity": "bench"
      }
    },
    {
      "type": "node",
      "id": 5024963438,
      "lat": 50.8139998,
      "lon": 5.8998913,
      "timestamp": "2017-08-09T18:38:53Z",
      "version": 1,
      "changeset": 50980956,
      "user": "Allroads",
      "uid": 388804,
      "tags": {
        "amenity": "bench",
        "backrest": "yes"
      }
    },
    {
      "type": "node",
      "id": 5024963439,
      "lat": 50.8139509,
      "lon": 5.8998847,
      "timestamp": "2017-08-09T18:38:53Z",
      "version": 1,
      "changeset": 50980956,
      "user": "Allroads",
      "uid": 388804,
      "tags": {
        "leisure": "picnic_table"
      }
    },
    {
      "type": "node",
      "id": 5024963480,
      "lat": 50.8130888,
      "lon": 5.9008751,
      "timestamp": "2017-08-09T18:38:53Z",
      "version": 1,
      "changeset": 50980956,
      "user": "Allroads",
      "uid": 388804,
      "tags": {
        "amenity": "bench",
        "backrest": "yes"
      }
    },
    {
      "type": "node",
      "id": 5024963481,
      "lat": 50.8129965,
      "lon": 5.9007695,
      "timestamp": "2017-08-09T18:38:53Z",
      "version": 1,
      "changeset": 50980956,
      "user": "Allroads",
      "uid": 388804,
      "tags": {
        "amenity": "bench",
        "backrest": "yes"
      }
    },
    {
      "type": "node",
      "id": 5024963482,
      "lat": 50.8129017,
      "lon": 5.9006591,
      "timestamp": "2017-08-09T18:38:53Z",
      "version": 1,
      "changeset": 50980956,
      "user": "Allroads",
      "uid": 388804,
      "tags": {
        "amenity": "bench",
        "backrest": "yes"
      }
    },
    {
      "type": "node",
      "id": 5024963507,
      "lat": 50.8124017,
      "lon": 5.9005478,
      "timestamp": "2017-08-09T18:38:54Z",
      "version": 1,
      "changeset": 50980956,
      "user": "Allroads",
      "uid": 388804,
      "tags": {
        "leisure": "picnic_table"
      }
    },
    {
      "type": "node",
      "id": 5024963508,
      "lat": 50.8124374,
      "lon": 5.9005601,
      "timestamp": "2017-08-09T18:38:54Z",
      "version": 1,
      "changeset": 50980956,
      "user": "Allroads",
      "uid": 388804,
      "tags": {
        "amenity": "bench",
        "backrest": "yes"
      }
    },
    {
      "type": "node",
      "id": 5024963545,
      "lat": 50.8140728,
      "lon": 5.9015788,
      "timestamp": "2017-08-09T18:38:55Z",
      "version": 1,
      "changeset": 50980956,
      "user": "Allroads",
      "uid": 388804,
      "tags": {
        "leisure": "picnic_table"
      }
    },
    {
      "type": "node",
      "id": 5024963546,
      "lat": 50.8141068,
      "lon": 5.9016193,
      "timestamp": "2017-08-09T23:08:28Z",
      "version": 2,
      "changeset": 50985897,
      "user": "Allroads",
      "uid": 388804,
      "tags": {
        "amenity": "bench",
        "backrest": "yes"
      }
    },
    {
      "type": "node",
      "id": 5024963550,
      "lat": 50.8136076,
      "lon": 5.9035798,
      "timestamp": "2017-08-09T18:38:55Z",
      "version": 1,
      "changeset": 50980956,
      "user": "Allroads",
      "uid": 388804,
      "tags": {
        "amenity": "bench"
      }
    },
    {
      "type": "node",
      "id": 5024963906,
      "lat": 50.7948008,
      "lon": 5.9196846,
      "timestamp": "2017-08-09T18:39:11Z",
      "version": 1,
      "changeset": 50980956,
      "user": "Allroads",
      "uid": 388804,
      "tags": {
        "amenity": "bench",
        "backrest": "yes",
        "seats": "4"
      }
    },
    {
      "type": "node",
      "id": 5024964173,
      "lat": 50.8026764,
      "lon": 5.9147404,
      "timestamp": "2017-08-09T18:39:08Z",
      "version": 1,
      "changeset": 50980956,
      "user": "Allroads",
      "uid": 388804,
      "tags": {
        "amenity": "bench",
        "backrest": "yes"
      }
    },
    {
      "type": "node",
      "id": 5024964176,
      "lat": 50.7978256,
      "lon": 5.9176571,
      "timestamp": "2017-08-09T18:39:08Z",
      "version": 1,
      "changeset": 50980956,
      "user": "Allroads",
      "uid": 388804,
      "tags": {
        "amenity": "bench",
        "backrest": "yes"
      }
    },
    {
      "type": "node",
      "id": 5025287319,
      "lat": 50.8151211,
      "lon": 5.8997744,
      "timestamp": "2017-08-09T22:55:14Z",
      "version": 1,
      "changeset": 50985897,
      "user": "Allroads",
      "uid": 388804,
      "tags": {
        "leisure": "picnic_table"
      }
    },
    {
      "type": "node",
      "id": 5025287495,
      "lat": 50.8135045,
      "lon": 5.8953766,
      "timestamp": "2017-08-09T22:55:12Z",
      "version": 1,
      "changeset": 50985897,
      "user": "Allroads",
      "uid": 388804,
      "tags": {
        "leisure": "picnic_table"
      }
    },
    {
      "type": "node",
      "id": 5025287496,
      "lat": 50.8135197,
      "lon": 5.8954412,
      "timestamp": "2017-08-09T22:55:12Z",
      "version": 1,
      "changeset": 50985897,
      "user": "Allroads",
      "uid": 388804,
      "tags": {
        "amenity": "bench",
        "backrest": "yes"
      }
    },
    {
      "type": "node",
      "id": 5025287497,
      "lat": 50.8134646,
      "lon": 5.8953105,
      "timestamp": "2017-08-09T22:55:12Z",
      "version": 1,
      "changeset": 50985897,
      "user": "Allroads",
      "uid": 388804,
      "tags": {
        "amenity": "bench",
        "backrest": "yes"
      }
    },
    {
      "type": "node",
      "id": 5025287500,
      "lat": 50.8141044,
      "lon": 5.8967891,
      "timestamp": "2017-08-09T22:55:12Z",
      "version": 1,
      "changeset": 50985897,
      "user": "Allroads",
      "uid": 388804,
      "tags": {
        "amenity": "bench",
        "backrest": "yes"
      }
    },
    {
      "type": "node",
      "id": 5025287521,
      "lat": 50.8150889,
      "lon": 5.8998414,
      "timestamp": "2017-08-09T22:55:14Z",
      "version": 1,
      "changeset": 50985897,
      "user": "Allroads",
      "uid": 388804,
      "tags": {
        "amenity": "bench",
        "backrest": "yes"
      }
    },
    {
      "type": "node",
      "id": 5025287522,
      "lat": 50.8150812,
      "lon": 5.8998951,
      "timestamp": "2017-08-09T22:55:14Z",
      "version": 1,
      "changeset": 50985897,
      "user": "Allroads",
      "uid": 388804,
      "tags": {
        "amenity": "bench",
        "backrest": "yes"
      }
    },
    {
      "type": "node",
      "id": 5025287523,
      "lat": 50.8151479,
      "lon": 5.8999229,
      "timestamp": "2017-08-09T22:55:14Z",
      "version": 1,
      "changeset": 50985897,
      "user": "Allroads",
      "uid": 388804,
      "tags": {
        "amenity": "bench",
        "backrest": "yes"
      }
    },
    {
      "type": "node",
      "id": 5025287524,
      "lat": 50.8150782,
      "lon": 5.9000083,
      "timestamp": "2017-08-09T22:55:14Z",
      "version": 1,
      "changeset": 50985897,
      "user": "Allroads",
      "uid": 388804,
      "tags": {
        "leisure": "picnic_table"
      }
    },
    {
      "type": "node",
      "id": 5025287535,
      "lat": 50.8150377,
      "lon": 5.9001507,
      "timestamp": "2017-08-09T22:55:14Z",
      "version": 1,
      "changeset": 50985897,
      "user": "Allroads",
      "uid": 388804,
      "tags": {
        "amenity": "bench",
        "backrest": "yes"
      }
    },
    {
      "type": "node",
      "id": 5025287536,
      "lat": 50.8150186,
      "lon": 5.9001852,
      "timestamp": "2017-08-09T22:55:14Z",
      "version": 1,
      "changeset": 50985897,
      "user": "Allroads",
      "uid": 388804,
      "tags": {
        "leisure": "picnic_table"
      }
    },
    {
      "type": "node",
      "id": 5036733863,
      "lat": 50.8032642,
      "lon": 5.940812,
      "timestamp": "2017-08-15T11:44:50Z",
      "version": 1,
      "changeset": 51138716,
      "user": "Allroads",
      "uid": 388804,
      "tags": {
        "amenity": "bench",
        "backrest": "yes"
      }
    },
    {
      "type": "node",
      "id": 5036733865,
      "lat": 50.8031247,
      "lon": 5.941186,
      "timestamp": "2017-08-15T11:44:50Z",
      "version": 1,
      "changeset": 51138716,
      "user": "Allroads",
      "uid": 388804,
      "tags": {
        "amenity": "bench",
        "backrest": "yes"
      }
    },
    {
      "type": "node",
      "id": 5171788266,
      "lat": 50.8183925,
      "lon": 5.8990996,
      "timestamp": "2017-10-16T19:33:58Z",
      "version": 1,
      "changeset": 52993064,
      "user": "Allroads",
      "uid": 388804,
      "tags": {
        "amenity": "bench",
        "backrest": "yes"
      }
    },
    {
      "type": "node",
      "id": 5173313613,
      "lat": 50.8203154,
      "lon": 5.9213882,
      "timestamp": "2019-03-15T14:59:01Z",
      "version": 2,
      "changeset": 68177952,
      "user": "Allroads",
      "uid": 388804,
      "tags": {
        "amenity": "bench",
        "backrest": "yes"
      }
    },
    {
      "type": "node",
      "id": 5173313830,
      "lat": 50.8233014,
      "lon": 5.9254987,
      "timestamp": "2017-10-17T17:18:26Z",
      "version": 1,
      "changeset": 53017931,
      "user": "Allroads",
      "uid": 388804,
      "tags": {
        "amenity": "bench",
        "backrest": "yes"
      }
    },
    {
      "type": "node",
      "id": 5177180572,
      "lat": 50.8318966,
      "lon": 5.9095906,
      "timestamp": "2017-10-19T21:36:00Z",
      "version": 1,
      "changeset": 53082958,
      "user": "Allroads",
      "uid": 388804,
      "tags": {
        "leisure": "picnic_table"
      }
    },
    {
      "type": "node",
      "id": 5177180656,
      "lat": 50.8313777,
      "lon": 5.9024027,
      "timestamp": "2017-10-19T21:36:01Z",
      "version": 1,
      "changeset": 53082958,
      "user": "Allroads",
      "uid": 388804,
      "tags": {
        "amenity": "bench",
        "backrest": "yes"
      }
    },
    {
      "type": "node",
      "id": 5177180993,
      "lat": 50.8300968,
      "lon": 5.9280062,
      "timestamp": "2021-04-05T09:05:27Z",
      "version": 3,
      "changeset": 102317515,
      "user": "Wolderik",
      "uid": 471204,
      "tags": {
        "amenity": "bench",
        "backrest": "no"
      }
    },
    {
      "type": "node",
      "id": 5230572088,
      "lat": 50.8312735,
      "lon": 5.91098,
      "timestamp": "2017-11-15T15:29:04Z",
      "version": 1,
      "changeset": 53806955,
      "user": "EOSfoto",
      "uid": 1296171,
      "tags": {
        "leisure": "picnic_table"
      }
    },
    {
      "type": "node",
      "id": 5534662611,
      "lat": 50.8282738,
      "lon": 5.9365384,
      "timestamp": "2021-04-05T09:05:27Z",
      "version": 3,
      "changeset": 102317515,
      "user": "Wolderik",
      "uid": 471204,
      "tags": {
        "amenity": "bench"
      }
    },
    {
      "type": "node",
      "id": 5534749064,
      "lat": 50.8409296,
      "lon": 5.9483553,
      "timestamp": "2018-04-06T21:55:50Z",
      "version": 1,
      "changeset": 57878883,
      "user": "padvinder",
      "uid": 978786,
      "tags": {
        "amenity": "bench"
      }
    },
    {
      "type": "node",
      "id": 5538877230,
      "lat": 50.840817,
      "lon": 5.9484683,
      "timestamp": "2018-04-08T23:31:30Z",
      "version": 1,
      "changeset": 57925184,
      "user": "padvinder",
      "uid": 978786,
      "tags": {
        "amenity": "bench"
      }
    },
    {
      "type": "node",
      "id": 5538877232,
      "lat": 50.8262278,
      "lon": 5.9502519,
      "timestamp": "2021-04-05T09:05:27Z",
      "version": 3,
      "changeset": 102317515,
      "user": "Wolderik",
      "uid": 471204,
      "tags": {
        "amenity": "bench",
        "backrest": "yes",
        "material": "wood"
      }
    },
    {
      "type": "node",
      "id": 5538877238,
      "lat": 50.8407687,
      "lon": 5.9485328,
      "timestamp": "2018-07-23T18:14:34Z",
      "version": 2,
      "changeset": 60995603,
      "user": "EOSfoto",
      "uid": 1296171,
      "tags": {
        "amenity": "bench"
      }
    },
    {
      "type": "node",
      "id": 5538902306,
      "lat": 50.8252908,
      "lon": 5.935396,
      "timestamp": "2019-04-04T23:04:48Z",
      "version": 2,
      "changeset": 68901905,
      "user": "Allroads",
      "uid": 388804,
      "tags": {
        "amenity": "bench"
      }
    },
    {
      "type": "node",
      "id": 5538902445,
      "lat": 50.8403808,
      "lon": 5.9408856,
      "timestamp": "2018-04-09T00:09:57Z",
      "version": 1,
      "changeset": 57925184,
      "user": "padvinder",
      "uid": 978786,
      "tags": {
        "amenity": "bench"
      }
    },
    {
      "type": "node",
      "id": 5539897767,
      "lat": 50.8364023,
      "lon": 5.9699487,
      "timestamp": "2019-03-19T23:15:20Z",
      "version": 2,
      "changeset": 68314661,
      "user": "Allroads",
      "uid": 388804,
      "tags": {
        "amenity": "bench"
      }
    },
    {
      "type": "node",
      "id": 5539900022,
      "lat": 50.8357407,
      "lon": 5.9615957,
      "timestamp": "2019-03-19T23:15:20Z",
      "version": 2,
      "changeset": 68314661,
      "user": "Allroads",
      "uid": 388804,
      "tags": {
        "amenity": "bench"
      }
    },
    {
      "type": "node",
      "id": 5539912369,
      "lat": 50.8225531,
      "lon": 5.8907244,
      "timestamp": "2018-04-09T10:07:27Z",
      "version": 1,
      "changeset": 57936107,
      "user": "padvinder",
      "uid": 978786,
      "tags": {
        "amenity": "bench"
      }
    },
    {
      "type": "node",
      "id": 5540017152,
      "lat": 50.8175647,
      "lon": 5.9432816,
      "timestamp": "2020-09-16T07:32:18Z",
      "version": 3,
      "changeset": 90967865,
      "user": "Sint E7",
      "uid": 146393,
      "tags": {
        "amenity": "bench"
      }
    },
    {
      "type": "node",
      "id": 5562911862,
      "lat": 50.8184828,
      "lon": 5.974695,
      "timestamp": "2018-04-18T20:45:15Z",
      "version": 1,
      "changeset": 58214400,
      "user": "RVP-VS",
      "uid": 157236,
      "tags": {
        "amenity": "bench",
        "backrest": "yes",
        "material": "wood"
      }
    },
    {
      "type": "node",
      "id": 5601950432,
      "lat": 50.8075155,
      "lon": 5.8942436,
      "timestamp": "2020-01-28T09:15:38Z",
      "version": 2,
      "changeset": 80186303,
      "user": "eggie",
      "uid": 334075,
      "tags": {
        "amenity": "parking"
      }
    },
    {
      "type": "node",
      "id": 5604328093,
      "lat": 50.814615,
      "lon": 5.8926925,
      "timestamp": "2018-05-08T11:40:57Z",
      "version": 1,
      "changeset": 58785761,
      "user": "jeroenrozema74",
      "uid": 183483,
      "tags": {
        "amenity": "bench"
      }
    },
    {
      "type": "node",
      "id": 5620570992,
      "lat": 50.8118122,
      "lon": 5.889055,
      "timestamp": "2018-11-18T15:27:31Z",
      "version": 2,
      "changeset": 64623353,
      "user": "Martin Borsje",
      "uid": 99810,
      "tags": {
        "man_made": "watermill",
        "name": "Molen Roex"
      }
    },
    {
      "type": "node",
      "id": 6053239217,
      "lat": 50.7921194,
      "lon": 5.9643808,
      "timestamp": "2019-10-05T09:20:49Z",
      "version": 2,
      "changeset": 75312689,
      "user": "EOSfoto",
      "uid": 1296171,
      "tags": {
        "amenity": "bench",
        "backrest": "yes"
      }
    },
    {
      "type": "node",
      "id": 6068330668,
      "lat": 50.8304232,
      "lon": 5.9288195,
      "timestamp": "2021-04-05T09:05:27Z",
      "version": 2,
      "changeset": 102317515,
      "user": "Wolderik",
      "uid": 471204,
      "tags": {
        "amenity": "bench",
        "backrest": "yes",
        "material": "wood",
        "seats": "5"
      }
    },
    {
      "type": "node",
      "id": 6068401089,
      "lat": 50.8403103,
      "lon": 5.9414237,
      "timestamp": "2018-11-17T12:31:51Z",
      "version": 1,
      "changeset": 64595088,
      "user": "open-steet-map-editor",
      "uid": 7434674,
      "tags": {
        "amenity": "bench",
        "backrest": "yes",
        "material": "wood",
        "seats": "4"
      }
    },
    {
      "type": "node",
      "id": 6127184720,
      "lat": 50.7944477,
      "lon": 5.9607384,
      "timestamp": "2018-12-09T22:47:58Z",
      "version": 1,
      "changeset": 65327099,
      "user": "harrievanoppen",
      "uid": 3626429,
      "tags": {
        "amenity": "bench",
        "backrest": "yes"
      }
    },
    {
      "type": "node",
      "id": 6172487101,
      "lat": 50.7989101,
      "lon": 5.941825,
      "timestamp": "2018-12-30T08:47:35Z",
      "version": 1,
      "changeset": 65882259,
      "user": "Wim van der Ven",
      "uid": 1817282,
      "tags": {
        "amenity": "bench"
      }
    },
    {
      "type": "node",
      "id": 6172495367,
      "lat": 50.8094631,
      "lon": 5.9133867,
      "timestamp": "2018-12-30T09:03:34Z",
      "version": 1,
      "changeset": 65882259,
      "user": "Wim van der Ven",
      "uid": 1817282,
      "tags": {
        "amenity": "bench"
      }
    },
    {
      "type": "node",
      "id": 6174776765,
      "lat": 50.7956393,
      "lon": 5.9117243,
      "timestamp": "2018-12-31T13:01:32Z",
      "version": 1,
      "changeset": 65911536,
      "user": "Wim van der Ven",
      "uid": 1817282,
      "tags": {
        "amenity": "bench"
      }
    },
    {
      "type": "node",
      "id": 6174784926,
      "lat": 50.7956245,
      "lon": 5.9157895,
      "timestamp": "2018-12-31T13:09:30Z",
      "version": 1,
      "changeset": 65911536,
      "user": "Wim van der Ven",
      "uid": 1817282,
      "tags": {
        "amenity": "bench"
      }
    },
    {
      "type": "node",
      "id": 6174796240,
      "lat": 50.7949082,
      "lon": 5.9223583,
      "timestamp": "2021-05-03T15:04:51Z",
      "version": 2,
      "changeset": 104065262,
      "user": "_- Onno -_",
      "uid": 57240,
      "tags": {
        "amenity": "bench",
        "backrest": "yes"
      }
    },
    {
      "type": "node",
      "id": 6174796275,
      "lat": 50.7949697,
      "lon": 5.9225844,
      "timestamp": "2021-05-03T15:04:51Z",
      "version": 2,
      "changeset": 104065262,
      "user": "_- Onno -_",
      "uid": 57240,
      "tags": {
        "amenity": "bench",
        "backrest": "yes"
      }
    },
    {
      "type": "node",
      "id": 6174829045,
      "lat": 50.796687,
      "lon": 5.9260363,
      "timestamp": "2019-06-03T21:34:04Z",
      "version": 2,
      "changeset": 70901399,
      "user": "Allroads",
      "uid": 388804,
      "tags": {
        "amenity": "bench"
      }
    },
    {
      "type": "node",
      "id": 6174830035,
      "lat": 50.7958069,
      "lon": 5.924557,
      "timestamp": "2018-12-31T13:46:11Z",
      "version": 1,
      "changeset": 65911536,
      "user": "Wim van der Ven",
      "uid": 1817282,
      "tags": {
        "amenity": "bench"
      }
    },
    {
      "type": "node",
      "id": 6174832558,
      "lat": 50.796059,
      "lon": 5.9255433,
      "timestamp": "2018-12-31T13:48:35Z",
      "version": 1,
      "changeset": 65911536,
      "user": "Wim van der Ven",
      "uid": 1817282,
      "tags": {
        "amenity": "bench"
      }
    },
    {
      "type": "node",
      "id": 6174833465,
      "lat": 50.7966582,
      "lon": 5.926041,
      "timestamp": "2019-06-03T21:34:04Z",
      "version": 2,
      "changeset": 70901399,
      "user": "Allroads",
      "uid": 388804,
      "tags": {
        "amenity": "bench"
      }
    },
    {
      "type": "node",
      "id": 6174848687,
      "lat": 50.7988902,
      "lon": 5.9378431,
      "timestamp": "2018-12-31T14:02:52Z",
      "version": 1,
      "changeset": 65913141,
      "user": "Wim van der Ven",
      "uid": 1817282,
      "tags": {
        "leisure": "picnic_table"
      }
    },
    {
      "type": "node",
      "id": 6174850340,
      "lat": 50.7988753,
      "lon": 5.9377032,
      "timestamp": "2018-12-31T14:03:18Z",
      "version": 1,
      "changeset": 65913141,
      "user": "Wim van der Ven",
      "uid": 1817282,
      "tags": {
        "amenity": "bench"
      }
    },
    {
      "type": "node",
      "id": 6174850341,
      "lat": 50.7989441,
      "lon": 5.9377015,
      "timestamp": "2018-12-31T14:03:50Z",
      "version": 1,
      "changeset": 65913141,
      "user": "Wim van der Ven",
      "uid": 1817282,
      "tags": {
        "leisure": "picnic_table"
      }
    },
    {
      "type": "node",
      "id": 6174897694,
      "lat": 50.793133,
      "lon": 5.9602773,
      "timestamp": "2018-12-31T14:41:14Z",
      "version": 1,
      "changeset": 65914245,
      "user": "Wim van der Ven",
      "uid": 1817282,
      "tags": {
        "leisure": "picnic_table"
      }
    },
    {
      "type": "node",
      "id": 6176539942,
      "lat": 50.7925075,
      "lon": 5.9274758,
      "timestamp": "2019-01-01T14:05:28Z",
      "version": 1,
      "changeset": 65933072,
      "user": "Wim van der Ven",
      "uid": 1817282,
      "tags": {
        "amenity": "bench"
      }
    },
    {
      "type": "node",
      "id": 6176542244,
      "lat": 50.7921232,
      "lon": 5.927504,
      "timestamp": "2019-01-01T14:06:13Z",
      "version": 1,
      "changeset": 65933072,
      "user": "Wim van der Ven",
      "uid": 1817282,
      "tags": {
        "amenity": "bench"
      }
    },
    {
      "type": "node",
      "id": 6300940959,
      "lat": 50.8147825,
      "lon": 5.8924856,
      "timestamp": "2019-02-25T11:05:12Z",
      "version": 1,
      "changeset": 67544433,
      "user": "Wim van der Ven",
      "uid": 1817282,
      "tags": {
        "amenity": "bench"
      }
    },
    {
      "type": "node",
      "id": 6300943217,
      "lat": 50.8147878,
      "lon": 5.8927668,
      "timestamp": "2019-02-25T11:06:41Z",
      "version": 1,
      "changeset": 67544433,
      "user": "Wim van der Ven",
      "uid": 1817282,
      "tags": {
        "amenity": "bench"
      }
    },
    {
      "type": "node",
      "id": 6300951600,
      "lat": 50.8144093,
      "lon": 5.8936743,
      "timestamp": "2019-02-25T11:13:44Z",
      "version": 1,
      "changeset": 67544433,
      "user": "Wim van der Ven",
      "uid": 1817282,
      "tags": {
        "amenity": "bench"
      }
    },
    {
      "type": "node",
      "id": 6300953378,
      "lat": 50.8142702,
      "lon": 5.8934269,
      "timestamp": "2019-02-25T11:14:15Z",
      "version": 1,
      "changeset": 67544433,
      "user": "Wim van der Ven",
      "uid": 1817282,
      "tags": {
        "amenity": "bench"
      }
    },
    {
      "type": "node",
      "id": 6300959226,
      "lat": 50.8134635,
      "lon": 5.8949178,
      "timestamp": "2019-02-25T11:17:37Z",
      "version": 1,
      "changeset": 67544433,
      "user": "Wim van der Ven",
      "uid": 1817282,
      "tags": {
        "amenity": "bench"
      }
    },
    {
      "type": "node",
      "id": 6300997879,
      "lat": 50.8112705,
      "lon": 5.9062318,
      "timestamp": "2019-02-25T11:43:24Z",
      "version": 1,
      "changeset": 67544433,
      "user": "Wim van der Ven",
      "uid": 1817282,
      "tags": {
        "amenity": "bench"
      }
    },
    {
      "type": "node",
      "id": 6301081719,
      "lat": 50.7985507,
      "lon": 5.9046729,
      "timestamp": "2021-05-29T15:42:07Z",
      "version": 2,
      "changeset": 105539070,
      "user": "koen20",
      "uid": 1977737,
      "tags": {
        "amenity": "bench",
        "backrest": "yes",
        "colour": "brown",
        "material": "wood",
        "name": "Harrie America"
      }
    },
    {
      "type": "node",
      "id": 6336693055,
      "lat": 50.8080251,
      "lon": 5.9648375,
      "timestamp": "2019-03-14T00:55:01Z",
      "version": 1,
      "changeset": 68119536,
      "user": "Allroads",
      "uid": 388804,
      "tags": {
        "amenity": "bench",
        "backrest": "yes"
      }
    },
    {
      "type": "node",
      "id": 6336693058,
      "lat": 50.8090929,
      "lon": 5.9628124,
      "timestamp": "2021-01-02T09:28:53Z",
      "version": 2,
      "changeset": 96798929,
      "user": "Martin Borsje",
      "uid": 99810,
      "tags": {
        "amenity": "bench",
        "backrest": "yes"
      }
    },
    {
      "type": "node",
      "id": 6336921957,
      "lat": 50.8092978,
      "lon": 5.9520103,
      "timestamp": "2019-03-14T04:40:12Z",
      "version": 1,
      "changeset": 68123272,
      "user": "Allroads",
      "uid": 388804,
      "tags": {
        "amenity": "bench",
        "backrest": "yes"
      }
    },
    {
      "type": "node",
      "id": 6338310831,
      "lat": 50.8201836,
      "lon": 5.9647951,
      "timestamp": "2019-03-14T18:33:11Z",
      "version": 1,
      "changeset": 68147149,
      "user": "Allroads",
      "uid": 388804,
      "tags": {
        "amenity": "bench",
        "backrest": "yes"
      }
    },
    {
      "type": "node",
      "id": 6339963980,
      "lat": 50.8179864,
      "lon": 5.9394929,
      "timestamp": "2019-03-15T14:59:00Z",
      "version": 1,
      "changeset": 68177952,
      "user": "Allroads",
      "uid": 388804,
      "tags": {
        "amenity": "bench",
        "backrest": "yes"
      }
    },
    {
      "type": "node",
      "id": 6340554256,
      "lat": 50.8221855,
      "lon": 5.9376439,
      "timestamp": "2019-03-15T20:25:53Z",
      "version": 1,
      "changeset": 68188637,
      "user": "Allroads",
      "uid": 388804,
      "tags": {
        "amenity": "bench",
        "backrest": "yes"
      }
    },
    {
      "type": "node",
      "id": 6348479133,
      "lat": 50.8449288,
      "lon": 5.9603095,
      "timestamp": "2019-03-19T23:15:08Z",
      "version": 1,
      "changeset": 68314661,
      "user": "Allroads",
      "uid": 388804,
      "tags": {
        "amenity": "bench",
        "backrest": "yes"
      }
    },
    {
      "type": "node",
      "id": 6348479250,
      "lat": 50.8467062,
      "lon": 5.9592824,
      "timestamp": "2019-03-19T23:15:09Z",
      "version": 1,
      "changeset": 68314661,
      "user": "Allroads",
      "uid": 388804,
      "tags": {
        "amenity": "bench",
        "backrest": "yes"
      }
    },
    {
      "type": "node",
      "id": 6386074436,
      "lat": 50.8303727,
      "lon": 5.9622691,
      "timestamp": "2019-04-05T16:51:38Z",
      "version": 1,
      "changeset": 68929175,
      "user": "Allroads",
      "uid": 388804,
      "tags": {
        "amenity": "bench",
        "backrest": "yes"
      }
    },
    {
      "type": "node",
      "id": 6386075305,
      "lat": 50.8289317,
      "lon": 5.9460297,
      "timestamp": "2019-04-05T16:51:51Z",
      "version": 1,
      "changeset": 68929175,
      "user": "Allroads",
      "uid": 388804,
      "tags": {
        "amenity": "bench",
        "backrest": "yes"
      }
    },
    {
      "type": "node",
      "id": 6452068118,
      "lat": 50.7946507,
      "lon": 5.930307,
      "timestamp": "2019-05-06T13:23:07Z",
      "version": 1,
      "changeset": 69936284,
      "user": "mapix",
      "uid": 1100138,
      "tags": {
        "amenity": "bench",
        "backrest": "yes"
      }
    },
    {
      "type": "node",
      "id": 6452068119,
      "lat": 50.7952225,
      "lon": 5.926052,
      "timestamp": "2019-05-06T13:23:07Z",
      "version": 1,
      "changeset": 69936284,
      "user": "mapix",
      "uid": 1100138,
      "tags": {
        "amenity": "bench",
        "backrest": "yes"
      }
    },
    {
      "type": "node",
      "id": 6452068126,
      "lat": 50.7952826,
      "lon": 5.9268711,
      "timestamp": "2019-05-26T19:16:52Z",
      "version": 2,
      "changeset": 70639838,
      "user": "EOSfoto",
      "uid": 1296171,
      "tags": {
        "amenity": "bench",
        "backrest": "yes"
      }
    },
    {
      "type": "node",
      "id": 6452068129,
      "lat": 50.7954162,
      "lon": 5.9289455,
      "timestamp": "2019-05-06T13:23:08Z",
      "version": 1,
      "changeset": 69936284,
      "user": "mapix",
      "uid": 1100138,
      "tags": {
        "amenity": "bench",
        "backrest": "yes"
      }
    },
    {
      "type": "node",
      "id": 6452068132,
      "lat": 50.7937432,
      "lon": 5.925622,
      "timestamp": "2019-05-27T04:52:30Z",
      "version": 2,
      "changeset": 70647378,
      "user": "EOSfoto",
      "uid": 1296171,
      "tags": {
        "amenity": "bench",
        "backrest": "yes"
      }
    },
    {
      "type": "node",
      "id": 6452068137,
      "lat": 50.7950141,
      "lon": 5.9246202,
      "timestamp": "2019-05-27T04:52:30Z",
      "version": 2,
      "changeset": 70647378,
      "user": "EOSfoto",
      "uid": 1296171,
      "tags": {
        "amenity": "bench",
        "backrest": "yes"
      }
    },
    {
      "type": "node",
      "id": 6452068142,
      "lat": 50.7952026,
      "lon": 5.9246036,
      "timestamp": "2019-05-27T04:52:30Z",
      "version": 2,
      "changeset": 70647378,
      "user": "EOSfoto",
      "uid": 1296171,
      "tags": {
        "amenity": "bench",
        "backrest": "yes"
      }
    },
    {
      "type": "node",
      "id": 6452068143,
      "lat": 50.7936938,
      "lon": 5.9301521,
      "timestamp": "2019-05-06T13:23:09Z",
      "version": 1,
      "changeset": 69936284,
      "user": "mapix",
      "uid": 1100138,
      "tags": {
        "amenity": "bench",
        "backrest": "yes"
      }
    },
    {
      "type": "node",
      "id": 6452068144,
      "lat": 50.795198,
      "lon": 5.9260671,
      "timestamp": "2019-05-06T13:23:09Z",
      "version": 1,
      "changeset": 69936284,
      "user": "mapix",
      "uid": 1100138,
      "tags": {
        "amenity": "bench",
        "backrest": "yes"
      }
    },
    {
      "type": "node",
      "id": 6452068163,
      "lat": 50.7951349,
      "lon": 5.9245638,
      "timestamp": "2019-05-27T04:52:30Z",
      "version": 2,
      "changeset": 70647378,
      "user": "EOSfoto",
      "uid": 1296171,
      "tags": {
        "amenity": "bench",
        "backrest": "yes"
      }
    },
    {
      "type": "node",
      "id": 6452068172,
      "lat": 50.7953917,
      "lon": 5.9276605,
      "timestamp": "2019-05-26T19:16:52Z",
      "version": 2,
      "changeset": 70639838,
      "user": "EOSfoto",
      "uid": 1296171,
      "tags": {
        "amenity": "bench",
        "backrest": "yes"
      }
    },
    {
      "type": "node",
      "id": 6452068175,
      "lat": 50.7937198,
      "lon": 5.9244581,
      "timestamp": "2019-05-06T13:23:10Z",
      "version": 1,
      "changeset": 69936284,
      "user": "mapix",
      "uid": 1100138,
      "tags": {
        "amenity": "bench",
        "backrest": "yes"
      }
    },
    {
      "type": "node",
      "id": 6452068180,
      "lat": 50.7942915,
      "lon": 5.9243396,
      "timestamp": "2019-05-06T13:23:10Z",
      "version": 1,
      "changeset": 69936284,
      "user": "mapix",
      "uid": 1100138,
      "tags": {
        "leisure": "picnic_table"
      }
    },
    {
      "type": "node",
      "id": 6456539465,
      "lat": 50.8202812,
      "lon": 5.9007322,
      "timestamp": "2019-05-07T21:31:47Z",
      "version": 1,
      "changeset": 69999853,
      "user": "Allroads",
      "uid": 388804,
      "tags": {
        "amenity": "bench",
        "backrest": "yes"
      }
    },
    {
      "type": "node",
      "id": 6456539466,
      "lat": 50.8202973,
      "lon": 5.9008964,
      "timestamp": "2019-05-07T21:31:47Z",
      "version": 1,
      "changeset": 69999853,
      "user": "Allroads",
      "uid": 388804,
      "tags": {
        "amenity": "bench",
        "backrest": "yes"
      }
    },
    {
      "type": "node",
      "id": 6576849843,
      "lat": 50.8157952,
      "lon": 5.9424969,
      "timestamp": "2019-06-28T14:03:43Z",
      "version": 1,
      "changeset": 71709514,
      "user": "Wim van der Ven",
      "uid": 1817282,
      "tags": {
        "amenity": "bench"
      }
    },
    {
      "type": "node",
      "id": 7018173302,
      "lat": 50.8292092,
      "lon": 5.9531308,
      "timestamp": "2021-10-03T17:04:05Z",
      "version": 5,
      "changeset": 112041832,
      "user": "Allroads",
      "uid": 388804,
      "tags": {
        "amenity": "bench",
        "backrest": "yes",
        "colour": "brown",
        "direction": "45",
        "material": "wood",
        "seats": "3"
      }
    },
    {
      "type": "node",
      "id": 7100083681,
      "lat": 50.8135037,
      "lon": 5.9476245,
      "timestamp": "2020-01-01T20:22:53Z",
      "version": 1,
      "changeset": 79090765,
      "user": "Wim van der Ven",
      "uid": 1817282,
      "tags": {
        "amenity": "bench"
      }
    },
    {
      "type": "node",
      "id": 7100091824,
      "lat": 50.8001625,
      "lon": 5.9285152,
      "timestamp": "2020-01-01T20:22:53Z",
      "version": 1,
      "changeset": 79090765,
      "user": "Wim van der Ven",
      "uid": 1817282,
      "tags": {
        "amenity": "bench"
      }
    },
    {
      "type": "node",
      "id": 7100109184,
      "lat": 50.8182713,
      "lon": 5.8949759,
      "timestamp": "2020-01-01T20:22:55Z",
      "version": 1,
      "changeset": 79090765,
      "user": "Wim van der Ven",
      "uid": 1817282,
      "tags": {
        "amenity": "bench"
      }
    },
    {
      "type": "node",
      "id": 7100117109,
      "lat": 50.8207828,
      "lon": 5.911192,
      "timestamp": "2021-12-01T14:36:04Z",
      "version": 2,
      "changeset": 114446413,
      "user": "Allroads",
      "uid": 388804,
      "tags": {
        "amenity": "bench",
        "direction": "270"
      }
    },
    {
      "type": "node",
      "id": 7100120207,
      "lat": 50.8109778,
      "lon": 5.9070435,
      "timestamp": "2020-01-01T20:22:58Z",
      "version": 1,
      "changeset": 79090765,
      "user": "Wim van der Ven",
      "uid": 1817282,
      "tags": {
        "amenity": "bench"
      }
    },
    {
      "type": "node",
      "id": 7100120460,
      "lat": 50.8171956,
      "lon": 5.8941088,
      "timestamp": "2020-01-01T20:22:56Z",
      "version": 1,
      "changeset": 79090765,
      "user": "Wim van der Ven",
      "uid": 1817282,
      "tags": {
        "amenity": "bench"
      }
    },
    {
      "type": "node",
      "id": 7100140977,
      "lat": 50.8155875,
      "lon": 5.8917299,
      "timestamp": "2020-01-01T20:22:57Z",
      "version": 1,
      "changeset": 79090765,
      "user": "Wim van der Ven",
      "uid": 1817282,
      "tags": {
        "amenity": "bench"
      }
    },
    {
      "type": "node",
      "id": 7100141361,
      "lat": 50.800183,
      "lon": 5.9285151,
      "timestamp": "2020-01-01T20:22:52Z",
      "version": 1,
      "changeset": 79090765,
      "user": "Wim van der Ven",
      "uid": 1817282,
      "tags": {
        "amenity": "bench"
      }
    },
    {
      "type": "node",
      "id": 7100143438,
      "lat": 50.817142,
      "lon": 5.8940742,
      "timestamp": "2020-01-01T20:22:56Z",
      "version": 1,
      "changeset": 79090765,
      "user": "Wim van der Ven",
      "uid": 1817282,
      "tags": {
        "amenity": "bench"
      }
    },
    {
      "type": "node",
      "id": 7100144863,
      "lat": 50.7924351,
      "lon": 5.9379281,
      "timestamp": "2020-01-01T20:22:59Z",
      "version": 1,
      "changeset": 79090765,
      "user": "Wim van der Ven",
      "uid": 1817282,
      "tags": {
        "amenity": "bench"
      }
    },
    {
      "type": "node",
      "id": 7100145016,
      "lat": 50.8177507,
      "lon": 5.8943,
      "timestamp": "2020-01-01T20:22:56Z",
      "version": 1,
      "changeset": 79090765,
      "user": "Wim van der Ven",
      "uid": 1817282,
      "tags": {
        "amenity": "bench"
      }
    },
    {
      "type": "node",
      "id": 7160507184,
      "lat": 50.8201268,
      "lon": 5.9210789,
      "timestamp": "2020-12-20T22:32:16Z",
      "version": 2,
      "changeset": 96156744,
      "user": "Allroads",
      "uid": 388804,
      "tags": {
        "amenity": "bench",
        "backrest": "yes",
        "material": "wood",
        "seats": "4"
      }
    },
    {
      "type": "node",
      "id": 7160548585,
      "lat": 50.8201062,
      "lon": 5.9212313,
      "timestamp": "2020-12-20T22:32:16Z",
      "version": 2,
      "changeset": 96156744,
      "user": "Allroads",
      "uid": 388804,
      "tags": {
        "covered": "no",
        "leisure": "picnic_table"
      }
    },
    {
      "type": "node",
      "id": 7160548586,
      "lat": 50.8200493,
      "lon": 5.9212735,
      "timestamp": "2020-12-20T22:32:16Z",
      "version": 2,
      "changeset": 96156744,
      "user": "Allroads",
      "uid": 388804,
      "tags": {
        "amenity": "bench",
        "backrest": "yes",
        "material": "wood",
        "seats": "5"
      }
    },
    {
      "type": "node",
      "id": 7160548587,
      "lat": 50.8203531,
      "lon": 5.9204253,
      "timestamp": "2020-01-26T17:11:28Z",
      "version": 2,
      "changeset": 80103588,
      "user": "open-steet-map-editor",
      "uid": 7434674,
      "tags": {
        "amenity": "bench",
        "backrest": "yes",
        "material": "wood",
        "seats": "4"
      }
    },
    {
      "type": "node",
      "id": 7160548588,
      "lat": 50.8201671,
      "lon": 5.9209454,
      "timestamp": "2020-12-20T22:32:16Z",
      "version": 2,
      "changeset": 96156744,
      "user": "Allroads",
      "uid": 388804,
      "tags": {
        "covered": "no",
        "leisure": "picnic_table"
      }
    },
    {
      "type": "node",
      "id": 7160548589,
      "lat": 50.8205319,
      "lon": 5.9203429,
      "timestamp": "2020-12-20T22:32:16Z",
      "version": 3,
      "changeset": 96156744,
      "user": "Allroads",
      "uid": 388804,
      "tags": {
        "amenity": "bench",
        "backrest": "yes",
        "material": "wood",
        "seats": "4"
      }
    },
    {
      "type": "node",
      "id": 7496673485,
      "lat": 50.8301699,
      "lon": 5.9173926,
      "timestamp": "2020-05-08T08:07:14Z",
      "version": 2,
      "changeset": 84877555,
      "user": "eggie",
      "uid": 334075,
      "tags": {
        "amenity": "bench"
      }
    },
    {
      "type": "node",
      "id": 7504306552,
      "lat": 50.8302565,
      "lon": 5.9282911,
      "timestamp": "2020-05-10T19:42:12Z",
      "version": 1,
      "changeset": 84984514,
      "user": "Martin Borsje",
      "uid": 99810,
      "tags": {
        "amenity": "bench",
        "backrest": "yes",
        "material": "wood",
        "seats": "5"
      }
    },
    {
      "type": "node",
      "id": 7544802649,
      "lat": 50.8087082,
      "lon": 5.9069915,
      "timestamp": "2020-05-21T12:07:39Z",
      "version": 1,
      "changeset": 85553797,
      "user": "open-steet-map-editor",
      "uid": 7434674,
      "tags": {
        "amenity": "bench",
        "backrest": "yes",
        "material": "wood",
        "seats": "4"
      }
    },
    {
      "type": "node",
      "id": 7928209207,
      "lat": 50.814772,
      "lon": 5.9465368,
      "timestamp": "2020-09-21T12:40:37Z",
      "version": 1,
      "changeset": 91230432,
      "user": "STEIN_aus_KELMIS",
      "uid": 3235324,
      "tags": {
        "information": "board",
        "tourism": "information"
      }
    },
    {
      "type": "node",
      "id": 8010514819,
      "lat": 50.8342834,
      "lon": 5.9750048,
      "timestamp": "2020-10-15T16:49:59Z",
      "version": 1,
      "changeset": 92534969,
      "user": "Buxtehude",
      "uid": 1433710,
      "tags": {
        "amenity": "drinking_water",
        "bottle": "yes",
        "fee": "no",
        "operator": "Waterleiding Maatschappij Limburg",
        "seasonal": "yes",
        "website": "https://www.wml.nl/alles-over-water/limburgs-water-drinken/watertaps-in-de-buurt"
      }
    },
    {
      "type": "node",
      "id": 8246074948,
      "lat": 50.8203131,
      "lon": 5.9207155,
      "timestamp": "2020-12-20T22:32:16Z",
      "version": 1,
      "changeset": 96156744,
      "user": "Allroads",
      "uid": 388804,
      "tags": {
        "covered": "no",
        "leisure": "picnic_table"
      }
    },
    {
      "type": "node",
      "id": 8246074949,
      "lat": 50.8205279,
      "lon": 5.9205406,
      "timestamp": "2020-12-20T22:32:16Z",
      "version": 1,
      "changeset": 96156744,
      "user": "Allroads",
      "uid": 388804,
      "tags": {
        "amenity": "bench",
        "backrest": "yes",
        "material": "wood",
        "seats": "4"
      }
    },
    {
      "type": "node",
      "id": 8594545795,
      "lat": 50.8128659,
      "lon": 5.9280935,
      "timestamp": "2021-04-05T08:01:18Z",
      "version": 1,
      "changeset": 102312361,
      "user": "Wolderik",
      "uid": 471204,
      "tags": {
        "amenity": "bench",
        "backrest": "yes"
      }
    },
    {
      "type": "node",
      "id": 8594545797,
      "lat": 50.8133216,
      "lon": 5.9306572,
      "timestamp": "2021-04-05T08:01:18Z",
      "version": 1,
      "changeset": 102312361,
      "user": "Wolderik",
      "uid": 471204,
      "tags": {
        "amenity": "bench",
        "backrest": "yes"
      }
    },
    {
      "type": "node",
      "id": 8594545798,
      "lat": 50.8132438,
      "lon": 5.9305662,
      "timestamp": "2021-04-05T08:01:18Z",
      "version": 1,
      "changeset": 102312361,
      "user": "Wolderik",
      "uid": 471204,
      "tags": {
        "information": "board",
        "tourism": "information"
      }
    },
    {
      "type": "node",
      "id": 8594545799,
      "lat": 50.8135954,
      "lon": 5.9332742,
      "timestamp": "2021-04-05T08:01:18Z",
      "version": 1,
      "changeset": 102312361,
      "user": "Wolderik",
      "uid": 471204,
      "tags": {
        "information": "board",
        "tourism": "information"
      }
    },
    {
      "type": "node",
      "id": 8594545800,
      "lat": 50.8132888,
      "lon": 5.9331921,
      "timestamp": "2021-04-05T08:01:18Z",
      "version": 1,
      "changeset": 102312361,
      "user": "Wolderik",
      "uid": 471204,
      "tags": {
        "information": "board",
        "tourism": "information"
      }
    },
    {
      "type": "node",
      "id": 8594545801,
      "lat": 50.8129026,
      "lon": 5.9328148,
      "timestamp": "2021-04-05T08:01:18Z",
      "version": 1,
      "changeset": 102312361,
      "user": "Wolderik",
      "uid": 471204,
      "tags": {
        "amenity": "bench",
        "backrest": "yes"
      }
    },
    {
      "type": "node",
      "id": 8594545802,
      "lat": 50.8121683,
      "lon": 5.9322857,
      "timestamp": "2021-04-05T08:01:18Z",
      "version": 1,
      "changeset": 102312361,
      "user": "Wolderik",
      "uid": 471204,
      "tags": {
        "information": "board",
        "tourism": "information"
      }
    },
    {
      "type": "node",
      "id": 8594545804,
      "lat": 50.8143142,
      "lon": 5.9444996,
      "timestamp": "2021-04-05T08:01:18Z",
      "version": 1,
      "changeset": 102312361,
      "user": "Wolderik",
      "uid": 471204,
      "tags": {
        "amenity": "bench",
        "backrest": "yes"
      }
    },
    {
      "type": "node",
      "id": 8594545805,
      "lat": 50.8240643,
      "lon": 5.9489677,
      "timestamp": "2021-04-05T08:01:18Z",
      "version": 1,
      "changeset": 102312361,
      "user": "Wolderik",
      "uid": 471204,
      "tags": {
        "amenity": "bench",
        "backrest": "yes"
      }
    },
    {
      "type": "node",
      "id": 8594545806,
      "lat": 50.8241168,
      "lon": 5.9488922,
      "timestamp": "2021-04-05T08:01:18Z",
      "version": 1,
      "changeset": 102312361,
      "user": "Wolderik",
      "uid": 471204,
      "tags": {
        "amenity": "bench",
        "backrest": "yes"
      }
    },
    {
      "type": "node",
      "id": 8594572524,
      "lat": 50.8202785,
      "lon": 5.9208881,
      "timestamp": "2021-04-05T08:12:37Z",
      "version": 1,
      "changeset": 102313209,
      "user": "Wolderik",
      "uid": 471204,
      "tags": {
        "information": "board",
        "tourism": "information"
      }
    },
    {
      "type": "node",
      "id": 8594704754,
      "lat": 50.8283977,
      "lon": 5.9369455,
      "timestamp": "2021-04-05T09:05:27Z",
      "version": 1,
      "changeset": 102317515,
      "user": "Wolderik",
      "uid": 471204,
      "tags": {
        "information": "board",
        "tourism": "information"
      }
    },
    {
      "type": "node",
      "id": 8594704758,
      "lat": 50.8265166,
      "lon": 5.9208148,
      "timestamp": "2021-04-05T09:05:27Z",
      "version": 1,
      "changeset": 102317515,
      "user": "Wolderik",
      "uid": 471204,
      "tags": {
        "amenity": "bench",
        "backrest": "yes"
      }
    },
    {
      "type": "node",
      "id": 8693202480,
      "lat": 50.8304078,
      "lon": 5.972583,
      "timestamp": "2021-05-03T10:06:27Z",
      "version": 1,
      "changeset": 104046265,
      "user": "klimpetje",
      "uid": 273069,
      "tags": {
        "amenity": "bench"
      }
    },
    {
      "type": "node",
      "id": 8762602988,
      "lat": 50.8321396,
      "lon": 5.9224476,
      "timestamp": "2021-05-24T20:44:07Z",
      "version": 1,
      "changeset": 105249846,
      "user": "EnumMapper",
      "uid": 2188716,
      "tags": {
        "amenity": "parking"
      }
    },
    {
      "type": "node",
      "id": 8781450725,
      "lat": 50.804694,
      "lon": 5.9184155,
      "timestamp": "2021-05-30T17:01:06Z",
      "version": 1,
      "changeset": 105576195,
      "user": "Wim van der Ven",
      "uid": 1817282,
      "tags": {
        "amenity": "bench"
      }
    },
    {
      "type": "way",
      "id": 41526933,
      "timestamp": "2019-05-27T04:52:31Z",
      "version": 5,
      "changeset": 70647378,
      "user": "EOSfoto",
      "uid": 1296171,
      "nodes": [
        508572039,
        508572040,
        508572034,
        5035461836,
        508572036,
        508572037,
        5035461837,
        508572041,
        508572044,
        508572039
      ],
      "tags": {
        "access": "yes",
        "amenity": "parking",
        "capacity:disabled": "1",
        "fee": "no",
        "lit": "yes",
        "name": "Dokter Janssenplein",
        "opening_hours": "24/7",
        "parking": "surface",
        "smoothness": "good",
        "supervised": "no",
        "surface": "paving_stones"
      }
    },
    {
      "type": "way",
      "id": 147948738,
      "timestamp": "2021-11-06T15:30:15Z",
      "version": 6,
      "changeset": 113451015,
      "user": "Maarten Deen",
      "uid": 9176,
      "nodes": [
        908775856,
        908896243,
        908781644,
        908804001,
        908769172,
        908774473,
        2795968053,
        908857684,
        908863573,
        1610664920,
        908775856
      ],
      "tags": {
        "access": "yes",
        "amenity": "parking",
        "capacity:disabled": "yes",
        "capacity:parent": "no",
        "capacity:women": "no",
        "fee": "no",
        "park_ride": "no",
        "parking": "surface"
      }
    },
    {
      "type": "way",
      "id": 148683525,
      "timestamp": "2021-01-03T12:00:06Z",
      "version": 9,
      "changeset": 96843045,
      "user": "Martin Borsje",
      "uid": 99810,
      "nodes": [
        1617633738,
        908823733,
        6456399017,
        6456399014,
        6456399018,
        6456399013,
        6456399012,
        6456399015,
        6456399016,
        6456399009,
        6456399011,
        6456399010,
        1617633731,
        1617633728,
        6456399008,
        6456399006,
        6456399005,
        6456399007,
        6456399004,
        1617633732,
        8286020145,
        8286020146,
        8286020147,
        8286020148,
        8286020149,
        6456398989,
        6456398990,
        6456398991,
        8286020150,
        8286020151,
        8286020152,
        8286020153,
        8286020154,
        2526135646,
        1617633740,
        6456396346,
        5171788775,
        5171788774,
        5171788776,
        5171788773,
        6456396344,
        6456396345,
        1617633738
      ],
      "tags": {
        "access": "yes",
        "amenity": "parking",
        "capacity": "200",
        "fee": "no",
        "parking": "surface"
      }
    },
    {
      "type": "way",
      "id": 220018829,
      "timestamp": "2015-11-15T14:00:16Z",
      "version": 2,
      "changeset": 35328467,
      "user": "Hendrikklaas",
      "uid": 657581,
      "nodes": [
        2291413442,
        3837299190,
        2291413448,
        2291413445,
        3837299189,
        2291413432,
        2291413435,
        2291413437,
        3837299191,
        2291413444,
        2291413454,
        2291413441,
        2291413457,
        3837299182,
        2291413436,
        2291413456,
        2291413451,
        2291413450,
        2291413433,
        2291413442
      ],
      "tags": {
        "amenity": "parking"
      }
    },
    {
      "type": "way",
      "id": 220018958,
      "timestamp": "2013-05-04T14:32:53Z",
      "version": 1,
      "changeset": 15971995,
      "user": "Pierre1998",
      "uid": 1396166,
      "nodes": [
        2291416421,
        2291416427,
        2291416430,
        2291416419,
        2291416420,
        2291416415,
        2291416421
      ],
      "tags": {
        "amenity": "parking"
      }
    },
    {
      "type": "way",
      "id": 233783391,
      "timestamp": "2020-09-20T09:01:25Z",
      "version": 8,
      "changeset": 91169194,
      "user": "JaapD",
      "uid": 2135592,
      "nodes": [
        2421195976,
        2421195978,
        2421195985,
        2421197073,
        1747794272,
        2421195970,
        2421195984,
        2421195972,
        2421195971,
        3304833272,
        2421195976
      ],
      "tags": {
        "access": "customers",
        "amenity": "parking",
        "fee": "no",
        "parking": "surface",
        "surface": "asphalt"
      }
    },
    {
      "type": "way",
      "id": 247126103,
      "timestamp": "2019-09-13T19:45:13Z",
      "version": 2,
      "changeset": 74453334,
      "user": "Martin Borsje",
      "uid": 99810,
      "nodes": [
        2540655156,
        2540655149,
        6793872961,
        6793872960,
        2540655163,
        2540655160,
        2540655171,
        6793872959,
        2540655168,
        2540655164,
        2540655156
      ],
      "tags": {
        "amenity": "parking"
      }
    },
    {
      "type": "way",
      "id": 274354921,
      "timestamp": "2021-12-10T09:33:33Z",
      "version": 7,
      "changeset": 114776751,
      "user": "JanWandelaar",
      "uid": 424172,
      "nodes": [
        2790947935,
        2790947451,
        9326680666,
        2790947494,
        2790947957,
        7862619195,
        2790947935
      ],
      "tags": {
        "man_made": "watermill",
        "name": "Onderste Molen",
        "start_date": "1876",
        "wikidata": "Q1894780",
        "wikipedia": "nl:Onderste Molen (Mechelen)"
      }
    },
    {
      "type": "way",
      "id": 276810405,
      "timestamp": "2021-02-19T21:16:36Z",
      "version": 6,
      "changeset": 99617849,
      "user": "wvdp",
      "uid": 436419,
      "nodes": [
        2813893536,
        2813893523,
        2813893529,
        2813893503,
        2813895191,
        2813893958,
        6351573616,
        2813893938,
        7209405933,
        2041932795,
        6351574548,
        2813893552,
        2813893563,
        2813893588,
        2813893536
      ],
      "tags": {
        "building": "yes",
        "man_made": "watermill",
        "name": "Molen Otten",
        "ref:bag": "1729100001035853",
        "source": "BAG",
        "source:date": "2014-03-24",
        "start_date": "1776",
        "wikidata": "Q2566957",
        "wikipedia": "nl:Molen van Otten"
      }
    },
    {
      "type": "way",
      "id": 285798061,
      "timestamp": "2014-06-01T19:38:08Z",
      "version": 1,
      "changeset": 22680751,
      "user": "Martin Borsje",
      "uid": 99810,
      "nodes": [
        2894287465,
        2894287462,
        2894287460,
        2894287456,
        2894287457,
        2894287458,
        2894287461,
        2894287465
      ],
      "tags": {
        "amenity": "parking"
      }
    },
    {
      "type": "way",
      "id": 310622255,
      "timestamp": "2019-05-06T17:03:12Z",
      "version": 2,
      "changeset": 69944299,
      "user": "Allroads",
      "uid": 388804,
      "nodes": [
        3160748658,
        3160748659,
        6452623216,
        6452623217,
        6452623218,
        6452623219,
        3160748660,
        3160749864,
        3160749861,
        6452623210,
        6452623221,
        908852515,
        6452623220,
        3160749862,
        6452623222,
        3160748658
      ],
      "tags": {
        "amenity": "parking"
      }
    },
    {
      "type": "way",
      "id": 320279408,
      "timestamp": "2017-08-09T18:39:49Z",
      "version": 2,
      "changeset": 50980956,
      "user": "Allroads",
      "uid": 388804,
      "nodes": [
        908905167,
        5024963487,
        5024963431,
        5024963430,
        5024963429,
        5024963488,
        5024963489,
        908788844,
        908786615,
        5024963427,
        5024963426,
        5024963428,
        908881770,
        5024963435,
        5024963434,
        908905167
      ],
      "tags": {
        "amenity": "parking",
        "name": "Panoramaweg"
      }
    },
    {
      "type": "way",
      "id": 326270043,
      "timestamp": "2017-08-11T23:12:18Z",
      "version": 2,
      "changeset": 51046875,
      "user": "Allroads",
      "uid": 388804,
      "nodes": [
        3328896726,
        5029659546,
        908881451,
        5029659582,
        5029659579,
        5029659578,
        5029659580,
        5029659581,
        5029659559,
        5029659560,
        5029659561,
        5029659565,
        5029659563,
        5029659562,
        5029659564,
        5029659557,
        3328896729,
        5029659549,
        3328896728,
        5029659570,
        5029659568,
        5029659566,
        5029659567,
        5029659569,
        3328896727,
        5029659572,
        5029659571,
        5029659573,
        5029659576,
        5029659575,
        5029659574,
        5029659577,
        3328896726
      ],
      "tags": {
        "amenity": "parking"
      }
    },
    {
      "type": "way",
      "id": 326270046,
      "timestamp": "2018-02-16T20:33:37Z",
      "version": 2,
      "changeset": 56425109,
      "user": "letihu",
      "uid": 1787357,
      "nodes": [
        3328896739,
        2791542974,
        2791542846,
        3328896730,
        3328896731,
        3328896733,
        908775589,
        908874858,
        908807207,
        908863585,
        908851080,
        3328896741,
        3328896739
      ],
      "tags": {
        "amenity": "parking"
      }
    },
    {
      "type": "way",
      "id": 326270048,
      "timestamp": "2015-02-03T19:34:11Z",
      "version": 1,
      "changeset": 28596748,
      "user": "Martin Borsje",
      "uid": 99810,
      "nodes": [
        3328896740,
        3328896736,
        3328896734,
        3328896737,
        3328896735,
        3328896738,
        3328896740
      ],
      "tags": {
        "amenity": "parking"
      }
    },
    {
      "type": "way",
      "id": 361832196,
      "timestamp": "2017-10-19T21:36:25Z",
      "version": 3,
      "changeset": 53082958,
      "user": "Allroads",
      "uid": 388804,
      "nodes": [
        5177180553,
        5177180552,
        3662558566,
        5177180557,
        5177180550,
        3662558567,
        908793445,
        5177180553
      ],
      "tags": {
        "amenity": "parking"
      }
    },
    {
      "type": "way",
      "id": 380413010,
      "timestamp": "2015-11-15T15:49:17Z",
      "version": 1,
      "changeset": 35330190,
      "user": "Hendrikklaas",
      "uid": 657581,
      "nodes": [
        3837471468,
        3837471466,
        3837471465,
        3837471467,
        3837471468
      ],
      "tags": {
        "amenity": "parking",
        "parking": "surface",
        "surface": "paving_stones"
      }
    },
    {
      "type": "way",
      "id": 421948600,
      "timestamp": "2016-05-31T06:37:35Z",
      "version": 1,
      "changeset": 39681171,
      "user": "AEelderink",
      "uid": 1331238,
      "nodes": [
        4216839613,
        4216839614,
        4216839615,
        4216839616,
        4216839613
      ],
      "tags": {
        "access": "customers",
        "amenity": "parking",
        "fee": "no",
        "parking": "surface",
        "surface": "concrete"
      }
    },
    {
      "type": "way",
      "id": 454379106,
      "timestamp": "2021-07-14T22:53:11Z",
      "version": 2,
      "changeset": 108004304,
      "user": "jeroenrozema74",
      "uid": 183483,
      "nodes": [
        4509413116,
        4509413115,
        4509413114,
        6336921976,
        908778348,
        908893337,
        8920721163,
        8920721162,
        8920721164,
        4509413117,
        4509413116
      ],
      "tags": {
        "amenity": "parking"
      }
    },
    {
      "type": "way",
      "id": 461571633,
      "timestamp": "2019-04-04T08:28:49Z",
      "version": 2,
      "changeset": 68871683,
      "user": "EOSfoto",
      "uid": 1296171,
      "nodes": [
        908898163,
        6382799806,
        908877962,
        6382799805,
        6382799804,
        908909095,
        908770090,
        6382799803,
        6382799802,
        908789487,
        908849913,
        909327431,
        6382799801,
        6382799794,
        908870605,
        6382799795,
        6382799796,
        6382799797,
        6382799798,
        6382799799,
        6382799800,
        908898163
      ],
      "tags": {
        "amenity": "parking"
      }
    },
    {
      "type": "way",
      "id": 484206325,
      "timestamp": "2017-04-01T13:43:54Z",
      "version": 1,
      "changeset": 47355802,
      "user": "Martin Borsje",
      "uid": 99810,
      "nodes": [
        908843200,
        908784335,
        4769464899,
        4769464901,
        908775436,
        908843200
      ],
      "tags": {
        "amenity": "parking"
      }
    },
    {
      "type": "way",
      "id": 490490974,
      "timestamp": "2017-04-30T10:38:32Z",
      "version": 1,
      "changeset": 48278503,
      "user": "EOSfoto",
      "uid": 1296171,
      "nodes": [
        4826751536,
        4826751535,
        4826751549,
        4826751550,
        4826751551,
        4826751552,
        4826751553,
        4826751554,
        4826751536
      ],
      "tags": {
        "amenity": "parking",
        "parking": "surface"
      }
    },
    {
      "type": "way",
      "id": 493043885,
      "timestamp": "2018-11-20T21:27:50Z",
      "version": 2,
      "changeset": 64714912,
      "user": "Martin Borsje",
      "uid": 99810,
      "nodes": [
        4849873859,
        4849873858,
        4849873857,
        4849873856,
        5380019057,
        908895957,
        4849873859
      ],
      "tags": {
        "amenity": "parking"
      }
    },
    {
      "type": "way",
      "id": 493043888,
      "timestamp": "2017-05-12T15:51:55Z",
      "version": 1,
      "changeset": 48628057,
      "user": "jeroenrozema74",
      "uid": 183483,
      "nodes": [
        4849873864,
        4849873863,
        2813892660,
        4849873862,
        4849873861,
        4849873864
      ],
      "tags": {
        "amenity": "parking",
        "capacity": "3"
      }
    },
    {
      "type": "way",
      "id": 520025480,
      "timestamp": "2017-08-30T15:18:44Z",
      "version": 1,
      "changeset": 51583099,
      "user": "Ralph K",
      "uid": 6565616,
      "nodes": [
        5069464655,
        5069464656,
        5069464657,
        5069464658,
        5069464659,
        5069464660,
        5069464661,
        5069464662,
        5069464663,
        5069464664,
        5069464665,
        5069464666,
        5069464655
      ],
      "tags": {
        "amenity": "parking",
        "landuse": "residential"
      }
    },
    {
      "type": "way",
      "id": 577878421,
      "timestamp": "2018-04-09T00:09:57Z",
      "version": 1,
      "changeset": 57925184,
      "user": "padvinder",
      "uid": 978786,
      "nodes": [
        5538902303,
        5538902429,
        5538902430,
        5538902290,
        5538902303
      ],
      "tags": {
        "amenity": "parking"
      }
    },
    {
      "type": "way",
      "id": 577878426,
      "timestamp": "2019-04-04T23:04:52Z",
      "version": 2,
      "changeset": 68901905,
      "user": "Allroads",
      "uid": 388804,
      "nodes": [
        5538902305,
        5538902426,
        6384488334,
        6384488335,
        5538902307,
        5538902308,
        5538902305
      ],
      "tags": {
        "amenity": "parking"
      }
    },
    {
      "type": "way",
      "id": 586598842,
      "timestamp": "2021-11-20T15:44:54Z",
      "version": 6,
      "changeset": 114031767,
      "user": "Maarten Deen",
      "uid": 9176,
      "nodes": [
        5604323972,
        5604323971,
        9269938175,
        9269938174,
        5604323970,
        5604323972
      ],
      "tags": {
        "access": "yes",
        "amenity": "parking",
        "fee": "no",
        "name": "Prins Willem Alexanderplein",
        "parking": "surface"
      }
    },
    {
      "type": "way",
      "id": 640073525,
      "timestamp": "2018-11-01T16:48:43Z",
      "version": 1,
      "changeset": 64086175,
      "user": "Parzelle13",
      "uid": 3423755,
      "nodes": [
        6030127498,
        6030127497,
        6030127496,
        6030127495,
        6030127498
      ],
      "tags": {
        "access": "customers",
        "amenity": "parking",
        "parking": "surface",
        "surface": "fine_gravel"
      }
    },
    {
      "type": "way",
      "id": 648248631,
      "timestamp": "2019-05-26T19:16:54Z",
      "version": 2,
      "changeset": 70639838,
      "user": "EOSfoto",
      "uid": 1296171,
      "nodes": [
        6086303828,
        6086303827,
        6502506000,
        6502505999,
        6502505998,
        6502505997,
        6502505996,
        6502505995,
        6502505994,
        6502505993,
        6086303826,
        6502505992,
        6502506001,
        6086303825,
        6502506002,
        6502506003,
        6086303828
      ],
      "tags": {
        "amenity": "parking"
      }
    },
    {
      "type": "way",
      "id": 648248632,
      "timestamp": "2018-11-23T18:56:37Z",
      "version": 1,
      "changeset": 64829985,
      "user": "Eebie",
      "uid": 715684,
      "nodes": [
        6086303832,
        6086303831,
        6086303830,
        6086303829,
        6086303832
      ],
      "tags": {
        "amenity": "parking"
      }
    },
    {
      "type": "way",
      "id": 648248637,
      "timestamp": "2019-05-26T19:16:54Z",
      "version": 2,
      "changeset": 70639838,
      "user": "EOSfoto",
      "uid": 1296171,
      "nodes": [
        6086303852,
        6086303851,
        6502506038,
        6502506037,
        6502506017,
        6086303850,
        6086303849,
        6086303852
      ],
      "tags": {
        "amenity": "parking"
      }
    },
    {
      "type": "way",
      "id": 662841312,
      "timestamp": "2019-01-13T09:56:42Z",
      "version": 1,
      "changeset": 66269202,
      "user": "Martin Borsje",
      "uid": 99810,
      "nodes": [
        6205101736,
        6205101735,
        6205101734,
        6205101733,
        6205101732,
        6205101731,
        6205101730,
        6205101729,
        6205101728,
        6205101727,
        6205101736
      ],
      "tags": {
        "amenity": "parking"
      }
    },
    {
      "type": "way",
      "id": 686276537,
      "timestamp": "2019-06-01T06:11:55Z",
      "version": 2,
      "changeset": 70828506,
      "user": "EOSfoto",
      "uid": 1296171,
      "nodes": [
        6432460898,
        6432460900,
        6432460899,
        908901544,
        6432460897,
        6514633798,
        6514633797,
        6432460898
      ],
      "tags": {
        "amenity": "parking"
      }
    },
    {
      "type": "way",
      "id": 688413590,
      "timestamp": "2020-05-31T19:17:25Z",
      "version": 2,
      "changeset": 86018665,
      "user": "open-steet-map-editor",
      "uid": 7434674,
      "nodes": [
        6455392074,
        6455392073,
        6455392072,
        6455392070,
        6455392075,
        6455392071,
        7575762326,
        6455392074
      ],
      "tags": {
        "amenity": "parking",
        "motorcar": "yes",
        "surface": "grass"
      }
    },
    {
      "type": "way",
      "id": 692681788,
      "timestamp": "2019-05-27T04:52:26Z",
      "version": 1,
      "changeset": 70647378,
      "user": "EOSfoto",
      "uid": 1296171,
      "nodes": [
        6503116130,
        6503116129,
        6503116128,
        6503116127,
        6503116126,
        6503116125,
        6503116130
      ],
      "tags": {
        "access": "yes",
        "amenity": "parking",
        "fee": "no",
        "opening_hours": "24/7",
        "parking": "surface",
        "surface": "asphalt"
      }
    },
    {
      "type": "way",
      "id": 776719429,
      "timestamp": "2020-02-27T09:55:06Z",
      "version": 1,
      "changeset": 81542334,
      "user": "klimpetje",
      "uid": 273069,
      "nodes": [
        7247170230,
        7247170231,
        41955665,
        7247170232,
        7247170230
      ],
      "tags": {
        "amenity": "parking"
      }
    },
    {
      "type": "way",
      "id": 776719439,
      "timestamp": "2020-02-27T09:55:06Z",
      "version": 1,
      "changeset": 81542334,
      "user": "klimpetje",
      "uid": 273069,
      "nodes": [
        7247170251,
        7247170256,
        7247170252,
        7247170253,
        7247170254,
        7247170251
      ],
      "tags": {
        "amenity": "parking",
        "operator": "Van Wachtendonckplein"
      }
    },
    {
      "type": "way",
      "id": 776719442,
      "timestamp": "2021-01-13T17:03:48Z",
      "version": 2,
      "changeset": 97455728,
      "user": "Maarten Deen",
      "uid": 9176,
      "nodes": [
        908811511,
        908769826,
        41952201,
        7247170264,
        7247170265,
        7247170266,
        908877543,
        908811511
      ],
      "tags": {
        "amenity": "parking"
      }
    },
    {
      "type": "way",
      "id": 879577157,
      "timestamp": "2021-11-10T08:29:51Z",
      "version": 2,
      "changeset": 113597587,
      "user": "klimpetje",
      "uid": 273069,
      "nodes": [
        2512446465,
        8182417508,
        8182417507,
        8182417506,
        9239927837,
        9239927839,
        9239927838,
        8182417505,
        2512446465
      ],
      "tags": {
        "amenity": "parking",
        "parking": "surface"
      }
    },
    {
      "type": "way",
      "id": 891188928,
      "timestamp": "2021-01-02T09:36:28Z",
      "version": 1,
      "changeset": 96799137,
      "user": "Martin Borsje",
      "uid": 99810,
      "nodes": [
        8283051054,
        8283051053,
        8283051052,
        8283051051,
        8283051050,
        8283051049,
        8283051048,
        8283051047,
        8283051046,
        8283051045,
        8283051044,
        8283051043,
        8283051042,
        8283051041,
        8283051040,
        8283051054
      ],
      "tags": {
        "amenity": "parking"
      }
    },
    {
      "type": "way",
      "id": 914400654,
      "timestamp": "2021-03-07T14:48:54Z",
      "version": 1,
      "changeset": 100577560,
      "user": "klimpetje",
      "uid": 273069,
      "nodes": [
        8494240754,
        8494240755,
        8494240756,
        8494240757,
        8494240758,
        8494240759,
        8494240763,
        8494240754
      ],
      "tags": {
        "amenity": "parking"
      }
    },
    {
      "type": "way",
      "id": 1004715628,
      "timestamp": "2021-11-20T15:44:54Z",
      "version": 1,
      "changeset": 114031767,
      "user": "Maarten Deen",
      "uid": 9176,
      "nodes": [
        41933403,
        9269938180,
        9269938179,
        9269938178,
        9269938177,
        9269938176,
        41933403
      ],
      "tags": {
        "amenity": "parking",
        "fee": "no",
        "parking": "surface"
      }
    },
    {
      "type": "node",
      "id": 41933403,
      "lat": 50.813007,
      "lon": 5.8912601
    },
    {
      "type": "node",
      "id": 908769172,
      "lat": 50.808745,
      "lon": 5.8902901
    },
    {
      "type": "node",
      "id": 908774473,
      "lat": 50.8088603,
      "lon": 5.8903687
    },
    {
      "type": "node",
      "id": 908775589,
      "lat": 50.810624,
      "lon": 5.8902032
    },
    {
      "type": "node",
      "id": 908775856,
      "lat": 50.8078534,
      "lon": 5.8895865
    },
    {
      "type": "node",
      "id": 908781644,
      "lat": 50.8081329,
      "lon": 5.8898855
    },
    {
      "type": "node",
      "id": 908804001,
      "lat": 50.8085427,
      "lon": 5.8901527
    },
    {
      "type": "node",
      "id": 908807207,
      "lat": 50.8109414,
      "lon": 5.8904788
    },
    {
      "type": "node",
      "id": 908851080,
      "lat": 50.8116096,
      "lon": 5.891332
    },
    {
      "type": "node",
      "id": 908857684,
      "lat": 50.8092302,
      "lon": 5.8888807
    },
    {
      "type": "node",
      "id": 908863573,
      "lat": 50.8090422,
      "lon": 5.8887703
    },
    {
      "type": "node",
      "id": 908863585,
      "lat": 50.8115391,
      "lon": 5.8912568
    },
    {
      "type": "node",
      "id": 908874858,
      "lat": 50.8106784,
      "lon": 5.8901612
    },
    {
      "type": "node",
      "id": 908881451,
      "lat": 50.809468,
      "lon": 5.887907
    },
    {
      "type": "node",
      "id": 908896243,
      "lat": 50.8081534,
      "lon": 5.8898254
    },
    {
      "type": "node",
      "id": 1610664920,
      "lat": 50.8087128,
      "lon": 5.8891062
    },
    {
      "type": "node",
      "id": 2540655149,
      "lat": 50.8119445,
      "lon": 5.888582
    },
    {
      "type": "node",
      "id": 2540655156,
      "lat": 50.8119594,
      "lon": 5.8883151
    },
    {
      "type": "node",
      "id": 2540655160,
      "lat": 50.8120882,
      "lon": 5.8889999
    },
    {
      "type": "node",
      "id": 2540655163,
      "lat": 50.8121287,
      "lon": 5.888731
    },
    {
      "type": "node",
      "id": 2540655164,
      "lat": 50.8121509,
      "lon": 5.8885619
    },
    {
      "type": "node",
      "id": 2540655168,
      "lat": 50.8123206,
      "lon": 5.8888621
    },
    {
      "type": "node",
      "id": 2540655171,
      "lat": 50.8123087,
      "lon": 5.8890461
    },
    {
      "type": "node",
      "id": 2791542846,
      "lat": 50.8107396,
      "lon": 5.8905655
    },
    {
      "type": "node",
      "id": 2791542974,
      "lat": 50.810946,
      "lon": 5.8908159
    },
    {
      "type": "node",
      "id": 2795968053,
      "lat": 50.8090576,
      "lon": 5.8895469
    },
    {
      "type": "node",
      "id": 3328896726,
      "lat": 50.8094175,
      "lon": 5.8881288
    },
    {
      "type": "node",
      "id": 3328896727,
      "lat": 50.8099772,
      "lon": 5.8884639
    },
    {
      "type": "node",
      "id": 3328896728,
      "lat": 50.8104753,
      "lon": 5.8888061
    },
    {
      "type": "node",
      "id": 3328896729,
      "lat": 50.8105071,
      "lon": 5.8886581
    },
    {
      "type": "node",
      "id": 3328896730,
      "lat": 50.810636,
      "lon": 5.8904461
    },
    {
      "type": "node",
      "id": 3328896731,
      "lat": 50.8106724,
      "lon": 5.8903717
    },
    {
      "type": "node",
      "id": 3328896733,
      "lat": 50.8107018,
      "lon": 5.890327
    },
    {
      "type": "node",
      "id": 3328896734,
      "lat": 50.8111175,
      "lon": 5.8904957
    },
    {
      "type": "node",
      "id": 3328896735,
      "lat": 50.8112756,
      "lon": 5.8898833
    },
    {
      "type": "node",
      "id": 3328896736,
      "lat": 50.8112745,
      "lon": 5.8907025
    },
    {
      "type": "node",
      "id": 3328896737,
      "lat": 50.8113247,
      "lon": 5.8900744
    },
    {
      "type": "node",
      "id": 3328896738,
      "lat": 50.8113245,
      "lon": 5.8898154
    },
    {
      "type": "node",
      "id": 3328896739,
      "lat": 50.8115671,
      "lon": 5.8915438
    },
    {
      "type": "node",
      "id": 3328896740,
      "lat": 50.8115696,
      "lon": 5.8901146
    },
    {
      "type": "node",
      "id": 3328896741,
      "lat": 50.811627,
      "lon": 5.8913559
    },
    {
      "type": "node",
      "id": 5029659546,
      "lat": 50.8094435,
      "lon": 5.8880146
    },
    {
      "type": "node",
      "id": 5029659549,
      "lat": 50.810498,
      "lon": 5.8887008
    },
    {
      "type": "node",
      "id": 5029659557,
      "lat": 50.8105237,
      "lon": 5.88859
    },
    {
      "type": "node",
      "id": 5029659559,
      "lat": 50.8100054,
      "lon": 5.8882762
    },
    {
      "type": "node",
      "id": 5029659560,
      "lat": 50.8100169,
      "lon": 5.888283
    },
    {
      "type": "node",
      "id": 5029659561,
      "lat": 50.8100284,
      "lon": 5.8882356
    },
    {
      "type": "node",
      "id": 5029659562,
      "lat": 50.8103845,
      "lon": 5.8885532
    },
    {
      "type": "node",
      "id": 5029659563,
      "lat": 50.8103562,
      "lon": 5.8885061
    },
    {
      "type": "node",
      "id": 5029659564,
      "lat": 50.8103954,
      "lon": 5.8885147
    },
    {
      "type": "node",
      "id": 5029659565,
      "lat": 50.8103702,
      "lon": 5.8884423
    },
    {
      "type": "node",
      "id": 5029659566,
      "lat": 50.8103349,
      "lon": 5.8886086
    },
    {
      "type": "node",
      "id": 5029659567,
      "lat": 50.8103296,
      "lon": 5.888603
    },
    {
      "type": "node",
      "id": 5029659568,
      "lat": 50.8103608,
      "lon": 5.8886622
    },
    {
      "type": "node",
      "id": 5029659569,
      "lat": 50.810315,
      "lon": 5.8886641
    },
    {
      "type": "node",
      "id": 5029659570,
      "lat": 50.8103472,
      "lon": 5.8887277
    },
    {
      "type": "node",
      "id": 5029659571,
      "lat": 50.8099777,
      "lon": 5.8883889
    },
    {
      "type": "node",
      "id": 5029659572,
      "lat": 50.8099927,
      "lon": 5.8883977
    },
    {
      "type": "node",
      "id": 5029659573,
      "lat": 50.8099625,
      "lon": 5.8884537
    },
    {
      "type": "node",
      "id": 5029659574,
      "lat": 50.8096424,
      "lon": 5.8881875
    },
    {
      "type": "node",
      "id": 5029659575,
      "lat": 50.8096628,
      "lon": 5.8881998
    },
    {
      "type": "node",
      "id": 5029659576,
      "lat": 50.8096476,
      "lon": 5.8882677
    },
    {
      "type": "node",
      "id": 5029659577,
      "lat": 50.8096246,
      "lon": 5.8882528
    },
    {
      "type": "node",
      "id": 5029659578,
      "lat": 50.8096834,
      "lon": 5.8881043
    },
    {
      "type": "node",
      "id": 5029659579,
      "lat": 50.8096685,
      "lon": 5.8880958
    },
    {
      "type": "node",
      "id": 5029659580,
      "lat": 50.8096999,
      "lon": 5.8880413
    },
    {
      "type": "node",
      "id": 5029659581,
      "lat": 50.8100152,
      "lon": 5.8882278
    },
    {
      "type": "node",
      "id": 5029659582,
      "lat": 50.8096835,
      "lon": 5.888031
    },
    {
      "type": "node",
      "id": 6793872959,
      "lat": 50.812292,
      "lon": 5.8889235
    },
    {
      "type": "node",
      "id": 6793872960,
      "lat": 50.8120226,
      "lon": 5.8885914
    },
    {
      "type": "node",
      "id": 6793872961,
      "lat": 50.8119845,
      "lon": 5.8886103
    },
    {
      "type": "node",
      "id": 9269938176,
      "lat": 50.812751,
      "lon": 5.8910661
    },
    {
      "type": "node",
      "id": 9269938177,
      "lat": 50.8129418,
      "lon": 5.8906988
    },
    {
      "type": "node",
      "id": 9269938178,
      "lat": 50.812788,
      "lon": 5.8905819
    },
    {
      "type": "node",
      "id": 9269938179,
      "lat": 50.8129044,
      "lon": 5.8902628
    },
    {
      "type": "node",
      "id": 9269938180,
      "lat": 50.8133368,
      "lon": 5.8906294
    },
    {
      "type": "node",
      "id": 5604323971,
      "lat": 50.8140765,
      "lon": 5.8916711
    },
    {
      "type": "node",
      "id": 2512446465,
      "lat": 50.8162997,
      "lon": 5.8933843
    },
    {
      "type": "node",
      "id": 5604323970,
      "lat": 50.8147142,
      "lon": 5.8924181
    },
    {
      "type": "node",
      "id": 5604323972,
      "lat": 50.8142021,
      "lon": 5.8917463
    },
    {
      "type": "node",
      "id": 8182417505,
      "lat": 50.8161141,
      "lon": 5.8937392
    },
    {
      "type": "node",
      "id": 8182417506,
      "lat": 50.8162951,
      "lon": 5.8941621
    },
    {
      "type": "node",
      "id": 8182417507,
      "lat": 50.816263,
      "lon": 5.8940004
    },
    {
      "type": "node",
      "id": 8182417508,
      "lat": 50.8164163,
      "lon": 5.8937066
    },
    {
      "type": "node",
      "id": 9239927837,
      "lat": 50.8161842,
      "lon": 5.8942717
    },
    {
      "type": "node",
      "id": 9239927838,
      "lat": 50.8161041,
      "lon": 5.8938809
    },
    {
      "type": "node",
      "id": 9239927839,
      "lat": 50.8160696,
      "lon": 5.893959
    },
    {
      "type": "node",
      "id": 9269938174,
      "lat": 50.8145759,
      "lon": 5.8927365
    },
    {
      "type": "node",
      "id": 9269938175,
      "lat": 50.8139256,
      "lon": 5.8919703
    },
    {
      "type": "node",
      "id": 4216839613,
      "lat": 50.8053215,
      "lon": 5.9102962
    },
    {
      "type": "node",
      "id": 4216839614,
      "lat": 50.8053876,
      "lon": 5.9102076
    },
    {
      "type": "node",
      "id": 4216839615,
      "lat": 50.805613,
      "lon": 5.9105912
    },
    {
      "type": "node",
      "id": 4216839616,
      "lat": 50.8055537,
      "lon": 5.9106824
    },
    {
      "type": "node",
      "id": 508572034,
      "lat": 50.7939159,
      "lon": 5.9223297
    },
    {
      "type": "node",
      "id": 508572036,
      "lat": 50.7938791,
      "lon": 5.9223725
    },
    {
      "type": "node",
      "id": 508572037,
      "lat": 50.793979,
      "lon": 5.9227013
    },
    {
      "type": "node",
      "id": 508572039,
      "lat": 50.794183,
      "lon": 5.9224725
    },
    {
      "type": "node",
      "id": 508572040,
      "lat": 50.7941799,
      "lon": 5.9223518
    },
    {
      "type": "node",
      "id": 508572041,
      "lat": 50.7940355,
      "lon": 5.9227263
    },
    {
      "type": "node",
      "id": 508572044,
      "lat": 50.7942124,
      "lon": 5.9225264
    },
    {
      "type": "node",
      "id": 2790947451,
      "lat": 50.7943674,
      "lon": 5.9184072
    },
    {
      "type": "node",
      "id": 2790947494,
      "lat": 50.7943813,
      "lon": 5.9183348
    },
    {
      "type": "node",
      "id": 2790947935,
      "lat": 50.7944516,
      "lon": 5.9184412
    },
    {
      "type": "node",
      "id": 2790947957,
      "lat": 50.7944636,
      "lon": 5.9183757
    },
    {
      "type": "node",
      "id": 5035461836,
      "lat": 50.793919,
      "lon": 5.9223393
    },
    {
      "type": "node",
      "id": 5035461837,
      "lat": 50.7940162,
      "lon": 5.9226605
    },
    {
      "type": "node",
      "id": 6086303827,
      "lat": 50.7971489,
      "lon": 5.9241042
    },
    {
      "type": "node",
      "id": 6086303828,
      "lat": 50.7975026,
      "lon": 5.9239933
    },
    {
      "type": "node",
      "id": 6502505996,
      "lat": 50.7971811,
      "lon": 5.9243465
    },
    {
      "type": "node",
      "id": 6502505997,
      "lat": 50.7971555,
      "lon": 5.9243559
    },
    {
      "type": "node",
      "id": 6502505998,
      "lat": 50.7971376,
      "lon": 5.9243323
    },
    {
      "type": "node",
      "id": 6502505999,
      "lat": 50.7971281,
      "lon": 5.9242493
    },
    {
      "type": "node",
      "id": 6502506000,
      "lat": 50.7971621,
      "lon": 5.9242069
    },
    {
      "type": "node",
      "id": 6502506002,
      "lat": 50.7975997,
      "lon": 5.9244531
    },
    {
      "type": "node",
      "id": 6502506003,
      "lat": 50.7975776,
      "lon": 5.9243446
    },
    {
      "type": "node",
      "id": 7862619195,
      "lat": 50.7944586,
      "lon": 5.9184031
    },
    {
      "type": "node",
      "id": 9326680666,
      "lat": 50.7943726,
      "lon": 5.9183801
    },
    {
      "type": "node",
      "id": 908770090,
      "lat": 50.8183566,
      "lon": 5.8990645
    },
    {
      "type": "node",
      "id": 908786615,
      "lat": 50.8139386,
      "lon": 5.9001511
    },
    {
      "type": "node",
      "id": 908788844,
      "lat": 50.8137892,
      "lon": 5.9003239
    },
    {
      "type": "node",
      "id": 908789487,
      "lat": 50.8183896,
      "lon": 5.8991091
    },
    {
      "type": "node",
      "id": 908849913,
      "lat": 50.8183999,
      "lon": 5.8991366
    },
    {
      "type": "node",
      "id": 908870605,
      "lat": 50.818489,
      "lon": 5.8996008
    },
    {
      "type": "node",
      "id": 908877962,
      "lat": 50.818279,
      "lon": 5.8990628
    },
    {
      "type": "node",
      "id": 908881770,
      "lat": 50.8140544,
      "lon": 5.8999699
    },
    {
      "type": "node",
      "id": 908898163,
      "lat": 50.8184048,
      "lon": 5.8997443
    },
    {
      "type": "node",
      "id": 908901544,
      "lat": 50.8177217,
      "lon": 5.9006812
    },
    {
      "type": "node",
      "id": 908905167,
      "lat": 50.8139127,
      "lon": 5.8998728
    },
    {
      "type": "node",
      "id": 908909095,
      "lat": 50.8183347,
      "lon": 5.8990524
    },
    {
      "type": "node",
      "id": 909327431,
      "lat": 50.8184454,
      "lon": 5.8993572
    },
    {
      "type": "node",
      "id": 5024963426,
      "lat": 50.8139301,
      "lon": 5.9000665
    },
    {
      "type": "node",
      "id": 5024963427,
      "lat": 50.8139104,
      "lon": 5.9000913
    },
    {
      "type": "node",
      "id": 5024963428,
      "lat": 50.8139601,
      "lon": 5.9001257
    },
    {
      "type": "node",
      "id": 5024963429,
      "lat": 50.8138944,
      "lon": 5.9000576
    },
    {
      "type": "node",
      "id": 5024963430,
      "lat": 50.8139152,
      "lon": 5.9000309
    },
    {
      "type": "node",
      "id": 5024963431,
      "lat": 50.8138666,
      "lon": 5.8999305
    },
    {
      "type": "node",
      "id": 5024963434,
      "lat": 50.8139491,
      "lon": 5.8999206
    },
    {
      "type": "node",
      "id": 5024963435,
      "lat": 50.8139724,
      "lon": 5.8998961
    },
    {
      "type": "node",
      "id": 5024963487,
      "lat": 50.8138958,
      "lon": 5.8998946
    },
    {
      "type": "node",
      "id": 5024963488,
      "lat": 50.8138457,
      "lon": 5.8999574
    },
    {
      "type": "node",
      "id": 5024963489,
      "lat": 50.8137365,
      "lon": 5.9000895
    },
    {
      "type": "node",
      "id": 6205101727,
      "lat": 50.8173302,
      "lon": 5.9007186
    },
    {
      "type": "node",
      "id": 6205101728,
      "lat": 50.8173261,
      "lon": 5.9007855
    },
    {
      "type": "node",
      "id": 6205101729,
      "lat": 50.8172897,
      "lon": 5.9007431
    },
    {
      "type": "node",
      "id": 6205101730,
      "lat": 50.817136,
      "lon": 5.9010251
    },
    {
      "type": "node",
      "id": 6205101731,
      "lat": 50.8171616,
      "lon": 5.9011279
    },
    {
      "type": "node",
      "id": 6205101732,
      "lat": 50.8172438,
      "lon": 5.901226
    },
    {
      "type": "node",
      "id": 6205101733,
      "lat": 50.8172903,
      "lon": 5.9011194
    },
    {
      "type": "node",
      "id": 6205101734,
      "lat": 50.8173243,
      "lon": 5.9011402
    },
    {
      "type": "node",
      "id": 6205101735,
      "lat": 50.8173654,
      "lon": 5.9009364
    },
    {
      "type": "node",
      "id": 6205101736,
      "lat": 50.8173761,
      "lon": 5.9007318
    },
    {
      "type": "node",
      "id": 6382799794,
      "lat": 50.8184896,
      "lon": 5.8995706
    },
    {
      "type": "node",
      "id": 6382799795,
      "lat": 50.8184881,
      "lon": 5.8996254
    },
    {
      "type": "node",
      "id": 6382799796,
      "lat": 50.8184822,
      "lon": 5.8996546
    },
    {
      "type": "node",
      "id": 6382799797,
      "lat": 50.8184756,
      "lon": 5.8996739
    },
    {
      "type": "node",
      "id": 6382799798,
      "lat": 50.8184628,
      "lon": 5.899697
    },
    {
      "type": "node",
      "id": 6382799799,
      "lat": 50.8184464,
      "lon": 5.8997197
    },
    {
      "type": "node",
      "id": 6382799800,
      "lat": 50.8184291,
      "lon": 5.8997343
    },
    {
      "type": "node",
      "id": 6382799801,
      "lat": 50.8184777,
      "lon": 5.899515
    },
    {
      "type": "node",
      "id": 6382799802,
      "lat": 50.8183829,
      "lon": 5.8990948
    },
    {
      "type": "node",
      "id": 6382799803,
      "lat": 50.8183728,
      "lon": 5.8990792
    },
    {
      "type": "node",
      "id": 6382799804,
      "lat": 50.8183138,
      "lon": 5.8990505
    },
    {
      "type": "node",
      "id": 6382799805,
      "lat": 50.818301,
      "lon": 5.8990542
    },
    {
      "type": "node",
      "id": 6382799806,
      "lat": 50.81827,
      "lon": 5.8990674
    },
    {
      "type": "node",
      "id": 6432460897,
      "lat": 50.8177452,
      "lon": 5.9005109
    },
    {
      "type": "node",
      "id": 6432460898,
      "lat": 50.8178699,
      "lon": 5.9006584
    },
    {
      "type": "node",
      "id": 6432460899,
      "lat": 50.8176161,
      "lon": 5.9014551
    },
    {
      "type": "node",
      "id": 6432460900,
      "lat": 50.8177541,
      "lon": 5.9015006
    },
    {
      "type": "node",
      "id": 6514633797,
      "lat": 50.8177793,
      "lon": 5.9006251
    },
    {
      "type": "node",
      "id": 6514633798,
      "lat": 50.8177937,
      "lon": 5.9005252
    },
    {
      "type": "node",
      "id": 1617633738,
      "lat": 50.8138225,
      "lon": 5.910839
    },
    {
      "type": "node",
      "id": 1617633740,
      "lat": 50.8139213,
      "lon": 5.911283
    },
    {
      "type": "node",
      "id": 5171788773,
      "lat": 50.8138915,
      "lon": 5.9108316
    },
    {
      "type": "node",
      "id": 5171788774,
      "lat": 50.8139306,
      "lon": 5.9109369
    },
    {
      "type": "node",
      "id": 5171788775,
      "lat": 50.8139218,
      "lon": 5.9109709
    },
    {
      "type": "node",
      "id": 5171788776,
      "lat": 50.8139451,
      "lon": 5.9109065
    },
    {
      "type": "node",
      "id": 6456396344,
      "lat": 50.8138868,
      "lon": 5.9108357
    },
    {
      "type": "node",
      "id": 6456396345,
      "lat": 50.8138781,
      "lon": 5.910839
    },
    {
      "type": "node",
      "id": 6456396346,
      "lat": 50.8139195,
      "lon": 5.911004
    },
    {
      "type": "node",
      "id": 908823733,
      "lat": 50.8121661,
      "lon": 5.9135805
    },
    {
      "type": "node",
      "id": 1617633728,
      "lat": 50.8121761,
      "lon": 5.913696
    },
    {
      "type": "node",
      "id": 1617633731,
      "lat": 50.8121936,
      "lon": 5.9136509
    },
    {
      "type": "node",
      "id": 1617633732,
      "lat": 50.8123268,
      "lon": 5.9139253
    },
    {
      "type": "node",
      "id": 6455392070,
      "lat": 50.8079469,
      "lon": 5.9147219
    },
    {
      "type": "node",
      "id": 6455392071,
      "lat": 50.8072645,
      "lon": 5.9137446
    },
    {
      "type": "node",
      "id": 6455392072,
      "lat": 50.807948,
      "lon": 5.914688
    },
    {
      "type": "node",
      "id": 6455392073,
      "lat": 50.8079489,
      "lon": 5.9146628
    },
    {
      "type": "node",
      "id": 6455392074,
      "lat": 50.8076558,
      "lon": 5.9136672
    },
    {
      "type": "node",
      "id": 6455392075,
      "lat": 50.8076102,
      "lon": 5.9142322
    },
    {
      "type": "node",
      "id": 6456398989,
      "lat": 50.8128688,
      "lon": 5.9130262
    },
    {
      "type": "node",
      "id": 6456398990,
      "lat": 50.8130099,
      "lon": 5.9127922
    },
    {
      "type": "node",
      "id": 6456398991,
      "lat": 50.8130267,
      "lon": 5.9128194
    },
    {
      "type": "node",
      "id": 6456399004,
      "lat": 50.8122265,
      "lon": 5.9140674
    },
    {
      "type": "node",
      "id": 6456399005,
      "lat": 50.8121674,
      "lon": 5.9138771
    },
    {
      "type": "node",
      "id": 6456399006,
      "lat": 50.812163,
      "lon": 5.9138238
    },
    {
      "type": "node",
      "id": 6456399007,
      "lat": 50.8121811,
      "lon": 5.9139271
    },
    {
      "type": "node",
      "id": 6456399008,
      "lat": 50.8121633,
      "lon": 5.913755
    },
    {
      "type": "node",
      "id": 6456399009,
      "lat": 50.8121899,
      "lon": 5.9136354
    },
    {
      "type": "node",
      "id": 6456399010,
      "lat": 50.8121935,
      "lon": 5.9136449
    },
    {
      "type": "node",
      "id": 6456399011,
      "lat": 50.8121925,
      "lon": 5.9136392
    },
    {
      "type": "node",
      "id": 6456399012,
      "lat": 50.8121523,
      "lon": 5.9136319
    },
    {
      "type": "node",
      "id": 6456399013,
      "lat": 50.8121498,
      "lon": 5.9136291
    },
    {
      "type": "node",
      "id": 6456399014,
      "lat": 50.8121469,
      "lon": 5.9136162
    },
    {
      "type": "node",
      "id": 6456399015,
      "lat": 50.812156,
      "lon": 5.9136337
    },
    {
      "type": "node",
      "id": 6456399016,
      "lat": 50.8121868,
      "lon": 5.9136337
    },
    {
      "type": "node",
      "id": 6456399017,
      "lat": 50.8121482,
      "lon": 5.913609
    },
    {
      "type": "node",
      "id": 6456399018,
      "lat": 50.8121473,
      "lon": 5.9136229
    },
    {
      "type": "node",
      "id": 7575762326,
      "lat": 50.8072869,
      "lon": 5.9137407
    },
    {
      "type": "node",
      "id": 8286020145,
      "lat": 50.8125304,
      "lon": 5.9135927
    },
    {
      "type": "node",
      "id": 8286020146,
      "lat": 50.8125501,
      "lon": 5.9136064
    },
    {
      "type": "node",
      "id": 8286020147,
      "lat": 50.8127122,
      "lon": 5.913338
    },
    {
      "type": "node",
      "id": 8286020148,
      "lat": 50.8127542,
      "lon": 5.9132678
    },
    {
      "type": "node",
      "id": 8286020149,
      "lat": 50.8128835,
      "lon": 5.9130551
    },
    {
      "type": "node",
      "id": 8286020150,
      "lat": 50.8130611,
      "lon": 5.9127622
    },
    {
      "type": "node",
      "id": 2526135646,
      "lat": 50.8138732,
      "lon": 5.91136
    },
    {
      "type": "node",
      "id": 8286020151,
      "lat": 50.8134902,
      "lon": 5.9120444
    },
    {
      "type": "node",
      "id": 8286020152,
      "lat": 50.8134899,
      "lon": 5.9120194
    },
    {
      "type": "node",
      "id": 8286020153,
      "lat": 50.813869,
      "lon": 5.9113912
    },
    {
      "type": "node",
      "id": 8286020154,
      "lat": 50.8138624,
      "lon": 5.9113771
    },
    {
      "type": "node",
      "id": 6503116125,
      "lat": 50.7920131,
      "lon": 5.9294027
    },
    {
      "type": "node",
      "id": 6503116126,
      "lat": 50.7919764,
      "lon": 5.9294333
    },
    {
      "type": "node",
      "id": 6503116127,
      "lat": 50.7920841,
      "lon": 5.9297404
    },
    {
      "type": "node",
      "id": 6503116128,
      "lat": 50.7920083,
      "lon": 5.9298045
    },
    {
      "type": "node",
      "id": 6503116129,
      "lat": 50.7918259,
      "lon": 5.9292881
    },
    {
      "type": "node",
      "id": 6503116130,
      "lat": 50.7919392,
      "lon": 5.9291938
    },
    {
      "type": "node",
      "id": 6086303825,
      "lat": 50.7976491,
      "lon": 5.9246996
    },
    {
      "type": "node",
      "id": 6086303826,
      "lat": 50.7972632,
      "lon": 5.9248553
    },
    {
      "type": "node",
      "id": 6086303829,
      "lat": 50.7972762,
      "lon": 5.9257
    },
    {
      "type": "node",
      "id": 6086303830,
      "lat": 50.7972021,
      "lon": 5.9257192
    },
    {
      "type": "node",
      "id": 6086303831,
      "lat": 50.7971802,
      "lon": 5.9256386
    },
    {
      "type": "node",
      "id": 6086303832,
      "lat": 50.7972699,
      "lon": 5.9256066
    },
    {
      "type": "node",
      "id": 6086303849,
      "lat": 50.7974412,
      "lon": 5.9265592
    },
    {
      "type": "node",
      "id": 6086303850,
      "lat": 50.7971546,
      "lon": 5.9263248
    },
    {
      "type": "node",
      "id": 6086303851,
      "lat": 50.7973596,
      "lon": 5.92594
    },
    {
      "type": "node",
      "id": 6086303852,
      "lat": 50.7975851,
      "lon": 5.9261258
    },
    {
      "type": "node",
      "id": 6502505992,
      "lat": 50.7973147,
      "lon": 5.9248412
    },
    {
      "type": "node",
      "id": 6502505993,
      "lat": 50.7972363,
      "lon": 5.9246309
    },
    {
      "type": "node",
      "id": 6502505994,
      "lat": 50.7972187,
      "lon": 5.9245771
    },
    {
      "type": "node",
      "id": 6502505995,
      "lat": 50.797206,
      "lon": 5.9245052
    },
    {
      "type": "node",
      "id": 6502506001,
      "lat": 50.797444,
      "lon": 5.9247926
    },
    {
      "type": "node",
      "id": 6502506017,
      "lat": 50.797225,
      "lon": 5.9261188
    },
    {
      "type": "node",
      "id": 6502506037,
      "lat": 50.7972804,
      "lon": 5.9259505
    },
    {
      "type": "node",
      "id": 6502506038,
      "lat": 50.7973379,
      "lon": 5.926
    },
    {
      "type": "node",
      "id": 8494240755,
      "lat": 50.8107722,
      "lon": 5.9372867
    },
    {
      "type": "node",
      "id": 8494240756,
      "lat": 50.8108661,
      "lon": 5.9369186
    },
    {
      "type": "node",
      "id": 8494240757,
      "lat": 50.8107051,
      "lon": 5.9368762
    },
    {
      "type": "node",
      "id": 8494240758,
      "lat": 50.8106514,
      "lon": 5.9372655
    },
    {
      "type": "node",
      "id": 8494240754,
      "lat": 50.8107699,
      "lon": 5.9376088
    },
    {
      "type": "node",
      "id": 8494240759,
      "lat": 50.8106447,
      "lon": 5.9376335
    },
    {
      "type": "node",
      "id": 8494240763,
      "lat": 50.8106964,
      "lon": 5.9376233
    },
    {
      "type": "node",
      "id": 908778348,
      "lat": 50.8088286,
      "lon": 5.9518149
    },
    {
      "type": "node",
      "id": 908893337,
      "lat": 50.8087362,
      "lon": 5.951748
    },
    {
      "type": "node",
      "id": 4509413114,
      "lat": 50.8089705,
      "lon": 5.9518084
    },
    {
      "type": "node",
      "id": 4509413115,
      "lat": 50.8090145,
      "lon": 5.9517347
    },
    {
      "type": "node",
      "id": 4509413116,
      "lat": 50.8090671,
      "lon": 5.9516179
    },
    {
      "type": "node",
      "id": 4509413117,
      "lat": 50.8091298,
      "lon": 5.9514355
    },
    {
      "type": "node",
      "id": 6336921976,
      "lat": 50.8088934,
      "lon": 5.9518077
    },
    {
      "type": "node",
      "id": 8920721162,
      "lat": 50.8089306,
      "lon": 5.9514423
    },
    {
      "type": "node",
      "id": 8920721163,
      "lat": 50.8088433,
      "lon": 5.9513766
    },
    {
      "type": "node",
      "id": 8920721164,
      "lat": 50.8089763,
      "lon": 5.9513135
    },
    {
      "type": "node",
      "id": 8283051040,
      "lat": 50.8091003,
      "lon": 5.9688282
    },
    {
      "type": "node",
      "id": 8283051041,
      "lat": 50.8090458,
      "lon": 5.9689066
    },
    {
      "type": "node",
      "id": 8283051042,
      "lat": 50.8090142,
      "lon": 5.9688811
    },
    {
      "type": "node",
      "id": 8283051043,
      "lat": 50.8089892,
      "lon": 5.9688453
    },
    {
      "type": "node",
      "id": 8283051044,
      "lat": 50.8089767,
      "lon": 5.9687736
    },
    {
      "type": "node",
      "id": 8283051045,
      "lat": 50.8089624,
      "lon": 5.968642
    },
    {
      "type": "node",
      "id": 8283051046,
      "lat": 50.8089534,
      "lon": 5.9685902
    },
    {
      "type": "node",
      "id": 8283051047,
      "lat": 50.8089317,
      "lon": 5.9685666
    },
    {
      "type": "node",
      "id": 8283051048,
      "lat": 50.8088983,
      "lon": 5.9685515
    },
    {
      "type": "node",
      "id": 8283051049,
      "lat": 50.8088753,
      "lon": 5.968577
    },
    {
      "type": "node",
      "id": 8283051050,
      "lat": 50.80883,
      "lon": 5.9684397
    },
    {
      "type": "node",
      "id": 8283051051,
      "lat": 50.808926,
      "lon": 5.9685119
    },
    {
      "type": "node",
      "id": 8283051052,
      "lat": 50.8089522,
      "lon": 5.9685345
    },
    {
      "type": "node",
      "id": 8283051053,
      "lat": 50.8090965,
      "lon": 5.9687689
    },
    {
      "type": "node",
      "id": 8283051054,
      "lat": 50.8091072,
      "lon": 5.9687963
    },
    {
      "type": "node",
      "id": 908775436,
      "lat": 50.8310739,
      "lon": 5.8898939
    },
    {
      "type": "node",
      "id": 908784335,
      "lat": 50.8305653,
      "lon": 5.8898836
    },
    {
      "type": "node",
      "id": 908843200,
      "lat": 50.8310236,
      "lon": 5.889594
    },
    {
      "type": "node",
      "id": 4769464899,
      "lat": 50.8306534,
      "lon": 5.8901967
    },
    {
      "type": "node",
      "id": 4769464901,
      "lat": 50.8306745,
      "lon": 5.89019
    },
    {
      "type": "node",
      "id": 908769826,
      "lat": 50.8325111,
      "lon": 5.8979629
    },
    {
      "type": "node",
      "id": 908811511,
      "lat": 50.832569,
      "lon": 5.8981409
    },
    {
      "type": "node",
      "id": 908877543,
      "lat": 50.8325398,
      "lon": 5.8982014
    },
    {
      "type": "node",
      "id": 908895957,
      "lat": 50.8318073,
      "lon": 5.8941183
    },
    {
      "type": "node",
      "id": 2813892660,
      "lat": 50.832099,
      "lon": 5.8940971
    },
    {
      "type": "node",
      "id": 2813893938,
      "lat": 50.8329238,
      "lon": 5.8926847
    },
    {
      "type": "node",
      "id": 2813893958,
      "lat": 50.8329431,
      "lon": 5.8927745
    },
    {
      "type": "node",
      "id": 2894287456,
      "lat": 50.8310782,
      "lon": 5.8949978
    },
    {
      "type": "node",
      "id": 2894287457,
      "lat": 50.8310989,
      "lon": 5.8950889
    },
    {
      "type": "node",
      "id": 2894287458,
      "lat": 50.831139,
      "lon": 5.8952127
    },
    {
      "type": "node",
      "id": 2894287460,
      "lat": 50.8312016,
      "lon": 5.8948628
    },
    {
      "type": "node",
      "id": 2894287461,
      "lat": 50.8312217,
      "lon": 5.8954092
    },
    {
      "type": "node",
      "id": 2894287462,
      "lat": 50.8312897,
      "lon": 5.8947703
    },
    {
      "type": "node",
      "id": 2894287465,
      "lat": 50.8314695,
      "lon": 5.8951325
    },
    {
      "type": "node",
      "id": 4849873856,
      "lat": 50.831897,
      "lon": 5.8946857
    },
    {
      "type": "node",
      "id": 4849873857,
      "lat": 50.8319892,
      "lon": 5.8946143
    },
    {
      "type": "node",
      "id": 4849873858,
      "lat": 50.8319329,
      "lon": 5.8944468
    },
    {
      "type": "node",
      "id": 4849873859,
      "lat": 50.8319072,
      "lon": 5.8940942
    },
    {
      "type": "node",
      "id": 4849873861,
      "lat": 50.8319771,
      "lon": 5.8940589
    },
    {
      "type": "node",
      "id": 4849873862,
      "lat": 50.8319834,
      "lon": 5.8941248
    },
    {
      "type": "node",
      "id": 4849873863,
      "lat": 50.8321172,
      "lon": 5.8940927
    },
    {
      "type": "node",
      "id": 4849873864,
      "lat": 50.8321109,
      "lon": 5.8940268
    },
    {
      "type": "node",
      "id": 5380019057,
      "lat": 50.8318511,
      "lon": 5.8946602
    },
    {
      "type": "node",
      "id": 6351573616,
      "lat": 50.8329253,
      "lon": 5.8926919
    },
    {
      "type": "node",
      "id": 7209405933,
      "lat": 50.8329558,
      "lon": 5.8926668
    },
    {
      "type": "node",
      "id": 7247170251,
      "lat": 50.8320309,
      "lon": 5.8966553
    },
    {
      "type": "node",
      "id": 7247170252,
      "lat": 50.8320935,
      "lon": 5.8969278
    },
    {
      "type": "node",
      "id": 7247170253,
      "lat": 50.8326389,
      "lon": 5.8966022
    },
    {
      "type": "node",
      "id": 7247170254,
      "lat": 50.8325517,
      "lon": 5.8962907
    },
    {
      "type": "node",
      "id": 7247170256,
      "lat": 50.8320653,
      "lon": 5.8968053
    },
    {
      "type": "node",
      "id": 41955665,
      "lat": 50.8356681,
      "lon": 5.8930758
    },
    {
      "type": "node",
      "id": 2041932795,
      "lat": 50.8331809,
      "lon": 5.8925462
    },
    {
      "type": "node",
      "id": 2813893503,
      "lat": 50.8331428,
      "lon": 5.8926688
    },
    {
      "type": "node",
      "id": 2813893523,
      "lat": 50.8331755,
      "lon": 5.8928402
    },
    {
      "type": "node",
      "id": 2813893529,
      "lat": 50.8331834,
      "lon": 5.8928344
    },
    {
      "type": "node",
      "id": 2813893536,
      "lat": 50.8331932,
      "lon": 5.8929147
    },
    {
      "type": "node",
      "id": 2813893552,
      "lat": 50.8332138,
      "lon": 5.8926909
    },
    {
      "type": "node",
      "id": 2813893563,
      "lat": 50.8332243,
      "lon": 5.8926852
    },
    {
      "type": "node",
      "id": 2813893588,
      "lat": 50.8332618,
      "lon": 5.8928552
    },
    {
      "type": "node",
      "id": 2813895191,
      "lat": 50.8330756,
      "lon": 5.8927035
    },
    {
      "type": "node",
      "id": 6351574548,
      "lat": 50.8331845,
      "lon": 5.8925618
    },
    {
      "type": "node",
      "id": 7247170230,
      "lat": 50.8360103,
      "lon": 5.8930193
    },
    {
      "type": "node",
      "id": 7247170231,
      "lat": 50.8359737,
      "lon": 5.8928776
    },
    {
      "type": "node",
      "id": 7247170232,
      "lat": 50.8357047,
      "lon": 5.8932175
    },
    {
      "type": "node",
      "id": 41952201,
      "lat": 50.8321136,
      "lon": 5.898339
    },
    {
      "type": "node",
      "id": 7247170264,
      "lat": 50.83212,
      "lon": 5.8984447
    },
    {
      "type": "node",
      "id": 7247170265,
      "lat": 50.8321143,
      "lon": 5.8985112
    },
    {
      "type": "node",
      "id": 7247170266,
      "lat": 50.8320888,
      "lon": 5.8986392
    },
    {
      "type": "node",
      "id": 6030127495,
      "lat": 50.8223761,
      "lon": 5.9242031
    },
    {
      "type": "node",
      "id": 6030127496,
      "lat": 50.8223125,
      "lon": 5.9243148
    },
    {
      "type": "node",
      "id": 6030127497,
      "lat": 50.822019,
      "lon": 5.9238964
    },
    {
      "type": "node",
      "id": 6030127498,
      "lat": 50.8220825,
      "lon": 5.9237847
    },
    {
      "type": "node",
      "id": 908793445,
      "lat": 50.8324076,
      "lon": 5.92345
    },
    {
      "type": "node",
      "id": 3662558566,
      "lat": 50.8322711,
      "lon": 5.9233096
    },
    {
      "type": "node",
      "id": 3662558567,
      "lat": 50.8324101,
      "lon": 5.923369
    },
    {
      "type": "node",
      "id": 5177180550,
      "lat": 50.8323619,
      "lon": 5.9233703
    },
    {
      "type": "node",
      "id": 5177180552,
      "lat": 50.8322747,
      "lon": 5.9235276
    },
    {
      "type": "node",
      "id": 5177180553,
      "lat": 50.8324089,
      "lon": 5.9235236
    },
    {
      "type": "node",
      "id": 5177180557,
      "lat": 50.8323605,
      "lon": 5.9233065
    },
    {
      "type": "node",
      "id": 5538902290,
      "lat": 50.8252785,
      "lon": 5.9354958
    },
    {
      "type": "node",
      "id": 5538902303,
      "lat": 50.8253183,
      "lon": 5.9354811
    },
    {
      "type": "node",
      "id": 5538902305,
      "lat": 50.8254493,
      "lon": 5.9361045
    },
    {
      "type": "node",
      "id": 5538902307,
      "lat": 50.8255748,
      "lon": 5.936272
    },
    {
      "type": "node",
      "id": 5538902308,
      "lat": 50.8255398,
      "lon": 5.9360599
    },
    {
      "type": "node",
      "id": 5538902426,
      "lat": 50.8255596,
      "lon": 5.9364099
    },
    {
      "type": "node",
      "id": 5538902429,
      "lat": 50.8253911,
      "lon": 5.9357895
    },
    {
      "type": "node",
      "id": 5538902430,
      "lat": 50.8253606,
      "lon": 5.9358351
    },
    {
      "type": "node",
      "id": 6384488334,
      "lat": 50.8255688,
      "lon": 5.9364012
    },
    {
      "type": "node",
      "id": 6384488335,
      "lat": 50.8255611,
      "lon": 5.93638
    },
    {
      "type": "node",
      "id": 4826751535,
      "lat": 50.823208,
      "lon": 5.9428674
    },
    {
      "type": "node",
      "id": 4826751536,
      "lat": 50.8232075,
      "lon": 5.9426921
    },
    {
      "type": "node",
      "id": 4826751549,
      "lat": 50.8232081,
      "lon": 5.9429112
    },
    {
      "type": "node",
      "id": 4826751550,
      "lat": 50.8232082,
      "lon": 5.9429723
    },
    {
      "type": "node",
      "id": 4826751551,
      "lat": 50.8227748,
      "lon": 5.9429749
    },
    {
      "type": "node",
      "id": 4826751552,
      "lat": 50.8227738,
      "lon": 5.9425804
    },
    {
      "type": "node",
      "id": 4826751553,
      "lat": 50.8232073,
      "lon": 5.9425778
    },
    {
      "type": "node",
      "id": 4826751554,
      "lat": 50.8232074,
      "lon": 5.9426491
    },
    {
      "type": "node",
      "id": 5069464655,
      "lat": 50.823668,
      "lon": 5.9447433
    },
    {
      "type": "node",
      "id": 5069464656,
      "lat": 50.8237206,
      "lon": 5.9447616
    },
    {
      "type": "node",
      "id": 5069464657,
      "lat": 50.8237617,
      "lon": 5.9446925
    },
    {
      "type": "node",
      "id": 5069464658,
      "lat": 50.8238015,
      "lon": 5.9445888
    },
    {
      "type": "node",
      "id": 5069464659,
      "lat": 50.8238285,
      "lon": 5.944538
    },
    {
      "type": "node",
      "id": 5069464660,
      "lat": 50.8238311,
      "lon": 5.9444953
    },
    {
      "type": "node",
      "id": 5069464661,
      "lat": 50.8237797,
      "lon": 5.944477
    },
    {
      "type": "node",
      "id": 5069464662,
      "lat": 50.8237463,
      "lon": 5.9444912
    },
    {
      "type": "node",
      "id": 5069464663,
      "lat": 50.8237386,
      "lon": 5.9445685
    },
    {
      "type": "node",
      "id": 5069464664,
      "lat": 50.8237309,
      "lon": 5.9446254
    },
    {
      "type": "node",
      "id": 5069464665,
      "lat": 50.8237219,
      "lon": 5.9446904
    },
    {
      "type": "node",
      "id": 5069464666,
      "lat": 50.8237039,
      "lon": 5.9447169
    },
    {
      "type": "node",
      "id": 908852515,
      "lat": 50.8448644,
      "lon": 5.9474636
    },
    {
      "type": "node",
      "id": 3160748658,
      "lat": 50.8450232,
      "lon": 5.9470055
    },
    {
      "type": "node",
      "id": 3160748659,
      "lat": 50.8448141,
      "lon": 5.947007
    },
    {
      "type": "node",
      "id": 3160748660,
      "lat": 50.8447621,
      "lon": 5.9470944
    },
    {
      "type": "node",
      "id": 3160749861,
      "lat": 50.8448173,
      "lon": 5.947306
    },
    {
      "type": "node",
      "id": 3160749862,
      "lat": 50.845023,
      "lon": 5.9473733
    },
    {
      "type": "node",
      "id": 3160749864,
      "lat": 50.8447658,
      "lon": 5.9471189
    },
    {
      "type": "node",
      "id": 6452623210,
      "lat": 50.8448276,
      "lon": 5.9473341
    },
    {
      "type": "node",
      "id": 6452623216,
      "lat": 50.8448001,
      "lon": 5.9470114
    },
    {
      "type": "node",
      "id": 6452623217,
      "lat": 50.8447821,
      "lon": 5.9470178
    },
    {
      "type": "node",
      "id": 6452623218,
      "lat": 50.8447733,
      "lon": 5.9470305
    },
    {
      "type": "node",
      "id": 6452623219,
      "lat": 50.8447683,
      "lon": 5.9470482
    },
    {
      "type": "node",
      "id": 6452623220,
      "lat": 50.8450172,
      "lon": 5.9474533
    },
    {
      "type": "node",
      "id": 6452623221,
      "lat": 50.8448408,
      "lon": 5.9473698
    },
    {
      "type": "node",
      "id": 6452623222,
      "lat": 50.8450247,
      "lon": 5.9473217
    },
    {
      "type": "node",
      "id": 2421195971,
      "lat": 50.8313781,
      "lon": 5.9763596
    },
    {
      "type": "node",
      "id": 2421195972,
      "lat": 50.8314591,
      "lon": 5.9767884
    },
    {
      "type": "node",
      "id": 3304833272,
      "lat": 50.8315041,
      "lon": 5.9762961
    },
    {
      "type": "node",
      "id": 2291413432,
      "lat": 50.8339015,
      "lon": 5.9755741
    },
    {
      "type": "node",
      "id": 2291413433,
      "lat": 50.8333806,
      "lon": 5.9754363
    },
    {
      "type": "node",
      "id": 2291413435,
      "lat": 50.833922,
      "lon": 5.9756629
    },
    {
      "type": "node",
      "id": 2291413436,
      "lat": 50.8335959,
      "lon": 5.9758281
    },
    {
      "type": "node",
      "id": 2291413437,
      "lat": 50.8338943,
      "lon": 5.975679
    },
    {
      "type": "node",
      "id": 2291413441,
      "lat": 50.8338157,
      "lon": 5.9759431
    },
    {
      "type": "node",
      "id": 2291413442,
      "lat": 50.8338633,
      "lon": 5.9751568
    },
    {
      "type": "node",
      "id": 2291413444,
      "lat": 50.8339388,
      "lon": 5.9758718
    },
    {
      "type": "node",
      "id": 2291413445,
      "lat": 50.8338691,
      "lon": 5.9754337
    },
    {
      "type": "node",
      "id": 2291413448,
      "lat": 50.8339204,
      "lon": 5.975404
    },
    {
      "type": "node",
      "id": 2291413450,
      "lat": 50.8334409,
      "lon": 5.9756973
    },
    {
      "type": "node",
      "id": 2291413451,
      "lat": 50.8334809,
      "lon": 5.9756741
    },
    {
      "type": "node",
      "id": 2291413454,
      "lat": 50.833838,
      "lon": 5.9759301
    },
    {
      "type": "node",
      "id": 2291413456,
      "lat": 50.8335258,
      "lon": 5.9758687
    },
    {
      "type": "node",
      "id": 2291413457,
      "lat": 50.8336452,
      "lon": 5.9760418
    },
    {
      "type": "node",
      "id": 2291416415,
      "lat": 50.8383242,
      "lon": 5.9764664
    },
    {
      "type": "node",
      "id": 2291416419,
      "lat": 50.8384969,
      "lon": 5.976048
    },
    {
      "type": "node",
      "id": 2291416420,
      "lat": 50.838292,
      "lon": 5.9764235
    },
    {
      "type": "node",
      "id": 2291416421,
      "lat": 50.8383406,
      "lon": 5.9764902
    },
    {
      "type": "node",
      "id": 2291416427,
      "lat": 50.8384901,
      "lon": 5.9761874
    },
    {
      "type": "node",
      "id": 2291416430,
      "lat": 50.8385455,
      "lon": 5.9761143
    },
    {
      "type": "node",
      "id": 3837299182,
      "lat": 50.833619,
      "lon": 5.9759283
    },
    {
      "type": "node",
      "id": 3837299189,
      "lat": 50.8338898,
      "lon": 5.9755234
    },
    {
      "type": "node",
      "id": 3837299190,
      "lat": 50.8338919,
      "lon": 5.9752805
    },
    {
      "type": "node",
      "id": 3837299191,
      "lat": 50.833914,
      "lon": 5.975764
    },
    {
      "type": "node",
      "id": 3837471465,
      "lat": 50.8376354,
      "lon": 5.9727289
    },
    {
      "type": "node",
      "id": 3837471466,
      "lat": 50.8376409,
      "lon": 5.9723911
    },
    {
      "type": "node",
      "id": 3837471467,
      "lat": 50.8376886,
      "lon": 5.9727901
    },
    {
      "type": "node",
      "id": 3837471468,
      "lat": 50.8376961,
      "lon": 5.9724334
    },
    {
      "type": "node",
      "id": 1747794272,
      "lat": 50.8316724,
      "lon": 5.9774608
    },
    {
      "type": "node",
      "id": 2421195970,
      "lat": 50.8315611,
      "lon": 5.9775676
    },
    {
      "type": "node",
      "id": 2421195976,
      "lat": 50.8317401,
      "lon": 5.9772249
    },
    {
      "type": "node",
      "id": 2421195978,
      "lat": 50.8317265,
      "lon": 5.9772731
    },
    {
      "type": "node",
      "id": 2421195984,
      "lat": 50.8315243,
      "lon": 5.9772028
    },
    {
      "type": "node",
      "id": 2421195985,
      "lat": 50.8316926,
      "lon": 5.9772624
    },
    {
      "type": "node",
      "id": 2421197073,
      "lat": 50.8316771,
      "lon": 5.9773835
    }
  ]
}