{
  "version": 0.6,
  "generator": "Overpass API 0.7.56.8 7d656e78",
  "osm3s": {
    "timestamp_osm_base": "2021-12-11T04:30:08Z",
    "copyright": "The data included in this document is from www.openstreetmap.org. The data is made available under ODbL."
  },
  "elements": [
    {
      "type": "node",
      "id": 662943391,
      "lat": 51.1168408,
      "lon": 4.5619338,
      "tags": {
        "amenity": "parking"
      }
    },
    {
      "type": "node",
      "id": 662947379,
      "lat": 51.1173244,
      "lon": 4.5492129,
      "tags": {
        "information": "board",
        "tourism": "information"
      }
    },
    {
      "type": "node",
      "id": 727165823,
      "lat": 51.0942924,
      "lon": 4.5125344,
      "tags": {
        "amenity": "parking"
      }
    },
    {
      "type": "node",
      "id": 800005915,
      "lat": 51.1233647,
      "lon": 4.4931772,
      "tags": {
        "amenity": "bench"
      }
    },
    {
      "type": "node",
      "id": 1318913857,
      "lat": 51.093948,
      "lon": 4.5097804,
      "tags": {
        "amenity": "parking"
      }
    },
    {
      "type": "node",
      "id": 1319320148,
      "lat": 51.0916284,
      "lon": 4.5011924,
      "tags": {
        "amenity": "parking"
      }
    },
    {
      "type": "node",
      "id": 1319320155,
      "lat": 51.0956124,
      "lon": 4.4931538,
      "tags": {
        "amenity": "parking"
      }
    },
    {
      "type": "node",
      "id": 1330674928,
      "lat": 51.0968211,
      "lon": 4.5070991,
      "tags": {
        "amenity": "bench",
        "backrest": "yes",
        "check_date": "2021-05-01"
      }
    },
    {
      "type": "node",
      "id": 1330674999,
      "lat": 51.0968211,
      "lon": 4.5070389,
      "tags": {
        "amenity": "bench",
        "backrest": "yes",
        "check_date": "2021-05-01"
      }
    },
    {
      "type": "node",
      "id": 1376621877,
      "lat": 51.0854463,
      "lon": 4.4953722,
      "tags": {
        "amenity": "bench",
        "backrest": "yes",
        "check_date": "2021-05-01"
      }
    },
    {
      "type": "node",
      "id": 1798088735,
      "lat": 51.0830121,
      "lon": 4.4974464,
      "tags": {
        "amenity": "bench"
      }
    },
    {
      "type": "node",
      "id": 1990874270,
      "lat": 51.0953918,
      "lon": 4.4974878,
      "tags": {
        "amenity": "bench"
      }
    },
    {
      "type": "node",
      "id": 1990874324,
      "lat": 51.0987936,
      "lon": 4.5014452,
      "tags": {
        "amenity": "bench"
      }
    },
    {
      "type": "node",
      "id": 1990874328,
      "lat": 51.0989849,
      "lon": 4.501754,
      "tags": {
        "amenity": "bench"
      }
    },
    {
      "type": "node",
      "id": 1990874341,
      "lat": 51.0995848,
      "lon": 4.4912198,
      "tags": {
        "amenity": "bench"
      }
    },
    {
      "type": "node",
      "id": 1997610123,
      "lat": 51.0987174,
      "lon": 4.5046484,
      "tags": {
        "amenity": "bench"
      }
    },
    {
      "type": "node",
      "id": 1997610128,
      "lat": 51.0987652,
      "lon": 4.5046047,
      "tags": {
        "amenity": "bench"
      }
    },
    {
      "type": "node",
      "id": 1998737583,
      "lat": 51.0968741,
      "lon": 4.5029402,
      "tags": {
        "amenity": "parking"
      }
    },
    {
      "type": "node",
      "id": 2024665273,
      "lat": 51.0964664,
      "lon": 4.5085616,
      "tags": {
        "amenity": "bench"
      }
    },
    {
      "type": "node",
      "id": 2024665293,
      "lat": 51.0966089,
      "lon": 4.5105636,
      "tags": {
        "amenity": "bench"
      }
    },
    {
      "type": "node",
      "id": 2024665303,
      "lat": 51.0966558,
      "lon": 4.5109079,
      "tags": {
        "amenity": "bench"
      }
    },
    {
      "type": "node",
      "id": 2024665306,
      "lat": 51.0966584,
      "lon": 4.5110707,
      "tags": {
        "amenity": "bench"
      }
    },
    {
      "type": "node",
      "id": 2300238097,
      "lat": 51.094017,
      "lon": 4.5092144,
      "tags": {
        "amenity": "toilets"
      }
    },
    {
      "type": "node",
      "id": 2300254349,
      "lat": 51.0952653,
      "lon": 4.5047485,
      "tags": {
        "amenity": "bench"
      }
    },
    {
      "type": "node",
      "id": 2300256757,
      "lat": 51.0951086,
      "lon": 4.5058804,
      "tags": {
        "amenity": "toilets"
      }
    },
    {
      "type": "node",
      "id": 2300256758,
      "lat": 51.097952,
      "lon": 4.5080637,
      "tags": {
        "amenity": "bench"
      }
    },
    {
      "type": "node",
      "id": 2300262817,
      "lat": 51.0913082,
      "lon": 4.4931614,
      "tags": {
        "amenity": "toilets"
      }
    },
    {
      "type": "node",
      "id": 2515519040,
      "lat": 51.0910715,
      "lon": 4.4935697,
      "tags": {
        "amenity": "bench"
      }
    },
    {
      "type": "node",
      "id": 2515519055,
      "lat": 51.0911325,
      "lon": 4.4941289,
      "tags": {
        "amenity": "bench"
      }
    },
    {
      "type": "node",
      "id": 2653628435,
      "lat": 51.0863961,
      "lon": 4.495029,
      "tags": {
        "amenity": "bench",
        "backrest": "yes",
        "check_date": "2021-05-01"
      }
    },
    {
      "type": "node",
      "id": 2653628436,
      "lat": 51.0884312,
      "lon": 4.4988055,
      "tags": {
        "amenity": "bench",
        "backrest": "yes",
        "check_date": "2021-05-01"
      }
    },
    {
      "type": "node",
      "id": 2653628437,
      "lat": 51.0884792,
      "lon": 4.4988432,
      "tags": {
        "amenity": "bench",
        "backrest": "yes",
        "check_date": "2021-05-01"
      }
    },
    {
      "type": "node",
      "id": 2653628438,
      "lat": 51.0909988,
      "lon": 4.5021519,
      "tags": {
        "amenity": "bench",
        "backrest": "yes"
      }
    },
    {
      "type": "node",
      "id": 2831600090,
      "lat": 51.0942101,
      "lon": 4.5093673,
      "tags": {
        "amenity": "parking"
      }
    },
    {
      "type": "node",
      "id": 3004598564,
      "lat": 51.0889222,
      "lon": 4.4981146,
      "tags": {
        "amenity": "bench",
        "backrest": "yes"
      }
    },
    {
      "type": "node",
      "id": 3004598567,
      "lat": 51.088946,
      "lon": 4.4980891,
      "tags": {
        "amenity": "bench",
        "backrest": "yes"
      }
    },
    {
      "type": "node",
      "id": 3004598568,
      "lat": 51.0889562,
      "lon": 4.498079,
      "tags": {
        "amenity": "bench",
        "backrest": "yes"
      }
    },
    {
      "type": "node",
      "id": 3004598574,
      "lat": 51.0894992,
      "lon": 4.4977041,
      "tags": {
        "amenity": "bench",
        "backrest": "yes",
        "check_date": "2021-05-01"
      }
    },
    {
      "type": "node",
      "id": 3004598575,
      "lat": 51.0895046,
      "lon": 4.4976886,
      "tags": {
        "amenity": "bench",
        "backrest": "yes",
        "check_date": "2021-05-01"
      }
    },
    {
      "type": "node",
      "id": 3004598614,
      "lat": 51.0901259,
      "lon": 4.49808,
      "tags": {
        "amenity": "bench",
        "backrest": "yes",
        "check_date": "2021-05-01"
      }
    },
    {
      "type": "node",
      "id": 3004598616,
      "lat": 51.0901389,
      "lon": 4.4981304,
      "tags": {
        "amenity": "bench",
        "backrest": "yes",
        "check_date": "2021-05-01"
      }
    },
    {
      "type": "node",
      "id": 3004598618,
      "lat": 51.0905844,
      "lon": 4.501154,
      "tags": {
        "amenity": "bench",
        "backrest": "yes",
        "check_date": "2021-05-01"
      }
    },
    {
      "type": "node",
      "id": 3004598641,
      "lat": 51.0920738,
      "lon": 4.5025147,
      "tags": {
        "amenity": "bench",
        "backrest": "yes",
        "check_date": "2021-05-01"
      }
    },
    {
      "type": "node",
      "id": 3004598646,
      "lat": 51.092267,
      "lon": 4.5025771,
      "tags": {
        "amenity": "bench",
        "backrest": "yes",
        "check_date": "2021-05-01"
      }
    },
    {
      "type": "node",
      "id": 3004598648,
      "lat": 51.0923282,
      "lon": 4.5031626,
      "tags": {
        "amenity": "bench",
        "backrest": "yes"
      }
    },
    {
      "type": "node",
      "id": 3004598649,
      "lat": 51.0923289,
      "lon": 4.5022049,
      "tags": {
        "amenity": "bench",
        "backrest": "yes"
      }
    },
    {
      "type": "node",
      "id": 3004598650,
      "lat": 51.0923392,
      "lon": 4.5018928,
      "tags": {
        "amenity": "bench",
        "backrest": "yes"
      }
    },
    {
      "type": "node",
      "id": 3004598656,
      "lat": 51.0928858,
      "lon": 4.5028278,
      "tags": {
        "amenity": "bench",
        "backrest": "yes"
      }
    },
    {
      "type": "node",
      "id": 3004598670,
      "lat": 51.0930199,
      "lon": 4.502738,
      "tags": {
        "amenity": "bench",
        "backrest": "yes"
      }
    },
    {
      "type": "node",
      "id": 3004598671,
      "lat": 51.0930322,
      "lon": 4.5027084,
      "tags": {
        "amenity": "bench",
        "backrest": "yes"
      }
    },
    {
      "type": "node",
      "id": 3004598676,
      "lat": 51.0932344,
      "lon": 4.5034507,
      "tags": {
        "amenity": "bench",
        "backrest": "yes",
        "check_date": "2021-05-01"
      }
    },
    {
      "type": "node",
      "id": 3004598687,
      "lat": 51.0937934,
      "lon": 4.5036696,
      "tags": {
        "amenity": "bench",
        "backrest": "yes",
        "check_date": "2021-05-01"
      }
    },
    {
      "type": "node",
      "id": 3012172010,
      "lat": 51.094806,
      "lon": 4.5005488,
      "tags": {
        "amenity": "bench",
        "backrest": "yes"
      }
    },
    {
      "type": "node",
      "id": 3014102157,
      "lat": 51.0953732,
      "lon": 4.5018554,
      "tags": {
        "amenity": "bench",
        "backrest": "yes"
      }
    },
    {
      "type": "node",
      "id": 3014102161,
      "lat": 51.0954197,
      "lon": 4.5016575,
      "tags": {
        "amenity": "bench",
        "backrest": "yes"
      }
    },
    {
      "type": "node",
      "id": 3016350598,
      "lat": 51.0995684,
      "lon": 4.5106181,
      "tags": {
        "amenity": "bench"
      }
    },
    {
      "type": "node",
      "id": 3016366447,
      "lat": 51.099264,
      "lon": 4.5081902,
      "tags": {
        "amenity": "bench"
      }
    },
    {
      "type": "node",
      "id": 3016366448,
      "lat": 51.0994839,
      "lon": 4.5098545,
      "tags": {
        "amenity": "bench"
      }
    },
    {
      "type": "node",
      "id": 3016366467,
      "lat": 51.1001342,
      "lon": 4.5091435,
      "tags": {
        "amenity": "bench",
        "backrest": "no"
      }
    },
    {
      "type": "node",
      "id": 3024275615,
      "lat": 51.0947728,
      "lon": 4.5069209,
      "tags": {
        "board_type": "history",
        "description": "Bruggenhoofd uit 1933",
        "information": "board",
        "tourism": "information"
      }
    },
    {
      "type": "node",
      "id": 3024275617,
      "lat": 51.0947881,
      "lon": 4.5065457,
      "tags": {
        "amenity": "parking",
        "parking": "surface"
      }
    },
    {
      "type": "node",
      "id": 3024275618,
      "lat": 51.0947897,
      "lon": 4.5069172,
      "tags": {
        "amenity": "bench",
        "backrest": "yes"
      }
    },
    {
      "type": "node",
      "id": 3024291261,
      "lat": 51.0967277,
      "lon": 4.5033238,
      "tags": {
        "amenity": "bench",
        "backrest": "yes"
      }
    },
    {
      "type": "node",
      "id": 3024291264,
      "lat": 51.0967441,
      "lon": 4.5032403,
      "tags": {
        "amenity": "bench",
        "backrest": "yes"
      }
    },
    {
      "type": "node",
      "id": 3027126953,
      "lat": 51.0941128,
      "lon": 4.5034905,
      "tags": {
        "amenity": "parking"
      }
    },
    {
      "type": "node",
      "id": 3027150818,
      "lat": 51.0950757,
      "lon": 4.5103403,
      "tags": {
        "amenity": "bench",
        "backrest": "yes"
      }
    },
    {
      "type": "node",
      "id": 3027150828,
      "lat": 51.0953384,
      "lon": 4.5108041,
      "tags": {
        "amenity": "bench",
        "backrest": "yes"
      }
    },
    {
      "type": "node",
      "id": 3027152033,
      "lat": 51.0953847,
      "lon": 4.5108292,
      "tags": {
        "amenity": "bench",
        "backrest": "yes"
      }
    },
    {
      "type": "node",
      "id": 3027152037,
      "lat": 51.0954001,
      "lon": 4.510838,
      "tags": {
        "amenity": "bench",
        "backrest": "yes"
      }
    },
    {
      "type": "node",
      "id": 3027152038,
      "lat": 51.0954122,
      "lon": 4.5083062,
      "tags": {
        "amenity": "bench",
        "backrest": "yes"
      }
    },
    {
      "type": "node",
      "id": 3027152043,
      "lat": 51.0954566,
      "lon": 4.5083173,
      "tags": {
        "amenity": "bench",
        "backrest": "yes"
      }
    },
    {
      "type": "node",
      "id": 3027152044,
      "lat": 51.0954715,
      "lon": 4.5108388,
      "tags": {
        "amenity": "bench",
        "backrest": "yes"
      }
    },
    {
      "type": "node",
      "id": 3027152050,
      "lat": 51.0954933,
      "lon": 4.5108351,
      "tags": {
        "amenity": "bench",
        "backrest": "yes"
      }
    },
    {
      "type": "node",
      "id": 3027152052,
      "lat": 51.0955017,
      "lon": 4.5083426,
      "tags": {
        "amenity": "bench",
        "backrest": "yes"
      }
    },
    {
      "type": "node",
      "id": 3027152055,
      "lat": 51.0955211,
      "lon": 4.5108166,
      "tags": {
        "amenity": "bench",
        "backrest": "yes"
      }
    },
    {
      "type": "node",
      "id": 3027152056,
      "lat": 51.0955354,
      "lon": 4.508374,
      "tags": {
        "amenity": "bench",
        "backrest": "yes"
      }
    },
    {
      "type": "node",
      "id": 3027152072,
      "lat": 51.095637,
      "lon": 4.5081838,
      "tags": {
        "amenity": "bench",
        "backrest": "yes"
      }
    },
    {
      "type": "node",
      "id": 3029453812,
      "lat": 51.0937579,
      "lon": 4.5099165,
      "tags": {
        "amenity": "bench",
        "backrest": "yes"
      }
    },
    {
      "type": "node",
      "id": 3029453818,
      "lat": 51.0937954,
      "lon": 4.5098844,
      "tags": {
        "amenity": "bench",
        "backrest": "yes"
      }
    },
    {
      "type": "node",
      "id": 3029453824,
      "lat": 51.0940397,
      "lon": 4.5096452,
      "tags": {
        "amenity": "bench",
        "backrest": "yes"
      }
    },
    {
      "type": "node",
      "id": 3029453825,
      "lat": 51.0940769,
      "lon": 4.509568,
      "tags": {
        "amenity": "bench",
        "backrest": "yes"
      }
    },
    {
      "type": "node",
      "id": 3032232156,
      "lat": 51.0939764,
      "lon": 4.5094601,
      "tags": {
        "amenity": "bench",
        "backrest": "yes"
      }
    },
    {
      "type": "node",
      "id": 3032232158,
      "lat": 51.0939947,
      "lon": 4.5095264,
      "tags": {
        "amenity": "bench",
        "backrest": "yes"
      }
    },
    {
      "type": "node",
      "id": 3032232160,
      "lat": 51.094017,
      "lon": 4.509591,
      "tags": {
        "amenity": "bench",
        "backrest": "yes"
      }
    },
    {
      "type": "node",
      "id": 3373143571,
      "lat": 51.1086595,
      "lon": 4.5249757,
      "tags": {
        "amenity": "parking"
      }
    },
    {
      "type": "node",
      "id": 3373145800,
      "lat": 51.0956646,
      "lon": 4.5060072,
      "tags": {
        "access": "yes",
        "amenity": "parking",
        "fee": "no",
        "parking": "surface"
      }
    },
    {
      "type": "node",
      "id": 3373145801,
      "lat": 51.0958258,
      "lon": 4.5064939,
      "tags": {
        "access": "yes",
        "amenity": "parking",
        "fee": "no",
        "parking": "street_side"
      }
    },
    {
      "type": "node",
      "id": 3393628471,
      "lat": 51.0941348,
      "lon": 4.5083728,
      "tags": {
        "amenity": "bench",
        "backrest": "yes"
      }
    },
    {
      "type": "node",
      "id": 3393628474,
      "lat": 51.0941544,
      "lon": 4.5082461,
      "tags": {
        "amenity": "bench",
        "backrest": "yes"
      }
    },
    {
      "type": "node",
      "id": 3393628477,
      "lat": 51.0941762,
      "lon": 4.5084691,
      "tags": {
        "amenity": "bench",
        "backrest": "yes"
      }
    },
    {
      "type": "node",
      "id": 3393628481,
      "lat": 51.094277,
      "lon": 4.5082359,
      "tags": {
        "amenity": "bench",
        "backrest": "yes"
      }
    },
    {
      "type": "node",
      "id": 3393628482,
      "lat": 51.0943093,
      "lon": 4.5083458,
      "tags": {
        "amenity": "bench",
        "backrest": "yes"
      }
    },
    {
      "type": "node",
      "id": 3393628502,
      "lat": 51.0945518,
      "lon": 4.5061163,
      "tags": {
        "amenity": "bench",
        "backrest": "yes",
        "check_date": "2021-05-01"
      }
    },
    {
      "type": "node",
      "id": 3393628503,
      "lat": 51.0945555,
      "lon": 4.5061892,
      "tags": {
        "check_date": "2021-05-01",
        "leisure": "picnic_table"
      }
    },
    {
      "type": "node",
      "id": 3393628507,
      "lat": 51.094593,
      "lon": 4.5062504,
      "tags": {
        "amenity": "bench",
        "backrest": "yes",
        "check_date": "2021-05-01"
      }
    },
    {
      "type": "node",
      "id": 3393628514,
      "lat": 51.0947001,
      "lon": 4.5058482,
      "tags": {
        "amenity": "bench",
        "backrest": "yes"
      }
    },
    {
      "type": "node",
      "id": 3393628521,
      "lat": 51.0947495,
      "lon": 4.5057302,
      "tags": {
        "amenity": "bench",
        "backrest": "yes"
      }
    },
    {
      "type": "node",
      "id": 3393628524,
      "lat": 51.0947624,
      "lon": 4.5089075,
      "tags": {
        "amenity": "bench",
        "backrest": "yes"
      }
    },
    {
      "type": "node",
      "id": 3393628525,
      "lat": 51.0948318,
      "lon": 4.5057608,
      "tags": {
        "amenity": "bench",
        "backrest": "yes"
      }
    },
    {
      "type": "node",
      "id": 3428820860,
      "lat": 51.0910483,
      "lon": 4.4933371,
      "tags": {
        "amenity": "bench"
      }
    },
    {
      "type": "node",
      "id": 3457005929,
      "lat": 51.1227951,
      "lon": 4.562566,
      "tags": {
        "amenity": "bench",
        "name": "Bench"
      }
    },
    {
      "type": "node",
      "id": 3457012493,
      "lat": 51.1172274,
      "lon": 4.5501308,
      "tags": {
        "amenity": "bench"
      }
    },
    {
      "type": "node",
      "id": 3533093311,
      "lat": 51.0755621,
      "lon": 4.490919,
      "tags": {
        "board_type": "history",
        "check_date": "2021-05-01",
        "description": "De belegering en het einde van het fort",
        "description:en": "The siege and the demise of the fort",
        "description:fr": "La si√®ge er la fin du fortin",
        "information": "board",
        "tourism": "information"
      }
    },
    {
      "type": "node",
      "id": 3533093312,
      "lat": 51.0755952,
      "lon": 4.4907868,
      "tags": {
        "board_type": "notice",
        "description": "Luk Van Soom: Waarheen en dan terug: over de artist en het beeld",
        "information": "board",
        "note": "has a QR-code",
        "tourism": "information"
      }
    },
    {
      "type": "node",
      "id": 3535621724,
      "lat": 51.0757258,
      "lon": 4.5031417,
      "tags": {
        "board_type": "nature",
        "description": "Goorbosbeekvallei",
        "information": "board",
        "operator": "Natuurpunt",
        "tourism": "information"
      }
    },
    {
      "type": "node",
      "id": 3535621732,
      "lat": 51.0777608,
      "lon": 4.5003953,
      "tags": {
        "board_type": "nature",
        "check_date": "2021-05-01",
        "description": "Goorbosbeekvallei",
        "information": "board",
        "operator": "Natuurpunt",
        "tourism": "information"
      }
    },
    {
      "type": "node",
      "id": 3655798976,
      "lat": 51.0908729,
      "lon": 4.5010893,
      "tags": {
        "amenity": "bench",
        "backrest": "yes"
      }
    },
    {
      "type": "node",
      "id": 3655798978,
      "lat": 51.0908796,
      "lon": 4.5010619,
      "tags": {
        "amenity": "bench",
        "backrest": "yes"
      }
    },
    {
      "type": "node",
      "id": 3655798981,
      "lat": 51.090922,
      "lon": 4.5014037,
      "tags": {
        "amenity": "bench",
        "backrest": "yes"
      }
    },
    {
      "type": "node",
      "id": 3655798984,
      "lat": 51.0909447,
      "lon": 4.5014262,
      "tags": {
        "amenity": "bench",
        "backrest": "yes"
      }
    },
    {
      "type": "node",
      "id": 3655799007,
      "lat": 51.0911072,
      "lon": 4.5013608,
      "tags": {
        "amenity": "bench",
        "backrest": "yes"
      }
    },
    {
      "type": "node",
      "id": 3655799009,
      "lat": 51.091125,
      "lon": 4.5013217,
      "tags": {
        "amenity": "bench",
        "backrest": "yes"
      }
    },
    {
      "type": "node",
      "id": 3675424687,
      "lat": 51.100111,
      "lon": 4.5115421,
      "tags": {
        "description": "Foto's van de omgeving en een kaart van het Neteland gebied",
        "information": "board",
        "tourism": "information"
      }
    },
    {
      "type": "node",
      "id": 3953000022,
      "lat": 51.1218978,
      "lon": 4.4887183,
      "tags": {
        "amenity": "bench",
        "backrest": "yes"
      }
    },
    {
      "type": "node",
      "id": 3953000023,
      "lat": 51.1219052,
      "lon": 4.4888152,
      "tags": {
        "amenity": "bench",
        "backrest": "yes"
      }
    },
    {
      "type": "node",
      "id": 3954169344,
      "lat": 51.121683,
      "lon": 4.4953658,
      "tags": {
        "amenity": "bench",
        "backrest": "yes"
      }
    },
    {
      "type": "node",
      "id": 3954169346,
      "lat": 51.121695,
      "lon": 4.4954195,
      "tags": {
        "amenity": "bench",
        "backrest": "yes"
      }
    },
    {
      "type": "node",
      "id": 3954169347,
      "lat": 51.1217032,
      "lon": 4.4954624,
      "tags": {
        "amenity": "bench",
        "backrest": "yes"
      }
    },
    {
      "type": "node",
      "id": 3988681996,
      "lat": 51.0717028,
      "lon": 4.5391107,
      "tags": {
        "leisure": "picnic_table"
      }
    },
    {
      "type": "node",
      "id": 3988682000,
      "lat": 51.0719927,
      "lon": 4.5388396,
      "tags": {
        "amenity": "bench",
        "backrest": "yes"
      }
    },
    {
      "type": "node",
      "id": 4108498475,
      "lat": 51.0717209,
      "lon": 4.5397207,
      "tags": {
        "board_type": "nature",
        "information": "board",
        "name": "Welkom in de Hondsbossen",
        "operator": "Natuurpunt",
        "tourism": "information"
      }
    },
    {
      "type": "node",
      "id": 4108499001,
      "lat": 51.0717521,
      "lon": 4.5395235,
      "tags": {
        "board_type": "nature",
        "information": "board",
        "operator": "Natuurpunt",
        "tourism": "information"
      }
    },
    {
      "type": "node",
      "id": 4704079193,
      "lat": 51.0980472,
      "lon": 4.5019219,
      "tags": {
        "amenity": "drinking_water",
        "mapillary": "https://www.mapillary.com/app/?lat=51.09805872926239&lng=4.501619834023018&z=17&pKey=y9d3eUBrKjtBXuY_N3T_Tg&focus=photo"
      }
    },
    {
      "type": "node",
      "id": 4704079194,
      "lat": 51.0981334,
      "lon": 4.5019205,
      "tags": {
        "amenity": "drinking_water",
        "mapillary": "https://www.mapillary.com/app/?lat=51.09796861785833&lng=4.501988514260347&z=17&pKey=oJBeqB-R-rHdUCEAePoNZQ&focus=photo&x=0.5095650398785165&y=0.4339923439254613&zoom=0"
      }
    },
    {
      "type": "node",
      "id": 4704079202,
      "lat": 51.097307,
      "lon": 4.5036971,
      "tags": {
        "amenity": "drinking_water",
        "mapillary": "https://www.mapillary.com/app/?lat=51.097223536187585&lng=4.503623529812103&z=17&pKey=t7P5zNgohkbmJFibCgHGoA&focus=photo&x=0.4866532116818303&y=0.3844579787877691&zoom=0"
      }
    },
    {
      "type": "node",
      "id": 4813448315,
      "lat": 51.1225754,
      "lon": 4.5058562,
      "tags": {
        "amenity": "drinking_water",
        "in_cemetery": "yes",
        "stateofrepair": "ok"
      }
    },
    {
      "type": "node",
      "id": 4813448316,
      "lat": 51.1224747,
      "lon": 4.5075936,
      "tags": {
        "amenity": "drinking_water",
        "in_cemetery": "yes",
        "stateofrepair": "ok"
      }
    },
    {
      "type": "node",
      "id": 4906479408,
      "lat": 51.0892351,
      "lon": 4.4978467,
      "tags": {
        "leisure": "picnic_table"
      }
    },
    {
      "type": "node",
      "id": 5028009655,
      "lat": 51.0752289,
      "lon": 4.4923162,
      "tags": {
        "access": "customers",
        "amenity": "toilets",
        "toilets:disposal": "flush",
        "unisex": "yes"
      }
    },
    {
      "type": "node",
      "id": 5028009656,
      "lat": 51.0748514,
      "lon": 4.4916569,
      "tags": {
        "access": "customers",
        "amenity": "toilets",
        "toilets:disposal": "flush"
      }
    },
    {
      "type": "node",
      "id": 5112795538,
      "lat": 51.080786,
      "lon": 4.490265,
      "tags": {
        "amenity": "bench"
      }
    },
    {
      "type": "node",
      "id": 5471224170,
      "lat": 51.105266,
      "lon": 4.5696237,
      "tags": {
        "leisure": "picnic_table",
        "tourism": "picnic_site"
      }
    },
    {
      "type": "node",
      "id": 6383136455,
      "lat": 51.0791601,
      "lon": 4.4874897,
      "tags": {
        "amenity": "bench",
        "backrest": "yes",
        "material": "wood"
      }
    },
    {
      "type": "node",
      "id": 6383136457,
      "lat": 51.0793929,
      "lon": 4.4894479,
      "tags": {
        "amenity": "bench",
        "backrest": "yes",
        "material": "wood"
      }
    },
    {
      "type": "node",
      "id": 6478856095,
      "lat": 51.0817037,
      "lon": 4.4932197,
      "tags": {
        "amenity": "bench",
        "backrest": "yes",
        "material": "wood",
        "seats": "3"
      }
    },
    {
      "type": "node",
      "id": 6478856096,
      "lat": 51.0788957,
      "lon": 4.4905819,
      "tags": {
        "amenity": "bench",
        "backrest": "no",
        "material": "wood",
        "seats": "12"
      }
    },
    {
      "type": "node",
      "id": 7408135276,
      "lat": 51.0785726,
      "lon": 4.4964647,
      "tags": {
        "board_type": "nature",
        "information": "board",
        "name": "Infobord",
        "operator": "Natuurpunt",
        "tourism": "information"
      }
    },
    {
      "type": "node",
      "id": 8408932596,
      "lat": 51.0716484,
      "lon": 4.5462491,
      "tags": {
        "amenity": "bench"
      }
    },
    {
      "type": "node",
      "id": 8408932597,
      "lat": 51.0732419,
      "lon": 4.5450032,
      "tags": {
        "amenity": "bench"
      }
    },
    {
      "type": "node",
      "id": 8441552739,
      "lat": 51.1208384,
      "lon": 4.4919055,
      "tags": {
        "amenity": "bench"
      }
    },
    {
      "type": "node",
      "id": 8568812753,
      "lat": 51.0986555,
      "lon": 4.491449,
      "tags": {
        "leisure": "picnic_table"
      }
    },
    {
      "type": "way",
      "id": 24015280,
      "nodes": [
        260428286,
        260428287,
        260428288,
        2054893244,
        2054893243,
        8089658613,
        260428289,
        260428290,
        260428292,
        2054893245,
        260428300,
        2054893246,
        2054893247,
        260428293,
        260428294,
        260428295,
        260428298,
        260428299,
        260428286
      ],
      "tags": {
        "access": "private",
        "amenity": "parking",
        "parking": "surface",
        "surface": "asphalt"
      }
    },
    {
      "type": "way",
      "id": 26190694,
      "nodes": [
        286794496,
        286794497,
        286794498,
        286794499,
        1078521984,
        286794496
      ],
      "tags": {
        "amenity": "parking",
        "capacity": "150",
        "capacity:disabled": "4",
        "park_ride": "yes",
        "surface": "asphalt"
      }
    },
    {
      "type": "way",
      "id": 26418108,
      "nodes": [
        289447706,
        289447707,
        289447708,
        289447709,
        289447706
      ],
      "tags": {
        "amenity": "parking"
      }
    },
    {
      "type": "way",
      "id": 48541210,
      "nodes": [
        616654509,
        616654510,
        616654511,
        4885300534,
        4885300533,
        616654512,
        616654513,
        616654514,
        616654509
      ],
      "tags": {
        "access": "customers",
        "amenity": "parking"
      }
    },
    {
      "type": "way",
      "id": 49185348,
      "nodes": [
        623935314,
        6331096717,
        6331096716,
        2515519095,
        2515519096,
        2515519084,
        2515519086,
        623935316,
        623935317,
        623935319,
        2515519183,
        2515519181,
        623935314
      ],
      "tags": {
        "amenity": "parking",
        "name": "Parking Station Duffel"
      }
    },
    {
      "type": "way",
      "id": 61728201,
      "nodes": [
        769184242,
        769184246,
        4242651377,
        4242651349,
        769184242
      ],
      "tags": {
        "amenity": "parking"
      }
    },
    {
      "type": "way",
      "id": 69630827,
      "nodes": [
        833187972,
        833187979,
        833187968,
        833187984,
        833187972
      ],
      "tags": {
        "amenity": "parking"
      }
    },
    {
      "type": "way",
      "id": 93306203,
      "nodes": [
        1081825239,
        1081826625,
        5352747692,
        1081826140,
        1081825620,
        1081826331,
        1081824865,
        1081825239
      ],
      "tags": {
        "amenity": "parking"
      }
    },
    {
      "type": "way",
      "id": 93322324,
      "nodes": [
        136929434,
        1082003576,
        970483684,
        136929438,
        136929436,
        136929435,
        1081998779,
        136929434
      ],
      "tags": {
        "amenity": "parking"
      }
    },
    {
      "type": "way",
      "id": 93353068,
      "nodes": [
        1082417360,
        1082417489,
        1082417621,
        1082417379,
        1082417360
      ],
      "tags": {
        "amenity": "parking"
      }
    },
    {
      "type": "way",
      "id": 97942520,
      "nodes": [
        1133612537,
        1133612588,
        1133612673,
        1133612871,
        1133612525,
        1133612628,
        1133612537
      ],
      "tags": {
        "amenity": "parking"
      }
    },
    {
      "type": "way",
      "id": 118245265,
      "nodes": [
        1330177926,
        1330177923,
        1330177957,
        1330177938,
        1330177965,
        1330177952,
        1330177971,
        1330177928,
        1330177926
      ],
      "tags": {
        "access": "yes",
        "amenity": "parking",
        "fee": "no",
        "name": "Gustaaf van der Lindenplein",
        "parking": "surface"
      }
    },
    {
      "type": "way",
      "id": 144932219,
      "nodes": [
        1584093041,
        1584093045,
        1584093047,
        1584093048,
        1584093050,
        1584093051,
        1584093052,
        1584093053,
        1584093058,
        1584093057,
        1584093056,
        1584093055,
        1584093054,
        1584093044,
        1584093043,
        1584093042,
        1584093040,
        1584093041
      ],
      "tags": {
        "amenity": "parking",
        "parking": "surface"
      }
    },
    {
      "type": "way",
      "id": 165119821,
      "nodes": [
        1766956495,
        1766956490,
        1766956498,
        1766956491,
        1766956495
      ],
      "tags": {
        "amenity": "parking"
      }
    },
    {
      "type": "way",
      "id": 168563251,
      "nodes": [
        1798088763,
        1798088731,
        1798088724,
        1798088716,
        1798088733,
        1798088739,
        1798088734,
        1798088762,
        1798088763
      ],
      "tags": {
        "amenity": "parking",
        "fee": "no",
        "parking": "surface"
      }
    },
    {
      "type": "way",
      "id": 180663086,
      "nodes": [
        1911086436,
        1911086435
      ],
      "tags": {
        "amenity": "bench"
      }
    },
    {
      "type": "way",
      "id": 195953821,
      "nodes": [
        2063333703,
        2063333696,
        2063333713,
        2063333701,
        2063333686,
        2063333681,
        2063333705,
        2063333700,
        2063333706,
        2063333711,
        2063333719,
        2063333703
      ],
      "tags": {
        "amenity": "parking",
        "parking": "surface"
      }
    },
    {
      "type": "way",
      "id": 196018561,
      "nodes": [
        2063902098,
        2063902089
      ],
      "tags": {
        "amenity": "bench"
      }
    },
    {
      "type": "way",
      "id": 196110654,
      "nodes": [
        2064776633,
        2064776638,
        2064776640,
        2064776646,
        2064776649,
        2064776648,
        2064776633
      ],
      "tags": {
        "amenity": "parking",
        "surface": "paved"
      }
    },
    {
      "type": "way",
      "id": 230140155,
      "nodes": [
        2386676065,
        2386676062
      ],
      "tags": {
        "amenity": "bench"
      }
    },
    {
      "type": "way",
      "id": 231443233,
      "nodes": [
        2398315839,
        2398315838
      ],
      "tags": {
        "amenity": "bench"
      }
    },
    {
      "type": "way",
      "id": 231443234,
      "nodes": [
        2398315847,
        2398315846
      ],
      "tags": {
        "amenity": "bench"
      }
    },
    {
      "type": "way",
      "id": 231945580,
      "nodes": [
        2402667536,
        2402667531,
        3766354064,
        2402667546,
        2402667550,
        3766354068,
        3766354065,
        2402667536
      ],
      "tags": {
        "amenity": "parking"
      }
    },
    {
      "type": "way",
      "id": 231945581,
      "nodes": [
        2402667544,
        2402667548,
        2402667542,
        2402667538,
        2402667544
      ],
      "tags": {
        "amenity": "parking"
      }
    },
    {
      "type": "way",
      "id": 232323807,
      "nodes": [
        2406839861,
        2406839897,
        2406839934,
        2406839913,
        2406839861
      ],
      "tags": {
        "amenity": "parking"
      }
    },
    {
      "type": "way",
      "id": 244212031,
      "nodes": [
        2515518976,
        2515518980,
        2515518978,
        2515518974,
        2515518976
      ],
      "tags": {
        "amenity": "parking",
        "fee": "no",
        "parking": "surface"
      }
    },
    {
      "type": "way",
      "id": 265397968,
      "nodes": [
        2710689705,
        2710689702,
        2710689701,
        2710689690,
        2710689686,
        1080562321,
        1080562136,
        2710689688,
        2710689692,
        2710689700,
        2710689707,
        2710689703,
        2710689706,
        2710689705
      ],
      "tags": {
        "access": "permissive",
        "amenity": "parking",
        "fee": "no",
        "parking": "surface"
      }
    },
    {
      "type": "way",
      "id": 299805215,
      "nodes": [
        3038892862,
        3038892863,
        3038892864,
        3038892865,
        3038892866,
        3038892867,
        3038892862
      ],
      "tags": {
        "amenity": "parking"
      }
    },
    {
      "type": "way",
      "id": 302388151,
      "nodes": [
        3066457872,
        3066457867,
        3066457868,
        3066457863,
        3066457851,
        3066457857,
        3066457858,
        3066457855,
        3066457860,
        3066457866,
        3066457869,
        3066457876,
        3066457874,
        3066457872
      ],
      "tags": {
        "access": "customers",
        "amenity": "parking",
        "fee": "no",
        "operator": "Lage Polder",
        "parking": "surface"
      }
    },
    {
      "type": "way",
      "id": 346616505,
      "nodes": [
        3531306302,
        3531306304
      ],
      "tags": {
        "amenity": "bench"
      }
    },
    {
      "type": "way",
      "id": 346616510,
      "nodes": [
        3531297585,
        3531306297,
        3531306296,
        3531297586,
        3531297587,
        3531297585
      ],
      "tags": {
        "access": "yes",
        "amenity": "parking",
        "fee": "no",
        "parking": "surface"
      }
    },
    {
      "type": "way",
      "id": 392151506,
      "nodes": [
        3954170087,
        3954170083,
        3954170084,
        3954170088,
        3954170087
      ],
      "tags": {
        "amenity": "parking",
        "fee": "no",
        "parking": "surface"
      }
    },
    {
      "type": "way",
      "id": 447869748,
      "nodes": [
        662937828,
        1120074331,
        1120074178,
        1120073702,
        4449269293,
        1120075068,
        7966707353,
        7966707354,
        7966707355,
        662937828
      ],
      "tags": {
        "amenity": "parking"
      }
    },
    {
      "type": "way",
      "id": 470028074,
      "nodes": [
        4642830776,
        4642830777,
        4642830778,
        4642830779,
        4642830776
      ],
      "tags": {
        "amenity": "parking"
      }
    },
    {
      "type": "way",
      "id": 470028075,
      "nodes": [
        4642830780,
        4642830781,
        4642830782,
        4642830783,
        4642830780
      ],
      "tags": {
        "amenity": "parking"
      }
    },
    {
      "type": "way",
      "id": 499367120,
      "nodes": [
        1135409930,
        4906479403,
        4906479402,
        4906479401,
        4906479400,
        4906479399,
        4906479398,
        1135409930
      ],
      "tags": {
        "amenity": "parking",
        "fee": "no",
        "parking": "surface"
      }
    },
    {
      "type": "way",
      "id": 512231352,
      "nodes": [
        5004360238,
        5008944189,
        5008944190,
        5008944191,
        5004360238
      ],
      "tags": {
        "amenity": "parking"
      }
    },
    {
      "type": "way",
      "id": 512231354,
      "nodes": [
        5008944192,
        5008944193,
        5008944194,
        5008944195,
        5008944196,
        5008944197,
        5008944192
      ],
      "tags": {
        "amenity": "parking"
      }
    },
    {
      "type": "way",
      "id": 512231363,
      "nodes": [
        5008944215,
        5008944216,
        5008944217,
        5008944218,
        5008944215
      ],
      "tags": {
        "amenity": "parking"
      }
    },
    {
      "type": "way",
      "id": 525341608,
      "nodes": [
        5110805731,
        5110805732,
        5110805733,
        5110805734,
        5110805736,
        5110805731
      ],
      "tags": {
        "building": "yes",
        "leisure": "bird_hide"
      }
    },
    {
      "type": "way",
      "id": 549347389,
      "nodes": [
        5306523074,
        5306523075,
        5306523076,
        5306523077,
        5306523074
      ],
      "tags": {
        "amenity": "parking"
      }
    },
    {
      "type": "way",
      "id": 549347390,
      "nodes": [
        5306523078,
        5306523079,
        2316121335,
        5306523080,
        5306523078
      ],
      "tags": {
        "amenity": "parking"
      }
    },
    {
      "type": "way",
      "id": 549347391,
      "nodes": [
        5306523081,
        5306523082,
        5306523083,
        5306523084,
        5306523081
      ],
      "tags": {
        "amenity": "parking"
      }
    },
    {
      "type": "way",
      "id": 549347393,
      "nodes": [
        5306523090,
        5306523091,
        5306523092,
        5306523093,
        5306523090
      ],
      "tags": {
        "amenity": "parking"
      }
    },
    {
      "type": "way",
      "id": 549347394,
      "nodes": [
        5306523094,
        5306523095,
        5306523096,
        5306523097,
        5306523094
      ],
      "tags": {
        "amenity": "parking"
      }
    },
    {
      "type": "way",
      "id": 549349228,
      "nodes": [
        5306535093,
        5306535094,
        5306535095,
        5306535096,
        5306535097,
        623723017,
        5306535098,
        5306535099,
        5306535100,
        5306535101,
        5306535102,
        5306535103,
        5306535104,
        5306535105,
        5306535106,
        5306535107,
        5306535108,
        5306535109,
        5306535110,
        5306535111,
        5306535112,
        5306535113,
        5306535114,
        5306535115,
        5306535116,
        5306535117,
        5306535093
      ],
      "tags": {
        "access": "private",
        "amenity": "parking"
      }
    },
    {
      "type": "way",
      "id": 549349229,
      "nodes": [
        5306535118,
        5306535119,
        5306535120,
        5306537821,
        5306537822,
        5306537823,
        5306535118
      ],
      "tags": {
        "access": "customers",
        "amenity": "parking"
      }
    },
    {
      "type": "way",
      "id": 549567800,
      "nodes": [
        5308533698,
        5308533699,
        5308533700,
        5308533701,
        5308533702,
        5308533703,
        5308533704,
        5308533705,
        5308533706,
        5308533698
      ],
      "tags": {
        "amenity": "parking"
      }
    },
    {
      "type": "way",
      "id": 549567801,
      "nodes": [
        5308533707,
        5308533708,
        5308533709,
        5308533710,
        5308533711,
        344237828,
        5308533707
      ],
      "tags": {
        "amenity": "parking"
      }
    },
    {
      "type": "way",
      "id": 549567802,
      "nodes": [
        5308533713,
        5308533714,
        5308533715,
        5308533716,
        5308533717,
        5308533718,
        5308533719,
        5308533720,
        5308533721,
        5308533713
      ],
      "tags": {
        "amenity": "parking"
      }
    },
    {
      "type": "way",
      "id": 569550731,
      "nodes": [
        5477284002,
        5477284001,
        5477284000,
        5477283999,
        5477284002
      ],
      "tags": {
        "amenity": "parking"
      }
    },
    {
      "type": "way",
      "id": 569550735,
      "nodes": [
        5477284019,
        5477284018,
        5477284017,
        5477284016,
        5477284019
      ],
      "tags": {
        "amenity": "parking"
      }
    },
    {
      "type": "way",
      "id": 569550736,
      "nodes": [
        5477284723,
        5477284722,
        5477284721,
        5477284020,
        5477284723
      ],
      "tags": {
        "amenity": "parking"
      }
    },
    {
      "type": "way",
      "id": 666261437,
      "nodes": [
        6237685346,
        6337766511,
        6337766515,
        6237685347,
        6237685348,
        6237685349,
        6237685350,
        6237685351,
        6237685352,
        6237685353,
        6237685354,
        6237685355,
        6237685356,
        6237685357,
        6237685358,
        6237685359,
        6237685360,
        6237685346
      ],
      "tags": {
        "access": "customers",
        "amenity": "parking",
        "capacity": "80",
        "operator": "Lidl",
        "parking": "surface",
        "surface": "asphalt"
      }
    },
    {
      "type": "way",
      "id": 666864686,
      "nodes": [
        6243895407,
        6243895403,
        7166413491,
        7166413494,
        6243895407
      ],
      "tags": {
        "amenity": "parking"
      }
    },
    {
      "type": "way",
      "id": 671596627,
      "nodes": [
        6289212600,
        6289212601,
        6289212602,
        6289212603,
        6289212604,
        6289212605,
        6289212606,
        6289212607,
        6289212608,
        6289212609,
        6289212610,
        6289212611,
        6289212600
      ],
      "tags": {
        "amenity": "parking"
      }
    },
    {
      "type": "way",
      "id": 706249034,
      "nodes": [
        6636111191,
        6636111192,
        6636111193,
        6636111194,
        6636111195,
        6636111196,
        6636111197,
        6636111198,
        6636111199,
        6636111200,
        6636111201,
        6636111202,
        6636111203,
        6636111204,
        6636111191
      ],
      "tags": {
        "access": "permissive",
        "amenity": "parking",
        "fee": "no",
        "parking": "surface",
        "surface": "compacted"
      }
    },
    {
      "type": "way",
      "id": 805318544,
      "nodes": [
        7531896963,
        7531896967,
        7531896968,
        7531896969,
        7531896966,
        7531896965,
        7531896964,
        7531896963
      ],
      "tags": {
        "amenity": "parking"
      }
    },
    {
      "type": "way",
      "id": 815416332,
      "nodes": [
        7615640083,
        7615640082,
        7615640084,
        5673476008,
        5673476007,
        7615640081,
        7615640083
      ],
      "tags": {
        "access": "yes",
        "amenity": "parking",
        "fee": "no",
        "parking": "surface"
      }
    },
    {
      "type": "way",
      "id": 818454685,
      "nodes": [
        3009854260,
        4262316814,
        108256323,
        4262316817,
        4262316824,
        3009854257,
        7643494808,
        7643494809,
        7643494814,
        1123316045,
        7643494812,
        7643494813,
        7643494811,
        7643494810,
        7643494815,
        7643494816,
        3009854260
      ],
      "tags": {
        "amenity": "parking",
        "parking": "surface",
        "surface": "gravel"
      }
    },
    {
      "type": "way",
      "id": 902675837,
      "nodes": [
        8384061584,
        8384061581,
        8384061582,
        8384061583,
        8384061584
      ],
      "tags": {
        "amenity": "parking"
      }
    },
    {
      "type": "way",
      "id": 905871879,
      "nodes": [
        1132481886,
        8412389471,
        291000421,
        8442434262,
        8412389472,
        8412389473,
        8412389474,
        1132555875,
        8412389475,
        8412389476,
        8412389477,
        8412389478,
        8412389479,
        8412389480,
        8412389481,
        8412389482,
        8412389483,
        8412389499,
        8412389484,
        8412389498,
        8412389497,
        8412389496,
        8412389485,
        8412389486,
        8412389487,
        8412389495,
        8412389494,
        3766353328,
        8412389488,
        648300641,
        8412389489,
        8412389490,
        8412389492,
        8412389491,
        1132481886
      ],
      "tags": {
        "leisure": "nature_reserve",
        "name": "Goorbosbeekvallei",
        "operator": "Natuurpunt"
      }
    },
    {
      "type": "way",
      "id": 926253468,
      "nodes": [
        8595568463,
        8595568464,
        8595568465,
        8595568466,
        8595568463
      ],
      "tags": {
        "access": "private",
        "amenity": "parking",
        "capacity": "6",
        "parking": "surface",
        "surface": "paved"
      }
    },
    {
      "type": "way",
      "id": 926253483,
      "nodes": [
        8595568509,
        8595568510,
        8595568511,
        8595568512,
        8595568509
      ],
      "tags": {
        "amenity": "parking"
      }
    },
    {
      "type": "way",
      "id": 934027714,
      "nodes": [
        8656770395,
        8656770396,
        8656770397,
        8656770398,
        8656770395
      ],
      "tags": {
        "amenity": "parking",
        "fee": "no"
      }
    },
    {
      "type": "node",
      "id": 662943391,
      "lat": 51.1168408,
      "lon": 4.5619338,
      "timestamp": "2010-03-08T17:04:19Z",
      "version": 1,
      "changeset": 4073353,
      "user": "Eimai",
      "uid": 6072,
      "tags": {
        "amenity": "parking"
      }
    },
    {
      "type": "node",
      "id": 662947379,
      "lat": 51.1173244,
      "lon": 4.5492129,
      "timestamp": "2020-04-23T20:33:41Z",
      "version": 3,
      "changeset": 84022032,
      "user": "Pieter Vander Vennet",
      "uid": 3818858,
      "tags": {
        "information": "board",
        "tourism": "information"
      }
    },
    {
      "type": "node",
      "id": 727165823,
      "lat": 51.0942924,
      "lon": 4.5125344,
      "timestamp": "2011-01-05T16:20:04Z",
      "version": 2,
      "changeset": 6873418,
      "user": "lodde1949",
      "uid": 138772,
      "tags": {
        "amenity": "parking"
      }
    },
    {
      "type": "node",
      "id": 800005915,
      "lat": 51.1233647,
      "lon": 4.4931772,
      "timestamp": "2021-09-20T13:57:30Z",
      "version": 2,
      "changeset": 111451254,
      "user": "KurtEnKristel",
      "uid": 13801441,
      "tags": {
        "amenity": "bench"
      }
    },
    {
      "type": "node",
      "id": 1318913857,
      "lat": 51.093948,
      "lon": 4.5097804,
      "timestamp": "2014-05-02T14:27:43Z",
      "version": 2,
      "changeset": 22086251,
      "user": "Lauwers Bart",
      "uid": 2050508,
      "tags": {
        "amenity": "parking"
      }
    },
    {
      "type": "node",
      "id": 1319320148,
      "lat": 51.0916284,
      "lon": 4.5011924,
      "timestamp": "2011-06-10T19:21:23Z",
      "version": 1,
      "changeset": 8399306,
      "user": "dgoap",
      "uid": 284830,
      "tags": {
        "amenity": "parking"
      }
    },
    {
      "type": "node",
      "id": 1319320155,
      "lat": 51.0956124,
      "lon": 4.4931538,
      "timestamp": "2019-02-26T13:16:37Z",
      "version": 2,
      "changeset": 67582206,
      "user": "A127",
      "uid": 9374269,
      "tags": {
        "amenity": "parking"
      }
    },
    {
      "type": "node",
      "id": 1330674928,
      "lat": 51.0968211,
      "lon": 4.5070991,
      "timestamp": "2021-05-01T10:47:27Z",
      "version": 3,
      "changeset": 103950271,
      "user": "staf",
      "uid": 377797,
      "tags": {
        "amenity": "bench",
        "backrest": "yes",
        "check_date": "2021-05-01"
      }
    },
    {
      "type": "node",
      "id": 1330674999,
      "lat": 51.0968211,
      "lon": 4.5070389,
      "timestamp": "2021-05-01T10:47:21Z",
      "version": 3,
      "changeset": 103950271,
      "user": "staf",
      "uid": 377797,
      "tags": {
        "amenity": "bench",
        "backrest": "yes",
        "check_date": "2021-05-01"
      }
    },
    {
      "type": "node",
      "id": 1376621877,
      "lat": 51.0854463,
      "lon": 4.4953722,
      "timestamp": "2021-05-01T10:20:21Z",
      "version": 3,
      "changeset": 103950271,
      "user": "staf",
      "uid": 377797,
      "tags": {
        "amenity": "bench",
        "backrest": "yes",
        "check_date": "2021-05-01"
      }
    },
    {
      "type": "node",
      "id": 1798088735,
      "lat": 51.0830121,
      "lon": 4.4974464,
      "timestamp": "2012-06-22T11:02:28Z",
      "version": 1,
      "changeset": 11977703,
      "user": "escada",
      "uid": 436365,
      "tags": {
        "amenity": "bench"
      }
    },
    {
      "type": "node",
      "id": 1990874270,
      "lat": 51.0953918,
      "lon": 4.4974878,
      "timestamp": "2012-10-31T12:03:37Z",
      "version": 1,
      "changeset": 13698476,
      "user": "escada",
      "uid": 436365,
      "tags": {
        "amenity": "bench"
      }
    },
    {
      "type": "node",
      "id": 1990874324,
      "lat": 51.0987936,
      "lon": 4.5014452,
      "timestamp": "2012-10-31T12:03:39Z",
      "version": 1,
      "changeset": 13698476,
      "user": "escada",
      "uid": 436365,
      "tags": {
        "amenity": "bench"
      }
    },
    {
      "type": "node",
      "id": 1990874328,
      "lat": 51.0989849,
      "lon": 4.501754,
      "timestamp": "2012-10-31T12:03:40Z",
      "version": 1,
      "changeset": 13698476,
      "user": "escada",
      "uid": 436365,
      "tags": {
        "amenity": "bench"
      }
    },
    {
      "type": "node",
      "id": 1990874341,
      "lat": 51.0995848,
      "lon": 4.4912198,
      "timestamp": "2012-10-31T12:03:40Z",
      "version": 1,
      "changeset": 13698476,
      "user": "escada",
      "uid": 436365,
      "tags": {
        "amenity": "bench"
      }
    },
    {
      "type": "node",
      "id": 1997610123,
      "lat": 51.0987174,
      "lon": 4.5046484,
      "timestamp": "2012-11-04T19:56:30Z",
      "version": 1,
      "changeset": 13752543,
      "user": "escada",
      "uid": 436365,
      "tags": {
        "amenity": "bench"
      }
    },
    {
      "type": "node",
      "id": 1997610128,
      "lat": 51.0987652,
      "lon": 4.5046047,
      "timestamp": "2012-11-04T19:56:30Z",
      "version": 1,
      "changeset": 13752543,
      "user": "escada",
      "uid": 436365,
      "tags": {
        "amenity": "bench"
      }
    },
    {
      "type": "node",
      "id": 1998737583,
      "lat": 51.0968741,
      "lon": 4.5029402,
      "timestamp": "2012-11-05T14:45:23Z",
      "version": 1,
      "changeset": 13761706,
      "user": "escada",
      "uid": 436365,
      "tags": {
        "amenity": "parking"
      }
    },
    {
      "type": "node",
      "id": 2024665273,
      "lat": 51.0964664,
      "lon": 4.5085616,
      "timestamp": "2012-11-21T11:45:22Z",
      "version": 1,
      "changeset": 13957567,
      "user": "escada",
      "uid": 436365,
      "tags": {
        "amenity": "bench"
      }
    },
    {
      "type": "node",
      "id": 2024665293,
      "lat": 51.0966089,
      "lon": 4.5105636,
      "timestamp": "2012-11-21T11:45:22Z",
      "version": 1,
      "changeset": 13957567,
      "user": "escada",
      "uid": 436365,
      "tags": {
        "amenity": "bench"
      }
    },
    {
      "type": "node",
      "id": 2024665303,
      "lat": 51.0966558,
      "lon": 4.5109079,
      "timestamp": "2012-11-21T11:45:22Z",
      "version": 1,
      "changeset": 13957567,
      "user": "escada",
      "uid": 436365,
      "tags": {
        "amenity": "bench"
      }
    },
    {
      "type": "node",
      "id": 2024665306,
      "lat": 51.0966584,
      "lon": 4.5110707,
      "timestamp": "2012-11-21T11:45:22Z",
      "version": 1,
      "changeset": 13957567,
      "user": "escada",
      "uid": 436365,
      "tags": {
        "amenity": "bench"
      }
    },
    {
      "type": "node",
      "id": 2300238097,
      "lat": 51.094017,
      "lon": 4.5092144,
      "timestamp": "2013-05-11T22:18:57Z",
      "version": 1,
      "changeset": 16087169,
      "user": "knooppuntantwerp",
      "uid": 710401,
      "tags": {
        "amenity": "toilets"
      }
    },
    {
      "type": "node",
      "id": 2300254349,
      "lat": 51.0952653,
      "lon": 4.5047485,
      "timestamp": "2013-05-11T22:37:47Z",
      "version": 1,
      "changeset": 16087169,
      "user": "knooppuntantwerp",
      "uid": 710401,
      "tags": {
        "amenity": "bench"
      }
    },
    {
      "type": "node",
      "id": 2300256757,
      "lat": 51.0951086,
      "lon": 4.5058804,
      "timestamp": "2013-05-11T22:43:07Z",
      "version": 1,
      "changeset": 16087169,
      "user": "knooppuntantwerp",
      "uid": 710401,
      "tags": {
        "amenity": "toilets"
      }
    },
    {
      "type": "node",
      "id": 2300256758,
      "lat": 51.097952,
      "lon": 4.5080637,
      "timestamp": "2013-05-11T22:43:07Z",
      "version": 1,
      "changeset": 16087169,
      "user": "knooppuntantwerp",
      "uid": 710401,
      "tags": {
        "amenity": "bench"
      }
    },
    {
      "type": "node",
      "id": 2300262817,
      "lat": 51.0913082,
      "lon": 4.4931614,
      "timestamp": "2013-05-11T22:52:54Z",
      "version": 1,
      "changeset": 16087169,
      "user": "knooppuntantwerp",
      "uid": 710401,
      "tags": {
        "amenity": "toilets"
      }
    },
    {
      "type": "node",
      "id": 2515519040,
      "lat": 51.0910715,
      "lon": 4.4935697,
      "timestamp": "2013-10-31T20:06:45Z",
      "version": 1,
      "changeset": 18641345,
      "user": "escada",
      "uid": 436365,
      "tags": {
        "amenity": "bench"
      }
    },
    {
      "type": "node",
      "id": 2515519055,
      "lat": 51.0911325,
      "lon": 4.4941289,
      "timestamp": "2013-10-31T20:06:46Z",
      "version": 1,
      "changeset": 18641345,
      "user": "escada",
      "uid": 436365,
      "tags": {
        "amenity": "bench"
      }
    },
    {
      "type": "node",
      "id": 2653628435,
      "lat": 51.0863961,
      "lon": 4.495029,
      "timestamp": "2021-05-01T08:38:15Z",
      "version": 3,
      "changeset": 103946485,
      "user": "staf",
      "uid": 377797,
      "tags": {
        "amenity": "bench",
        "backrest": "yes",
        "check_date": "2021-05-01"
      }
    },
    {
      "type": "node",
      "id": 2653628436,
      "lat": 51.0884312,
      "lon": 4.4988055,
      "timestamp": "2021-05-01T08:34:46Z",
      "version": 3,
      "changeset": 103946852,
      "user": "staf",
      "uid": 377797,
      "tags": {
        "amenity": "bench",
        "backrest": "yes",
        "check_date": "2021-05-01"
      }
    },
    {
      "type": "node",
      "id": 2653628437,
      "lat": 51.0884792,
      "lon": 4.4988432,
      "timestamp": "2021-05-01T08:34:44Z",
      "version": 3,
      "changeset": 103946852,
      "user": "staf",
      "uid": 377797,
      "tags": {
        "amenity": "bench",
        "backrest": "yes",
        "check_date": "2021-05-01"
      }
    },
    {
      "type": "node",
      "id": 2653628438,
      "lat": 51.0909988,
      "lon": 4.5021519,
      "timestamp": "2014-09-08T10:42:21Z",
      "version": 2,
      "changeset": 25304655,
      "user": "escada",
      "uid": 436365,
      "tags": {
        "amenity": "bench",
        "backrest": "yes"
      }
    },
    {
      "type": "node",
      "id": 2831600090,
      "lat": 51.0942101,
      "lon": 4.5093673,
      "timestamp": "2014-05-02T14:27:43Z",
      "version": 2,
      "changeset": 22086251,
      "user": "Lauwers Bart",
      "uid": 2050508,
      "tags": {
        "amenity": "parking"
      }
    },
    {
      "type": "node",
      "id": 3004598564,
      "lat": 51.0889222,
      "lon": 4.4981146,
      "timestamp": "2014-08-08T11:09:34Z",
      "version": 1,
      "changeset": 24612990,
      "user": "escada",
      "uid": 436365,
      "tags": {
        "amenity": "bench",
        "backrest": "yes"
      }
    },
    {
      "type": "node",
      "id": 3004598567,
      "lat": 51.088946,
      "lon": 4.4980891,
      "timestamp": "2014-08-08T11:09:34Z",
      "version": 1,
      "changeset": 24612990,
      "user": "escada",
      "uid": 436365,
      "tags": {
        "amenity": "bench",
        "backrest": "yes"
      }
    },
    {
      "type": "node",
      "id": 3004598568,
      "lat": 51.0889562,
      "lon": 4.498079,
      "timestamp": "2014-08-08T11:09:34Z",
      "version": 1,
      "changeset": 24612990,
      "user": "escada",
      "uid": 436365,
      "tags": {
        "amenity": "bench",
        "backrest": "yes"
      }
    },
    {
      "type": "node",
      "id": 3004598574,
      "lat": 51.0894992,
      "lon": 4.4977041,
      "timestamp": "2021-05-01T08:32:35Z",
      "version": 2,
      "changeset": 103946485,
      "user": "staf",
      "uid": 377797,
      "tags": {
        "amenity": "bench",
        "backrest": "yes",
        "check_date": "2021-05-01"
      }
    },
    {
      "type": "node",
      "id": 3004598575,
      "lat": 51.0895046,
      "lon": 4.4976886,
      "timestamp": "2021-05-01T08:32:29Z",
      "version": 2,
      "changeset": 103946485,
      "user": "staf",
      "uid": 377797,
      "tags": {
        "amenity": "bench",
        "backrest": "yes",
        "check_date": "2021-05-01"
      }
    },
    {
      "type": "node",
      "id": 3004598614,
      "lat": 51.0901259,
      "lon": 4.49808,
      "timestamp": "2021-05-01T08:31:43Z",
      "version": 2,
      "changeset": 103946485,
      "user": "staf",
      "uid": 377797,
      "tags": {
        "amenity": "bench",
        "backrest": "yes",
        "check_date": "2021-05-01"
      }
    },
    {
      "type": "node",
      "id": 3004598616,
      "lat": 51.0901389,
      "lon": 4.4981304,
      "timestamp": "2021-05-01T08:31:18Z",
      "version": 2,
      "changeset": 103946485,
      "user": "staf",
      "uid": 377797,
      "tags": {
        "amenity": "bench",
        "backrest": "yes",
        "check_date": "2021-05-01"
      }
    },
    {
      "type": "node",
      "id": 3004598618,
      "lat": 51.0905844,
      "lon": 4.501154,
      "timestamp": "2021-05-01T08:28:54Z",
      "version": 2,
      "changeset": 103946485,
      "user": "staf",
      "uid": 377797,
      "tags": {
        "amenity": "bench",
        "backrest": "yes",
        "check_date": "2021-05-01"
      }
    },
    {
      "type": "node",
      "id": 3004598641,
      "lat": 51.0920738,
      "lon": 4.5025147,
      "timestamp": "2021-05-01T08:26:16Z",
      "version": 2,
      "changeset": 103946485,
      "user": "staf",
      "uid": 377797,
      "tags": {
        "amenity": "bench",
        "backrest": "yes",
        "check_date": "2021-05-01"
      }
    },
    {
      "type": "node",
      "id": 3004598646,
      "lat": 51.092267,
      "lon": 4.5025771,
      "timestamp": "2021-05-01T08:25:36Z",
      "version": 2,
      "changeset": 103946485,
      "user": "staf",
      "uid": 377797,
      "tags": {
        "amenity": "bench",
        "backrest": "yes",
        "check_date": "2021-05-01"
      }
    },
    {
      "type": "node",
      "id": 3004598648,
      "lat": 51.0923282,
      "lon": 4.5031626,
      "timestamp": "2014-08-08T11:09:36Z",
      "version": 1,
      "changeset": 24612990,
      "user": "escada",
      "uid": 436365,
      "tags": {
        "amenity": "bench",
        "backrest": "yes"
      }
    },
    {
      "type": "node",
      "id": 3004598649,
      "lat": 51.0923289,
      "lon": 4.5022049,
      "timestamp": "2014-08-08T11:09:36Z",
      "version": 1,
      "changeset": 24612990,
      "user": "escada",
      "uid": 436365,
      "tags": {
        "amenity": "bench",
        "backrest": "yes"
      }
    },
    {
      "type": "node",
      "id": 3004598650,
      "lat": 51.0923392,
      "lon": 4.5018928,
      "timestamp": "2014-08-08T11:09:36Z",
      "version": 1,
      "changeset": 24612990,
      "user": "escada",
      "uid": 436365,
      "tags": {
        "amenity": "bench",
        "backrest": "yes"
      }
    },
    {
      "type": "node",
      "id": 3004598656,
      "lat": 51.0928858,
      "lon": 4.5028278,
      "timestamp": "2014-08-08T11:09:37Z",
      "version": 1,
      "changeset": 24612990,
      "user": "escada",
      "uid": 436365,
      "tags": {
        "amenity": "bench",
        "backrest": "yes"
      }
    },
    {
      "type": "node",
      "id": 3004598670,
      "lat": 51.0930199,
      "lon": 4.502738,
      "timestamp": "2014-08-08T11:09:37Z",
      "version": 1,
      "changeset": 24612990,
      "user": "escada",
      "uid": 436365,
      "tags": {
        "amenity": "bench",
        "backrest": "yes"
      }
    },
    {
      "type": "node",
      "id": 3004598671,
      "lat": 51.0930322,
      "lon": 4.5027084,
      "timestamp": "2014-08-08T11:09:37Z",
      "version": 1,
      "changeset": 24612990,
      "user": "escada",
      "uid": 436365,
      "tags": {
        "amenity": "bench",
        "backrest": "yes"
      }
    },
    {
      "type": "node",
      "id": 3004598676,
      "lat": 51.0932344,
      "lon": 4.5034507,
      "timestamp": "2021-05-01T08:24:04Z",
      "version": 2,
      "changeset": 103946485,
      "user": "staf",
      "uid": 377797,
      "tags": {
        "amenity": "bench",
        "backrest": "yes",
        "check_date": "2021-05-01"
      }
    },
    {
      "type": "node",
      "id": 3004598687,
      "lat": 51.0937934,
      "lon": 4.5036696,
      "timestamp": "2021-05-01T08:22:45Z",
      "version": 2,
      "changeset": 103946485,
      "user": "staf",
      "uid": 377797,
      "tags": {
        "amenity": "bench",
        "backrest": "yes",
        "check_date": "2021-05-01"
      }
    },
    {
      "type": "node",
      "id": 3012172010,
      "lat": 51.094806,
      "lon": 4.5005488,
      "timestamp": "2014-08-12T11:24:15Z",
      "version": 1,
      "changeset": 24699361,
      "user": "escada",
      "uid": 436365,
      "tags": {
        "amenity": "bench",
        "backrest": "yes"
      }
    },
    {
      "type": "node",
      "id": 3014102157,
      "lat": 51.0953732,
      "lon": 4.5018554,
      "timestamp": "2014-08-13T11:14:58Z",
      "version": 1,
      "changeset": 24720930,
      "user": "escada",
      "uid": 436365,
      "tags": {
        "amenity": "bench",
        "backrest": "yes"
      }
    },
    {
      "type": "node",
      "id": 3014102161,
      "lat": 51.0954197,
      "lon": 4.5016575,
      "timestamp": "2014-08-13T11:14:58Z",
      "version": 1,
      "changeset": 24720930,
      "user": "escada",
      "uid": 436365,
      "tags": {
        "amenity": "bench",
        "backrest": "yes"
      }
    },
    {
      "type": "node",
      "id": 3016350598,
      "lat": 51.0995684,
      "lon": 4.5106181,
      "timestamp": "2014-08-14T12:37:23Z",
      "version": 2,
      "changeset": 24744348,
      "user": "Dejokke",
      "uid": 2117603,
      "tags": {
        "amenity": "bench"
      }
    },
    {
      "type": "node",
      "id": 3016366447,
      "lat": 51.099264,
      "lon": 4.5081902,
      "timestamp": "2014-10-09T14:08:35Z",
      "version": 2,
      "changeset": 25961671,
      "user": "danielsjohan",
      "uid": 285604,
      "tags": {
        "amenity": "bench"
      }
    },
    {
      "type": "node",
      "id": 3016366448,
      "lat": 51.0994839,
      "lon": 4.5098545,
      "timestamp": "2014-08-14T12:43:30Z",
      "version": 1,
      "changeset": 24744479,
      "user": "Dejokke",
      "uid": 2117603,
      "tags": {
        "amenity": "bench"
      }
    },
    {
      "type": "node",
      "id": 3016366467,
      "lat": 51.1001342,
      "lon": 4.5091435,
      "timestamp": "2014-08-14T12:43:51Z",
      "version": 1,
      "changeset": 24744489,
      "user": "Dejokke",
      "uid": 2117603,
      "tags": {
        "amenity": "bench",
        "backrest": "no"
      }
    },
    {
      "type": "node",
      "id": 3024275615,
      "lat": 51.0947728,
      "lon": 4.5069209,
      "timestamp": "2014-08-18T11:09:59Z",
      "version": 1,
      "changeset": 24829470,
      "user": "escada",
      "uid": 436365,
      "tags": {
        "board_type": "history",
        "description": "Bruggenhoofd uit 1933",
        "information": "board",
        "tourism": "information"
      }
    },
    {
      "type": "node",
      "id": 3024275617,
      "lat": 51.0947881,
      "lon": 4.5065457,
      "timestamp": "2014-08-18T11:09:59Z",
      "version": 1,
      "changeset": 24829470,
      "user": "escada",
      "uid": 436365,
      "tags": {
        "amenity": "parking",
        "parking": "surface"
      }
    },
    {
      "type": "node",
      "id": 3024275618,
      "lat": 51.0947897,
      "lon": 4.5069172,
      "timestamp": "2014-08-18T11:09:59Z",
      "version": 1,
      "changeset": 24829470,
      "user": "escada",
      "uid": 436365,
      "tags": {
        "amenity": "bench",
        "backrest": "yes"
      }
    },
    {
      "type": "node",
      "id": 3024291261,
      "lat": 51.0967277,
      "lon": 4.5033238,
      "timestamp": "2014-08-18T11:10:00Z",
      "version": 1,
      "changeset": 24829470,
      "user": "escada",
      "uid": 436365,
      "tags": {
        "amenity": "bench",
        "backrest": "yes"
      }
    },
    {
      "type": "node",
      "id": 3024291264,
      "lat": 51.0967441,
      "lon": 4.5032403,
      "timestamp": "2014-08-18T11:10:00Z",
      "version": 1,
      "changeset": 24829470,
      "user": "escada",
      "uid": 436365,
      "tags": {
        "amenity": "bench",
        "backrest": "yes"
      }
    },
    {
      "type": "node",
      "id": 3027126953,
      "lat": 51.0941128,
      "lon": 4.5034905,
      "timestamp": "2015-02-26T13:00:11Z",
      "version": 2,
      "changeset": 29112939,
      "user": "Dejokke",
      "uid": 2117603,
      "tags": {
        "amenity": "parking"
      }
    },
    {
      "type": "node",
      "id": 3027150818,
      "lat": 51.0950757,
      "lon": 4.5103403,
      "timestamp": "2014-08-19T11:06:55Z",
      "version": 1,
      "changeset": 24856112,
      "user": "escada",
      "uid": 436365,
      "tags": {
        "amenity": "bench",
        "backrest": "yes"
      }
    },
    {
      "type": "node",
      "id": 3027150828,
      "lat": 51.0953384,
      "lon": 4.5108041,
      "timestamp": "2014-08-19T11:06:55Z",
      "version": 1,
      "changeset": 24856112,
      "user": "escada",
      "uid": 436365,
      "tags": {
        "amenity": "bench",
        "backrest": "yes"
      }
    },
    {
      "type": "node",
      "id": 3027152033,
      "lat": 51.0953847,
      "lon": 4.5108292,
      "timestamp": "2014-08-19T11:06:55Z",
      "version": 1,
      "changeset": 24856112,
      "user": "escada",
      "uid": 436365,
      "tags": {
        "amenity": "bench",
        "backrest": "yes"
      }
    },
    {
      "type": "node",
      "id": 3027152037,
      "lat": 51.0954001,
      "lon": 4.510838,
      "timestamp": "2014-08-19T11:06:55Z",
      "version": 1,
      "changeset": 24856112,
      "user": "escada",
      "uid": 436365,
      "tags": {
        "amenity": "bench",
        "backrest": "yes"
      }
    },
    {
      "type": "node",
      "id": 3027152038,
      "lat": 51.0954122,
      "lon": 4.5083062,
      "timestamp": "2014-08-19T11:06:55Z",
      "version": 1,
      "changeset": 24856112,
      "user": "escada",
      "uid": 436365,
      "tags": {
        "amenity": "bench",
        "backrest": "yes"
      }
    },
    {
      "type": "node",
      "id": 3027152043,
      "lat": 51.0954566,
      "lon": 4.5083173,
      "timestamp": "2014-08-19T11:06:55Z",
      "version": 1,
      "changeset": 24856112,
      "user": "escada",
      "uid": 436365,
      "tags": {
        "amenity": "bench",
        "backrest": "yes"
      }
    },
    {
      "type": "node",
      "id": 3027152044,
      "lat": 51.0954715,
      "lon": 4.5108388,
      "timestamp": "2014-08-19T11:06:55Z",
      "version": 1,
      "changeset": 24856112,
      "user": "escada",
      "uid": 436365,
      "tags": {
        "amenity": "bench",
        "backrest": "yes"
      }
    },
    {
      "type": "node",
      "id": 3027152050,
      "lat": 51.0954933,
      "lon": 4.5108351,
      "timestamp": "2014-08-19T11:06:55Z",
      "version": 1,
      "changeset": 24856112,
      "user": "escada",
      "uid": 436365,
      "tags": {
        "amenity": "bench",
        "backrest": "yes"
      }
    },
    {
      "type": "node",
      "id": 3027152052,
      "lat": 51.0955017,
      "lon": 4.5083426,
      "timestamp": "2014-08-19T11:06:55Z",
      "version": 1,
      "changeset": 24856112,
      "user": "escada",
      "uid": 436365,
      "tags": {
        "amenity": "bench",
        "backrest": "yes"
      }
    },
    {
      "type": "node",
      "id": 3027152055,
      "lat": 51.0955211,
      "lon": 4.5108166,
      "timestamp": "2014-08-19T11:06:55Z",
      "version": 1,
      "changeset": 24856112,
      "user": "escada",
      "uid": 436365,
      "tags": {
        "amenity": "bench",
        "backrest": "yes"
      }
    },
    {
      "type": "node",
      "id": 3027152056,
      "lat": 51.0955354,
      "lon": 4.508374,
      "timestamp": "2014-08-19T11:06:55Z",
      "version": 1,
      "changeset": 24856112,
      "user": "escada",
      "uid": 436365,
      "tags": {
        "amenity": "bench",
        "backrest": "yes"
      }
    },
    {
      "type": "node",
      "id": 3027152072,
      "lat": 51.095637,
      "lon": 4.5081838,
      "timestamp": "2014-08-19T11:06:56Z",
      "version": 1,
      "changeset": 24856112,
      "user": "escada",
      "uid": 436365,
      "tags": {
        "amenity": "bench",
        "backrest": "yes"
      }
    },
    {
      "type": "node",
      "id": 3029453812,
      "lat": 51.0937579,
      "lon": 4.5099165,
      "timestamp": "2014-08-20T11:04:21Z",
      "version": 1,
      "changeset": 24881548,
      "user": "escada",
      "uid": 436365,
      "tags": {
        "amenity": "bench",
        "backrest": "yes"
      }
    },
    {
      "type": "node",
      "id": 3029453818,
      "lat": 51.0937954,
      "lon": 4.5098844,
      "timestamp": "2014-08-20T11:04:21Z",
      "version": 1,
      "changeset": 24881548,
      "user": "escada",
      "uid": 436365,
      "tags": {
        "amenity": "bench",
        "backrest": "yes"
      }
    },
    {
      "type": "node",
      "id": 3029453824,
      "lat": 51.0940397,
      "lon": 4.5096452,
      "timestamp": "2014-08-21T11:56:18Z",
      "version": 2,
      "changeset": 24907500,
      "user": "escada",
      "uid": 436365,
      "tags": {
        "amenity": "bench",
        "backrest": "yes"
      }
    },
    {
      "type": "node",
      "id": 3029453825,
      "lat": 51.0940769,
      "lon": 4.509568,
      "timestamp": "2014-08-20T11:04:21Z",
      "version": 1,
      "changeset": 24881548,
      "user": "escada",
      "uid": 436365,
      "tags": {
        "amenity": "bench",
        "backrest": "yes"
      }
    },
    {
      "type": "node",
      "id": 3032232156,
      "lat": 51.0939764,
      "lon": 4.5094601,
      "timestamp": "2014-08-21T11:56:16Z",
      "version": 1,
      "changeset": 24907500,
      "user": "escada",
      "uid": 436365,
      "tags": {
        "amenity": "bench",
        "backrest": "yes"
      }
    },
    {
      "type": "node",
      "id": 3032232158,
      "lat": 51.0939947,
      "lon": 4.5095264,
      "timestamp": "2014-08-21T11:56:16Z",
      "version": 1,
      "changeset": 24907500,
      "user": "escada",
      "uid": 436365,
      "tags": {
        "amenity": "bench",
        "backrest": "yes"
      }
    },
    {
      "type": "node",
      "id": 3032232160,
      "lat": 51.094017,
      "lon": 4.509591,
      "timestamp": "2014-08-21T11:56:16Z",
      "version": 1,
      "changeset": 24907500,
      "user": "escada",
      "uid": 436365,
      "tags": {
        "amenity": "bench",
        "backrest": "yes"
      }
    },
    {
      "type": "node",
      "id": 3373143571,
      "lat": 51.1086595,
      "lon": 4.5249757,
      "timestamp": "2015-02-26T12:54:35Z",
      "version": 1,
      "changeset": 29112869,
      "user": "Dejokke",
      "uid": 2117603,
      "tags": {
        "amenity": "parking"
      }
    },
    {
      "type": "node",
      "id": 3373145800,
      "lat": 51.0956646,
      "lon": 4.5060072,
      "timestamp": "2021-05-01T10:42:42Z",
      "version": 4,
      "changeset": 103950956,
      "user": "staf",
      "uid": 377797,
      "tags": {
        "access": "yes",
        "amenity": "parking",
        "fee": "no",
        "parking": "surface"
      }
    },
    {
      "type": "node",
      "id": 3373145801,
      "lat": 51.0958258,
      "lon": 4.5064939,
      "timestamp": "2021-05-01T10:44:00Z",
      "version": 4,
      "changeset": 103950952,
      "user": "staf",
      "uid": 377797,
      "tags": {
        "access": "yes",
        "amenity": "parking",
        "fee": "no",
        "parking": "street_side"
      }
    },
    {
      "type": "node",
      "id": 3393628471,
      "lat": 51.0941348,
      "lon": 4.5083728,
      "timestamp": "2015-03-11T11:51:59Z",
      "version": 1,
      "changeset": 29403621,
      "user": "escada",
      "uid": 436365,
      "tags": {
        "amenity": "bench",
        "backrest": "yes"
      }
    },
    {
      "type": "node",
      "id": 3393628474,
      "lat": 51.0941544,
      "lon": 4.5082461,
      "timestamp": "2015-03-11T11:51:59Z",
      "version": 1,
      "changeset": 29403621,
      "user": "escada",
      "uid": 436365,
      "tags": {
        "amenity": "bench",
        "backrest": "yes"
      }
    },
    {
      "type": "node",
      "id": 3393628477,
      "lat": 51.0941762,
      "lon": 4.5084691,
      "timestamp": "2015-03-11T11:52:00Z",
      "version": 1,
      "changeset": 29403621,
      "user": "escada",
      "uid": 436365,
      "tags": {
        "amenity": "bench",
        "backrest": "yes"
      }
    },
    {
      "type": "node",
      "id": 3393628481,
      "lat": 51.094277,
      "lon": 4.5082359,
      "timestamp": "2015-03-11T11:52:00Z",
      "version": 1,
      "changeset": 29403621,
      "user": "escada",
      "uid": 436365,
      "tags": {
        "amenity": "bench",
        "backrest": "yes"
      }
    },
    {
      "type": "node",
      "id": 3393628482,
      "lat": 51.0943093,
      "lon": 4.5083458,
      "timestamp": "2015-03-11T11:52:00Z",
      "version": 1,
      "changeset": 29403621,
      "user": "escada",
      "uid": 436365,
      "tags": {
        "amenity": "bench",
        "backrest": "yes"
      }
    },
    {
      "type": "node",
      "id": 3393628502,
      "lat": 51.0945518,
      "lon": 4.5061163,
      "timestamp": "2021-05-01T10:38:24Z",
      "version": 2,
      "changeset": 103946485,
      "user": "staf",
      "uid": 377797,
      "tags": {
        "amenity": "bench",
        "backrest": "yes",
        "check_date": "2021-05-01"
      }
    },
    {
      "type": "node",
      "id": 3393628503,
      "lat": 51.0945555,
      "lon": 4.5061892,
      "timestamp": "2021-05-01T10:38:21Z",
      "version": 2,
      "changeset": 103946485,
      "user": "staf",
      "uid": 377797,
      "tags": {
        "check_date": "2021-05-01",
        "leisure": "picnic_table"
      }
    },
    {
      "type": "node",
      "id": 3393628507,
      "lat": 51.094593,
      "lon": 4.5062504,
      "timestamp": "2021-05-01T10:38:14Z",
      "version": 2,
      "changeset": 103946485,
      "user": "staf",
      "uid": 377797,
      "tags": {
        "amenity": "bench",
        "backrest": "yes",
        "check_date": "2021-05-01"
      }
    },
    {
      "type": "node",
      "id": 3393628514,
      "lat": 51.0947001,
      "lon": 4.5058482,
      "timestamp": "2015-03-11T11:52:01Z",
      "version": 1,
      "changeset": 29403621,
      "user": "escada",
      "uid": 436365,
      "tags": {
        "amenity": "bench",
        "backrest": "yes"
      }
    },
    {
      "type": "node",
      "id": 3393628521,
      "lat": 51.0947495,
      "lon": 4.5057302,
      "timestamp": "2015-03-11T11:52:01Z",
      "version": 1,
      "changeset": 29403621,
      "user": "escada",
      "uid": 436365,
      "tags": {
        "amenity": "bench",
        "backrest": "yes"
      }
    },
    {
      "type": "node",
      "id": 3393628524,
      "lat": 51.0947624,
      "lon": 4.5089075,
      "timestamp": "2015-03-11T11:52:01Z",
      "version": 1,
      "changeset": 29403621,
      "user": "escada",
      "uid": 436365,
      "tags": {
        "amenity": "bench",
        "backrest": "yes"
      }
    },
    {
      "type": "node",
      "id": 3393628525,
      "lat": 51.0948318,
      "lon": 4.5057608,
      "timestamp": "2015-03-11T11:52:02Z",
      "version": 1,
      "changeset": 29403621,
      "user": "escada",
      "uid": 436365,
      "tags": {
        "amenity": "bench",
        "backrest": "yes"
      }
    },
    {
      "type": "node",
      "id": 3428820860,
      "lat": 51.0910483,
      "lon": 4.4933371,
      "timestamp": "2015-03-31T16:33:49Z",
      "version": 1,
      "changeset": 29881700,
      "user": "Glenn Plas",
      "uid": 497567,
      "tags": {
        "amenity": "bench"
      }
    },
    {
      "type": "node",
      "id": 3457005929,
      "lat": 51.1227951,
      "lon": 4.562566,
      "timestamp": "2015-04-15T08:30:49Z",
      "version": 1,
      "changeset": 30230131,
      "user": "Dejokke",
      "uid": 2117603,
      "tags": {
        "amenity": "bench",
        "name": "Bench"
      }
    },
    {
      "type": "node",
      "id": 3457012493,
      "lat": 51.1172274,
      "lon": 4.5501308,
      "timestamp": "2020-03-26T10:48:13Z",
      "version": 2,
      "changeset": 82655847,
      "user": "sh85",
      "uid": 1721850,
      "tags": {
        "amenity": "bench"
      }
    },
    {
      "type": "node",
      "id": 3533093311,
      "lat": 51.0755621,
      "lon": 4.490919,
      "timestamp": "2021-05-01T09:28:49Z",
      "version": 2,
      "changeset": 103946485,
      "user": "staf",
      "uid": 377797,
      "tags": {
        "board_type": "history",
        "check_date": "2021-05-01",
        "description": "De belegering en het einde van het fort",
        "description:en": "The siege and the demise of the fort",
        "description:fr": "La si√®ge er la fin du fortin",
        "information": "board",
        "tourism": "information"
      }
    },
    {
      "type": "node",
      "id": 3533093312,
      "lat": 51.0755952,
      "lon": 4.4907868,
      "timestamp": "2015-05-21T10:58:15Z",
      "version": 1,
      "changeset": 31339779,
      "user": "escada",
      "uid": 436365,
      "tags": {
        "board_type": "notice",
        "description": "Luk Van Soom: Waarheen en dan terug: over de artist en het beeld",
        "information": "board",
        "note": "has a QR-code",
        "tourism": "information"
      }
    },
    {
      "type": "node",
      "id": 3535621724,
      "lat": 51.0757258,
      "lon": 4.5031417,
      "timestamp": "2015-05-22T10:54:16Z",
      "version": 1,
      "changeset": 31368139,
      "user": "escada",
      "uid": 436365,
      "tags": {
        "board_type": "nature",
        "description": "Goorbosbeekvallei",
        "information": "board",
        "operator": "Natuurpunt",
        "tourism": "information"
      }
    },
    {
      "type": "node",
      "id": 3535621732,
      "lat": 51.0777608,
      "lon": 4.5003953,
      "timestamp": "2021-05-01T09:53:16Z",
      "version": 2,
      "changeset": 103946485,
      "user": "staf",
      "uid": 377797,
      "tags": {
        "board_type": "nature",
        "check_date": "2021-05-01",
        "description": "Goorbosbeekvallei",
        "information": "board",
        "operator": "Natuurpunt",
        "tourism": "information"
      }
    },
    {
      "type": "node",
      "id": 3655798976,
      "lat": 51.0908729,
      "lon": 4.5010893,
      "timestamp": "2015-07-17T17:53:11Z",
      "version": 1,
      "changeset": 32703148,
      "user": "escada",
      "uid": 436365,
      "tags": {
        "amenity": "bench",
        "backrest": "yes"
      }
    },
    {
      "type": "node",
      "id": 3655798978,
      "lat": 51.0908796,
      "lon": 4.5010619,
      "timestamp": "2015-07-17T17:53:11Z",
      "version": 1,
      "changeset": 32703148,
      "user": "escada",
      "uid": 436365,
      "tags": {
        "amenity": "bench",
        "backrest": "yes"
      }
    },
    {
      "type": "node",
      "id": 3655798981,
      "lat": 51.090922,
      "lon": 4.5014037,
      "timestamp": "2015-07-17T17:53:11Z",
      "version": 1,
      "changeset": 32703148,
      "user": "escada",
      "uid": 436365,
      "tags": {
        "amenity": "bench",
        "backrest": "yes"
      }
    },
    {
      "type": "node",
      "id": 3655798984,
      "lat": 51.0909447,
      "lon": 4.5014262,
      "timestamp": "2015-07-17T17:53:11Z",
      "version": 1,
      "changeset": 32703148,
      "user": "escada",
      "uid": 436365,
      "tags": {
        "amenity": "bench",
        "backrest": "yes"
      }
    },
    {
      "type": "node",
      "id": 3655799007,
      "lat": 51.0911072,
      "lon": 4.5013608,
      "timestamp": "2015-07-17T17:53:11Z",
      "version": 1,
      "changeset": 32703148,
      "user": "escada",
      "uid": 436365,
      "tags": {
        "amenity": "bench",
        "backrest": "yes"
      }
    },
    {
      "type": "node",
      "id": 3655799009,
      "lat": 51.091125,
      "lon": 4.5013217,
      "timestamp": "2015-07-17T17:53:11Z",
      "version": 1,
      "changeset": 32703148,
      "user": "escada",
      "uid": 436365,
      "tags": {
        "amenity": "bench",
        "backrest": "yes"
      }
    },
    {
      "type": "node",
      "id": 3675424687,
      "lat": 51.100111,
      "lon": 4.5115421,
      "timestamp": "2015-07-31T19:21:00Z",
      "version": 1,
      "changeset": 33016256,
      "user": "escada",
      "uid": 436365,
      "tags": {
        "description": "Foto's van de omgeving en een kaart van het Neteland gebied",
        "information": "board",
        "tourism": "information"
      }
    },
    {
      "type": "node",
      "id": 3953000022,
      "lat": 51.1218978,
      "lon": 4.4887183,
      "timestamp": "2016-01-18T04:49:07Z",
      "version": 1,
      "changeset": 36648614,
      "user": "escada",
      "uid": 436365,
      "tags": {
        "amenity": "bench",
        "backrest": "yes"
      }
    },
    {
      "type": "node",
      "id": 3953000023,
      "lat": 51.1219052,
      "lon": 4.4888152,
      "timestamp": "2016-01-18T04:49:07Z",
      "version": 1,
      "changeset": 36648614,
      "user": "escada",
      "uid": 436365,
      "tags": {
        "amenity": "bench",
        "backrest": "yes"
      }
    },
    {
      "type": "node",
      "id": 3954169344,
      "lat": 51.121683,
      "lon": 4.4953658,
      "timestamp": "2016-01-18T20:13:50Z",
      "version": 1,
      "changeset": 36666776,
      "user": "escada",
      "uid": 436365,
      "tags": {
        "amenity": "bench",
        "backrest": "yes"
      }
    },
    {
      "type": "node",
      "id": 3954169346,
      "lat": 51.121695,
      "lon": 4.4954195,
      "timestamp": "2016-01-18T20:13:50Z",
      "version": 1,
      "changeset": 36666776,
      "user": "escada",
      "uid": 436365,
      "tags": {
        "amenity": "bench",
        "backrest": "yes"
      }
    },
    {
      "type": "node",
      "id": 3954169347,
      "lat": 51.1217032,
      "lon": 4.4954624,
      "timestamp": "2016-01-18T20:13:50Z",
      "version": 1,
      "changeset": 36666776,
      "user": "escada",
      "uid": 436365,
      "tags": {
        "amenity": "bench",
        "backrest": "yes"
      }
    },
    {
      "type": "node",
      "id": 3988681996,
      "lat": 51.0717028,
      "lon": 4.5391107,
      "timestamp": "2016-04-08T21:13:40Z",
      "version": 2,
      "changeset": 38416820,
      "user": "escada",
      "uid": 436365,
      "tags": {
        "leisure": "picnic_table"
      }
    },
    {
      "type": "node",
      "id": 3988682000,
      "lat": 51.0719927,
      "lon": 4.5388396,
      "timestamp": "2016-02-04T20:15:33Z",
      "version": 1,
      "changeset": 37007177,
      "user": "escada",
      "uid": 436365,
      "tags": {
        "amenity": "bench",
        "backrest": "yes"
      }
    },
    {
      "type": "node",
      "id": 4108498475,
      "lat": 51.0717209,
      "lon": 4.5397207,
      "timestamp": "2016-04-08T21:13:36Z",
      "version": 1,
      "changeset": 38416820,
      "user": "escada",
      "uid": 436365,
      "tags": {
        "board_type": "nature",
        "information": "board",
        "name": "Welkom in de Hondsbossen",
        "operator": "Natuurpunt",
        "tourism": "information"
      }
    },
    {
      "type": "node",
      "id": 4108499001,
      "lat": 51.0717521,
      "lon": 4.5395235,
      "timestamp": "2016-04-08T21:13:37Z",
      "version": 1,
      "changeset": 38416820,
      "user": "escada",
      "uid": 436365,
      "tags": {
        "board_type": "nature",
        "information": "board",
        "operator": "Natuurpunt",
        "tourism": "information"
      }
    },
    {
      "type": "node",
      "id": 4704079193,
      "lat": 51.0980472,
      "lon": 4.5019219,
      "timestamp": "2017-02-24T19:05:28Z",
      "version": 1,
      "changeset": 46376254,
      "user": "philippec",
      "uid": 76884,
      "tags": {
        "amenity": "drinking_water",
        "mapillary": "https://www.mapillary.com/app/?lat=51.09805872926239&lng=4.501619834023018&z=17&pKey=y9d3eUBrKjtBXuY_N3T_Tg&focus=photo"
      }
    },
    {
      "type": "node",
      "id": 4704079194,
      "lat": 51.0981334,
      "lon": 4.5019205,
      "timestamp": "2017-02-24T19:05:28Z",
      "version": 1,
      "changeset": 46376254,
      "user": "philippec",
      "uid": 76884,
      "tags": {
        "amenity": "drinking_water",
        "mapillary": "https://www.mapillary.com/app/?lat=51.09796861785833&lng=4.501988514260347&z=17&pKey=oJBeqB-R-rHdUCEAePoNZQ&focus=photo&x=0.5095650398785165&y=0.4339923439254613&zoom=0"
      }
    },
    {
      "type": "node",
      "id": 4704079202,
      "lat": 51.097307,
      "lon": 4.5036971,
      "timestamp": "2017-02-24T19:05:28Z",
      "version": 1,
      "changeset": 46376254,
      "user": "philippec",
      "uid": 76884,
      "tags": {
        "amenity": "drinking_water",
        "mapillary": "https://www.mapillary.com/app/?lat=51.097223536187585&lng=4.503623529812103&z=17&pKey=t7P5zNgohkbmJFibCgHGoA&focus=photo&x=0.4866532116818303&y=0.3844579787877691&zoom=0"
      }
    },
    {
      "type": "node",
      "id": 4813448315,
      "lat": 51.1225754,
      "lon": 4.5058562,
      "timestamp": "2020-07-09T14:40:30Z",
      "version": 2,
      "changeset": 87771307,
      "user": "philippec",
      "uid": 76884,
      "tags": {
        "amenity": "drinking_water",
        "in_cemetery": "yes",
        "stateofrepair": "ok"
      }
    },
    {
      "type": "node",
      "id": 4813448316,
      "lat": 51.1224747,
      "lon": 4.5075936,
      "timestamp": "2020-07-09T14:40:30Z",
      "version": 2,
      "changeset": 87771307,
      "user": "philippec",
      "uid": 76884,
      "tags": {
        "amenity": "drinking_water",
        "in_cemetery": "yes",
        "stateofrepair": "ok"
      }
    },
    {
      "type": "node",
      "id": 4906479408,
      "lat": 51.0892351,
      "lon": 4.4978467,
      "timestamp": "2017-06-09T19:07:04Z",
      "version": 1,
      "changeset": 49405298,
      "user": "escada",
      "uid": 436365,
      "tags": {
        "leisure": "picnic_table"
      }
    },
    {
      "type": "node",
      "id": 5028009655,
      "lat": 51.0752289,
      "lon": 4.4923162,
      "timestamp": "2017-08-11T08:35:13Z",
      "version": 1,
      "changeset": 51025278,
      "user": "Willem1982",
      "uid": 2306403,
      "tags": {
        "access": "customers",
        "amenity": "toilets",
        "toilets:disposal": "flush",
        "unisex": "yes"
      }
    },
    {
      "type": "node",
      "id": 5028009656,
      "lat": 51.0748514,
      "lon": 4.4916569,
      "timestamp": "2017-08-11T08:35:13Z",
      "version": 1,
      "changeset": 51025278,
      "user": "Willem1982",
      "uid": 2306403,
      "tags": {
        "access": "customers",
        "amenity": "toilets",
        "toilets:disposal": "flush"
      }
    },
    {
      "type": "node",
      "id": 5112795538,
      "lat": 51.080786,
      "lon": 4.490265,
      "timestamp": "2017-09-18T11:06:43Z",
      "version": 1,
      "changeset": 52141090,
      "user": "Willem1982",
      "uid": 2306403,
      "tags": {
        "amenity": "bench"
      }
    },
    {
      "type": "node",
      "id": 5471224170,
      "lat": 51.105266,
      "lon": 4.5696237,
      "timestamp": "2018-10-01T20:04:30Z",
      "version": 2,
      "changeset": 63105694,
      "user": "Traildino",
      "uid": 716637,
      "tags": {
        "leisure": "picnic_table",
        "tourism": "picnic_site"
      }
    },
    {
      "type": "node",
      "id": 6383136455,
      "lat": 51.0791601,
      "lon": 4.4874897,
      "timestamp": "2019-04-04T11:09:10Z",
      "version": 1,
      "changeset": 68877333,
      "user": "Willem1982",
      "uid": 2306403,
      "tags": {
        "amenity": "bench",
        "backrest": "yes",
        "material": "wood"
      }
    },
    {
      "type": "node",
      "id": 6383136457,
      "lat": 51.0793929,
      "lon": 4.4894479,
      "timestamp": "2019-04-04T11:09:10Z",
      "version": 1,
      "changeset": 68877333,
      "user": "Willem1982",
      "uid": 2306403,
      "tags": {
        "amenity": "bench",
        "backrest": "yes",
        "material": "wood"
      }
    },
    {
      "type": "node",
      "id": 6478856095,
      "lat": 51.0817037,
      "lon": 4.4932197,
      "timestamp": "2021-05-04T15:25:55Z",
      "version": 2,
      "changeset": 104133159,
      "user": "pointseven",
      "uid": 4355310,
      "tags": {
        "amenity": "bench",
        "backrest": "yes",
        "material": "wood",
        "seats": "3"
      }
    },
    {
      "type": "node",
      "id": 6478856096,
      "lat": 51.0788957,
      "lon": 4.4905819,
      "timestamp": "2020-04-18T15:30:39Z",
      "version": 2,
      "changeset": 83746910,
      "user": "PeeGee50",
      "uid": 11035016,
      "tags": {
        "amenity": "bench",
        "backrest": "no",
        "material": "wood",
        "seats": "12"
      }
    },
    {
      "type": "node",
      "id": 7408135276,
      "lat": 51.0785726,
      "lon": 4.4964647,
      "timestamp": "2020-04-15T21:04:02Z",
      "version": 1,
      "changeset": 83612640,
      "user": "PeeGee50",
      "uid": 11035016,
      "tags": {
        "board_type": "nature",
        "information": "board",
        "name": "Infobord",
        "operator": "Natuurpunt",
        "tourism": "information"
      }
    },
    {
      "type": "node",
      "id": 8408932596,
      "lat": 51.0716484,
      "lon": 4.5462491,
      "timestamp": "2021-02-09T15:44:47Z",
      "version": 1,
      "changeset": 98987081,
      "user": "cybbts",
      "uid": 142984,
      "tags": {
        "amenity": "bench"
      }
    },
    {
      "type": "node",
      "id": 8408932597,
      "lat": 51.0732419,
      "lon": 4.5450032,
      "timestamp": "2021-02-09T15:44:47Z",
      "version": 1,
      "changeset": 98987081,
      "user": "cybbts",
      "uid": 142984,
      "tags": {
        "amenity": "bench"
      }
    },
    {
      "type": "node",
      "id": 8441552739,
      "lat": 51.1208384,
      "lon": 4.4919055,
      "timestamp": "2021-02-20T21:12:27Z",
      "version": 1,
      "changeset": 99660337,
      "user": "Pieter Vander Vennet",
      "uid": 3818858,
      "tags": {
        "amenity": "bench"
      }
    },
    {
      "type": "node",
      "id": 8568812753,
      "lat": 51.0986555,
      "lon": 4.491449,
      "timestamp": "2021-03-28T10:55:38Z",
      "version": 1,
      "changeset": 101868179,
      "user": "rriemann",
      "uid": 2066198,
      "tags": {
        "leisure": "picnic_table"
      }
    },
    {
      "type": "way",
      "id": 24015280,
      "timestamp": "2021-11-29T07:22:58Z",
      "version": 5,
      "changeset": 114348402,
      "user": "TuxSan",
      "uid": 59641,
      "nodes": [
        260428286,
        260428287,
        260428288,
        2054893244,
        2054893243,
        8089658613,
        260428289,
        260428290,
        260428292,
        2054893245,
        260428300,
        2054893246,
        2054893247,
        260428293,
        260428294,
        260428295,
        260428298,
        260428299,
        260428286
      ],
      "tags": {
        "access": "private",
        "amenity": "parking",
        "parking": "surface",
        "surface": "asphalt"
      }
    },
    {
      "type": "way",
      "id": 26190694,
      "timestamp": "2018-10-31T18:44:49Z",
      "version": 4,
      "changeset": 64056318,
      "user": "koninklijke",
      "uid": 2029979,
      "nodes": [
        286794496,
        286794497,
        286794498,
        286794499,
        1078521984,
        286794496
      ],
      "tags": {
        "amenity": "parking",
        "capacity": "150",
        "capacity:disabled": "4",
        "park_ride": "yes",
        "surface": "asphalt"
      }
    },
    {
      "type": "way",
      "id": 26418108,
      "timestamp": "2017-06-17T07:49:35Z",
      "version": 2,
      "changeset": 49608733,
      "user": "rowers2",
      "uid": 2445224,
      "nodes": [
        289447706,
        289447707,
        289447708,
        289447709,
        289447706
      ],
      "tags": {
        "amenity": "parking"
      }
    },
    {
      "type": "way",
      "id": 48541210,
      "timestamp": "2017-05-30T09:40:57Z",
      "version": 3,
      "changeset": 49098521,
      "user": "Jakka",
      "uid": 2403313,
      "nodes": [
        616654509,
        616654510,
        616654511,
        4885300534,
        4885300533,
        616654512,
        616654513,
        616654514,
        616654509
      ],
      "tags": {
        "access": "customers",
        "amenity": "parking"
      }
    },
    {
      "type": "way",
      "id": 49185348,
      "timestamp": "2019-03-11T14:20:10Z",
      "version": 4,
      "changeset": 68024146,
      "user": "A127",
      "uid": 9374269,
      "nodes": [
        623935314,
        6331096717,
        6331096716,
        2515519095,
        2515519096,
        2515519084,
        2515519086,
        623935316,
        623935317,
        623935319,
        2515519183,
        2515519181,
        623935314
      ],
      "tags": {
        "amenity": "parking",
        "name": "Parking Station Duffel"
      }
    },
    {
      "type": "way",
      "id": 61728201,
      "timestamp": "2016-06-14T10:01:04Z",
      "version": 2,
      "changeset": 40013810,
      "user": "lodde1949",
      "uid": 138772,
      "nodes": [
        769184242,
        769184246,
        4242651377,
        4242651349,
        769184242
      ],
      "tags": {
        "amenity": "parking"
      }
    },
    {
      "type": "way",
      "id": 69630827,
      "timestamp": "2010-07-25T17:43:50Z",
      "version": 1,
      "changeset": 5314363,
      "user": "Filip",
      "uid": 10752,
      "nodes": [
        833187972,
        833187979,
        833187968,
        833187984,
        833187972
      ],
      "tags": {
        "amenity": "parking"
      }
    },
    {
      "type": "way",
      "id": 93306203,
      "timestamp": "2018-01-21T15:05:39Z",
      "version": 2,
      "changeset": 55629907,
      "user": "JanFi",
      "uid": 672253,
      "nodes": [
        1081825239,
        1081826625,
        5352747692,
        1081826140,
        1081825620,
        1081826331,
        1081824865,
        1081825239
      ],
      "tags": {
        "amenity": "parking"
      }
    },
    {
      "type": "way",
      "id": 93322324,
      "timestamp": "2011-01-04T12:39:18Z",
      "version": 1,
      "changeset": 6860089,
      "user": "Toi",
      "uid": 8323,
      "nodes": [
        136929434,
        1082003576,
        970483684,
        136929438,
        136929436,
        136929435,
        1081998779,
        136929434
      ],
      "tags": {
        "amenity": "parking"
      }
    },
    {
      "type": "way",
      "id": 93353068,
      "timestamp": "2011-01-04T16:45:26Z",
      "version": 1,
      "changeset": 6862784,
      "user": "Toi",
      "uid": 8323,
      "nodes": [
        1082417360,
        1082417489,
        1082417621,
        1082417379,
        1082417360
      ],
      "tags": {
        "amenity": "parking"
      }
    },
    {
      "type": "way",
      "id": 97942520,
      "timestamp": "2011-02-03T10:10:02Z",
      "version": 1,
      "changeset": 7172585,
      "user": "lodde1949",
      "uid": 138772,
      "nodes": [
        1133612537,
        1133612588,
        1133612673,
        1133612871,
        1133612525,
        1133612628,
        1133612537
      ],
      "tags": {
        "amenity": "parking"
      }
    },
    {
      "type": "way",
      "id": 118245265,
      "timestamp": "2021-05-01T10:48:07Z",
      "version": 4,
      "changeset": 103950952,
      "user": "staf",
      "uid": 377797,
      "nodes": [
        1330177926,
        1330177923,
        1330177957,
        1330177938,
        1330177965,
        1330177952,
        1330177971,
        1330177928,
        1330177926
      ],
      "tags": {
        "access": "yes",
        "amenity": "parking",
        "fee": "no",
        "name": "Gustaaf van der Lindenplein",
        "parking": "surface"
      }
    },
    {
      "type": "way",
      "id": 144932219,
      "timestamp": "2012-01-09T21:45:08Z",
      "version": 1,
      "changeset": 10346537,
      "user": "lodde1949",
      "uid": 138772,
      "nodes": [
        1584093041,
        1584093045,
        1584093047,
        1584093048,
        1584093050,
        1584093051,
        1584093052,
        1584093053,
        1584093058,
        1584093057,
        1584093056,
        1584093055,
        1584093054,
        1584093044,
        1584093043,
        1584093042,
        1584093040,
        1584093041
      ],
      "tags": {
        "amenity": "parking",
        "parking": "surface"
      }
    },
    {
      "type": "way",
      "id": 165119821,
      "timestamp": "2012-05-27T00:36:37Z",
      "version": 1,
      "changeset": 11711674,
      "user": "SPQRobin",
      "uid": 31573,
      "nodes": [
        1766956495,
        1766956490,
        1766956498,
        1766956491,
        1766956495
      ],
      "tags": {
        "amenity": "parking"
      }
    },
    {
      "type": "way",
      "id": 168563251,
      "timestamp": "2015-09-30T22:18:05Z",
      "version": 4,
      "changeset": 34357288,
      "user": "henke54",
      "uid": 71942,
      "nodes": [
        1798088763,
        1798088731,
        1798088724,
        1798088716,
        1798088733,
        1798088739,
        1798088734,
        1798088762,
        1798088763
      ],
      "tags": {
        "amenity": "parking",
        "fee": "no",
        "parking": "surface"
      }
    },
    {
      "type": "way",
      "id": 180663086,
      "timestamp": "2012-09-12T07:32:26Z",
      "version": 1,
      "changeset": 13078939,
      "user": "Polyglot",
      "uid": 15188,
      "nodes": [
        1911086436,
        1911086435
      ],
      "tags": {
        "amenity": "bench"
      }
    },
    {
      "type": "way",
      "id": 195953821,
      "timestamp": "2012-12-12T15:40:26Z",
      "version": 1,
      "changeset": 14250426,
      "user": "D!zzy",
      "uid": 586389,
      "nodes": [
        2063333703,
        2063333696,
        2063333713,
        2063333701,
        2063333686,
        2063333681,
        2063333705,
        2063333700,
        2063333706,
        2063333711,
        2063333719,
        2063333703
      ],
      "tags": {
        "amenity": "parking",
        "parking": "surface"
      }
    },
    {
      "type": "way",
      "id": 196018561,
      "timestamp": "2012-12-12T22:19:40Z",
      "version": 1,
      "changeset": 14254512,
      "user": "D!zzy",
      "uid": 586389,
      "nodes": [
        2063902098,
        2063902089
      ],
      "tags": {
        "amenity": "bench"
      }
    },
    {
      "type": "way",
      "id": 196110654,
      "timestamp": "2012-12-13T13:24:31Z",
      "version": 1,
      "changeset": 14260067,
      "user": "D!zzy",
      "uid": 586389,
      "nodes": [
        2064776633,
        2064776638,
        2064776640,
        2064776646,
        2064776649,
        2064776648,
        2064776633
      ],
      "tags": {
        "amenity": "parking",
        "surface": "paved"
      }
    },
    {
      "type": "way",
      "id": 230140155,
      "timestamp": "2014-02-04T06:19:51Z",
      "version": 2,
      "changeset": 20366045,
      "user": "Polyglot",
      "uid": 15188,
      "nodes": [
        2386676065,
        2386676062
      ],
      "tags": {
        "amenity": "bench"
      }
    },
    {
      "type": "way",
      "id": 231443233,
      "timestamp": "2015-05-18T05:50:03Z",
      "version": 2,
      "changeset": 31245203,
      "user": "Polyglot",
      "uid": 15188,
      "nodes": [
        2398315839,
        2398315838
      ],
      "tags": {
        "amenity": "bench"
      }
    },
    {
      "type": "way",
      "id": 231443234,
      "timestamp": "2015-05-18T05:50:03Z",
      "version": 2,
      "changeset": 31245203,
      "user": "Polyglot",
      "uid": 15188,
      "nodes": [
        2398315847,
        2398315846
      ],
      "tags": {
        "amenity": "bench"
      }
    },
    {
      "type": "way",
      "id": 231945580,
      "timestamp": "2015-09-30T22:18:06Z",
      "version": 2,
      "changeset": 34357288,
      "user": "henke54",
      "uid": 71942,
      "nodes": [
        2402667536,
        2402667531,
        3766354064,
        2402667546,
        2402667550,
        3766354068,
        3766354065,
        2402667536
      ],
      "tags": {
        "amenity": "parking"
      }
    },
    {
      "type": "way",
      "id": 231945581,
      "timestamp": "2013-07-31T17:09:17Z",
      "version": 1,
      "changeset": 17168883,
      "user": "D!zzy",
      "uid": 586389,
      "nodes": [
        2402667544,
        2402667548,
        2402667542,
        2402667538,
        2402667544
      ],
      "tags": {
        "amenity": "parking"
      }
    },
    {
      "type": "way",
      "id": 232323807,
      "timestamp": "2013-08-04T12:35:21Z",
      "version": 1,
      "changeset": 17214371,
      "user": "D!zzy",
      "uid": 586389,
      "nodes": [
        2406839861,
        2406839897,
        2406839934,
        2406839913,
        2406839861
      ],
      "tags": {
        "amenity": "parking"
      }
    },
    {
      "type": "way",
      "id": 244212031,
      "timestamp": "2013-10-31T20:06:54Z",
      "version": 1,
      "changeset": 18641345,
      "user": "escada",
      "uid": 436365,
      "nodes": [
        2515518976,
        2515518980,
        2515518978,
        2515518974,
        2515518976
      ],
      "tags": {
        "amenity": "parking",
        "fee": "no",
        "parking": "surface"
      }
    },
    {
      "type": "way",
      "id": 265397968,
      "timestamp": "2014-03-10T11:32:55Z",
      "version": 1,
      "changeset": 21023171,
      "user": "escada",
      "uid": 436365,
      "nodes": [
        2710689705,
        2710689702,
        2710689701,
        2710689690,
        2710689686,
        1080562321,
        1080562136,
        2710689688,
        2710689692,
        2710689700,
        2710689707,
        2710689703,
        2710689706,
        2710689705
      ],
      "tags": {
        "access": "permissive",
        "amenity": "parking",
        "fee": "no",
        "parking": "surface"
      }
    },
    {
      "type": "way",
      "id": 299805215,
      "timestamp": "2014-08-24T09:26:44Z",
      "version": 1,
      "changeset": 24973766,
      "user": "ponipino",
      "uid": 121976,
      "nodes": [
        3038892862,
        3038892863,
        3038892864,
        3038892865,
        3038892866,
        3038892867,
        3038892862
      ],
      "tags": {
        "amenity": "parking"
      }
    },
    {
      "type": "way",
      "id": 302388151,
      "timestamp": "2014-09-08T10:42:17Z",
      "version": 1,
      "changeset": 25304655,
      "user": "escada",
      "uid": 436365,
      "nodes": [
        3066457872,
        3066457867,
        3066457868,
        3066457863,
        3066457851,
        3066457857,
        3066457858,
        3066457855,
        3066457860,
        3066457866,
        3066457869,
        3066457876,
        3066457874,
        3066457872
      ],
      "tags": {
        "access": "customers",
        "amenity": "parking",
        "fee": "no",
        "operator": "Lage Polder",
        "parking": "surface"
      }
    },
    {
      "type": "way",
      "id": 346616505,
      "timestamp": "2015-05-20T19:15:03Z",
      "version": 1,
      "changeset": 31324304,
      "user": "escada",
      "uid": 436365,
      "nodes": [
        3531306302,
        3531306304
      ],
      "tags": {
        "amenity": "bench"
      }
    },
    {
      "type": "way",
      "id": 346616510,
      "timestamp": "2021-05-01T09:28:19Z",
      "version": 2,
      "changeset": 103948500,
      "user": "staf",
      "uid": 377797,
      "nodes": [
        3531297585,
        3531306297,
        3531306296,
        3531297586,
        3531297587,
        3531297585
      ],
      "tags": {
        "access": "yes",
        "amenity": "parking",
        "fee": "no",
        "parking": "surface"
      }
    },
    {
      "type": "way",
      "id": 392151506,
      "timestamp": "2016-01-18T20:13:55Z",
      "version": 1,
      "changeset": 36666776,
      "user": "escada",
      "uid": 436365,
      "nodes": [
        3954170087,
        3954170083,
        3954170084,
        3954170088,
        3954170087
      ],
      "tags": {
        "amenity": "parking",
        "fee": "no",
        "parking": "surface"
      }
    },
    {
      "type": "way",
      "id": 447869748,
      "timestamp": "2020-10-02T16:04:51Z",
      "version": 2,
      "changeset": 91874125,
      "user": "JanFi",
      "uid": 672253,
      "nodes": [
        662937828,
        1120074331,
        1120074178,
        1120073702,
        4449269293,
        1120075068,
        7966707353,
        7966707354,
        7966707355,
        662937828
      ],
      "tags": {
        "amenity": "parking"
      }
    },
    {
      "type": "way",
      "id": 470028074,
      "timestamp": "2017-01-29T20:35:32Z",
      "version": 1,
      "changeset": 45631634,
      "user": "Herbert Baerten",
      "uid": 5220779,
      "nodes": [
        4642830776,
        4642830777,
        4642830778,
        4642830779,
        4642830776
      ],
      "tags": {
        "amenity": "parking"
      }
    },
    {
      "type": "way",
      "id": 470028075,
      "timestamp": "2017-01-29T20:35:32Z",
      "version": 1,
      "changeset": 45631634,
      "user": "Herbert Baerten",
      "uid": 5220779,
      "nodes": [
        4642830780,
        4642830781,
        4642830782,
        4642830783,
        4642830780
      ],
      "tags": {
        "amenity": "parking"
      }
    },
    {
      "type": "way",
      "id": 499367120,
      "timestamp": "2017-06-09T19:07:04Z",
      "version": 1,
      "changeset": 49405298,
      "user": "escada",
      "uid": 436365,
      "nodes": [
        1135409930,
        4906479403,
        4906479402,
        4906479401,
        4906479400,
        4906479399,
        4906479398,
        1135409930
      ],
      "tags": {
        "amenity": "parking",
        "fee": "no",
        "parking": "surface"
      }
    },
    {
      "type": "way",
      "id": 512231352,
      "timestamp": "2017-08-02T07:24:16Z",
      "version": 1,
      "changeset": 50772559,
      "user": "whu2880",
      "uid": 678625,
      "nodes": [
        5004360238,
        5008944189,
        5008944190,
        5008944191,
        5004360238
      ],
      "tags": {
        "amenity": "parking"
      }
    },
    {
      "type": "way",
      "id": 512231354,
      "timestamp": "2017-08-02T07:24:16Z",
      "version": 1,
      "changeset": 50772559,
      "user": "whu2880",
      "uid": 678625,
      "nodes": [
        5008944192,
        5008944193,
        5008944194,
        5008944195,
        5008944196,
        5008944197,
        5008944192
      ],
      "tags": {
        "amenity": "parking"
      }
    },
    {
      "type": "way",
      "id": 512231363,
      "timestamp": "2017-08-02T07:24:16Z",
      "version": 1,
      "changeset": 50772559,
      "user": "whu2880",
      "uid": 678625,
      "nodes": [
        5008944215,
        5008944216,
        5008944217,
        5008944218,
        5008944215
      ],
      "tags": {
        "amenity": "parking"
      }
    },
    {
      "type": "way",
      "id": 525341608,
      "timestamp": "2017-09-17T10:37:48Z",
      "version": 1,
      "changeset": 52114408,
      "user": "Willem1982",
      "uid": 2306403,
      "nodes": [
        5110805731,
        5110805732,
        5110805733,
        5110805734,
        5110805736,
        5110805731
      ],
      "tags": {
        "building": "yes",
        "leisure": "bird_hide"
      }
    },
    {
      "type": "way",
      "id": 549347389,
      "timestamp": "2017-12-27T14:24:43Z",
      "version": 1,
      "changeset": 54957114,
      "user": "Xaphar",
      "uid": 7352975,
      "nodes": [
        5306523074,
        5306523075,
        5306523076,
        5306523077,
        5306523074
      ],
      "tags": {
        "amenity": "parking"
      }
    },
    {
      "type": "way",
      "id": 549347390,
      "timestamp": "2017-12-27T14:24:43Z",
      "version": 1,
      "changeset": 54957114,
      "user": "Xaphar",
      "uid": 7352975,
      "nodes": [
        5306523078,
        5306523079,
        2316121335,
        5306523080,
        5306523078
      ],
      "tags": {
        "amenity": "parking"
      }
    },
    {
      "type": "way",
      "id": 549347391,
      "timestamp": "2017-12-27T14:24:43Z",
      "version": 1,
      "changeset": 54957114,
      "user": "Xaphar",
      "uid": 7352975,
      "nodes": [
        5306523081,
        5306523082,
        5306523083,
        5306523084,
        5306523081
      ],
      "tags": {
        "amenity": "parking"
      }
    },
    {
      "type": "way",
      "id": 549347393,
      "timestamp": "2017-12-27T14:24:43Z",
      "version": 1,
      "changeset": 54957114,
      "user": "Xaphar",
      "uid": 7352975,
      "nodes": [
        5306523090,
        5306523091,
        5306523092,
        5306523093,
        5306523090
      ],
      "tags": {
        "amenity": "parking"
      }
    },
    {
      "type": "way",
      "id": 549347394,
      "timestamp": "2017-12-27T14:24:43Z",
      "version": 1,
      "changeset": 54957114,
      "user": "Xaphar",
      "uid": 7352975,
      "nodes": [
        5306523094,
        5306523095,
        5306523096,
        5306523097,
        5306523094
      ],
      "tags": {
        "amenity": "parking"
      }
    },
    {
      "type": "way",
      "id": 549349228,
      "timestamp": "2017-12-28T10:56:14Z",
      "version": 3,
      "changeset": 54979584,
      "user": "zors1843",
      "uid": 233248,
      "nodes": [
        5306535093,
        5306535094,
        5306535095,
        5306535096,
        5306535097,
        623723017,
        5306535098,
        5306535099,
        5306535100,
        5306535101,
        5306535102,
        5306535103,
        5306535104,
        5306535105,
        5306535106,
        5306535107,
        5306535108,
        5306535109,
        5306535110,
        5306535111,
        5306535112,
        5306535113,
        5306535114,
        5306535115,
        5306535116,
        5306535117,
        5306535093
      ],
      "tags": {
        "access": "private",
        "amenity": "parking"
      }
    },
    {
      "type": "way",
      "id": 549349229,
      "timestamp": "2017-12-27T14:40:59Z",
      "version": 1,
      "changeset": 54957563,
      "user": "Xaphar",
      "uid": 7352975,
      "nodes": [
        5306535118,
        5306535119,
        5306535120,
        5306537821,
        5306537822,
        5306537823,
        5306535118
      ],
      "tags": {
        "access": "customers",
        "amenity": "parking"
      }
    },
    {
      "type": "way",
      "id": 549567800,
      "timestamp": "2017-12-28T15:08:19Z",
      "version": 1,
      "changeset": 54985654,
      "user": "Xaphar",
      "uid": 7352975,
      "nodes": [
        5308533698,
        5308533699,
        5308533700,
        5308533701,
        5308533702,
        5308533703,
        5308533704,
        5308533705,
        5308533706,
        5308533698
      ],
      "tags": {
        "amenity": "parking"
      }
    },
    {
      "type": "way",
      "id": 549567801,
      "timestamp": "2021-02-20T20:53:29Z",
      "version": 2,
      "changeset": 99659772,
      "user": "Pieter Vander Vennet",
      "uid": 3818858,
      "nodes": [
        5308533707,
        5308533708,
        5308533709,
        5308533710,
        5308533711,
        344237828,
        5308533707
      ],
      "tags": {
        "amenity": "parking"
      }
    },
    {
      "type": "way",
      "id": 549567802,
      "timestamp": "2017-12-28T15:08:19Z",
      "version": 1,
      "changeset": 54985654,
      "user": "Xaphar",
      "uid": 7352975,
      "nodes": [
        5308533713,
        5308533714,
        5308533715,
        5308533716,
        5308533717,
        5308533718,
        5308533719,
        5308533720,
        5308533721,
        5308533713
      ],
      "tags": {
        "amenity": "parking"
      }
    },
    {
      "type": "way",
      "id": 569550731,
      "timestamp": "2018-03-14T07:50:13Z",
      "version": 1,
      "changeset": 57168647,
      "user": "CyFo",
      "uid": 22138,
      "nodes": [
        5477284002,
        5477284001,
        5477284000,
        5477283999,
        5477284002
      ],
      "tags": {
        "amenity": "parking"
      }
    },
    {
      "type": "way",
      "id": 569550735,
      "timestamp": "2018-03-14T07:50:13Z",
      "version": 1,
      "changeset": 57168647,
      "user": "CyFo",
      "uid": 22138,
      "nodes": [
        5477284019,
        5477284018,
        5477284017,
        5477284016,
        5477284019
      ],
      "tags": {
        "amenity": "parking"
      }
    },
    {
      "type": "way",
      "id": 569550736,
      "timestamp": "2018-03-14T07:50:13Z",
      "version": 1,
      "changeset": 57168647,
      "user": "CyFo",
      "uid": 22138,
      "nodes": [
        5477284723,
        5477284722,
        5477284721,
        5477284020,
        5477284723
      ],
      "tags": {
        "amenity": "parking"
      }
    },
    {
      "type": "way",
      "id": 666261437,
      "timestamp": "2019-03-14T13:25:08Z",
      "version": 2,
      "changeset": 68137012,
      "user": "A127",
      "uid": 9374269,
      "nodes": [
        6237685346,
        6337766511,
        6337766515,
        6237685347,
        6237685348,
        6237685349,
        6237685350,
        6237685351,
        6237685352,
        6237685353,
        6237685354,
        6237685355,
        6237685356,
        6237685357,
        6237685358,
        6237685359,
        6237685360,
        6237685346
      ],
      "tags": {
        "access": "customers",
        "amenity": "parking",
        "capacity": "80",
        "operator": "Lidl",
        "parking": "surface",
        "surface": "asphalt"
      }
    },
    {
      "type": "way",
      "id": 666864686,
      "timestamp": "2020-01-28T12:43:39Z",
      "version": 2,
      "changeset": 80199105,
      "user": "A127",
      "uid": 9374269,
      "nodes": [
        6243895407,
        6243895403,
        7166413491,
        7166413494,
        6243895407
      ],
      "tags": {
        "amenity": "parking"
      }
    },
    {
      "type": "way",
      "id": 671596627,
      "timestamp": "2019-02-19T16:45:38Z",
      "version": 1,
      "changeset": 67359789,
      "user": "koninklijke",
      "uid": 2029979,
      "nodes": [
        6289212600,
        6289212601,
        6289212602,
        6289212603,
        6289212604,
        6289212605,
        6289212606,
        6289212607,
        6289212608,
        6289212609,
        6289212610,
        6289212611,
        6289212600
      ],
      "tags": {
        "amenity": "parking"
      }
    },
    {
      "type": "way",
      "id": 706249034,
      "timestamp": "2019-07-22T01:30:01Z",
      "version": 1,
      "changeset": 72495491,
      "user": "koninklijke",
      "uid": 2029979,
      "nodes": [
        6636111191,
        6636111192,
        6636111193,
        6636111194,
        6636111195,
        6636111196,
        6636111197,
        6636111198,
        6636111199,
        6636111200,
        6636111201,
        6636111202,
        6636111203,
        6636111204,
        6636111191
      ],
      "tags": {
        "access": "permissive",
        "amenity": "parking",
        "fee": "no",
        "parking": "surface",
        "surface": "compacted"
      }
    },
    {
      "type": "way",
      "id": 805318544,
      "timestamp": "2020-05-18T10:14:04Z",
      "version": 1,
      "changeset": 85376519,
      "user": "cybbts",
      "uid": 142984,
      "nodes": [
        7531896963,
        7531896967,
        7531896968,
        7531896969,
        7531896966,
        7531896965,
        7531896964,
        7531896963
      ],
      "tags": {
        "amenity": "parking"
      }
    },
    {
      "type": "way",
      "id": 815416332,
      "timestamp": "2021-02-02T15:38:13Z",
      "version": 2,
      "changeset": 98587705,
      "user": "cybbts",
      "uid": 142984,
      "nodes": [
        7615640083,
        7615640082,
        7615640084,
        5673476008,
        5673476007,
        7615640081,
        7615640083
      ],
      "tags": {
        "access": "yes",
        "amenity": "parking",
        "fee": "no",
        "parking": "surface"
      }
    },
    {
      "type": "way",
      "id": 818454685,
      "timestamp": "2020-07-30T09:17:51Z",
      "version": 2,
      "changeset": 88722503,
      "user": "cybbts",
      "uid": 142984,
      "nodes": [
        3009854260,
        4262316814,
        108256323,
        4262316817,
        4262316824,
        3009854257,
        7643494808,
        7643494809,
        7643494814,
        1123316045,
        7643494812,
        7643494813,
        7643494811,
        7643494810,
        7643494815,
        7643494816,
        3009854260
      ],
      "tags": {
        "amenity": "parking",
        "parking": "surface",
        "surface": "gravel"
      }
    },
    {
      "type": "way",
      "id": 902675837,
      "timestamp": "2021-02-01T13:40:34Z",
      "version": 1,
      "changeset": 98515321,
      "user": "cybbts",
      "uid": 142984,
      "nodes": [
        8384061584,
        8384061581,
        8384061582,
        8384061583,
        8384061584
      ],
      "tags": {
        "amenity": "parking"
      }
    },
    {
      "type": "way",
      "id": 905871879,
      "timestamp": "2021-02-21T10:50:09Z",
      "version": 2,
      "changeset": 99675006,
      "user": "PeeGee50",
      "uid": 11035016,
      "nodes": [
        1132481886,
        8412389471,
        291000421,
        8442434262,
        8412389472,
        8412389473,
        8412389474,
        1132555875,
        8412389475,
        8412389476,
        8412389477,
        8412389478,
        8412389479,
        8412389480,
        8412389481,
        8412389482,
        8412389483,
        8412389499,
        8412389484,
        8412389498,
        8412389497,
        8412389496,
        8412389485,
        8412389486,
        8412389487,
        8412389495,
        8412389494,
        3766353328,
        8412389488,
        648300641,
        8412389489,
        8412389490,
        8412389492,
        8412389491,
        1132481886
      ],
      "tags": {
        "leisure": "nature_reserve",
        "name": "Goorbosbeekvallei",
        "operator": "Natuurpunt"
      }
    },
    {
      "type": "way",
      "id": 926253468,
      "timestamp": "2021-04-05T14:32:18Z",
      "version": 1,
      "changeset": 102341191,
      "user": "VERMOESEN",
      "uid": 13005050,
      "nodes": [
        8595568463,
        8595568464,
        8595568465,
        8595568466,
        8595568463
      ],
      "tags": {
        "access": "private",
        "amenity": "parking",
        "capacity": "6",
        "parking": "surface",
        "surface": "paved"
      }
    },
    {
      "type": "way",
      "id": 926253483,
      "timestamp": "2021-04-05T14:32:18Z",
      "version": 1,
      "changeset": 102341191,
      "user": "VERMOESEN",
      "uid": 13005050,
      "nodes": [
        8595568509,
        8595568510,
        8595568511,
        8595568512,
        8595568509
      ],
      "tags": {
        "amenity": "parking"
      }
    },
    {
      "type": "way",
      "id": 934027714,
      "timestamp": "2021-04-22T19:42:54Z",
      "version": 1,
      "changeset": 103434201,
      "user": "chvp",
      "uid": 9095231,
      "nodes": [
        8656770395,
        8656770396,
        8656770397,
        8656770398,
        8656770395
      ],
      "tags": {
        "amenity": "parking",
        "fee": "no"
      }
    },
    {
      "type": "node",
      "id": 260428287,
      "lat": 51.06869,
      "lon": 4.5004303
    },
    {
      "type": "node",
      "id": 260428288,
      "lat": 51.0683615,
      "lon": 4.5011906
    },
    {
      "type": "node",
      "id": 260428289,
      "lat": 51.0684631,
      "lon": 4.5017897
    },
    {
      "type": "node",
      "id": 260428290,
      "lat": 51.0686094,
      "lon": 4.5016081
    },
    {
      "type": "node",
      "id": 260428292,
      "lat": 51.0684461,
      "lon": 4.5012545
    },
    {
      "type": "node",
      "id": 260428300,
      "lat": 51.0686344,
      "lon": 4.5011528
    },
    {
      "type": "node",
      "id": 2054893243,
      "lat": 51.0683277,
      "lon": 4.5013791
    },
    {
      "type": "node",
      "id": 2054893244,
      "lat": 51.0683207,
      "lon": 4.501345
    },
    {
      "type": "node",
      "id": 2054893245,
      "lat": 51.0684881,
      "lon": 4.5011725
    },
    {
      "type": "node",
      "id": 2054893246,
      "lat": 51.068669,
      "lon": 4.5017103
    },
    {
      "type": "node",
      "id": 8089658613,
      "lat": 51.0682894,
      "lon": 4.5014287
    },
    {
      "type": "node",
      "id": 8595568511,
      "lat": 51.0687392,
      "lon": 4.5018859
    },
    {
      "type": "node",
      "id": 8595568512,
      "lat": 51.0687353,
      "lon": 4.5018208
    },
    {
      "type": "node",
      "id": 5110805731,
      "lat": 51.0791104,
      "lon": 4.4872391
    },
    {
      "type": "node",
      "id": 5110805732,
      "lat": 51.0791338,
      "lon": 4.487225
    },
    {
      "type": "node",
      "id": 5110805733,
      "lat": 51.0791594,
      "lon": 4.487271
    },
    {
      "type": "node",
      "id": 5110805734,
      "lat": 51.0791527,
      "lon": 4.487317
    },
    {
      "type": "node",
      "id": 5110805736,
      "lat": 51.0791194,
      "lon": 4.4872557
    },
    {
      "type": "node",
      "id": 3531297585,
      "lat": 51.0757278,
      "lon": 4.4903387
    },
    {
      "type": "node",
      "id": 3531297586,
      "lat": 51.0757318,
      "lon": 4.4909659
    },
    {
      "type": "node",
      "id": 3531297587,
      "lat": 51.0757437,
      "lon": 4.4908493
    },
    {
      "type": "node",
      "id": 3531306296,
      "lat": 51.0760393,
      "lon": 4.4910548
    },
    {
      "type": "node",
      "id": 3531306297,
      "lat": 51.0760965,
      "lon": 4.4905336
    },
    {
      "type": "node",
      "id": 3531306302,
      "lat": 51.0772048,
      "lon": 4.4903069
    },
    {
      "type": "node",
      "id": 3531306304,
      "lat": 51.0772123,
      "lon": 4.4903563
    },
    {
      "type": "node",
      "id": 260428286,
      "lat": 51.0691589,
      "lon": 4.5008399
    },
    {
      "type": "node",
      "id": 260428293,
      "lat": 51.0691289,
      "lon": 4.501111
    },
    {
      "type": "node",
      "id": 260428294,
      "lat": 51.0692447,
      "lon": 4.5011241
    },
    {
      "type": "node",
      "id": 260428295,
      "lat": 51.0691593,
      "lon": 4.5015172
    },
    {
      "type": "node",
      "id": 260428298,
      "lat": 51.0692323,
      "lon": 4.5015929
    },
    {
      "type": "node",
      "id": 260428299,
      "lat": 51.0694068,
      "lon": 4.500913
    },
    {
      "type": "node",
      "id": 286794496,
      "lat": 51.0703654,
      "lon": 4.4963076
    },
    {
      "type": "node",
      "id": 286794497,
      "lat": 51.0703708,
      "lon": 4.4960501
    },
    {
      "type": "node",
      "id": 286794498,
      "lat": 51.0727074,
      "lon": 4.4961229
    },
    {
      "type": "node",
      "id": 286794499,
      "lat": 51.0727066,
      "lon": 4.4963605
    },
    {
      "type": "node",
      "id": 1078521984,
      "lat": 51.0705492,
      "lon": 4.4963119
    },
    {
      "type": "node",
      "id": 2054893247,
      "lat": 51.0691478,
      "lon": 4.5016444
    },
    {
      "type": "node",
      "id": 8595568463,
      "lat": 51.0706064,
      "lon": 4.4965741
    },
    {
      "type": "node",
      "id": 8595568464,
      "lat": 51.0706222,
      "lon": 4.4966366
    },
    {
      "type": "node",
      "id": 8595568465,
      "lat": 51.0704942,
      "lon": 4.4967212
    },
    {
      "type": "node",
      "id": 8595568466,
      "lat": 51.0704747,
      "lon": 4.4966552
    },
    {
      "type": "node",
      "id": 8595568509,
      "lat": 51.0690879,
      "lon": 4.50177
    },
    {
      "type": "node",
      "id": 8595568510,
      "lat": 51.0690891,
      "lon": 4.5018391
    },
    {
      "type": "node",
      "id": 291000421,
      "lat": 51.0763436,
      "lon": 4.5006905
    },
    {
      "type": "node",
      "id": 648300641,
      "lat": 51.0783195,
      "lon": 4.501673
    },
    {
      "type": "node",
      "id": 1132481886,
      "lat": 51.0772466,
      "lon": 4.4995558
    },
    {
      "type": "node",
      "id": 3766353328,
      "lat": 51.0785645,
      "lon": 4.5020264
    },
    {
      "type": "node",
      "id": 8412389471,
      "lat": 51.076325,
      "lon": 4.5004553
    },
    {
      "type": "node",
      "id": 8412389472,
      "lat": 51.0758781,
      "lon": 4.5004992
    },
    {
      "type": "node",
      "id": 8412389473,
      "lat": 51.0766238,
      "lon": 4.5016635
    },
    {
      "type": "node",
      "id": 8412389480,
      "lat": 51.0764221,
      "lon": 4.5021037
    },
    {
      "type": "node",
      "id": 8412389481,
      "lat": 51.0767392,
      "lon": 4.5016283
    },
    {
      "type": "node",
      "id": 8412389482,
      "lat": 51.0767987,
      "lon": 4.5015363
    },
    {
      "type": "node",
      "id": 8412389483,
      "lat": 51.076963,
      "lon": 4.501228
    },
    {
      "type": "node",
      "id": 8412389484,
      "lat": 51.0771213,
      "lon": 4.5015146
    },
    {
      "type": "node",
      "id": 8412389485,
      "lat": 51.0777454,
      "lon": 4.5021998
    },
    {
      "type": "node",
      "id": 8412389487,
      "lat": 51.0786697,
      "lon": 4.5021561
    },
    {
      "type": "node",
      "id": 8412389488,
      "lat": 51.0785283,
      "lon": 4.5019742
    },
    {
      "type": "node",
      "id": 8412389489,
      "lat": 51.0778837,
      "lon": 4.5008479
    },
    {
      "type": "node",
      "id": 8412389490,
      "lat": 51.0778327,
      "lon": 4.5006495
    },
    {
      "type": "node",
      "id": 8412389491,
      "lat": 51.0777394,
      "lon": 4.5004482
    },
    {
      "type": "node",
      "id": 8412389492,
      "lat": 51.0778138,
      "lon": 4.5005607
    },
    {
      "type": "node",
      "id": 8412389494,
      "lat": 51.0786237,
      "lon": 4.5020827
    },
    {
      "type": "node",
      "id": 8412389495,
      "lat": 51.0786832,
      "lon": 4.5021343
    },
    {
      "type": "node",
      "id": 8412389496,
      "lat": 51.0774811,
      "lon": 4.5019161
    },
    {
      "type": "node",
      "id": 8412389497,
      "lat": 51.0772773,
      "lon": 4.5017145
    },
    {
      "type": "node",
      "id": 8412389498,
      "lat": 51.0771641,
      "lon": 4.5016042
    },
    {
      "type": "node",
      "id": 8412389499,
      "lat": 51.0770886,
      "lon": 4.5014245
    },
    {
      "type": "node",
      "id": 8442434262,
      "lat": 51.0760767,
      "lon": 4.5003388
    },
    {
      "type": "node",
      "id": 1132555875,
      "lat": 51.0756618,
      "lon": 4.5031564
    },
    {
      "type": "node",
      "id": 8412389474,
      "lat": 51.0759151,
      "lon": 4.5027415
    },
    {
      "type": "node",
      "id": 8412389475,
      "lat": 51.0756961,
      "lon": 4.5032116
    },
    {
      "type": "node",
      "id": 8412389476,
      "lat": 51.0757822,
      "lon": 4.5030736
    },
    {
      "type": "node",
      "id": 8412389477,
      "lat": 51.0759205,
      "lon": 4.5028647
    },
    {
      "type": "node",
      "id": 8412389478,
      "lat": 51.0760594,
      "lon": 4.5026572
    },
    {
      "type": "node",
      "id": 8412389479,
      "lat": 51.0762287,
      "lon": 4.5024018
    },
    {
      "type": "node",
      "id": 8412389486,
      "lat": 51.0782276,
      "lon": 4.5027523
    },
    {
      "type": "node",
      "id": 5008944215,
      "lat": 51.0724691,
      "lon": 4.520965
    },
    {
      "type": "node",
      "id": 5008944216,
      "lat": 51.0721472,
      "lon": 4.5213351
    },
    {
      "type": "node",
      "id": 5008944217,
      "lat": 51.0722062,
      "lon": 4.5214341
    },
    {
      "type": "node",
      "id": 5008944218,
      "lat": 51.072516,
      "lon": 4.5210521
    },
    {
      "type": "node",
      "id": 289447706,
      "lat": 51.072944,
      "lon": 4.5270812
    },
    {
      "type": "node",
      "id": 289447707,
      "lat": 51.0738494,
      "lon": 4.5258643
    },
    {
      "type": "node",
      "id": 289447708,
      "lat": 51.0737646,
      "lon": 4.5256572
    },
    {
      "type": "node",
      "id": 289447709,
      "lat": 51.072839,
      "lon": 4.5268048
    },
    {
      "type": "node",
      "id": 8384061581,
      "lat": 51.0713444,
      "lon": 4.5224966
    },
    {
      "type": "node",
      "id": 8384061582,
      "lat": 51.071299,
      "lon": 4.5224118
    },
    {
      "type": "node",
      "id": 8384061583,
      "lat": 51.0715297,
      "lon": 4.522124
    },
    {
      "type": "node",
      "id": 8384061584,
      "lat": 51.0715745,
      "lon": 4.5222129
    },
    {
      "type": "node",
      "id": 833187968,
      "lat": 51.0711846,
      "lon": 4.5325277
    },
    {
      "type": "node",
      "id": 833187972,
      "lat": 51.0714332,
      "lon": 4.5319044
    },
    {
      "type": "node",
      "id": 833187979,
      "lat": 51.0712837,
      "lon": 4.531838
    },
    {
      "type": "node",
      "id": 833187984,
      "lat": 51.071325,
      "lon": 4.5326012
    },
    {
      "type": "node",
      "id": 1584093040,
      "lat": 51.0696322,
      "lon": 4.532336
    },
    {
      "type": "node",
      "id": 1584093041,
      "lat": 51.0696424,
      "lon": 4.5324389
    },
    {
      "type": "node",
      "id": 1584093042,
      "lat": 51.0696804,
      "lon": 4.532132
    },
    {
      "type": "node",
      "id": 1584093043,
      "lat": 51.0697388,
      "lon": 4.5319139
    },
    {
      "type": "node",
      "id": 1584093044,
      "lat": 51.0698086,
      "lon": 4.5318069
    },
    {
      "type": "node",
      "id": 1584093045,
      "lat": 51.0698428,
      "lon": 4.5323965
    },
    {
      "type": "node",
      "id": 1584093047,
      "lat": 51.0698923,
      "lon": 4.5323561
    },
    {
      "type": "node",
      "id": 1584093048,
      "lat": 51.0699304,
      "lon": 4.5322431
    },
    {
      "type": "node",
      "id": 1584093050,
      "lat": 51.0699469,
      "lon": 4.5321603
    },
    {
      "type": "node",
      "id": 1584093051,
      "lat": 51.0699951,
      "lon": 4.5321017
    },
    {
      "type": "node",
      "id": 1584093052,
      "lat": 51.0700471,
      "lon": 4.5320795
    },
    {
      "type": "node",
      "id": 1584093053,
      "lat": 51.0700788,
      "lon": 4.5321421
    },
    {
      "type": "node",
      "id": 1584093054,
      "lat": 51.0701816,
      "lon": 4.531601
    },
    {
      "type": "node",
      "id": 1584093055,
      "lat": 51.0702197,
      "lon": 4.5316111
    },
    {
      "type": "node",
      "id": 1584093056,
      "lat": 51.070245,
      "lon": 4.5316616
    },
    {
      "type": "node",
      "id": 1584093057,
      "lat": 51.0702666,
      "lon": 4.5317989
    },
    {
      "type": "node",
      "id": 1584093058,
      "lat": 51.0702958,
      "lon": 4.5320694
    },
    {
      "type": "node",
      "id": 5004360238,
      "lat": 51.0702655,
      "lon": 4.5333862
    },
    {
      "type": "node",
      "id": 5008944189,
      "lat": 51.0703613,
      "lon": 4.5336493
    },
    {
      "type": "node",
      "id": 5008944190,
      "lat": 51.0702058,
      "lon": 4.5339132
    },
    {
      "type": "node",
      "id": 5008944191,
      "lat": 51.0700164,
      "lon": 4.533711
    },
    {
      "type": "node",
      "id": 5008944192,
      "lat": 51.0704452,
      "lon": 4.5331876
    },
    {
      "type": "node",
      "id": 5008944193,
      "lat": 51.0705063,
      "lon": 4.5329299
    },
    {
      "type": "node",
      "id": 5008944194,
      "lat": 51.0704552,
      "lon": 4.5328852
    },
    {
      "type": "node",
      "id": 5008944195,
      "lat": 51.0704858,
      "lon": 4.5326047
    },
    {
      "type": "node",
      "id": 5008944196,
      "lat": 51.0706327,
      "lon": 4.532625
    },
    {
      "type": "node",
      "id": 5008944197,
      "lat": 51.0704935,
      "lon": 4.533186
    },
    {
      "type": "node",
      "id": 7531896963,
      "lat": 51.0709047,
      "lon": 4.5327349
    },
    {
      "type": "node",
      "id": 7531896964,
      "lat": 51.0707878,
      "lon": 4.5333191
    },
    {
      "type": "node",
      "id": 7531896965,
      "lat": 51.070929,
      "lon": 4.5333906
    },
    {
      "type": "node",
      "id": 7531896966,
      "lat": 51.0710459,
      "lon": 4.532806
    },
    {
      "type": "node",
      "id": 7531896967,
      "lat": 51.0706894,
      "lon": 4.5326265
    },
    {
      "type": "node",
      "id": 7531896968,
      "lat": 51.0707485,
      "lon": 4.5323295
    },
    {
      "type": "node",
      "id": 7531896969,
      "lat": 51.071105,
      "lon": 4.5325091
    },
    {
      "type": "node",
      "id": 5673476008,
      "lat": 51.0749255,
      "lon": 4.5417801
    },
    {
      "type": "node",
      "id": 7615640082,
      "lat": 51.0753371,
      "lon": 4.5423993
    },
    {
      "type": "node",
      "id": 7615640083,
      "lat": 51.0753811,
      "lon": 4.542114
    },
    {
      "type": "node",
      "id": 7615640084,
      "lat": 51.0749331,
      "lon": 4.5423808
    },
    {
      "type": "node",
      "id": 5673476007,
      "lat": 51.0757146,
      "lon": 4.5420207
    },
    {
      "type": "node",
      "id": 7615640081,
      "lat": 51.0756834,
      "lon": 4.5422514
    },
    {
      "type": "node",
      "id": 1133612525,
      "lat": 51.0871415,
      "lon": 4.4816318
    },
    {
      "type": "node",
      "id": 1133612537,
      "lat": 51.0863086,
      "lon": 4.482133
    },
    {
      "type": "node",
      "id": 1133612628,
      "lat": 51.0871137,
      "lon": 4.4815378
    },
    {
      "type": "node",
      "id": 1133612871,
      "lat": 51.0872498,
      "lon": 4.4815666
    },
    {
      "type": "node",
      "id": 6237685346,
      "lat": 51.0879365,
      "lon": 4.4814307
    },
    {
      "type": "node",
      "id": 6237685347,
      "lat": 51.0876831,
      "lon": 4.4809316
    },
    {
      "type": "node",
      "id": 6237685348,
      "lat": 51.0874822,
      "lon": 4.4811504
    },
    {
      "type": "node",
      "id": 6237685349,
      "lat": 51.0874109,
      "lon": 4.482422
    },
    {
      "type": "node",
      "id": 6237685350,
      "lat": 51.087708,
      "lon": 4.4824739
    },
    {
      "type": "node",
      "id": 6237685351,
      "lat": 51.0877269,
      "lon": 4.4822155
    },
    {
      "type": "node",
      "id": 6237685352,
      "lat": 51.0877012,
      "lon": 4.4821499
    },
    {
      "type": "node",
      "id": 6237685353,
      "lat": 51.0876161,
      "lon": 4.482221
    },
    {
      "type": "node",
      "id": 6237685354,
      "lat": 51.0876342,
      "lon": 4.4822524
    },
    {
      "type": "node",
      "id": 6237685355,
      "lat": 51.0875938,
      "lon": 4.4822483
    },
    {
      "type": "node",
      "id": 6237685356,
      "lat": 51.0875673,
      "lon": 4.4822184
    },
    {
      "type": "node",
      "id": 6237685357,
      "lat": 51.0875569,
      "lon": 4.4821444
    },
    {
      "type": "node",
      "id": 6237685358,
      "lat": 51.0875603,
      "lon": 4.4820487
    },
    {
      "type": "node",
      "id": 6237685359,
      "lat": 51.0876213,
      "lon": 4.482035
    },
    {
      "type": "node",
      "id": 6237685360,
      "lat": 51.0875603,
      "lon": 4.4818819
    },
    {
      "type": "node",
      "id": 6337766511,
      "lat": 51.0879242,
      "lon": 4.4814065
    },
    {
      "type": "node",
      "id": 6337766515,
      "lat": 51.0879016,
      "lon": 4.4813619
    },
    {
      "type": "node",
      "id": 623723017,
      "lat": 51.0844356,
      "lon": 4.4840679
    },
    {
      "type": "node",
      "id": 1133612588,
      "lat": 51.0864742,
      "lon": 4.4827987
    },
    {
      "type": "node",
      "id": 1133612673,
      "lat": 51.0871727,
      "lon": 4.4828091
    },
    {
      "type": "node",
      "id": 5306535093,
      "lat": 51.0851638,
      "lon": 4.484088
    },
    {
      "type": "node",
      "id": 5306535094,
      "lat": 51.0849582,
      "lon": 4.4837125
    },
    {
      "type": "node",
      "id": 5306535095,
      "lat": 51.0848066,
      "lon": 4.4838627
    },
    {
      "type": "node",
      "id": 5306535096,
      "lat": 51.0847055,
      "lon": 4.4837661
    },
    {
      "type": "node",
      "id": 5306535097,
      "lat": 51.0845067,
      "lon": 4.4841738
    },
    {
      "type": "node",
      "id": 5306535098,
      "lat": 51.0845303,
      "lon": 4.4837608
    },
    {
      "type": "node",
      "id": 5306535099,
      "lat": 51.0845202,
      "lon": 4.4836749
    },
    {
      "type": "node",
      "id": 5306535100,
      "lat": 51.0843719,
      "lon": 4.4835515
    },
    {
      "type": "node",
      "id": 5306535101,
      "lat": 51.0843213,
      "lon": 4.4835462
    },
    {
      "type": "node",
      "id": 5306535102,
      "lat": 51.0839136,
      "lon": 4.4844689
    },
    {
      "type": "node",
      "id": 5306535103,
      "lat": 51.0839675,
      "lon": 4.4845869
    },
    {
      "type": "node",
      "id": 5306535104,
      "lat": 51.0837687,
      "lon": 4.4848551
    },
    {
      "type": "node",
      "id": 5306535105,
      "lat": 51.0837215,
      "lon": 4.4849946
    },
    {
      "type": "node",
      "id": 5306535106,
      "lat": 51.0837215,
      "lon": 4.4851233
    },
    {
      "type": "node",
      "id": 5306535107,
      "lat": 51.0838563,
      "lon": 4.4853433
    },
    {
      "type": "node",
      "id": 5306535108,
      "lat": 51.083917,
      "lon": 4.4853808
    },
    {
      "type": "node",
      "id": 5306535109,
      "lat": 51.083981,
      "lon": 4.4852091
    },
    {
      "type": "node",
      "id": 5306535110,
      "lat": 51.0838866,
      "lon": 4.4850965
    },
    {
      "type": "node",
      "id": 5306535111,
      "lat": 51.0839372,
      "lon": 4.4849463
    },
    {
      "type": "node",
      "id": 5306535112,
      "lat": 51.0839877,
      "lon": 4.4848336
    },
    {
      "type": "node",
      "id": 5306535113,
      "lat": 51.084291,
      "lon": 4.4844528
    },
    {
      "type": "node",
      "id": 5306535114,
      "lat": 51.0843753,
      "lon": 4.4844259
    },
    {
      "type": "node",
      "id": 5306535115,
      "lat": 51.0844292,
      "lon": 4.484501
    },
    {
      "type": "node",
      "id": 5306535116,
      "lat": 51.0845404,
      "lon": 4.4844742
    },
    {
      "type": "node",
      "id": 5306535117,
      "lat": 51.0846516,
      "lon": 4.4846995
    },
    {
      "type": "node",
      "id": 5306535118,
      "lat": 51.0840353,
      "lon": 4.4852467
    },
    {
      "type": "node",
      "id": 5306535119,
      "lat": 51.0839342,
      "lon": 4.4854559
    },
    {
      "type": "node",
      "id": 5306535120,
      "lat": 51.0842443,
      "lon": 4.4858368
    },
    {
      "type": "node",
      "id": 5306537821,
      "lat": 51.0842678,
      "lon": 4.4857778
    },
    {
      "type": "node",
      "id": 5306537822,
      "lat": 51.0840926,
      "lon": 4.4855578
    },
    {
      "type": "node",
      "id": 5306537823,
      "lat": 51.0841566,
      "lon": 4.4853915
    },
    {
      "type": "node",
      "id": 623935314,
      "lat": 51.0930551,
      "lon": 4.4927516
    },
    {
      "type": "node",
      "id": 623935316,
      "lat": 51.0928443,
      "lon": 4.4934064
    },
    {
      "type": "node",
      "id": 623935317,
      "lat": 51.0938151,
      "lon": 4.4931174
    },
    {
      "type": "node",
      "id": 623935319,
      "lat": 51.0937865,
      "lon": 4.4928678
    },
    {
      "type": "node",
      "id": 2515518974,
      "lat": 51.0894553,
      "lon": 4.4939976
    },
    {
      "type": "node",
      "id": 2515518976,
      "lat": 51.0895036,
      "lon": 4.4939768
    },
    {
      "type": "node",
      "id": 2515518978,
      "lat": 51.0895179,
      "lon": 4.4943661
    },
    {
      "type": "node",
      "id": 2515518980,
      "lat": 51.0895662,
      "lon": 4.4943453
    },
    {
      "type": "node",
      "id": 2515519084,
      "lat": 51.0914355,
      "lon": 4.4936263
    },
    {
      "type": "node",
      "id": 2515519086,
      "lat": 51.091457,
      "lon": 4.4938088
    },
    {
      "type": "node",
      "id": 2515519095,
      "lat": 51.0915678,
      "lon": 4.4934949
    },
    {
      "type": "node",
      "id": 2515519096,
      "lat": 51.0915773,
      "lon": 4.4935698
    },
    {
      "type": "node",
      "id": 2515519181,
      "lat": 51.0934708,
      "lon": 4.4926446
    },
    {
      "type": "node",
      "id": 2515519183,
      "lat": 51.0935068,
      "lon": 4.4929526
    },
    {
      "type": "node",
      "id": 6243895403,
      "lat": 51.0909631,
      "lon": 4.4923792
    },
    {
      "type": "node",
      "id": 6243895407,
      "lat": 51.0911339,
      "lon": 4.49235
    },
    {
      "type": "node",
      "id": 6331096716,
      "lat": 51.0919565,
      "lon": 4.4933691
    },
    {
      "type": "node",
      "id": 6331096717,
      "lat": 51.0919162,
      "lon": 4.4930386
    },
    {
      "type": "node",
      "id": 7166413491,
      "lat": 51.0909401,
      "lon": 4.4921246
    },
    {
      "type": "node",
      "id": 7166413494,
      "lat": 51.0911147,
      "lon": 4.4920991
    },
    {
      "type": "node",
      "id": 136929438,
      "lat": 51.0929597,
      "lon": 4.5022002
    },
    {
      "type": "node",
      "id": 970483684,
      "lat": 51.0928798,
      "lon": 4.5018356
    },
    {
      "type": "node",
      "id": 1082003576,
      "lat": 51.0930635,
      "lon": 4.5020749
    },
    {
      "type": "node",
      "id": 1082417489,
      "lat": 51.0932133,
      "lon": 4.5017627
    },
    {
      "type": "node",
      "id": 1082417621,
      "lat": 51.0931785,
      "lon": 4.5018345
    },
    {
      "type": "node",
      "id": 1135409930,
      "lat": 51.0898449,
      "lon": 4.4964557
    },
    {
      "type": "node",
      "id": 2064776633,
      "lat": 51.094367,
      "lon": 4.5014251
    },
    {
      "type": "node",
      "id": 2064776638,
      "lat": 51.0944344,
      "lon": 4.5013658
    },
    {
      "type": "node",
      "id": 2064776640,
      "lat": 51.0945019,
      "lon": 4.5015453
    },
    {
      "type": "node",
      "id": 2064776646,
      "lat": 51.0946137,
      "lon": 4.5014203
    },
    {
      "type": "node",
      "id": 2064776648,
      "lat": 51.0946378,
      "lon": 4.5021545
    },
    {
      "type": "node",
      "id": 2064776649,
      "lat": 51.0948201,
      "lon": 4.5019622
    },
    {
      "type": "node",
      "id": 3066457851,
      "lat": 51.0909539,
      "lon": 4.5006103
    },
    {
      "type": "node",
      "id": 3066457855,
      "lat": 51.0910226,
      "lon": 4.5001442
    },
    {
      "type": "node",
      "id": 3066457857,
      "lat": 51.0910369,
      "lon": 4.5004499
    },
    {
      "type": "node",
      "id": 3066457858,
      "lat": 51.091039,
      "lon": 4.5002104
    },
    {
      "type": "node",
      "id": 3066457860,
      "lat": 51.0910512,
      "lon": 4.5001009
    },
    {
      "type": "node",
      "id": 3066457863,
      "lat": 51.0910859,
      "lon": 4.5007534
    },
    {
      "type": "node",
      "id": 3066457866,
      "lat": 51.0911105,
      "lon": 4.5001844
    },
    {
      "type": "node",
      "id": 3066457867,
      "lat": 51.0911159,
      "lon": 4.5006407
    },
    {
      "type": "node",
      "id": 3066457868,
      "lat": 51.0911363,
      "lon": 4.5006754
    },
    {
      "type": "node",
      "id": 3066457869,
      "lat": 51.0911486,
      "lon": 4.5001529
    },
    {
      "type": "node",
      "id": 3066457872,
      "lat": 51.0911949,
      "lon": 4.5004965
    },
    {
      "type": "node",
      "id": 3066457874,
      "lat": 51.0911976,
      "lon": 4.5004629
    },
    {
      "type": "node",
      "id": 3066457876,
      "lat": 51.0912629,
      "lon": 4.5003524
    },
    {
      "type": "node",
      "id": 4906479398,
      "lat": 51.0893363,
      "lon": 4.4976525
    },
    {
      "type": "node",
      "id": 4906479399,
      "lat": 51.0893048,
      "lon": 4.4977267
    },
    {
      "type": "node",
      "id": 4906479400,
      "lat": 51.0892771,
      "lon": 4.4977919
    },
    {
      "type": "node",
      "id": 4906479401,
      "lat": 51.0892359,
      "lon": 4.4977451
    },
    {
      "type": "node",
      "id": 4906479402,
      "lat": 51.089752,
      "lon": 4.4965573
    },
    {
      "type": "node",
      "id": 4906479403,
      "lat": 51.0898167,
      "lon": 4.4964015
    },
    {
      "type": "node",
      "id": 5306523090,
      "lat": 51.090645,
      "lon": 4.497842
    },
    {
      "type": "node",
      "id": 5306523091,
      "lat": 51.0906551,
      "lon": 4.4978621
    },
    {
      "type": "node",
      "id": 5306523092,
      "lat": 51.0903881,
      "lon": 4.4982524
    },
    {
      "type": "node",
      "id": 5306523093,
      "lat": 51.0903754,
      "lon": 4.4982349
    },
    {
      "type": "node",
      "id": 5306523094,
      "lat": 51.0906264,
      "lon": 4.4977387
    },
    {
      "type": "node",
      "id": 5306523095,
      "lat": 51.0906323,
      "lon": 4.4977535
    },
    {
      "type": "node",
      "id": 5306523096,
      "lat": 51.0904908,
      "lon": 4.4979721
    },
    {
      "type": "node",
      "id": 5306523097,
      "lat": 51.0904832,
      "lon": 4.4979506
    },
    {
      "type": "node",
      "id": 136929434,
      "lat": 51.0947047,
      "lon": 4.5042349
    },
    {
      "type": "node",
      "id": 136929435,
      "lat": 51.0939757,
      "lon": 4.5035843
    },
    {
      "type": "node",
      "id": 136929436,
      "lat": 51.0932706,
      "lon": 4.5026546
    },
    {
      "type": "node",
      "id": 1081998779,
      "lat": 51.0946122,
      "lon": 4.5044053
    },
    {
      "type": "node",
      "id": 1082417360,
      "lat": 51.0938266,
      "lon": 4.5025755
    },
    {
      "type": "node",
      "id": 1082417379,
      "lat": 51.0937985,
      "lon": 4.502641
    },
    {
      "type": "node",
      "id": 1081824865,
      "lat": 51.0962999,
      "lon": 4.4935773
    },
    {
      "type": "node",
      "id": 1081825239,
      "lat": 51.096302,
      "lon": 4.4934282
    },
    {
      "type": "node",
      "id": 1081825620,
      "lat": 51.0962894,
      "lon": 4.4943296
    },
    {
      "type": "node",
      "id": 1081826140,
      "lat": 51.0970665,
      "lon": 4.4937411
    },
    {
      "type": "node",
      "id": 1081826331,
      "lat": 51.0962916,
      "lon": 4.4941745
    },
    {
      "type": "node",
      "id": 1081826625,
      "lat": 51.0970015,
      "lon": 4.4932444
    },
    {
      "type": "node",
      "id": 1766956490,
      "lat": 51.0996162,
      "lon": 4.4912529
    },
    {
      "type": "node",
      "id": 1766956491,
      "lat": 51.0990098,
      "lon": 4.4916364
    },
    {
      "type": "node",
      "id": 1766956495,
      "lat": 51.0996313,
      "lon": 4.4915585
    },
    {
      "type": "node",
      "id": 1766956498,
      "lat": 51.0989947,
      "lon": 4.4913308
    },
    {
      "type": "node",
      "id": 5352747692,
      "lat": 51.097053,
      "lon": 4.493638
    },
    {
      "type": "node",
      "id": 8656770395,
      "lat": 51.0995901,
      "lon": 4.4914871
    },
    {
      "type": "node",
      "id": 8656770396,
      "lat": 51.0995821,
      "lon": 4.4913211
    },
    {
      "type": "node",
      "id": 8656770397,
      "lat": 51.0990386,
      "lon": 4.491387
    },
    {
      "type": "node",
      "id": 8656770398,
      "lat": 51.0990465,
      "lon": 4.4915529
    },
    {
      "type": "node",
      "id": 1080562136,
      "lat": 51.1066918,
      "lon": 4.495765
    },
    {
      "type": "node",
      "id": 1080562321,
      "lat": 51.1066098,
      "lon": 4.4953758
    },
    {
      "type": "node",
      "id": 2710689686,
      "lat": 51.1066001,
      "lon": 4.4953194
    },
    {
      "type": "node",
      "id": 2710689690,
      "lat": 51.1067608,
      "lon": 4.4952335
    },
    {
      "type": "node",
      "id": 2710689701,
      "lat": 51.1069159,
      "lon": 4.4952072
    },
    {
      "type": "node",
      "id": 2710689702,
      "lat": 51.1069181,
      "lon": 4.4953071
    },
    {
      "type": "node",
      "id": 2710689703,
      "lat": 51.1069423,
      "lon": 4.495754
    },
    {
      "type": "node",
      "id": 2710689705,
      "lat": 51.1069588,
      "lon": 4.4953036
    },
    {
      "type": "node",
      "id": 2710689706,
      "lat": 51.1069819,
      "lon": 4.4957452
    },
    {
      "type": "node",
      "id": 1330177923,
      "lat": 51.0984315,
      "lon": 4.5070719
    },
    {
      "type": "node",
      "id": 1330177926,
      "lat": 51.0984328,
      "lon": 4.506904
    },
    {
      "type": "node",
      "id": 1330177928,
      "lat": 51.096919,
      "lon": 4.5068193
    },
    {
      "type": "node",
      "id": 1330177938,
      "lat": 51.0978827,
      "lon": 4.5077532
    },
    {
      "type": "node",
      "id": 1330177952,
      "lat": 51.0968588,
      "lon": 4.5072629
    },
    {
      "type": "node",
      "id": 1330177957,
      "lat": 51.0979015,
      "lon": 4.5070425
    },
    {
      "type": "node",
      "id": 1330177965,
      "lat": 51.0976392,
      "lon": 4.5076534
    },
    {
      "type": "node",
      "id": 1330177971,
      "lat": 51.0968615,
      "lon": 4.5068158
    },
    {
      "type": "node",
      "id": 1911086435,
      "lat": 51.0980824,
      "lon": 4.5068688
    },
    {
      "type": "node",
      "id": 1911086436,
      "lat": 51.0980924,
      "lon": 4.5068694
    },
    {
      "type": "node",
      "id": 3038892862,
      "lat": 51.096519,
      "lon": 4.5085918
    },
    {
      "type": "node",
      "id": 3038892863,
      "lat": 51.0962208,
      "lon": 4.5084523
    },
    {
      "type": "node",
      "id": 3038892864,
      "lat": 51.0961855,
      "lon": 4.5088037
    },
    {
      "type": "node",
      "id": 2710689688,
      "lat": 51.1067145,
      "lon": 4.4958591
    },
    {
      "type": "node",
      "id": 2710689692,
      "lat": 51.1068257,
      "lon": 4.4957995
    },
    {
      "type": "node",
      "id": 2710689700,
      "lat": 51.1068994,
      "lon": 4.4959625
    },
    {
      "type": "node",
      "id": 2710689707,
      "lat": 51.1069874,
      "lon": 4.4958609
    },
    {
      "type": "node",
      "id": 3954170083,
      "lat": 51.1225415,
      "lon": 4.4972307
    },
    {
      "type": "node",
      "id": 3954170084,
      "lat": 51.1225493,
      "lon": 4.4973015
    },
    {
      "type": "node",
      "id": 3954170087,
      "lat": 51.1226996,
      "lon": 4.4971866
    },
    {
      "type": "node",
      "id": 3954170088,
      "lat": 51.1227074,
      "lon": 4.4972574
    },
    {
      "type": "node",
      "id": 1798088716,
      "lat": 51.0828745,
      "lon": 4.5110209
    },
    {
      "type": "node",
      "id": 1798088724,
      "lat": 51.0829201,
      "lon": 4.5110159
    },
    {
      "type": "node",
      "id": 1798088731,
      "lat": 51.0829602,
      "lon": 4.5114963
    },
    {
      "type": "node",
      "id": 1798088733,
      "lat": 51.0829942,
      "lon": 4.5123821
    },
    {
      "type": "node",
      "id": 1798088734,
      "lat": 51.0830013,
      "lon": 4.5120141
    },
    {
      "type": "node",
      "id": 1798088739,
      "lat": 51.0830321,
      "lon": 4.5123698
    },
    {
      "type": "node",
      "id": 1798088762,
      "lat": 51.0835267,
      "lon": 4.5118203
    },
    {
      "type": "node",
      "id": 1798088763,
      "lat": 51.0835483,
      "lon": 4.5112709
    },
    {
      "type": "node",
      "id": 2402667531,
      "lat": 51.0825084,
      "lon": 4.5141446
    },
    {
      "type": "node",
      "id": 2402667536,
      "lat": 51.0825818,
      "lon": 4.5134044
    },
    {
      "type": "node",
      "id": 2402667538,
      "lat": 51.082621,
      "lon": 4.5119424
    },
    {
      "type": "node",
      "id": 2402667542,
      "lat": 51.0826769,
      "lon": 4.5125376
    },
    {
      "type": "node",
      "id": 2402667544,
      "lat": 51.0828931,
      "lon": 4.5119246
    },
    {
      "type": "node",
      "id": 2402667546,
      "lat": 51.0828644,
      "lon": 4.51413
    },
    {
      "type": "node",
      "id": 2402667548,
      "lat": 51.0829564,
      "lon": 4.5126088
    },
    {
      "type": "node",
      "id": 2402667550,
      "lat": 51.0829018,
      "lon": 4.5134611
    },
    {
      "type": "node",
      "id": 3766354064,
      "lat": 51.0827815,
      "lon": 4.5141816
    },
    {
      "type": "node",
      "id": 3766354065,
      "lat": 51.0827977,
      "lon": 4.5134613
    },
    {
      "type": "node",
      "id": 3766354068,
      "lat": 51.0828378,
      "lon": 4.5134507
    },
    {
      "type": "node",
      "id": 2316121335,
      "lat": 51.0928508,
      "lon": 4.5128364
    },
    {
      "type": "node",
      "id": 5306523074,
      "lat": 51.0930515,
      "lon": 4.5131685
    },
    {
      "type": "node",
      "id": 5306523075,
      "lat": 51.0930666,
      "lon": 4.5131899
    },
    {
      "type": "node",
      "id": 5306523076,
      "lat": 51.092792,
      "lon": 4.5137049
    },
    {
      "type": "node",
      "id": 5306523077,
      "lat": 51.0927769,
      "lon": 4.5136888
    },
    {
      "type": "node",
      "id": 5306523078,
      "lat": 51.0930329,
      "lon": 4.5130451
    },
    {
      "type": "node",
      "id": 5306523079,
      "lat": 51.0930464,
      "lon": 4.5130102
    },
    {
      "type": "node",
      "id": 5306523080,
      "lat": 51.0928544,
      "lon": 4.5128868
    },
    {
      "type": "node",
      "id": 5306523081,
      "lat": 51.092632,
      "lon": 4.5126535
    },
    {
      "type": "node",
      "id": 5306523082,
      "lat": 51.0926168,
      "lon": 4.512691
    },
    {
      "type": "node",
      "id": 5306523083,
      "lat": 51.092824,
      "lon": 4.5128278
    },
    {
      "type": "node",
      "id": 5306523084,
      "lat": 51.0928308,
      "lon": 4.5127956
    },
    {
      "type": "node",
      "id": 6636111191,
      "lat": 51.0930738,
      "lon": 4.5108996
    },
    {
      "type": "node",
      "id": 6636111192,
      "lat": 51.0929351,
      "lon": 4.5109522
    },
    {
      "type": "node",
      "id": 6636111193,
      "lat": 51.0929086,
      "lon": 4.510826
    },
    {
      "type": "node",
      "id": 6636111194,
      "lat": 51.0927974,
      "lon": 4.5107173
    },
    {
      "type": "node",
      "id": 6636111195,
      "lat": 51.0926554,
      "lon": 4.5106104
    },
    {
      "type": "node",
      "id": 6636111196,
      "lat": 51.0927622,
      "lon": 4.5103404
    },
    {
      "type": "node",
      "id": 6636111197,
      "lat": 51.0934195,
      "lon": 4.5097461
    },
    {
      "type": "node",
      "id": 6636111198,
      "lat": 51.0934713,
      "lon": 4.5098513
    },
    {
      "type": "node",
      "id": 6636111199,
      "lat": 51.0936089,
      "lon": 4.5100354
    },
    {
      "type": "node",
      "id": 6636111200,
      "lat": 51.0936893,
      "lon": 4.5102703
    },
    {
      "type": "node",
      "id": 6636111201,
      "lat": 51.09361,
      "lon": 4.5103579
    },
    {
      "type": "node",
      "id": 6636111202,
      "lat": 51.0934955,
      "lon": 4.5100546
    },
    {
      "type": "node",
      "id": 6636111203,
      "lat": 51.0934096,
      "lon": 4.5099197
    },
    {
      "type": "node",
      "id": 6636111204,
      "lat": 51.0930297,
      "lon": 4.5102931
    },
    {
      "type": "node",
      "id": 3038892865,
      "lat": 51.096049,
      "lon": 4.5096834
    },
    {
      "type": "node",
      "id": 3038892866,
      "lat": 51.0965257,
      "lon": 4.5098712
    },
    {
      "type": "node",
      "id": 3038892867,
      "lat": 51.096524,
      "lon": 4.5096781
    },
    {
      "type": "node",
      "id": 4642830776,
      "lat": 51.0964886,
      "lon": 4.5115067
    },
    {
      "type": "node",
      "id": 4642830777,
      "lat": 51.0964233,
      "lon": 4.5120237
    },
    {
      "type": "node",
      "id": 4642830778,
      "lat": 51.0964546,
      "lon": 4.512038
    },
    {
      "type": "node",
      "id": 4642830779,
      "lat": 51.0965197,
      "lon": 4.5115238
    },
    {
      "type": "node",
      "id": 4642830780,
      "lat": 51.0963913,
      "lon": 4.5121951
    },
    {
      "type": "node",
      "id": 4642830781,
      "lat": 51.096366,
      "lon": 4.5124257
    },
    {
      "type": "node",
      "id": 4642830782,
      "lat": 51.0964031,
      "lon": 4.5124847
    },
    {
      "type": "node",
      "id": 4642830783,
      "lat": 51.0964317,
      "lon": 4.5122434
    },
    {
      "type": "node",
      "id": 2063333681,
      "lat": 51.1021851,
      "lon": 4.5112692
    },
    {
      "type": "node",
      "id": 2063333686,
      "lat": 51.1022493,
      "lon": 4.5111601
    },
    {
      "type": "node",
      "id": 2063333696,
      "lat": 51.1022593,
      "lon": 4.5104355
    },
    {
      "type": "node",
      "id": 2063333700,
      "lat": 51.1023249,
      "lon": 4.5116394
    },
    {
      "type": "node",
      "id": 2063333701,
      "lat": 51.1023591,
      "lon": 4.5113464
    },
    {
      "type": "node",
      "id": 2063333703,
      "lat": 51.1023663,
      "lon": 4.5102992
    },
    {
      "type": "node",
      "id": 2063333705,
      "lat": 51.1023691,
      "lon": 4.5115781
    },
    {
      "type": "node",
      "id": 2063333706,
      "lat": 51.1023691,
      "lon": 4.5117121
    },
    {
      "type": "node",
      "id": 2063333711,
      "lat": 51.1025189,
      "lon": 4.5115281
    },
    {
      "type": "node",
      "id": 2063333713,
      "lat": 51.1025702,
      "lon": 4.5110057
    },
    {
      "type": "node",
      "id": 2063333719,
      "lat": 51.1028227,
      "lon": 4.5110761
    },
    {
      "type": "node",
      "id": 616654509,
      "lat": 51.0906031,
      "lon": 4.5504241
    },
    {
      "type": "node",
      "id": 616654510,
      "lat": 51.0902043,
      "lon": 4.5503405
    },
    {
      "type": "node",
      "id": 616654511,
      "lat": 51.0901885,
      "lon": 4.550515
    },
    {
      "type": "node",
      "id": 616654512,
      "lat": 51.0900238,
      "lon": 4.550453
    },
    {
      "type": "node",
      "id": 616654513,
      "lat": 51.0901536,
      "lon": 4.5510232
    },
    {
      "type": "node",
      "id": 616654514,
      "lat": 51.0905819,
      "lon": 4.5506622
    },
    {
      "type": "node",
      "id": 4885300533,
      "lat": 51.09015,
      "lon": 4.5504722
    },
    {
      "type": "node",
      "id": 4885300534,
      "lat": 51.0901483,
      "lon": 4.5505111
    },
    {
      "type": "node",
      "id": 5477283999,
      "lat": 51.1040663,
      "lon": 4.5399866
    },
    {
      "type": "node",
      "id": 5477284000,
      "lat": 51.1036905,
      "lon": 4.5403667
    },
    {
      "type": "node",
      "id": 5477284001,
      "lat": 51.1031481,
      "lon": 4.5390066
    },
    {
      "type": "node",
      "id": 5477284002,
      "lat": 51.1035239,
      "lon": 4.5386265
    },
    {
      "type": "node",
      "id": 5477284722,
      "lat": 51.1044398,
      "lon": 4.5413621
    },
    {
      "type": "node",
      "id": 5477284723,
      "lat": 51.1045645,
      "lon": 4.5412347
    },
    {
      "type": "node",
      "id": 5477284016,
      "lat": 51.105508,
      "lon": 4.5428708
    },
    {
      "type": "node",
      "id": 5477284017,
      "lat": 51.1053884,
      "lon": 4.5429929
    },
    {
      "type": "node",
      "id": 5477284018,
      "lat": 51.1052545,
      "lon": 4.5426683
    },
    {
      "type": "node",
      "id": 5477284019,
      "lat": 51.1053749,
      "lon": 4.5425429
    },
    {
      "type": "node",
      "id": 5477284020,
      "lat": 51.1048028,
      "lon": 4.5418402
    },
    {
      "type": "node",
      "id": 5477284721,
      "lat": 51.1046794,
      "lon": 4.5419783
    },
    {
      "type": "node",
      "id": 6289212600,
      "lat": 51.0972194,
      "lon": 4.5551187
    },
    {
      "type": "node",
      "id": 6289212601,
      "lat": 51.0973363,
      "lon": 4.5553706
    },
    {
      "type": "node",
      "id": 6289212602,
      "lat": 51.0971882,
      "lon": 4.5555477
    },
    {
      "type": "node",
      "id": 6289212603,
      "lat": 51.0970681,
      "lon": 4.5552887
    },
    {
      "type": "node",
      "id": 6289212604,
      "lat": 51.097124,
      "lon": 4.5552198
    },
    {
      "type": "node",
      "id": 6289212605,
      "lat": 51.097112,
      "lon": 4.5551885
    },
    {
      "type": "node",
      "id": 6289212606,
      "lat": 51.0970967,
      "lon": 4.5552411
    },
    {
      "type": "node",
      "id": 6289212607,
      "lat": 51.0970795,
      "lon": 4.555235
    },
    {
      "type": "node",
      "id": 6289212608,
      "lat": 51.0969188,
      "lon": 4.5548889
    },
    {
      "type": "node",
      "id": 6289212609,
      "lat": 51.0969327,
      "lon": 4.554807
    },
    {
      "type": "node",
      "id": 6289212610,
      "lat": 51.096962,
      "lon": 4.5547665
    },
    {
      "type": "node",
      "id": 6289212611,
      "lat": 51.0971603,
      "lon": 4.5551854
    },
    {
      "type": "node",
      "id": 344237828,
      "lat": 51.1238143,
      "lon": 4.513546
    },
    {
      "type": "node",
      "id": 5308533698,
      "lat": 51.12384,
      "lon": 4.5137584
    },
    {
      "type": "node",
      "id": 5308533699,
      "lat": 51.1237962,
      "lon": 4.5137477
    },
    {
      "type": "node",
      "id": 5308533700,
      "lat": 51.1237946,
      "lon": 4.5138255
    },
    {
      "type": "node",
      "id": 5308533701,
      "lat": 51.1237807,
      "lon": 4.5138232
    },
    {
      "type": "node",
      "id": 5308533702,
      "lat": 51.1237959,
      "lon": 4.513901
    },
    {
      "type": "node",
      "id": 5308533703,
      "lat": 51.123806,
      "lon": 4.5138957
    },
    {
      "type": "node",
      "id": 5308533704,
      "lat": 51.1238346,
      "lon": 4.5139104
    },
    {
      "type": "node",
      "id": 5308533705,
      "lat": 51.1238489,
      "lon": 4.5138755
    },
    {
      "type": "node",
      "id": 5308533706,
      "lat": 51.1238421,
      "lon": 4.5138366
    },
    {
      "type": "node",
      "id": 5308533707,
      "lat": 51.1238363,
      "lon": 4.5136449
    },
    {
      "type": "node",
      "id": 5308533708,
      "lat": 51.1237891,
      "lon": 4.5136516
    },
    {
      "type": "node",
      "id": 5308533709,
      "lat": 51.1237521,
      "lon": 4.5136811
    },
    {
      "type": "node",
      "id": 5308533710,
      "lat": 51.1237403,
      "lon": 4.5137052
    },
    {
      "type": "node",
      "id": 5308533711,
      "lat": 51.1237209,
      "lon": 4.513602
    },
    {
      "type": "node",
      "id": 5308533713,
      "lat": 51.1231427,
      "lon": 4.5140365
    },
    {
      "type": "node",
      "id": 5308533714,
      "lat": 51.1230913,
      "lon": 4.5140365
    },
    {
      "type": "node",
      "id": 5308533715,
      "lat": 51.1231056,
      "lon": 4.5141438
    },
    {
      "type": "node",
      "id": 5308533716,
      "lat": 51.1230913,
      "lon": 4.5141464
    },
    {
      "type": "node",
      "id": 5308533717,
      "lat": 51.123114,
      "lon": 4.5142685
    },
    {
      "type": "node",
      "id": 5308533718,
      "lat": 51.1231587,
      "lon": 4.5142685
    },
    {
      "type": "node",
      "id": 5308533719,
      "lat": 51.1231612,
      "lon": 4.5142215
    },
    {
      "type": "node",
      "id": 5308533720,
      "lat": 51.1231536,
      "lon": 4.5141625
    },
    {
      "type": "node",
      "id": 5308533721,
      "lat": 51.1231662,
      "lon": 4.5141531
    },
    {
      "type": "node",
      "id": 662937828,
      "lat": 51.1144162,
      "lon": 4.5491664
    },
    {
      "type": "node",
      "id": 1120073702,
      "lat": 51.1143331,
      "lon": 4.5488884
    },
    {
      "type": "node",
      "id": 1120074178,
      "lat": 51.1143586,
      "lon": 4.5489831
    },
    {
      "type": "node",
      "id": 1120074331,
      "lat": 51.1144069,
      "lon": 4.5491367
    },
    {
      "type": "node",
      "id": 1120075068,
      "lat": 51.1141304,
      "lon": 4.5495856
    },
    {
      "type": "node",
      "id": 2398315838,
      "lat": 51.1082783,
      "lon": 4.5514139
    },
    {
      "type": "node",
      "id": 2398315839,
      "lat": 51.1082839,
      "lon": 4.5514267
    },
    {
      "type": "node",
      "id": 2398315846,
      "lat": 51.1084204,
      "lon": 4.5512941
    },
    {
      "type": "node",
      "id": 2398315847,
      "lat": 51.1084259,
      "lon": 4.5513069
    },
    {
      "type": "node",
      "id": 4449269293,
      "lat": 51.1139821,
      "lon": 4.5491163
    },
    {
      "type": "node",
      "id": 7966707353,
      "lat": 51.1141647,
      "lon": 4.5495228
    },
    {
      "type": "node",
      "id": 7966707354,
      "lat": 51.1142105,
      "lon": 4.5494371
    },
    {
      "type": "node",
      "id": 7966707355,
      "lat": 51.1142661,
      "lon": 4.5493602
    },
    {
      "type": "node",
      "id": 769184242,
      "lat": 51.1237328,
      "lon": 4.5505103
    },
    {
      "type": "node",
      "id": 769184246,
      "lat": 51.1241435,
      "lon": 4.5501291
    },
    {
      "type": "node",
      "id": 2063902089,
      "lat": 51.1241877,
      "lon": 4.5500244
    },
    {
      "type": "node",
      "id": 2063902098,
      "lat": 51.1241952,
      "lon": 4.5500414
    },
    {
      "type": "node",
      "id": 2406839861,
      "lat": 51.1235854,
      "lon": 4.5509939
    },
    {
      "type": "node",
      "id": 2406839897,
      "lat": 51.1237168,
      "lon": 4.5513448
    },
    {
      "type": "node",
      "id": 2406839913,
      "lat": 51.1237779,
      "lon": 4.5508109
    },
    {
      "type": "node",
      "id": 2406839934,
      "lat": 51.1239093,
      "lon": 4.5511618
    },
    {
      "type": "node",
      "id": 4242651349,
      "lat": 51.1235792,
      "lon": 4.5500903
    },
    {
      "type": "node",
      "id": 4242651377,
      "lat": 51.12399,
      "lon": 4.5497091
    },
    {
      "type": "node",
      "id": 108256323,
      "lat": 51.0826868,
      "lon": 4.5643795
    },
    {
      "type": "node",
      "id": 1123316045,
      "lat": 51.0848448,
      "lon": 4.5677132
    },
    {
      "type": "node",
      "id": 3009854257,
      "lat": 51.0831723,
      "lon": 4.5650491
    },
    {
      "type": "node",
      "id": 3009854260,
      "lat": 51.0825458,
      "lon": 4.5642814
    },
    {
      "type": "node",
      "id": 4262316814,
      "lat": 51.0826009,
      "lon": 4.5643126
    },
    {
      "type": "node",
      "id": 4262316817,
      "lat": 51.0827878,
      "lon": 4.5644983
    },
    {
      "type": "node",
      "id": 4262316824,
      "lat": 51.0829822,
      "lon": 4.5647768
    },
    {
      "type": "node",
      "id": 7643494808,
      "lat": 51.0833212,
      "lon": 4.5652624
    },
    {
      "type": "node",
      "id": 7643494809,
      "lat": 51.083836,
      "lon": 4.56604
    },
    {
      "type": "node",
      "id": 7643494810,
      "lat": 51.0830847,
      "lon": 4.5651948
    },
    {
      "type": "node",
      "id": 7643494811,
      "lat": 51.0834386,
      "lon": 4.565734
    },
    {
      "type": "node",
      "id": 7643494812,
      "lat": 51.0848256,
      "lon": 4.5677736
    },
    {
      "type": "node",
      "id": 7643494813,
      "lat": 51.0844048,
      "lon": 4.5671086
    },
    {
      "type": "node",
      "id": 7643494814,
      "lat": 51.084892,
      "lon": 4.567568
    },
    {
      "type": "node",
      "id": 7643494815,
      "lat": 51.082718,
      "lon": 4.5647197
    },
    {
      "type": "node",
      "id": 7643494816,
      "lat": 51.0825377,
      "lon": 4.5645712
    },
    {
      "type": "node",
      "id": 2386676062,
      "lat": 51.1199872,
      "lon": 4.5663895
    },
    {
      "type": "node",
      "id": 2386676065,
      "lat": 51.119998,
      "lon": 4.5663993
    }
  ]
}