{
  "version": 0.6,
  "generator": "Overpass API 0.7.57.1 74a55df1",
  "osm3s": {
    "timestamp_osm_base": "2021-12-11T04:03:57Z",
    "copyright": "The data included in this document is from www.openstreetmap.org. The data is made available under ODbL."
  },
  "elements": [
    {
      "type": "node",
      "id": 42369167,
      "lat": 51.3263827,
      "lon": 3.4842359,
      "tags": {
        "amenity": "parking",
        "name": "Veerhoeklaan",
        "parking": "surface"
      }
    },
    {
      "type": "node",
      "id": 42369357,
      "lat": 51.3264536,
      "lon": 3.4861119,
      "tags": {
        "amenity": "parking",
        "name": "Veerhoeklaan",
        "parking": "surface"
      }
    },
    {
      "type": "node",
      "id": 1169747974,
      "lat": 51.30693,
      "lon": 3.45199,
      "tags": {
        "leisure": "bird_hide",
        "name": "Sophiapolder - Vogelkijkhut",
        "note": "Sophiapolder - Vogelkijkhut",
        "shelter": "yes",
        "shelter_type": "wildlife_hide"
      }
    },
    {
      "type": "node",
      "id": 2020276393,
      "lat": 51.3260424,
      "lon": 3.4277603,
      "tags": {
        "amenity": "bench",
        "backrest": "yes"
      }
    },
    {
      "type": "node",
      "id": 2079516441,
      "lat": 51.3139495,
      "lon": 3.4461541,
      "tags": {
        "amenity": "bench"
      }
    },
    {
      "type": "node",
      "id": 2612112041,
      "lat": 51.322267,
      "lon": 3.4868443,
      "tags": {
        "board_type": "history",
        "information": "board",
        "name": "Spaans-Staatse Linie",
        "tourism": "information"
      }
    },
    {
      "type": "node",
      "id": 2651727418,
      "lat": 51.334913,
      "lon": 3.4653848,
      "tags": {
        "board_type": "history",
        "information": "board",
        "name": "Staatse-Spaanse Linies",
        "tourism": "information"
      }
    },
    {
      "type": "node",
      "id": 2651727432,
      "lat": 51.3256363,
      "lon": 3.4352059,
      "tags": {
        "amenity": "bench"
      }
    },
    {
      "type": "node",
      "id": 2651727452,
      "lat": 51.3349095,
      "lon": 3.4658243,
      "tags": {
        "amenity": "bench"
      }
    },
    {
      "type": "node",
      "id": 2651727462,
      "lat": 51.3350543,
      "lon": 3.4657681,
      "tags": {
        "amenity": "bench"
      }
    },
    {
      "type": "node",
      "id": 3377620000,
      "lat": 51.3061296,
      "lon": 3.5126815,
      "tags": {
        "board_type": "history",
        "description": "Batterij De Keizer",
        "information": "board",
        "name": "Spaans-Staatse Linie",
        "tourism": "information"
      }
    },
    {
      "type": "node",
      "id": 3377620001,
      "lat": 51.3209648,
      "lon": 3.4984554,
      "tags": {
        "board_type": "history",
        "description": "Spek en Brood",
        "information": "board",
        "name": "Spaans-Staatse Linie",
        "tourism": "information"
      }
    },
    {
      "type": "node",
      "id": 3377620002,
      "lat": 51.294139,
      "lon": 3.4978374,
      "tags": {
        "amenity": "bench"
      }
    },
    {
      "type": "node",
      "id": 3377620004,
      "lat": 51.3059876,
      "lon": 3.51252,
      "tags": {
        "amenity": "bench"
      }
    },
    {
      "type": "node",
      "id": 3377620005,
      "lat": 51.3214107,
      "lon": 3.4943673,
      "tags": {
        "amenity": "bench"
      }
    },
    {
      "type": "node",
      "id": 3377620007,
      "lat": 51.3221197,
      "lon": 3.4866974,
      "tags": {
        "amenity": "bench"
      }
    },
    {
      "type": "node",
      "id": 3377620008,
      "lat": 51.322235,
      "lon": 3.4869062,
      "tags": {
        "amenity": "bench"
      }
    },
    {
      "type": "node",
      "id": 3377620009,
      "lat": 51.3241626,
      "lon": 3.4986827,
      "tags": {
        "amenity": "bench",
        "backrest": "yes"
      }
    },
    {
      "type": "node",
      "id": 3377620011,
      "lat": 51.324243,
      "lon": 3.4999712,
      "tags": {
        "amenity": "bench",
        "backrest": "yes"
      }
    },
    {
      "type": "node",
      "id": 3377620013,
      "lat": 51.3243762,
      "lon": 3.5022238,
      "tags": {
        "amenity": "bench",
        "backrest": "yes"
      }
    },
    {
      "type": "node",
      "id": 3377620016,
      "lat": 51.3246325,
      "lon": 3.5069608,
      "tags": {
        "amenity": "bench"
      }
    },
    {
      "type": "node",
      "id": 4385076904,
      "lat": 51.3262303,
      "lon": 3.488655,
      "tags": {
        "addr:city": "Oostburg",
        "addr:street": "Kerkplein",
        "amenity": "parking",
        "capacity": "4",
        "fee": "no",
        "note": "Blauwe zone: Parkeer schijf gebruiken. Max 2 uur",
        "park_ride": "no",
        "parking": "surface",
        "supervised": "no",
        "surface": "paved"
      }
    },
    {
      "type": "node",
      "id": 4385076905,
      "lat": 51.3260598,
      "lon": 3.4884078,
      "tags": {
        "addr:city": "Oostburg",
        "addr:street": "Burgemeester Erasmusstraat",
        "amenity": "parking",
        "capacity": "4",
        "fee": "no",
        "note": "Blauwe zone: Parkeer schijf gebruiken. Max 2 uur",
        "park_ride": "no",
        "parking": "surface",
        "supervised": "no",
        "surface": "paved"
      }
    },
    {
      "type": "node",
      "id": 4385076906,
      "lat": 51.3264309,
      "lon": 3.4890378,
      "tags": {
        "addr:city": "Oostburg",
        "addr:street": "Kerkplein",
        "amenity": "parking",
        "capacity": "20",
        "fee": "no",
        "note": "Blauwe zone: Parkeer schijf gebruiken. Max 2 uur",
        "park_ride": "no",
        "parking": "surface",
        "supervised": "no",
        "surface": "paved"
      }
    },
    {
      "type": "node",
      "id": 4573243291,
      "lat": 51.3269881,
      "lon": 3.4882304,
      "tags": {
        "addr:city": "Oostburg",
        "addr:street": "Burchtstraat",
        "amenity": "parking",
        "capacity": "2",
        "fee": "no",
        "maxstay:conditional": "2 hours @ (Mo-Sa 09:00-16:00)",
        "note": "Blauwe zone: Parkeer schijf gebruiken. Max 2 uur",
        "park_ride": "no",
        "parking": "surface",
        "supervised": "no",
        "wheelchair": "yes"
      }
    },
    {
      "type": "node",
      "id": 4573243292,
      "lat": 51.3269493,
      "lon": 3.4884587,
      "tags": {
        "addr:city": "Oostburg",
        "addr:street": "Burchtstraat",
        "amenity": "parking",
        "capacity": "2",
        "fee": "no",
        "maxstay:conditional": "2 hours @ (Mo-Sa 09:00-16:00)",
        "note": "Blauwe zone: Parkeer schijf gebruiken. Max 2 uur",
        "park_ride": "no",
        "parking": "surface",
        "supervised": "no",
        "wheelchair": "yes"
      }
    },
    {
      "type": "node",
      "id": 4573243293,
      "lat": 51.3270583,
      "lon": 3.4886985,
      "tags": {
        "addr:city": "Oostburg",
        "addr:street": "Burchtstraat",
        "amenity": "parking",
        "capacity": "2",
        "fee": "no",
        "maxstay:conditional": "2 hours @ (Mo-Sa 09:00-16:00)",
        "note": "Blauwe zone: Parkeer schijf gebruiken. Max 2 uur",
        "park_ride": "no",
        "parking": "surface",
        "supervised": "no",
        "wheelchair": "yes"
      }
    },
    {
      "type": "node",
      "id": 4573243294,
      "lat": 51.3270229,
      "lon": 3.4889991,
      "tags": {
        "addr:city": "Oostburg",
        "addr:street": "Burchtstraat",
        "amenity": "parking",
        "capacity": "2",
        "fee": "no",
        "maxstay:conditional": "2 hours @ (Mo-Sa 09:00-16:00)",
        "note": "Blauwe zone: Parkeer schijf gebruiken. Max 2 uur",
        "park_ride": "no",
        "parking": "surface",
        "supervised": "no",
        "wheelchair": "yes"
      }
    },
    {
      "type": "node",
      "id": 4575336826,
      "lat": 51.319088,
      "lon": 3.4929789,
      "tags": {
        "access": "customers",
        "addr:city": "Oostburg",
        "amenity": "parking",
        "capacity": "50",
        "fee": "no",
        "park_ride": "no",
        "parking": "surface",
        "supervised": "no",
        "wheelchair": "yes"
      }
    },
    {
      "type": "node",
      "id": 4612219119,
      "lat": 51.3269587,
      "lon": 3.487824,
      "tags": {
        "amenity": "bench",
        "backrest": "no"
      }
    },
    {
      "type": "node",
      "id": 4612219120,
      "lat": 51.3269595,
      "lon": 3.4878864,
      "tags": {
        "amenity": "bench",
        "backrest": "no"
      }
    },
    {
      "type": "node",
      "id": 4612219125,
      "lat": 51.3269701,
      "lon": 3.4881351,
      "tags": {
        "amenity": "bench",
        "backrest": "no"
      }
    },
    {
      "type": "node",
      "id": 4612219127,
      "lat": 51.3266701,
      "lon": 3.4875899,
      "tags": {
        "amenity": "bench",
        "backrest": "no"
      }
    },
    {
      "type": "node",
      "id": 4612219130,
      "lat": 51.3267126,
      "lon": 3.4878023,
      "tags": {
        "amenity": "bench",
        "backrest": "no"
      }
    },
    {
      "type": "node",
      "id": 4668391361,
      "lat": 51.3411059,
      "lon": 3.4509451,
      "tags": {
        "amenity": "bench",
        "backrest": "yes"
      }
    },
    {
      "type": "node",
      "id": 4668628898,
      "lat": 51.3283954,
      "lon": 3.4945834,
      "tags": {
        "amenity": "bench",
        "backrest": "yes",
        "wheelchair": "yes"
      }
    },
    {
      "type": "node",
      "id": 4946804267,
      "lat": 51.3248252,
      "lon": 3.4834318,
      "tags": {
        "board_type": "terminal",
        "information": "board",
        "tourism": "information"
      }
    },
    {
      "type": "node",
      "id": 4946804268,
      "lat": 51.3249584,
      "lon": 3.483352,
      "tags": {
        "board_type": "public_transport",
        "information": "board",
        "tourism": "information"
      }
    },
    {
      "type": "node",
      "id": 4946804269,
      "lat": 51.3249265,
      "lon": 3.4834095,
      "tags": {
        "board_type": "public_transport",
        "information": "board",
        "tourism": "information"
      }
    },
    {
      "type": "node",
      "id": 4946804270,
      "lat": 51.3248914,
      "lon": 3.4834727,
      "tags": {
        "board_type": "public_transport",
        "information": "board",
        "tourism": "information"
      }
    },
    {
      "type": "node",
      "id": 4948551608,
      "lat": 51.2983809,
      "lon": 3.4282695,
      "tags": {
        "leisure": "picnic_table"
      }
    },
    {
      "type": "node",
      "id": 5310240218,
      "lat": 51.3249807,
      "lon": 3.4820761,
      "tags": {
        "access": "permissive",
        "amenity": "parking",
        "capacity": "1",
        "fee": "no",
        "name": "Senioren 70+ Parkeerlaats",
        "park_ride": "no",
        "parking": "surface",
        "supervised": "no"
      }
    },
    {
      "type": "node",
      "id": 5310422711,
      "lat": 51.3249438,
      "lon": 3.4820877,
      "tags": {
        "access": "no",
        "addr:city": "Oostburg",
        "amenity": "parking",
        "capacity": "1",
        "fee": "no",
        "name": "Reserved for Doctor",
        "operator": "Antonius Ziekenhuis",
        "park_ride": "no",
        "parking": "surface",
        "supervised": "no"
      }
    },
    {
      "type": "node",
      "id": 5310422714,
      "lat": 51.3249068,
      "lon": 3.4821044,
      "tags": {
        "access": "customers",
        "addr:city": "Oostburg",
        "amenity": "parking",
        "capacity": "2",
        "fee": "no",
        "name": "Handikap Parking",
        "operator": "Antonius Ziekenhuis",
        "park_ride": "no",
        "parking": "surface",
        "supervised": "no"
      }
    },
    {
      "type": "node",
      "id": 5420338517,
      "lat": 51.3258928,
      "lon": 3.4894069,
      "tags": {
        "addr:city": "Oostburg",
        "amenity": "parking",
        "capacity": "30",
        "fee": "no",
        "park_ride": "no",
        "parking": "surface",
        "supervised": "no",
        "wheelchair": "yes"
      }
    },
    {
      "type": "node",
      "id": 7556058255,
      "lat": 51.325452,
      "lon": 3.4298499,
      "tags": {
        "backrest": "no",
        "leisure": "picnic_table"
      }
    },
    {
      "type": "way",
      "id": 61043901,
      "nodes": [
        764082343,
        764082350,
        764082348,
        764082349,
        1169748805,
        764082343
      ],
      "tags": {
        "building": "yes",
        "leisure": "bird_hide",
        "name": "Het Groote Gat - Vogelkijkhut",
        "note": "Het Groote Gat - Vogelkijkhut"
      }
    },
    {
      "type": "way",
      "id": 372567656,
      "nodes": [
        3761280741,
        3761280752,
        3761280765,
        3761280779,
        3761280786,
        3761280787,
        3761280785,
        3761280772,
        3761280776,
        3761280750,
        3761280730,
        3761280724,
        4883404786,
        3761280723,
        3761280741
      ],
      "tags": {
        "access": "customers",
        "addr:city": "Oostburg",
        "addr:street": "Veerhoeklaan",
        "amenity": "parking",
        "capacity": "100",
        "fee": "no",
        "maxstay": "2 hours",
        "park_ride": "no",
        "parking": "surface",
        "supervised": "no",
        "surface": "paved",
        "wheelchair": "yes"
      }
    },
    {
      "type": "way",
      "id": 372567657,
      "nodes": [
        3761280760,
        3761280757,
        3761280761,
        3761280768,
        3761280778,
        3761280775,
        3761280770,
        3761280764,
        7939555102,
        3761280734,
        3761280740,
        3761280749,
        3761280751,
        3761280736,
        3761280729,
        42367283,
        3761280731,
        3761280735,
        3761280756,
        3761280760
      ],
      "tags": {
        "amenity": "parking",
        "capacity": "100",
        "fee": "no",
        "parking": "surface",
        "supervised": "no",
        "wheelchair": "limited"
      }
    },
    {
      "type": "way",
      "id": 372567665,
      "nodes": [
        3761280788,
        3761280781,
        3761280777,
        3761280784,
        3761280788
      ],
      "tags": {
        "addr:city": "Oostburg",
        "addr:postcode": "4501AE",
        "addr:street": "Veerhoeklaan",
        "amenity": "parking",
        "capacity": "10",
        "fee": "no",
        "park_ride": "no",
        "parking": "surface",
        "supervised": "no",
        "wheelchair": "yes"
      }
    },
    {
      "type": "way",
      "id": 373138816,
      "nodes": [
        2762786065,
        3766537613,
        3766537614,
        3766537615,
        3779746228,
        2762784540,
        2762784781,
        2762785537,
        2762786065
      ],
      "tags": {
        "access": "private",
        "addr:city": "Oostburg",
        "addr:postcode": "4501JG",
        "addr:street": "Weststraat",
        "amenity": "parking",
        "capacity": "2",
        "fee": "no",
        "park_ride": "no",
        "parking": "surface",
        "supervised": "yes",
        "surface": "paved"
      }
    },
    {
      "type": "way",
      "id": 373139148,
      "nodes": [
        3766546897,
        2762794291,
        2762793806,
        3779746255,
        3786478657,
        3766546898,
        3766546897
      ],
      "tags": {
        "access": "private",
        "amenity": "parking",
        "capacity": "10",
        "fee": "no",
        "park_ride": "no",
        "parking": "surface",
        "supervised": "yes",
        "surface": "gravel"
      }
    },
    {
      "type": "way",
      "id": 375211048,
      "nodes": [
        879590801,
        3785957866,
        3785957867,
        3785957868,
        3785957869,
        3785957870,
        879590801
      ],
      "tags": {
        "access": "permissive",
        "addr:city": "Oostburg",
        "addr:street": "Baljuw Veltersweg",
        "amenity": "parking",
        "capacity": "10",
        "fee": "no",
        "park_ride": "no",
        "parking": "surface",
        "supervised": "no",
        "surface": "gravel"
      }
    },
    {
      "type": "way",
      "id": 375215980,
      "nodes": [
        3786009851,
        2762785216,
        2762784762,
        3786009853,
        3786009852,
        3786009851
      ],
      "tags": {
        "access": "private",
        "addr:city": "Oostburg",
        "addr:postcode": "4501JG",
        "addr:street": "Weststraat",
        "amenity": "parking",
        "capacity": "1",
        "fee": "no",
        "park_ride": "no",
        "parking": "surface",
        "supervised": "yes",
        "surface": "paved"
      }
    },
    {
      "type": "way",
      "id": 375223240,
      "nodes": [
        3786088957,
        3786088958,
        3786088959,
        3786088960,
        3786088957
      ],
      "tags": {
        "access": "customers",
        "addr:city": "Oostburg",
        "amenity": "parking",
        "capacity": "3",
        "fee": "no",
        "park_ride": "no",
        "parking": "surface",
        "supervised": "yes"
      }
    },
    {
      "type": "way",
      "id": 375223241,
      "nodes": [
        3786088961,
        3786088962,
        3786088963,
        3786088964,
        3786088961
      ],
      "tags": {
        "access": "private",
        "addr:city": "Oostburg",
        "addr:street": "Trageldam",
        "amenity": "parking",
        "capacity": "10",
        "fee": "no",
        "park_ride": "no",
        "parking": "surface",
        "supervised": "yes",
        "surface": "paved"
      }
    },
    {
      "type": "way",
      "id": 375223242,
      "nodes": [
        3786088965,
        3786088966,
        3786088967,
        3786088968,
        3786088965
      ],
      "tags": {
        "access": "private",
        "addr:city": "Oostburg",
        "amenity": "parking",
        "capacity": "16",
        "fee": "no",
        "park_ride": "no",
        "parking": "surface",
        "supervised": "no",
        "surface": "paved"
      }
    },
    {
      "type": "way",
      "id": 375223243,
      "nodes": [
        3786088969,
        3786088970,
        3786088971,
        3786088972,
        3786088969
      ],
      "tags": {
        "access": "private",
        "addr:city": "Oostburg",
        "amenity": "parking",
        "capacity": "9",
        "fee": "no",
        "park_ride": "no",
        "parking": "surface",
        "supervised": "no"
      }
    },
    {
      "type": "way",
      "id": 375223244,
      "nodes": [
        3786088973,
        3786088974,
        3786088975,
        3786088976,
        3786088973
      ],
      "tags": {
        "access": "customers",
        "addr:city": "Oostburg",
        "amenity": "parking",
        "capacity": "10",
        "fee": "no",
        "note": "Fitness",
        "park_ride": "no",
        "parking": "surface",
        "supervised": "yes"
      }
    },
    {
      "type": "way",
      "id": 375223245,
      "nodes": [
        3786088977,
        3786088978,
        3786088979,
        3786088980,
        3786088977
      ],
      "tags": {
        "access": "customers",
        "addr:city": "Oostburg",
        "amenity": "parking",
        "capacity": "6",
        "fee": "no",
        "park_ride": "no",
        "parking": "surface",
        "supervised": "yes"
      }
    },
    {
      "type": "way",
      "id": 375223246,
      "nodes": [
        3786088981,
        3786088982,
        3786088983,
        3786088984,
        5516474686,
        3786088981
      ],
      "tags": {
        "addr:city": "Oostburg",
        "amenity": "parking",
        "capacity": "17",
        "fee": "no",
        "park_ride": "no",
        "parking": "surface",
        "supervised": "no"
      }
    },
    {
      "type": "way",
      "id": 375223247,
      "nodes": [
        2762741804,
        3786088985,
        4264491224,
        3786088986,
        3786088987,
        3786088988,
        2762741804
      ],
      "tags": {
        "access": "customers",
        "amenity": "parking",
        "capacity": "6",
        "fee": "no",
        "maxstay": "1 hour",
        "operator": "Lidl",
        "park_ride": "no",
        "parking": "surface",
        "supervised": "no",
        "surface": "asphalt"
      }
    },
    {
      "type": "way",
      "id": 375223249,
      "nodes": [
        3786088991,
        3786088992,
        3786088993,
        3786088994,
        3786088995,
        3786088996,
        3786088997,
        4264491221,
        3786088998,
        4264491215,
        3786088999,
        3786089000,
        3786089001,
        4264491210,
        3786089002,
        3786089003,
        3786089004,
        3786089005,
        3786088991
      ],
      "tags": {
        "access": "customers",
        "amenity": "parking",
        "capacity": "40",
        "fee": "no",
        "maxstay": "1 hour",
        "operator": "Lidl",
        "park_ride": "no",
        "parking": "surface",
        "supervised": "no",
        "surface": "asphalt"
      }
    },
    {
      "type": "way",
      "id": 375223250,
      "nodes": [
        3786089007,
        3786089008,
        3786089009,
        4264491207,
        3786089010,
        3786089011,
        4264491211,
        3786089007
      ],
      "tags": {
        "access": "customers",
        "amenity": "parking",
        "capacity": "7",
        "fee": "no",
        "maxstay": "1 hour",
        "operator": "Lidl",
        "park_ride": "no",
        "parking": "surface",
        "supervised": "no",
        "surface": "asphalt"
      }
    },
    {
      "type": "way",
      "id": 375223251,
      "nodes": [
        3786089012,
        3786089013,
        3786089014,
        3786089015,
        3786089016,
        4264491216,
        3786089012
      ],
      "tags": {
        "access": "customers",
        "amenity": "parking",
        "capacity": "14",
        "fee": "no",
        "operator": "Lidl",
        "park_ride": "no",
        "parking": "surface",
        "supervised": "no",
        "surface": "asphalt"
      }
    },
    {
      "type": "way",
      "id": 375223252,
      "nodes": [
        3786089017,
        3786089018,
        4264491218,
        3786089019,
        3786089020,
        3786089017
      ],
      "tags": {
        "access": "customers",
        "amenity": "parking",
        "capacity": "10",
        "fee": "no",
        "maxstay": "1 hour",
        "operator": "Lidl",
        "park_ride": "no",
        "parking": "surface",
        "supervised": "no",
        "surface": "asphalt"
      }
    },
    {
      "type": "way",
      "id": 375223254,
      "nodes": [
        3786089027,
        3786089028,
        4264491237,
        6693382302,
        6693382301,
        3786089029,
        3786089027
      ],
      "tags": {
        "access": "yes",
        "amenity": "parking",
        "fee": "no",
        "name": "Jumbo",
        "park_ride": "no",
        "parking": "surface",
        "supervised": "no"
      }
    },
    {
      "type": "way",
      "id": 375223408,
      "nodes": [
        3786089237,
        4264491236,
        3786089238,
        3786089239,
        3786089240,
        3786089241,
        3786089242,
        3786089243,
        3786089237
      ],
      "tags": {
        "addr:city": "Oostburg",
        "addr:street": "Ledelplein",
        "amenity": "parking",
        "capacity": "40",
        "fee": "no",
        "note": "Blauwe zone: Parkeer schijf gebruiken. Max 2 uur",
        "park_ride": "no",
        "parking": "surface",
        "supervised": "no",
        "surface": "paved",
        "wheelchair": "yes"
      }
    },
    {
      "type": "way",
      "id": 375223409,
      "nodes": [
        3786089244,
        3786089245,
        3786089246,
        3786089247,
        3786089248,
        3786089249,
        3786089244
      ],
      "tags": {
        "addr:city": "Oostburg",
        "amenity": "parking",
        "capacity": "50",
        "fee": "no",
        "park_ride": "no",
        "parking": "surface",
        "supervised": "no"
      }
    },
    {
      "type": "way",
      "id": 375224511,
      "nodes": [
        3786100865,
        3786100866,
        2762741477,
        3786100867,
        3786100865
      ],
      "tags": {
        "addr:city": "Oostburg",
        "amenity": "parking",
        "capacity": "15",
        "fee": "no",
        "park_ride": "no",
        "parking": "surface",
        "supervised": "no"
      }
    },
    {
      "type": "way",
      "id": 375225559,
      "nodes": [
        2762563652,
        2762563751,
        3786108738,
        2762563548,
        2762563652
      ],
      "tags": {
        "access": "private",
        "amenity": "parking",
        "capacity": "1",
        "fee": "no",
        "park_ride": "no",
        "parking": "surface",
        "supervised": "yes"
      }
    },
    {
      "type": "way",
      "id": 375227205,
      "nodes": [
        2762563872,
        2762563828,
        2762563784,
        2762563806,
        2762563872
      ],
      "tags": {
        "access": "private",
        "addr:city": "Zuidzande",
        "addr:street": "Smidsweg",
        "amenity": "parking",
        "capacity": "1",
        "fee": "no",
        "park_ride": "no",
        "parking": "surface",
        "supervised": "no"
      }
    },
    {
      "type": "way",
      "id": 375251392,
      "nodes": [
        3786396249,
        3786396250,
        3786396251,
        4501113273,
        3786396252,
        3786396249
      ],
      "tags": {
        "access": "customers",
        "addr:city": "Oostburg",
        "addr:street": "Oudestad",
        "amenity": "parking",
        "capacity": "5",
        "fee": "no",
        "park_ride": "no",
        "parking": "surface",
        "supervised": "no"
      }
    },
    {
      "type": "way",
      "id": 375258043,
      "nodes": [
        3786478689,
        3786478690,
        3786478691,
        3786478692,
        5281856706,
        3786478689
      ],
      "tags": {
        "addr:city": "Oostburg",
        "amenity": "parking",
        "capacity": "7",
        "fee": "no",
        "park_ride": "no",
        "parking": "surface",
        "supervised": "no"
      }
    },
    {
      "type": "way",
      "id": 375258044,
      "nodes": [
        3786478693,
        3786478694,
        3786478695,
        3786478696,
        3786478693
      ],
      "tags": {
        "addr:city": "Oostburg",
        "amenity": "parking",
        "capacity": "25",
        "fee": "no",
        "park_ride": "no",
        "parking": "surface",
        "supervised": "no",
        "surface": "paved"
      }
    },
    {
      "type": "way",
      "id": 375258045,
      "nodes": [
        3786478697,
        3786478698,
        3786478699,
        3786478700,
        3786478701,
        3786478697
      ],
      "tags": {
        "addr:city": "Oostburg",
        "amenity": "parking",
        "capacity": "5",
        "fee": "no",
        "park_ride": "no",
        "parking": "surface",
        "supervised": "no"
      }
    },
    {
      "type": "way",
      "id": 439164884,
      "nodes": [
        4367927615,
        4367927616,
        3785955678,
        4367927617,
        4367927615
      ],
      "tags": {
        "access": "customers",
        "amenity": "parking",
        "capacity": "5",
        "name": "Garage Adriaansen",
        "parking": "surface",
        "wheelchair": "yes"
      }
    },
    {
      "type": "way",
      "id": 439164885,
      "nodes": [
        4367927618,
        4367927619,
        4367927620,
        4367927621,
        4367927622,
        4367927623,
        4367927624,
        4367927625,
        4367927627,
        4367927618
      ],
      "tags": {
        "access": "customers",
        "amenity": "parking",
        "capacity": "5",
        "name": "Garage Adriaansen",
        "parking": "surface",
        "wheelchair": "yes"
      }
    },
    {
      "type": "way",
      "id": 461881738,
      "nodes": [
        4573216086,
        7777333221,
        7777333220,
        4573216076,
        879592519,
        4573216086
      ],
      "tags": {
        "amenity": "parking",
        "capacity": "10",
        "fee": "no",
        "park_ride": "no",
        "parking": "surface",
        "supervised": "no",
        "surface": "paved"
      }
    },
    {
      "type": "way",
      "id": 462953311,
      "nodes": [
        4582781619,
        4582781620,
        4582781621,
        4582781622,
        4582781627,
        4582781623,
        4582781624,
        4582781625,
        4582781626,
        4582781619
      ],
      "tags": {
        "access": "permissive",
        "addr:city": "Oostburg",
        "amenity": "parking",
        "capacity": "25",
        "fee": "no",
        "park_ride": "no",
        "parking": "surface",
        "supervised": "no",
        "surface": "asphalt"
      }
    },
    {
      "type": "way",
      "id": 467209193,
      "nodes": [
        4618579037,
        4618579038,
        4618579039,
        4618579040,
        4618579037
      ],
      "tags": {
        "addr:city": "Zuidzande",
        "amenity": "parking",
        "capacity": "6",
        "fee": "no",
        "park_ride": "no",
        "parking": "surface",
        "supervised": "no",
        "surface": "paved"
      }
    },
    {
      "type": "way",
      "id": 467213996,
      "nodes": [
        4618616207,
        4618616208,
        4618616209,
        4618616210,
        4618616207
      ],
      "tags": {
        "addr:city": "Zuidzande",
        "amenity": "parking",
        "capacity": "6",
        "fee": "no",
        "park_ride": "no",
        "parking": "surface",
        "supervised": "no",
        "surface": "paved"
      }
    },
    {
      "type": "way",
      "id": 467213997,
      "nodes": [
        4618616211,
        4618616212,
        4618616213,
        4618616214,
        4618616215,
        4618616216,
        4618616217,
        4618616218,
        4618616211
      ],
      "tags": {
        "addr:city": "Zuidzande",
        "amenity": "parking",
        "capacity": "10",
        "fee": "no",
        "park_ride": "no",
        "parking": "surface",
        "supervised": "no",
        "surface": "paved"
      }
    },
    {
      "type": "way",
      "id": 467213998,
      "nodes": [
        4618616219,
        4618616220,
        4618616221,
        4618616222,
        4618616223,
        4618616219
      ],
      "tags": {
        "addr:city": "Zuidzande",
        "amenity": "parking",
        "capacity": "5",
        "fee": "no",
        "note": "2 marked parking space not allowed to be used every Friday from 16:00-20:00 (due to a French Fries food truck)",
        "park_ride": "no",
        "parking": "surface",
        "supervised": "no",
        "surface": "paved"
      }
    },
    {
      "type": "way",
      "id": 467213999,
      "nodes": [
        4618616224,
        4618616225,
        4618616226,
        4618616227,
        4618616228,
        4618616224
      ],
      "tags": {
        "addr:city": "Zuidzande",
        "amenity": "parking",
        "capacity": "10",
        "fee": "no",
        "park_ride": "no",
        "parking": "surface",
        "supervised": "no",
        "surface": "paved"
      }
    },
    {
      "type": "way",
      "id": 504531789,
      "nodes": [
        4946804358,
        4946804357,
        4946804356,
        4946804355,
        4946804358
      ],
      "tags": {
        "access": "permissive",
        "amenity": "parking",
        "capacity": "6",
        "fee": "no",
        "operator": "Antonius Ziekenhuis",
        "park_ride": "no",
        "parking": "surface",
        "source": "PDOK aerial imagery (2016)",
        "supervised": "no",
        "surface": "paved",
        "wheelchair": "yes"
      }
    },
    {
      "type": "way",
      "id": 504531796,
      "nodes": [
        879599309,
        879599290,
        4946804569,
        4946804403,
        4946804402,
        4946804401,
        4946804400,
        4946804399,
        4946804391,
        4946804398,
        4946804397,
        4946804396,
        4946804395,
        4946804394,
        4946804393,
        4946804392,
        879599335,
        879599326,
        879599319,
        879599314,
        879599309
      ],
      "tags": {
        "access": "customers",
        "addr:city": "Oostburg",
        "amenity": "parking",
        "capacity": "50",
        "fee": "no",
        "operator": "Antonius Ziekenhuis",
        "park_ride": "no",
        "parking": "surface",
        "source": "PDOK aerial imagery (2016)",
        "supervised": "no"
      }
    },
    {
      "type": "way",
      "id": 504531806,
      "nodes": [
        879590373,
        4946804454,
        4946804453,
        4946804452,
        4946804451,
        4946804450,
        879590316,
        879590319,
        879590323,
        879590377,
        879590373
      ],
      "tags": {
        "access": "customers",
        "addr:city": "Oostburg",
        "amenity": "parking",
        "capacity": "50",
        "fee": "no",
        "operator": "Antonius Ziekenhuis",
        "park_ride": "no",
        "parking": "surface",
        "source": "PDOK aerial imagery (2016)",
        "supervised": "no",
        "wheelchair": "yes"
      }
    },
    {
      "type": "way",
      "id": 504531810,
      "nodes": [
        4946804483,
        4946804482,
        4946804481,
        4946804470,
        879590514,
        4946804487,
        4946804488,
        4946804485,
        4946804484,
        879590537,
        4946804480,
        4946804479,
        4946804478,
        4946804466,
        4946804496,
        4946804489,
        4946804472,
        4946804477,
        4946804483
      ],
      "tags": {
        "amenity": "parking",
        "parking": "surface",
        "source": "PDOK aerial imagery (2016)"
      }
    },
    {
      "type": "way",
      "id": 504531813,
      "nodes": [
        4946804510,
        879590709,
        879590606,
        879590641,
        4946804509,
        4946804508,
        4946804507,
        4946804523,
        4946804506,
        4946804505,
        4946804510
      ],
      "tags": {
        "amenity": "parking",
        "parking": "surface",
        "source": "PDOK aerial imagery (2016)"
      }
    },
    {
      "type": "way",
      "id": 504531816,
      "nodes": [
        879590225,
        879590241,
        4946804532,
        4946804531,
        4946804533,
        879590225
      ],
      "tags": {
        "amenity": "parking",
        "parking": "surface",
        "source": "PDOK aerial imagery (2016)"
      }
    },
    {
      "type": "node",
      "id": 42369167,
      "lat": 51.3263827,
      "lon": 3.4842359,
      "timestamp": "2018-02-23T10:37:06Z",
      "version": 6,
      "changeset": 56605474,
      "user": "AdVerburg",
      "uid": 2831457,
      "tags": {
        "amenity": "parking",
        "name": "Veerhoeklaan",
        "parking": "surface"
      }
    },
    {
      "type": "node",
      "id": 42369357,
      "lat": 51.3264536,
      "lon": 3.4861119,
      "timestamp": "2018-02-23T10:37:07Z",
      "version": 4,
      "changeset": 56605474,
      "user": "AdVerburg",
      "uid": 2831457,
      "tags": {
        "amenity": "parking",
        "name": "Veerhoeklaan",
        "parking": "surface"
      }
    },
    {
      "type": "node",
      "id": 1169747974,
      "lat": 51.30693,
      "lon": 3.45199,
      "timestamp": "2016-12-22T15:19:23Z",
      "version": 2,
      "changeset": 44592837,
      "user": "nurdafur",
      "uid": 3172019,
      "tags": {
        "leisure": "bird_hide",
        "name": "Sophiapolder - Vogelkijkhut",
        "note": "Sophiapolder - Vogelkijkhut",
        "shelter": "yes",
        "shelter_type": "wildlife_hide"
      }
    },
    {
      "type": "node",
      "id": 2020276393,
      "lat": 51.3260424,
      "lon": 3.4277603,
      "timestamp": "2020-05-25T11:51:51Z",
      "version": 2,
      "changeset": 85716166,
      "user": "Steven te Brinke",
      "uid": 25231,
      "tags": {
        "amenity": "bench",
        "backrest": "yes"
      }
    },
    {
      "type": "node",
      "id": 2079516441,
      "lat": 51.3139495,
      "lon": 3.4461541,
      "timestamp": "2012-12-23T08:26:56Z",
      "version": 1,
      "changeset": 14374912,
      "user": "peeweeke",
      "uid": 494726,
      "tags": {
        "amenity": "bench"
      }
    },
    {
      "type": "node",
      "id": 2612112041,
      "lat": 51.322267,
      "lon": 3.4868443,
      "timestamp": "2014-01-06T12:17:47Z",
      "version": 1,
      "changeset": 19842435,
      "user": "peeweeke",
      "uid": 494726,
      "tags": {
        "board_type": "history",
        "information": "board",
        "name": "Spaans-Staatse Linie",
        "tourism": "information"
      }
    },
    {
      "type": "node",
      "id": 2651727418,
      "lat": 51.334913,
      "lon": 3.4653848,
      "timestamp": "2014-02-03T11:33:40Z",
      "version": 1,
      "changeset": 20350711,
      "user": "peeweeke",
      "uid": 494726,
      "tags": {
        "board_type": "history",
        "information": "board",
        "name": "Staatse-Spaanse Linies",
        "tourism": "information"
      }
    },
    {
      "type": "node",
      "id": 2651727432,
      "lat": 51.3256363,
      "lon": 3.4352059,
      "timestamp": "2014-02-03T11:33:41Z",
      "version": 1,
      "changeset": 20350711,
      "user": "peeweeke",
      "uid": 494726,
      "tags": {
        "amenity": "bench"
      }
    },
    {
      "type": "node",
      "id": 2651727452,
      "lat": 51.3349095,
      "lon": 3.4658243,
      "timestamp": "2014-02-03T11:33:41Z",
      "version": 1,
      "changeset": 20350711,
      "user": "peeweeke",
      "uid": 494726,
      "tags": {
        "amenity": "bench"
      }
    },
    {
      "type": "node",
      "id": 2651727462,
      "lat": 51.3350543,
      "lon": 3.4657681,
      "timestamp": "2014-02-03T11:33:42Z",
      "version": 1,
      "changeset": 20350711,
      "user": "peeweeke",
      "uid": 494726,
      "tags": {
        "amenity": "bench"
      }
    },
    {
      "type": "node",
      "id": 3377620000,
      "lat": 51.3061296,
      "lon": 3.5126815,
      "timestamp": "2015-03-01T10:52:55Z",
      "version": 1,
      "changeset": 29174265,
      "user": "peeweeke",
      "uid": 494726,
      "tags": {
        "board_type": "history",
        "description": "Batterij De Keizer",
        "information": "board",
        "name": "Spaans-Staatse Linie",
        "tourism": "information"
      }
    },
    {
      "type": "node",
      "id": 3377620001,
      "lat": 51.3209648,
      "lon": 3.4984554,
      "timestamp": "2015-03-01T10:52:56Z",
      "version": 1,
      "changeset": 29174265,
      "user": "peeweeke",
      "uid": 494726,
      "tags": {
        "board_type": "history",
        "description": "Spek en Brood",
        "information": "board",
        "name": "Spaans-Staatse Linie",
        "tourism": "information"
      }
    },
    {
      "type": "node",
      "id": 3377620002,
      "lat": 51.294139,
      "lon": 3.4978374,
      "timestamp": "2015-03-01T10:52:56Z",
      "version": 1,
      "changeset": 29174265,
      "user": "peeweeke",
      "uid": 494726,
      "tags": {
        "amenity": "bench"
      }
    },
    {
      "type": "node",
      "id": 3377620004,
      "lat": 51.3059876,
      "lon": 3.51252,
      "timestamp": "2015-03-01T10:52:56Z",
      "version": 1,
      "changeset": 29174265,
      "user": "peeweeke",
      "uid": 494726,
      "tags": {
        "amenity": "bench"
      }
    },
    {
      "type": "node",
      "id": 3377620005,
      "lat": 51.3214107,
      "lon": 3.4943673,
      "timestamp": "2015-03-01T10:52:56Z",
      "version": 1,
      "changeset": 29174265,
      "user": "peeweeke",
      "uid": 494726,
      "tags": {
        "amenity": "bench"
      }
    },
    {
      "type": "node",
      "id": 3377620007,
      "lat": 51.3221197,
      "lon": 3.4866974,
      "timestamp": "2015-03-01T10:52:56Z",
      "version": 1,
      "changeset": 29174265,
      "user": "peeweeke",
      "uid": 494726,
      "tags": {
        "amenity": "bench"
      }
    },
    {
      "type": "node",
      "id": 3377620008,
      "lat": 51.322235,
      "lon": 3.4869062,
      "timestamp": "2015-03-01T10:52:56Z",
      "version": 1,
      "changeset": 29174265,
      "user": "peeweeke",
      "uid": 494726,
      "tags": {
        "amenity": "bench"
      }
    },
    {
      "type": "node",
      "id": 3377620009,
      "lat": 51.3241626,
      "lon": 3.4986827,
      "timestamp": "2016-09-05T18:51:28Z",
      "version": 2,
      "changeset": 41938523,
      "user": "Henkie100",
      "uid": 2249743,
      "tags": {
        "amenity": "bench",
        "backrest": "yes"
      }
    },
    {
      "type": "node",
      "id": 3377620011,
      "lat": 51.324243,
      "lon": 3.4999712,
      "timestamp": "2016-09-05T18:51:28Z",
      "version": 2,
      "changeset": 41938523,
      "user": "Henkie100",
      "uid": 2249743,
      "tags": {
        "amenity": "bench",
        "backrest": "yes"
      }
    },
    {
      "type": "node",
      "id": 3377620013,
      "lat": 51.3243762,
      "lon": 3.5022238,
      "timestamp": "2016-09-05T18:51:28Z",
      "version": 2,
      "changeset": 41938523,
      "user": "Henkie100",
      "uid": 2249743,
      "tags": {
        "amenity": "bench",
        "backrest": "yes"
      }
    },
    {
      "type": "node",
      "id": 3377620016,
      "lat": 51.3246325,
      "lon": 3.5069608,
      "timestamp": "2015-09-27T10:01:51Z",
      "version": 2,
      "changeset": 34279064,
      "user": "JanFi",
      "uid": 672253,
      "tags": {
        "amenity": "bench"
      }
    },
    {
      "type": "node",
      "id": 4385076904,
      "lat": 51.3262303,
      "lon": 3.488655,
      "timestamp": "2016-12-26T13:00:33Z",
      "version": 2,
      "changeset": 44681985,
      "user": "Henkie100",
      "uid": 2249743,
      "tags": {
        "addr:city": "Oostburg",
        "addr:street": "Kerkplein",
        "amenity": "parking",
        "capacity": "4",
        "fee": "no",
        "note": "Blauwe zone: Parkeer schijf gebruiken. Max 2 uur",
        "park_ride": "no",
        "parking": "surface",
        "supervised": "no",
        "surface": "paved"
      }
    },
    {
      "type": "node",
      "id": 4385076905,
      "lat": 51.3260598,
      "lon": 3.4884078,
      "timestamp": "2016-12-26T13:00:33Z",
      "version": 2,
      "changeset": 44681985,
      "user": "Henkie100",
      "uid": 2249743,
      "tags": {
        "addr:city": "Oostburg",
        "addr:street": "Burgemeester Erasmusstraat",
        "amenity": "parking",
        "capacity": "4",
        "fee": "no",
        "note": "Blauwe zone: Parkeer schijf gebruiken. Max 2 uur",
        "park_ride": "no",
        "parking": "surface",
        "supervised": "no",
        "surface": "paved"
      }
    },
    {
      "type": "node",
      "id": 4385076906,
      "lat": 51.3264309,
      "lon": 3.4890378,
      "timestamp": "2016-12-26T13:00:34Z",
      "version": 2,
      "changeset": 44681985,
      "user": "Henkie100",
      "uid": 2249743,
      "tags": {
        "addr:city": "Oostburg",
        "addr:street": "Kerkplein",
        "amenity": "parking",
        "capacity": "20",
        "fee": "no",
        "note": "Blauwe zone: Parkeer schijf gebruiken. Max 2 uur",
        "park_ride": "no",
        "parking": "surface",
        "supervised": "no",
        "surface": "paved"
      }
    },
    {
      "type": "node",
      "id": 4573243291,
      "lat": 51.3269881,
      "lon": 3.4882304,
      "timestamp": "2020-01-13T13:35:40Z",
      "version": 2,
      "changeset": 79518654,
      "user": "AdVerburg",
      "uid": 2831457,
      "tags": {
        "addr:city": "Oostburg",
        "addr:street": "Burchtstraat",
        "amenity": "parking",
        "capacity": "2",
        "fee": "no",
        "maxstay:conditional": "2 hours @ (Mo-Sa 09:00-16:00)",
        "note": "Blauwe zone: Parkeer schijf gebruiken. Max 2 uur",
        "park_ride": "no",
        "parking": "surface",
        "supervised": "no",
        "wheelchair": "yes"
      }
    },
    {
      "type": "node",
      "id": 4573243292,
      "lat": 51.3269493,
      "lon": 3.4884587,
      "timestamp": "2020-01-13T13:35:40Z",
      "version": 2,
      "changeset": 79518654,
      "user": "AdVerburg",
      "uid": 2831457,
      "tags": {
        "addr:city": "Oostburg",
        "addr:street": "Burchtstraat",
        "amenity": "parking",
        "capacity": "2",
        "fee": "no",
        "maxstay:conditional": "2 hours @ (Mo-Sa 09:00-16:00)",
        "note": "Blauwe zone: Parkeer schijf gebruiken. Max 2 uur",
        "park_ride": "no",
        "parking": "surface",
        "supervised": "no",
        "wheelchair": "yes"
      }
    },
    {
      "type": "node",
      "id": 4573243293,
      "lat": 51.3270583,
      "lon": 3.4886985,
      "timestamp": "2020-01-13T13:35:40Z",
      "version": 2,
      "changeset": 79518654,
      "user": "AdVerburg",
      "uid": 2831457,
      "tags": {
        "addr:city": "Oostburg",
        "addr:street": "Burchtstraat",
        "amenity": "parking",
        "capacity": "2",
        "fee": "no",
        "maxstay:conditional": "2 hours @ (Mo-Sa 09:00-16:00)",
        "note": "Blauwe zone: Parkeer schijf gebruiken. Max 2 uur",
        "park_ride": "no",
        "parking": "surface",
        "supervised": "no",
        "wheelchair": "yes"
      }
    },
    {
      "type": "node",
      "id": 4573243294,
      "lat": 51.3270229,
      "lon": 3.4889991,
      "timestamp": "2020-01-13T13:35:40Z",
      "version": 2,
      "changeset": 79518654,
      "user": "AdVerburg",
      "uid": 2831457,
      "tags": {
        "addr:city": "Oostburg",
        "addr:street": "Burchtstraat",
        "amenity": "parking",
        "capacity": "2",
        "fee": "no",
        "maxstay:conditional": "2 hours @ (Mo-Sa 09:00-16:00)",
        "note": "Blauwe zone: Parkeer schijf gebruiken. Max 2 uur",
        "park_ride": "no",
        "parking": "surface",
        "supervised": "no",
        "wheelchair": "yes"
      }
    },
    {
      "type": "node",
      "id": 4575336826,
      "lat": 51.319088,
      "lon": 3.4929789,
      "timestamp": "2016-12-27T15:31:36Z",
      "version": 1,
      "changeset": 44708841,
      "user": "Henkie100",
      "uid": 2249743,
      "tags": {
        "access": "customers",
        "addr:city": "Oostburg",
        "amenity": "parking",
        "capacity": "50",
        "fee": "no",
        "park_ride": "no",
        "parking": "surface",
        "supervised": "no",
        "wheelchair": "yes"
      }
    },
    {
      "type": "node",
      "id": 4612219119,
      "lat": 51.3269587,
      "lon": 3.487824,
      "timestamp": "2017-01-16T16:55:20Z",
      "version": 1,
      "changeset": 45220244,
      "user": "Henkie100",
      "uid": 2249743,
      "tags": {
        "amenity": "bench",
        "backrest": "no"
      }
    },
    {
      "type": "node",
      "id": 4612219120,
      "lat": 51.3269595,
      "lon": 3.4878864,
      "timestamp": "2017-01-16T16:55:20Z",
      "version": 1,
      "changeset": 45220244,
      "user": "Henkie100",
      "uid": 2249743,
      "tags": {
        "amenity": "bench",
        "backrest": "no"
      }
    },
    {
      "type": "node",
      "id": 4612219125,
      "lat": 51.3269701,
      "lon": 3.4881351,
      "timestamp": "2017-01-16T16:55:20Z",
      "version": 1,
      "changeset": 45220244,
      "user": "Henkie100",
      "uid": 2249743,
      "tags": {
        "amenity": "bench",
        "backrest": "no"
      }
    },
    {
      "type": "node",
      "id": 4612219127,
      "lat": 51.3266701,
      "lon": 3.4875899,
      "timestamp": "2017-01-16T16:55:20Z",
      "version": 1,
      "changeset": 45220244,
      "user": "Henkie100",
      "uid": 2249743,
      "tags": {
        "amenity": "bench",
        "backrest": "no"
      }
    },
    {
      "type": "node",
      "id": 4612219130,
      "lat": 51.3267126,
      "lon": 3.4878023,
      "timestamp": "2017-01-16T16:55:21Z",
      "version": 1,
      "changeset": 45220244,
      "user": "Henkie100",
      "uid": 2249743,
      "tags": {
        "amenity": "bench",
        "backrest": "no"
      }
    },
    {
      "type": "node",
      "id": 4668391361,
      "lat": 51.3411059,
      "lon": 3.4509451,
      "timestamp": "2017-02-06T15:13:15Z",
      "version": 1,
      "changeset": 45858412,
      "user": "Henkie100",
      "uid": 2249743,
      "tags": {
        "amenity": "bench",
        "backrest": "yes"
      }
    },
    {
      "type": "node",
      "id": 4668628898,
      "lat": 51.3283954,
      "lon": 3.4945834,
      "timestamp": "2017-02-06T17:04:31Z",
      "version": 1,
      "changeset": 45861060,
      "user": "Henkie100",
      "uid": 2249743,
      "tags": {
        "amenity": "bench",
        "backrest": "yes",
        "wheelchair": "yes"
      }
    },
    {
      "type": "node",
      "id": 4946804267,
      "lat": 51.3248252,
      "lon": 3.4834318,
      "timestamp": "2017-07-02T10:04:02Z",
      "version": 1,
      "changeset": 49980995,
      "user": "AdVerburg",
      "uid": 2831457,
      "tags": {
        "board_type": "terminal",
        "information": "board",
        "tourism": "information"
      }
    },
    {
      "type": "node",
      "id": 4946804268,
      "lat": 51.3249584,
      "lon": 3.483352,
      "timestamp": "2017-07-02T10:04:02Z",
      "version": 1,
      "changeset": 49980995,
      "user": "AdVerburg",
      "uid": 2831457,
      "tags": {
        "board_type": "public_transport",
        "information": "board",
        "tourism": "information"
      }
    },
    {
      "type": "node",
      "id": 4946804269,
      "lat": 51.3249265,
      "lon": 3.4834095,
      "timestamp": "2017-07-02T10:04:02Z",
      "version": 1,
      "changeset": 49980995,
      "user": "AdVerburg",
      "uid": 2831457,
      "tags": {
        "board_type": "public_transport",
        "information": "board",
        "tourism": "information"
      }
    },
    {
      "type": "node",
      "id": 4946804270,
      "lat": 51.3248914,
      "lon": 3.4834727,
      "timestamp": "2017-07-02T10:04:02Z",
      "version": 1,
      "changeset": 49980995,
      "user": "AdVerburg",
      "uid": 2831457,
      "tags": {
        "board_type": "public_transport",
        "information": "board",
        "tourism": "information"
      }
    },
    {
      "type": "node",
      "id": 4948551608,
      "lat": 51.2983809,
      "lon": 3.4282695,
      "timestamp": "2017-07-03T09:52:55Z",
      "version": 1,
      "changeset": 50003290,
      "user": "AdVerburg",
      "uid": 2831457,
      "tags": {
        "leisure": "picnic_table"
      }
    },
    {
      "type": "node",
      "id": 5310240218,
      "lat": 51.3249807,
      "lon": 3.4820761,
      "timestamp": "2021-11-17T19:04:03Z",
      "version": 2,
      "changeset": 113912059,
      "user": "wvdp",
      "uid": 436419,
      "tags": {
        "access": "permissive",
        "amenity": "parking",
        "capacity": "1",
        "fee": "no",
        "name": "Senioren 70+ Parkeerlaats",
        "park_ride": "no",
        "parking": "surface",
        "supervised": "no"
      }
    },
    {
      "type": "node",
      "id": 5310422711,
      "lat": 51.3249438,
      "lon": 3.4820877,
      "timestamp": "2021-11-17T19:04:03Z",
      "version": 2,
      "changeset": 113912059,
      "user": "wvdp",
      "uid": 436419,
      "tags": {
        "access": "no",
        "addr:city": "Oostburg",
        "amenity": "parking",
        "capacity": "1",
        "fee": "no",
        "name": "Reserved for Doctor",
        "operator": "Antonius Ziekenhuis",
        "park_ride": "no",
        "parking": "surface",
        "supervised": "no"
      }
    },
    {
      "type": "node",
      "id": 5310422714,
      "lat": 51.3249068,
      "lon": 3.4821044,
      "timestamp": "2021-11-17T19:04:03Z",
      "version": 2,
      "changeset": 113912059,
      "user": "wvdp",
      "uid": 436419,
      "tags": {
        "access": "customers",
        "addr:city": "Oostburg",
        "amenity": "parking",
        "capacity": "2",
        "fee": "no",
        "name": "Handikap Parking",
        "operator": "Antonius Ziekenhuis",
        "park_ride": "no",
        "parking": "surface",
        "supervised": "no"
      }
    },
    {
      "type": "node",
      "id": 5420338517,
      "lat": 51.3258928,
      "lon": 3.4894069,
      "timestamp": "2018-02-18T15:09:59Z",
      "version": 1,
      "changeset": 56465500,
      "user": "Henkie100",
      "uid": 2249743,
      "tags": {
        "addr:city": "Oostburg",
        "amenity": "parking",
        "capacity": "30",
        "fee": "no",
        "park_ride": "no",
        "parking": "surface",
        "supervised": "no",
        "wheelchair": "yes"
      }
    },
    {
      "type": "node",
      "id": 7556058255,
      "lat": 51.325452,
      "lon": 3.4298499,
      "timestamp": "2020-05-25T11:51:51Z",
      "version": 1,
      "changeset": 85716166,
      "user": "Steven te Brinke",
      "uid": 25231,
      "tags": {
        "backrest": "no",
        "leisure": "picnic_table"
      }
    },
    {
      "type": "way",
      "id": 61043901,
      "timestamp": "2020-09-23T11:25:33Z",
      "version": 3,
      "changeset": 91362950,
      "user": "Sander H",
      "uid": 327477,
      "nodes": [
        764082343,
        764082350,
        764082348,
        764082349,
        1169748805,
        764082343
      ],
      "tags": {
        "building": "yes",
        "leisure": "bird_hide",
        "name": "Het Groote Gat - Vogelkijkhut",
        "note": "Het Groote Gat - Vogelkijkhut"
      }
    },
    {
      "type": "way",
      "id": 372567656,
      "timestamp": "2020-09-23T11:25:34Z",
      "version": 6,
      "changeset": 91362950,
      "user": "Sander H",
      "uid": 327477,
      "nodes": [
        3761280741,
        3761280752,
        3761280765,
        3761280779,
        3761280786,
        3761280787,
        3761280785,
        3761280772,
        3761280776,
        3761280750,
        3761280730,
        3761280724,
        4883404786,
        3761280723,
        3761280741
      ],
      "tags": {
        "access": "customers",
        "addr:city": "Oostburg",
        "addr:street": "Veerhoeklaan",
        "amenity": "parking",
        "capacity": "100",
        "fee": "no",
        "maxstay": "2 hours",
        "park_ride": "no",
        "parking": "surface",
        "supervised": "no",
        "surface": "paved",
        "wheelchair": "yes"
      }
    },
    {
      "type": "way",
      "id": 372567657,
      "timestamp": "2020-09-24T19:09:01Z",
      "version": 4,
      "changeset": 91462673,
      "user": "mav",
      "uid": 55786,
      "nodes": [
        3761280760,
        3761280757,
        3761280761,
        3761280768,
        3761280778,
        3761280775,
        3761280770,
        3761280764,
        7939555102,
        3761280734,
        3761280740,
        3761280749,
        3761280751,
        3761280736,
        3761280729,
        42367283,
        3761280731,
        3761280735,
        3761280756,
        3761280760
      ],
      "tags": {
        "amenity": "parking",
        "capacity": "100",
        "fee": "no",
        "parking": "surface",
        "supervised": "no",
        "wheelchair": "limited"
      }
    },
    {
      "type": "way",
      "id": 372567665,
      "timestamp": "2016-12-26T13:00:37Z",
      "version": 3,
      "changeset": 44681985,
      "user": "Henkie100",
      "uid": 2249743,
      "nodes": [
        3761280788,
        3761280781,
        3761280777,
        3761280784,
        3761280788
      ],
      "tags": {
        "addr:city": "Oostburg",
        "addr:postcode": "4501AE",
        "addr:street": "Veerhoeklaan",
        "amenity": "parking",
        "capacity": "10",
        "fee": "no",
        "park_ride": "no",
        "parking": "surface",
        "supervised": "no",
        "wheelchair": "yes"
      }
    },
    {
      "type": "way",
      "id": 373138816,
      "timestamp": "2016-12-30T10:01:11Z",
      "version": 4,
      "changeset": 44780343,
      "user": "Henkie100",
      "uid": 2249743,
      "nodes": [
        2762786065,
        3766537613,
        3766537614,
        3766537615,
        3779746228,
        2762784540,
        2762784781,
        2762785537,
        2762786065
      ],
      "tags": {
        "access": "private",
        "addr:city": "Oostburg",
        "addr:postcode": "4501JG",
        "addr:street": "Weststraat",
        "amenity": "parking",
        "capacity": "2",
        "fee": "no",
        "park_ride": "no",
        "parking": "surface",
        "supervised": "yes",
        "surface": "paved"
      }
    },
    {
      "type": "way",
      "id": 373139148,
      "timestamp": "2020-09-23T11:25:34Z",
      "version": 7,
      "changeset": 91362950,
      "user": "Sander H",
      "uid": 327477,
      "nodes": [
        3766546897,
        2762794291,
        2762793806,
        3779746255,
        3786478657,
        3766546898,
        3766546897
      ],
      "tags": {
        "access": "private",
        "amenity": "parking",
        "capacity": "10",
        "fee": "no",
        "park_ride": "no",
        "parking": "surface",
        "supervised": "yes",
        "surface": "gravel"
      }
    },
    {
      "type": "way",
      "id": 375211048,
      "timestamp": "2016-12-31T15:04:24Z",
      "version": 3,
      "changeset": 44808254,
      "user": "Henkie100",
      "uid": 2249743,
      "nodes": [
        879590801,
        3785957866,
        3785957867,
        3785957868,
        3785957869,
        3785957870,
        879590801
      ],
      "tags": {
        "access": "permissive",
        "addr:city": "Oostburg",
        "addr:street": "Baljuw Veltersweg",
        "amenity": "parking",
        "capacity": "10",
        "fee": "no",
        "park_ride": "no",
        "parking": "surface",
        "supervised": "no",
        "surface": "gravel"
      }
    },
    {
      "type": "way",
      "id": 375215980,
      "timestamp": "2016-12-30T10:01:11Z",
      "version": 2,
      "changeset": 44780343,
      "user": "Henkie100",
      "uid": 2249743,
      "nodes": [
        3786009851,
        2762785216,
        2762784762,
        3786009853,
        3786009852,
        3786009851
      ],
      "tags": {
        "access": "private",
        "addr:city": "Oostburg",
        "addr:postcode": "4501JG",
        "addr:street": "Weststraat",
        "amenity": "parking",
        "capacity": "1",
        "fee": "no",
        "park_ride": "no",
        "parking": "surface",
        "supervised": "yes",
        "surface": "paved"
      }
    },
    {
      "type": "way",
      "id": 375223240,
      "timestamp": "2015-10-14T13:01:10Z",
      "version": 1,
      "changeset": 34632703,
      "user": "Henkie100",
      "uid": 2249743,
      "nodes": [
        3786088957,
        3786088958,
        3786088959,
        3786088960,
        3786088957
      ],
      "tags": {
        "access": "customers",
        "addr:city": "Oostburg",
        "amenity": "parking",
        "capacity": "3",
        "fee": "no",
        "park_ride": "no",
        "parking": "surface",
        "supervised": "yes"
      }
    },
    {
      "type": "way",
      "id": 375223241,
      "timestamp": "2016-09-05T16:11:46Z",
      "version": 2,
      "changeset": 41934824,
      "user": "Henkie100",
      "uid": 2249743,
      "nodes": [
        3786088961,
        3786088962,
        3786088963,
        3786088964,
        3786088961
      ],
      "tags": {
        "access": "private",
        "addr:city": "Oostburg",
        "addr:street": "Trageldam",
        "amenity": "parking",
        "capacity": "10",
        "fee": "no",
        "park_ride": "no",
        "parking": "surface",
        "supervised": "yes",
        "surface": "paved"
      }
    },
    {
      "type": "way",
      "id": 375223242,
      "timestamp": "2016-09-05T16:11:46Z",
      "version": 2,
      "changeset": 41934824,
      "user": "Henkie100",
      "uid": 2249743,
      "nodes": [
        3786088965,
        3786088966,
        3786088967,
        3786088968,
        3786088965
      ],
      "tags": {
        "access": "private",
        "addr:city": "Oostburg",
        "amenity": "parking",
        "capacity": "16",
        "fee": "no",
        "park_ride": "no",
        "parking": "surface",
        "supervised": "no",
        "surface": "paved"
      }
    },
    {
      "type": "way",
      "id": 375223243,
      "timestamp": "2015-10-14T13:01:11Z",
      "version": 1,
      "changeset": 34632703,
      "user": "Henkie100",
      "uid": 2249743,
      "nodes": [
        3786088969,
        3786088970,
        3786088971,
        3786088972,
        3786088969
      ],
      "tags": {
        "access": "private",
        "addr:city": "Oostburg",
        "amenity": "parking",
        "capacity": "9",
        "fee": "no",
        "park_ride": "no",
        "parking": "surface",
        "supervised": "no"
      }
    },
    {
      "type": "way",
      "id": 375223244,
      "timestamp": "2015-10-14T13:01:11Z",
      "version": 1,
      "changeset": 34632703,
      "user": "Henkie100",
      "uid": 2249743,
      "nodes": [
        3786088973,
        3786088974,
        3786088975,
        3786088976,
        3786088973
      ],
      "tags": {
        "access": "customers",
        "addr:city": "Oostburg",
        "amenity": "parking",
        "capacity": "10",
        "fee": "no",
        "note": "Fitness",
        "park_ride": "no",
        "parking": "surface",
        "supervised": "yes"
      }
    },
    {
      "type": "way",
      "id": 375223245,
      "timestamp": "2015-10-14T13:01:11Z",
      "version": 1,
      "changeset": 34632703,
      "user": "Henkie100",
      "uid": 2249743,
      "nodes": [
        3786088977,
        3786088978,
        3786088979,
        3786088980,
        3786088977
      ],
      "tags": {
        "access": "customers",
        "addr:city": "Oostburg",
        "amenity": "parking",
        "capacity": "6",
        "fee": "no",
        "park_ride": "no",
        "parking": "surface",
        "supervised": "yes"
      }
    },
    {
      "type": "way",
      "id": 375223246,
      "timestamp": "2018-03-30T14:36:21Z",
      "version": 2,
      "changeset": 57661778,
      "user": "TripleBee",
      "uid": 497177,
      "nodes": [
        3786088981,
        3786088982,
        3786088983,
        3786088984,
        5516474686,
        3786088981
      ],
      "tags": {
        "addr:city": "Oostburg",
        "amenity": "parking",
        "capacity": "17",
        "fee": "no",
        "park_ride": "no",
        "parking": "surface",
        "supervised": "no"
      }
    },
    {
      "type": "way",
      "id": 375223247,
      "timestamp": "2020-09-22T15:54:01Z",
      "version": 5,
      "changeset": 91307804,
      "user": "AdVerburg",
      "uid": 2831457,
      "nodes": [
        2762741804,
        3786088985,
        4264491224,
        3786088986,
        3786088987,
        3786088988,
        2762741804
      ],
      "tags": {
        "access": "customers",
        "amenity": "parking",
        "capacity": "6",
        "fee": "no",
        "maxstay": "1 hour",
        "operator": "Lidl",
        "park_ride": "no",
        "parking": "surface",
        "supervised": "no",
        "surface": "asphalt"
      }
    },
    {
      "type": "way",
      "id": 375223249,
      "timestamp": "2020-09-22T14:46:28Z",
      "version": 5,
      "changeset": 91303238,
      "user": "AdVerburg",
      "uid": 2831457,
      "nodes": [
        3786088991,
        3786088992,
        3786088993,
        3786088994,
        3786088995,
        3786088996,
        3786088997,
        4264491221,
        3786088998,
        4264491215,
        3786088999,
        3786089000,
        3786089001,
        4264491210,
        3786089002,
        3786089003,
        3786089004,
        3786089005,
        3786088991
      ],
      "tags": {
        "access": "customers",
        "amenity": "parking",
        "capacity": "40",
        "fee": "no",
        "maxstay": "1 hour",
        "operator": "Lidl",
        "park_ride": "no",
        "parking": "surface",
        "supervised": "no",
        "surface": "asphalt"
      }
    },
    {
      "type": "way",
      "id": 375223250,
      "timestamp": "2020-09-22T14:46:28Z",
      "version": 5,
      "changeset": 91303238,
      "user": "AdVerburg",
      "uid": 2831457,
      "nodes": [
        3786089007,
        3786089008,
        3786089009,
        4264491207,
        3786089010,
        3786089011,
        4264491211,
        3786089007
      ],
      "tags": {
        "access": "customers",
        "amenity": "parking",
        "capacity": "7",
        "fee": "no",
        "maxstay": "1 hour",
        "operator": "Lidl",
        "park_ride": "no",
        "parking": "surface",
        "supervised": "no",
        "surface": "asphalt"
      }
    },
    {
      "type": "way",
      "id": 375223251,
      "timestamp": "2016-09-12T12:18:33Z",
      "version": 4,
      "changeset": 42099514,
      "user": "AdVerburg",
      "uid": 2831457,
      "nodes": [
        3786089012,
        3786089013,
        3786089014,
        3786089015,
        3786089016,
        4264491216,
        3786089012
      ],
      "tags": {
        "access": "customers",
        "amenity": "parking",
        "capacity": "14",
        "fee": "no",
        "operator": "Lidl",
        "park_ride": "no",
        "parking": "surface",
        "supervised": "no",
        "surface": "asphalt"
      }
    },
    {
      "type": "way",
      "id": 375223252,
      "timestamp": "2020-09-22T14:46:28Z",
      "version": 5,
      "changeset": 91303238,
      "user": "AdVerburg",
      "uid": 2831457,
      "nodes": [
        3786089017,
        3786089018,
        4264491218,
        3786089019,
        3786089020,
        3786089017
      ],
      "tags": {
        "access": "customers",
        "amenity": "parking",
        "capacity": "10",
        "fee": "no",
        "maxstay": "1 hour",
        "operator": "Lidl",
        "park_ride": "no",
        "parking": "surface",
        "supervised": "no",
        "surface": "asphalt"
      }
    },
    {
      "type": "way",
      "id": 375223254,
      "timestamp": "2021-08-13T13:12:31Z",
      "version": 5,
      "changeset": 109631044,
      "user": "jnk0",
      "uid": 5681573,
      "nodes": [
        3786089027,
        3786089028,
        4264491237,
        6693382302,
        6693382301,
        3786089029,
        3786089027
      ],
      "tags": {
        "access": "yes",
        "amenity": "parking",
        "fee": "no",
        "name": "Jumbo",
        "park_ride": "no",
        "parking": "surface",
        "supervised": "no"
      }
    },
    {
      "type": "way",
      "id": 375223408,
      "timestamp": "2018-02-18T15:12:13Z",
      "version": 5,
      "changeset": 56465556,
      "user": "Henkie100",
      "uid": 2249743,
      "nodes": [
        3786089237,
        4264491236,
        3786089238,
        3786089239,
        3786089240,
        3786089241,
        3786089242,
        3786089243,
        3786089237
      ],
      "tags": {
        "addr:city": "Oostburg",
        "addr:street": "Ledelplein",
        "amenity": "parking",
        "capacity": "40",
        "fee": "no",
        "note": "Blauwe zone: Parkeer schijf gebruiken. Max 2 uur",
        "park_ride": "no",
        "parking": "surface",
        "supervised": "no",
        "surface": "paved",
        "wheelchair": "yes"
      }
    },
    {
      "type": "way",
      "id": 375223409,
      "timestamp": "2015-10-14T13:03:06Z",
      "version": 1,
      "changeset": 34632774,
      "user": "Henkie100",
      "uid": 2249743,
      "nodes": [
        3786089244,
        3786089245,
        3786089246,
        3786089247,
        3786089248,
        3786089249,
        3786089244
      ],
      "tags": {
        "addr:city": "Oostburg",
        "amenity": "parking",
        "capacity": "50",
        "fee": "no",
        "park_ride": "no",
        "parking": "surface",
        "supervised": "no"
      }
    },
    {
      "type": "way",
      "id": 375224511,
      "timestamp": "2015-10-14T13:11:00Z",
      "version": 1,
      "changeset": 34632923,
      "user": "Henkie100",
      "uid": 2249743,
      "nodes": [
        3786100865,
        3786100866,
        2762741477,
        3786100867,
        3786100865
      ],
      "tags": {
        "addr:city": "Oostburg",
        "amenity": "parking",
        "capacity": "15",
        "fee": "no",
        "park_ride": "no",
        "parking": "surface",
        "supervised": "no"
      }
    },
    {
      "type": "way",
      "id": 375225559,
      "timestamp": "2016-09-01T17:31:10Z",
      "version": 2,
      "changeset": 41853964,
      "user": "AdVerburg",
      "uid": 2831457,
      "nodes": [
        2762563652,
        2762563751,
        3786108738,
        2762563548,
        2762563652
      ],
      "tags": {
        "access": "private",
        "amenity": "parking",
        "capacity": "1",
        "fee": "no",
        "park_ride": "no",
        "parking": "surface",
        "supervised": "yes"
      }
    },
    {
      "type": "way",
      "id": 375227205,
      "timestamp": "2015-10-14T13:35:07Z",
      "version": 1,
      "changeset": 34633331,
      "user": "Henkie100",
      "uid": 2249743,
      "nodes": [
        2762563872,
        2762563828,
        2762563784,
        2762563806,
        2762563872
      ],
      "tags": {
        "access": "private",
        "addr:city": "Zuidzande",
        "addr:street": "Smidsweg",
        "amenity": "parking",
        "capacity": "1",
        "fee": "no",
        "park_ride": "no",
        "parking": "surface",
        "supervised": "no"
      }
    },
    {
      "type": "way",
      "id": 375251392,
      "timestamp": "2017-09-22T18:14:21Z",
      "version": 3,
      "changeset": 52285428,
      "user": "AdVerburg",
      "uid": 2831457,
      "nodes": [
        3786396249,
        3786396250,
        3786396251,
        4501113273,
        3786396252,
        3786396249
      ],
      "tags": {
        "access": "customers",
        "addr:city": "Oostburg",
        "addr:street": "Oudestad",
        "amenity": "parking",
        "capacity": "5",
        "fee": "no",
        "park_ride": "no",
        "parking": "surface",
        "supervised": "no"
      }
    },
    {
      "type": "way",
      "id": 375258043,
      "timestamp": "2017-12-13T11:20:41Z",
      "version": 2,
      "changeset": 54593110,
      "user": "AdVerburg",
      "uid": 2831457,
      "nodes": [
        3786478689,
        3786478690,
        3786478691,
        3786478692,
        5281856706,
        3786478689
      ],
      "tags": {
        "addr:city": "Oostburg",
        "amenity": "parking",
        "capacity": "7",
        "fee": "no",
        "park_ride": "no",
        "parking": "surface",
        "supervised": "no"
      }
    },
    {
      "type": "way",
      "id": 375258044,
      "timestamp": "2016-09-05T17:52:28Z",
      "version": 2,
      "changeset": 41937083,
      "user": "Henkie100",
      "uid": 2249743,
      "nodes": [
        3786478693,
        3786478694,
        3786478695,
        3786478696,
        3786478693
      ],
      "tags": {
        "addr:city": "Oostburg",
        "amenity": "parking",
        "capacity": "25",
        "fee": "no",
        "park_ride": "no",
        "parking": "surface",
        "supervised": "no",
        "surface": "paved"
      }
    },
    {
      "type": "way",
      "id": 375258045,
      "timestamp": "2015-10-14T18:08:14Z",
      "version": 1,
      "changeset": 34638559,
      "user": "Henkie100",
      "uid": 2249743,
      "nodes": [
        3786478697,
        3786478698,
        3786478699,
        3786478700,
        3786478701,
        3786478697
      ],
      "tags": {
        "addr:city": "Oostburg",
        "amenity": "parking",
        "capacity": "5",
        "fee": "no",
        "park_ride": "no",
        "parking": "surface",
        "supervised": "no"
      }
    },
    {
      "type": "way",
      "id": 439164884,
      "timestamp": "2018-11-24T16:05:51Z",
      "version": 5,
      "changeset": 64847565,
      "user": "Henkie100",
      "uid": 2249743,
      "nodes": [
        4367927615,
        4367927616,
        3785955678,
        4367927617,
        4367927615
      ],
      "tags": {
        "access": "customers",
        "amenity": "parking",
        "capacity": "5",
        "name": "Garage Adriaansen",
        "parking": "surface",
        "wheelchair": "yes"
      }
    },
    {
      "type": "way",
      "id": 439164885,
      "timestamp": "2018-02-23T10:37:51Z",
      "version": 4,
      "changeset": 56605474,
      "user": "AdVerburg",
      "uid": 2831457,
      "nodes": [
        4367927618,
        4367927619,
        4367927620,
        4367927621,
        4367927622,
        4367927623,
        4367927624,
        4367927625,
        4367927627,
        4367927618
      ],
      "tags": {
        "access": "customers",
        "amenity": "parking",
        "capacity": "5",
        "name": "Garage Adriaansen",
        "parking": "surface",
        "wheelchair": "yes"
      }
    },
    {
      "type": "way",
      "id": 461881738,
      "timestamp": "2020-08-02T07:03:40Z",
      "version": 3,
      "changeset": 88831228,
      "user": "AdVerburg",
      "uid": 2831457,
      "nodes": [
        4573216086,
        7777333221,
        7777333220,
        4573216076,
        879592519,
        4573216086
      ],
      "tags": {
        "amenity": "parking",
        "capacity": "10",
        "fee": "no",
        "park_ride": "no",
        "parking": "surface",
        "supervised": "no",
        "surface": "paved"
      }
    },
    {
      "type": "way",
      "id": 462953311,
      "timestamp": "2016-12-31T14:51:45Z",
      "version": 1,
      "changeset": 44808010,
      "user": "Henkie100",
      "uid": 2249743,
      "nodes": [
        4582781619,
        4582781620,
        4582781621,
        4582781622,
        4582781627,
        4582781623,
        4582781624,
        4582781625,
        4582781626,
        4582781619
      ],
      "tags": {
        "access": "permissive",
        "addr:city": "Oostburg",
        "amenity": "parking",
        "capacity": "25",
        "fee": "no",
        "park_ride": "no",
        "parking": "surface",
        "supervised": "no",
        "surface": "asphalt"
      }
    },
    {
      "type": "way",
      "id": 467209193,
      "timestamp": "2017-01-19T16:17:25Z",
      "version": 2,
      "changeset": 45301453,
      "user": "Henkie100",
      "uid": 2249743,
      "nodes": [
        4618579037,
        4618579038,
        4618579039,
        4618579040,
        4618579037
      ],
      "tags": {
        "addr:city": "Zuidzande",
        "amenity": "parking",
        "capacity": "6",
        "fee": "no",
        "park_ride": "no",
        "parking": "surface",
        "supervised": "no",
        "surface": "paved"
      }
    },
    {
      "type": "way",
      "id": 467213996,
      "timestamp": "2017-01-19T16:17:24Z",
      "version": 1,
      "changeset": 45301453,
      "user": "Henkie100",
      "uid": 2249743,
      "nodes": [
        4618616207,
        4618616208,
        4618616209,
        4618616210,
        4618616207
      ],
      "tags": {
        "addr:city": "Zuidzande",
        "amenity": "parking",
        "capacity": "6",
        "fee": "no",
        "park_ride": "no",
        "parking": "surface",
        "supervised": "no",
        "surface": "paved"
      }
    },
    {
      "type": "way",
      "id": 467213997,
      "timestamp": "2017-01-19T16:17:24Z",
      "version": 1,
      "changeset": 45301453,
      "user": "Henkie100",
      "uid": 2249743,
      "nodes": [
        4618616211,
        4618616212,
        4618616213,
        4618616214,
        4618616215,
        4618616216,
        4618616217,
        4618616218,
        4618616211
      ],
      "tags": {
        "addr:city": "Zuidzande",
        "amenity": "parking",
        "capacity": "10",
        "fee": "no",
        "park_ride": "no",
        "parking": "surface",
        "supervised": "no",
        "surface": "paved"
      }
    },
    {
      "type": "way",
      "id": 467213998,
      "timestamp": "2017-02-06T15:15:31Z",
      "version": 3,
      "changeset": 45858472,
      "user": "Henkie100",
      "uid": 2249743,
      "nodes": [
        4618616219,
        4618616220,
        4618616221,
        4618616222,
        4618616223,
        4618616219
      ],
      "tags": {
        "addr:city": "Zuidzande",
        "amenity": "parking",
        "capacity": "5",
        "fee": "no",
        "note": "2 marked parking space not allowed to be used every Friday from 16:00-20:00 (due to a French Fries food truck)",
        "park_ride": "no",
        "parking": "surface",
        "supervised": "no",
        "surface": "paved"
      }
    },
    {
      "type": "way",
      "id": 467213999,
      "timestamp": "2017-01-19T16:17:25Z",
      "version": 1,
      "changeset": 45301453,
      "user": "Henkie100",
      "uid": 2249743,
      "nodes": [
        4618616224,
        4618616225,
        4618616226,
        4618616227,
        4618616228,
        4618616224
      ],
      "tags": {
        "addr:city": "Zuidzande",
        "amenity": "parking",
        "capacity": "10",
        "fee": "no",
        "park_ride": "no",
        "parking": "surface",
        "supervised": "no",
        "surface": "paved"
      }
    },
    {
      "type": "way",
      "id": 504531789,
      "timestamp": "2019-01-02T15:21:30Z",
      "version": 4,
      "changeset": 65961642,
      "user": "Henkie100",
      "uid": 2249743,
      "nodes": [
        4946804358,
        4946804357,
        4946804356,
        4946804355,
        4946804358
      ],
      "tags": {
        "access": "permissive",
        "amenity": "parking",
        "capacity": "6",
        "fee": "no",
        "operator": "Antonius Ziekenhuis",
        "park_ride": "no",
        "parking": "surface",
        "source": "PDOK aerial imagery (2016)",
        "supervised": "no",
        "surface": "paved",
        "wheelchair": "yes"
      }
    },
    {
      "type": "way",
      "id": 504531796,
      "timestamp": "2017-12-29T16:00:37Z",
      "version": 2,
      "changeset": 55013245,
      "user": "Henkie100",
      "uid": 2249743,
      "nodes": [
        879599309,
        879599290,
        4946804569,
        4946804403,
        4946804402,
        4946804401,
        4946804400,
        4946804399,
        4946804391,
        4946804398,
        4946804397,
        4946804396,
        4946804395,
        4946804394,
        4946804393,
        4946804392,
        879599335,
        879599326,
        879599319,
        879599314,
        879599309
      ],
      "tags": {
        "access": "customers",
        "addr:city": "Oostburg",
        "amenity": "parking",
        "capacity": "50",
        "fee": "no",
        "operator": "Antonius Ziekenhuis",
        "park_ride": "no",
        "parking": "surface",
        "source": "PDOK aerial imagery (2016)",
        "supervised": "no"
      }
    },
    {
      "type": "way",
      "id": 504531806,
      "timestamp": "2017-12-29T16:00:37Z",
      "version": 3,
      "changeset": 55013245,
      "user": "Henkie100",
      "uid": 2249743,
      "nodes": [
        879590373,
        4946804454,
        4946804453,
        4946804452,
        4946804451,
        4946804450,
        879590316,
        879590319,
        879590323,
        879590377,
        879590373
      ],
      "tags": {
        "access": "customers",
        "addr:city": "Oostburg",
        "amenity": "parking",
        "capacity": "50",
        "fee": "no",
        "operator": "Antonius Ziekenhuis",
        "park_ride": "no",
        "parking": "surface",
        "source": "PDOK aerial imagery (2016)",
        "supervised": "no",
        "wheelchair": "yes"
      }
    },
    {
      "type": "way",
      "id": 504531810,
      "timestamp": "2017-07-02T10:04:10Z",
      "version": 1,
      "changeset": 49980995,
      "user": "AdVerburg",
      "uid": 2831457,
      "nodes": [
        4946804483,
        4946804482,
        4946804481,
        4946804470,
        879590514,
        4946804487,
        4946804488,
        4946804485,
        4946804484,
        879590537,
        4946804480,
        4946804479,
        4946804478,
        4946804466,
        4946804496,
        4946804489,
        4946804472,
        4946804477,
        4946804483
      ],
      "tags": {
        "amenity": "parking",
        "parking": "surface",
        "source": "PDOK aerial imagery (2016)"
      }
    },
    {
      "type": "way",
      "id": 504531813,
      "timestamp": "2017-07-02T10:04:11Z",
      "version": 1,
      "changeset": 49980995,
      "user": "AdVerburg",
      "uid": 2831457,
      "nodes": [
        4946804510,
        879590709,
        879590606,
        879590641,
        4946804509,
        4946804508,
        4946804507,
        4946804523,
        4946804506,
        4946804505,
        4946804510
      ],
      "tags": {
        "amenity": "parking",
        "parking": "surface",
        "source": "PDOK aerial imagery (2016)"
      }
    },
    {
      "type": "way",
      "id": 504531816,
      "timestamp": "2021-11-11T08:56:51Z",
      "version": 2,
      "changeset": 113641744,
      "user": "jaap de vries",
      "uid": 714303,
      "nodes": [
        879590225,
        879590241,
        4946804532,
        4946804531,
        4946804533,
        879590225
      ],
      "tags": {
        "amenity": "parking",
        "parking": "surface",
        "source": "PDOK aerial imagery (2016)"
      }
    },
    {
      "type": "node",
      "id": 2762563548,
      "lat": 51.3421945,
      "lon": 3.4533284
    },
    {
      "type": "node",
      "id": 2762563652,
      "lat": 51.3422149,
      "lon": 3.4532788
    },
    {
      "type": "node",
      "id": 2762563751,
      "lat": 51.3422449,
      "lon": 3.4533103
    },
    {
      "type": "node",
      "id": 2762563784,
      "lat": 51.3422541,
      "lon": 3.4534992
    },
    {
      "type": "node",
      "id": 2762563806,
      "lat": 51.3422705,
      "lon": 3.4534543
    },
    {
      "type": "node",
      "id": 2762563828,
      "lat": 51.34229,
      "lon": 3.4535324
    },
    {
      "type": "node",
      "id": 2762563872,
      "lat": 51.3423065,
      "lon": 3.4534869
    },
    {
      "type": "node",
      "id": 3786108738,
      "lat": 51.3422258,
      "lon": 3.4533591
    },
    {
      "type": "node",
      "id": 4618579037,
      "lat": 51.3412571,
      "lon": 3.4504128
    },
    {
      "type": "node",
      "id": 4618579038,
      "lat": 51.3412563,
      "lon": 3.4506278
    },
    {
      "type": "node",
      "id": 4618579039,
      "lat": 51.3412065,
      "lon": 3.4506274
    },
    {
      "type": "node",
      "id": 4618579040,
      "lat": 51.3412072,
      "lon": 3.4504123
    },
    {
      "type": "node",
      "id": 4618616207,
      "lat": 51.3411508,
      "lon": 3.4504158
    },
    {
      "type": "node",
      "id": 4618616208,
      "lat": 51.3411508,
      "lon": 3.4506312
    },
    {
      "type": "node",
      "id": 4618616209,
      "lat": 51.3411076,
      "lon": 3.4506312
    },
    {
      "type": "node",
      "id": 4618616210,
      "lat": 51.3411076,
      "lon": 3.4504157
    },
    {
      "type": "node",
      "id": 4618616211,
      "lat": 51.3414433,
      "lon": 3.4510556
    },
    {
      "type": "node",
      "id": 4618616212,
      "lat": 51.3413022,
      "lon": 3.4512153
    },
    {
      "type": "node",
      "id": 4618616213,
      "lat": 51.3412031,
      "lon": 3.4509763
    },
    {
      "type": "node",
      "id": 4618616214,
      "lat": 51.3412623,
      "lon": 3.4509094
    },
    {
      "type": "node",
      "id": 4618616215,
      "lat": 51.3413008,
      "lon": 3.450934
    },
    {
      "type": "node",
      "id": 4618616216,
      "lat": 51.3413354,
      "lon": 3.4508851
    },
    {
      "type": "node",
      "id": 4618616217,
      "lat": 51.3413632,
      "lon": 3.4509481
    },
    {
      "type": "node",
      "id": 4618616218,
      "lat": 51.3413863,
      "lon": 3.4509187
    },
    {
      "type": "node",
      "id": 4618616219,
      "lat": 51.3411006,
      "lon": 3.4509785
    },
    {
      "type": "node",
      "id": 4618616220,
      "lat": 51.340971,
      "lon": 3.4511534
    },
    {
      "type": "node",
      "id": 4618616221,
      "lat": 51.3409038,
      "lon": 3.4510176
    },
    {
      "type": "node",
      "id": 4618616222,
      "lat": 51.3409588,
      "lon": 3.4509405
    },
    {
      "type": "node",
      "id": 4618616223,
      "lat": 51.3410857,
      "lon": 3.4509459
    },
    {
      "type": "node",
      "id": 4618616224,
      "lat": 51.3411027,
      "lon": 3.4512392
    },
    {
      "type": "node",
      "id": 4618616225,
      "lat": 51.3411841,
      "lon": 3.4514076
    },
    {
      "type": "node",
      "id": 4618616226,
      "lat": 51.3411271,
      "lon": 3.4514945
    },
    {
      "type": "node",
      "id": 4618616227,
      "lat": 51.3410172,
      "lon": 3.4512903
    },
    {
      "type": "node",
      "id": 4618616228,
      "lat": 51.3410633,
      "lon": 3.4512913
    },
    {
      "type": "node",
      "id": 879590225,
      "lat": 51.3240418,
      "lon": 3.4816138
    },
    {
      "type": "node",
      "id": 879590241,
      "lat": 51.3239738,
      "lon": 3.4822668
    },
    {
      "type": "node",
      "id": 879590316,
      "lat": 51.3243606,
      "lon": 3.4828102
    },
    {
      "type": "node",
      "id": 879590319,
      "lat": 51.3243317,
      "lon": 3.4827703
    },
    {
      "type": "node",
      "id": 879590323,
      "lat": 51.3243405,
      "lon": 3.482715
    },
    {
      "type": "node",
      "id": 879590514,
      "lat": 51.3243606,
      "lon": 3.4831306
    },
    {
      "type": "node",
      "id": 879590537,
      "lat": 51.3244528,
      "lon": 3.4833746
    },
    {
      "type": "node",
      "id": 879590606,
      "lat": 51.3238222,
      "lon": 3.4836013
    },
    {
      "type": "node",
      "id": 879590641,
      "lat": 51.3233559,
      "lon": 3.4834687
    },
    {
      "type": "node",
      "id": 879590709,
      "lat": 51.3238911,
      "lon": 3.4829812
    },
    {
      "type": "node",
      "id": 879590801,
      "lat": 51.3236904,
      "lon": 3.4850783
    },
    {
      "type": "node",
      "id": 3785955678,
      "lat": 51.323505,
      "lon": 3.4853865
    },
    {
      "type": "node",
      "id": 3785957866,
      "lat": 51.3236767,
      "lon": 3.4852117
    },
    {
      "type": "node",
      "id": 3785957867,
      "lat": 51.3233399,
      "lon": 3.4852047
    },
    {
      "type": "node",
      "id": 3785957868,
      "lat": 51.3233621,
      "lon": 3.4850856
    },
    {
      "type": "node",
      "id": 3785957869,
      "lat": 51.3233934,
      "lon": 3.4850591
    },
    {
      "type": "node",
      "id": 3785957870,
      "lat": 51.323413,
      "lon": 3.4850519
    },
    {
      "type": "node",
      "id": 4367927615,
      "lat": 51.3236622,
      "lon": 3.4852801
    },
    {
      "type": "node",
      "id": 4367927616,
      "lat": 51.3235204,
      "lon": 3.4852754
    },
    {
      "type": "node",
      "id": 4367927617,
      "lat": 51.3236475,
      "lon": 3.4854131
    },
    {
      "type": "node",
      "id": 4367927618,
      "lat": 51.3236026,
      "lon": 3.4858839
    },
    {
      "type": "node",
      "id": 4367927619,
      "lat": 51.3235752,
      "lon": 3.4861373
    },
    {
      "type": "node",
      "id": 4367927620,
      "lat": 51.3235547,
      "lon": 3.4861514
    },
    {
      "type": "node",
      "id": 4367927621,
      "lat": 51.3235371,
      "lon": 3.4861717
    },
    {
      "type": "node",
      "id": 4367927622,
      "lat": 51.3235263,
      "lon": 3.4861952
    },
    {
      "type": "node",
      "id": 4367927623,
      "lat": 51.3234941,
      "lon": 3.4861592
    },
    {
      "type": "node",
      "id": 4367927624,
      "lat": 51.3234686,
      "lon": 3.4861201
    },
    {
      "type": "node",
      "id": 4367927625,
      "lat": 51.3234526,
      "lon": 3.4860882
    },
    {
      "type": "node",
      "id": 4367927627,
      "lat": 51.3234798,
      "lon": 3.48582
    },
    {
      "type": "node",
      "id": 4946804450,
      "lat": 51.3244724,
      "lon": 3.4828658
    },
    {
      "type": "node",
      "id": 4946804451,
      "lat": 51.3244455,
      "lon": 3.4829195
    },
    {
      "type": "node",
      "id": 4946804452,
      "lat": 51.3244631,
      "lon": 3.482945
    },
    {
      "type": "node",
      "id": 4946804466,
      "lat": 51.3241153,
      "lon": 3.4835817
    },
    {
      "type": "node",
      "id": 4946804470,
      "lat": 51.3243149,
      "lon": 3.4831175
    },
    {
      "type": "node",
      "id": 4946804472,
      "lat": 51.3240362,
      "lon": 3.4833955
    },
    {
      "type": "node",
      "id": 4946804477,
      "lat": 51.3239988,
      "lon": 3.4833084
    },
    {
      "type": "node",
      "id": 4946804478,
      "lat": 51.3241287,
      "lon": 3.4836088
    },
    {
      "type": "node",
      "id": 4946804479,
      "lat": 51.3241078,
      "lon": 3.4836316
    },
    {
      "type": "node",
      "id": 4946804480,
      "lat": 51.3241445,
      "lon": 3.4837084
    },
    {
      "type": "node",
      "id": 4946804481,
      "lat": 51.3242746,
      "lon": 3.4831059
    },
    {
      "type": "node",
      "id": 4946804482,
      "lat": 51.3242285,
      "lon": 3.4831555
    },
    {
      "type": "node",
      "id": 4946804483,
      "lat": 51.3242042,
      "lon": 3.4830911
    },
    {
      "type": "node",
      "id": 4946804484,
      "lat": 51.324415,
      "lon": 3.4832856
    },
    {
      "type": "node",
      "id": 4946804485,
      "lat": 51.3244514,
      "lon": 3.4832829
    },
    {
      "type": "node",
      "id": 4946804487,
      "lat": 51.3243638,
      "lon": 3.4831461
    },
    {
      "type": "node",
      "id": 4946804488,
      "lat": 51.324407,
      "lon": 3.4831622
    },
    {
      "type": "node",
      "id": 4946804489,
      "lat": 51.3240501,
      "lon": 3.483428
    },
    {
      "type": "node",
      "id": 4946804496,
      "lat": 51.3240982,
      "lon": 3.483547
    },
    {
      "type": "node",
      "id": 4946804505,
      "lat": 51.3236758,
      "lon": 3.4830216
    },
    {
      "type": "node",
      "id": 4946804506,
      "lat": 51.3236416,
      "lon": 3.4830119
    },
    {
      "type": "node",
      "id": 4946804507,
      "lat": 51.3234635,
      "lon": 3.4829613
    },
    {
      "type": "node",
      "id": 4946804508,
      "lat": 51.3234756,
      "lon": 3.4828516
    },
    {
      "type": "node",
      "id": 4946804509,
      "lat": 51.3234259,
      "lon": 3.4828375
    },
    {
      "type": "node",
      "id": 4946804510,
      "lat": 51.3236867,
      "lon": 3.482923
    },
    {
      "type": "node",
      "id": 4946804523,
      "lat": 51.3234931,
      "lon": 3.4829697
    },
    {
      "type": "node",
      "id": 4946804531,
      "lat": 51.3236628,
      "lon": 3.4815033
    },
    {
      "type": "node",
      "id": 4946804532,
      "lat": 51.3235894,
      "lon": 3.4821562
    },
    {
      "type": "node",
      "id": 4946804533,
      "lat": 51.3237558,
      "lon": 3.4815304
    },
    {
      "type": "node",
      "id": 42367283,
      "lat": 51.3256371,
      "lon": 3.4854364
    },
    {
      "type": "node",
      "id": 879590373,
      "lat": 51.3248579,
      "lon": 3.4826277
    },
    {
      "type": "node",
      "id": 879590377,
      "lat": 51.324815,
      "lon": 3.4825601
    },
    {
      "type": "node",
      "id": 879599290,
      "lat": 51.3255609,
      "lon": 3.4830793
    },
    {
      "type": "node",
      "id": 879599309,
      "lat": 51.3255489,
      "lon": 3.4829876
    },
    {
      "type": "node",
      "id": 879599314,
      "lat": 51.3255957,
      "lon": 3.4829718
    },
    {
      "type": "node",
      "id": 879599319,
      "lat": 51.3255779,
      "lon": 3.4828365
    },
    {
      "type": "node",
      "id": 879599326,
      "lat": 51.325735,
      "lon": 3.4827688
    },
    {
      "type": "node",
      "id": 879599335,
      "lat": 51.3257226,
      "lon": 3.4827039
    },
    {
      "type": "node",
      "id": 2762784540,
      "lat": 51.3275181,
      "lon": 3.4858221
    },
    {
      "type": "node",
      "id": 2762784762,
      "lat": 51.3275144,
      "lon": 3.485463
    },
    {
      "type": "node",
      "id": 2762784781,
      "lat": 51.3275275,
      "lon": 3.4858051
    },
    {
      "type": "node",
      "id": 2762785216,
      "lat": 51.3275309,
      "lon": 3.4853763
    },
    {
      "type": "node",
      "id": 2762785537,
      "lat": 51.3275629,
      "lon": 3.4856153
    },
    {
      "type": "node",
      "id": 2762786065,
      "lat": 51.3275997,
      "lon": 3.4856147
    },
    {
      "type": "node",
      "id": 2762793806,
      "lat": 51.3282148,
      "lon": 3.4849659
    },
    {
      "type": "node",
      "id": 2762794291,
      "lat": 51.3282293,
      "lon": 3.4848047
    },
    {
      "type": "node",
      "id": 3761280723,
      "lat": 51.3255423,
      "lon": 3.4844539
    },
    {
      "type": "node",
      "id": 3761280724,
      "lat": 51.3255845,
      "lon": 3.4833743
    },
    {
      "type": "node",
      "id": 3761280729,
      "lat": 51.3257364,
      "lon": 3.4855258
    },
    {
      "type": "node",
      "id": 3761280730,
      "lat": 51.3257404,
      "lon": 3.4832064
    },
    {
      "type": "node",
      "id": 3761280731,
      "lat": 51.3257789,
      "lon": 3.4851668
    },
    {
      "type": "node",
      "id": 3761280734,
      "lat": 51.3258105,
      "lon": 3.4863095
    },
    {
      "type": "node",
      "id": 3761280735,
      "lat": 51.3258319,
      "lon": 3.4850661
    },
    {
      "type": "node",
      "id": 3761280736,
      "lat": 51.3258599,
      "lon": 3.4856371
    },
    {
      "type": "node",
      "id": 3761280740,
      "lat": 51.3258859,
      "lon": 3.4861232
    },
    {
      "type": "node",
      "id": 3761280741,
      "lat": 51.3258955,
      "lon": 3.484945
    },
    {
      "type": "node",
      "id": 3761280749,
      "lat": 51.3259785,
      "lon": 3.4858944
    },
    {
      "type": "node",
      "id": 3761280750,
      "lat": 51.3259821,
      "lon": 3.4837808
    },
    {
      "type": "node",
      "id": 3761280751,
      "lat": 51.3259876,
      "lon": 3.4857521
    },
    {
      "type": "node",
      "id": 3761280752,
      "lat": 51.3259901,
      "lon": 3.4850726
    },
    {
      "type": "node",
      "id": 3761280756,
      "lat": 51.3260576,
      "lon": 3.4853704
    },
    {
      "type": "node",
      "id": 3761280757,
      "lat": 51.3260641,
      "lon": 3.4856335
    },
    {
      "type": "node",
      "id": 3761280760,
      "lat": 51.3260869,
      "lon": 3.4854328
    },
    {
      "type": "node",
      "id": 3761280761,
      "lat": 51.3260963,
      "lon": 3.4858439
    },
    {
      "type": "node",
      "id": 3761280765,
      "lat": 51.3261601,
      "lon": 3.4851427
    },
    {
      "type": "node",
      "id": 3761280768,
      "lat": 51.3261892,
      "lon": 3.4860116
    },
    {
      "type": "node",
      "id": 3761280770,
      "lat": 51.3262006,
      "lon": 3.4864141
    },
    {
      "type": "node",
      "id": 3761280772,
      "lat": 51.3262487,
      "lon": 3.4833046
    },
    {
      "type": "node",
      "id": 3761280775,
      "lat": 51.326289,
      "lon": 3.4861815
    },
    {
      "type": "node",
      "id": 3761280776,
      "lat": 51.3263034,
      "lon": 3.4834346
    },
    {
      "type": "node",
      "id": 3761280777,
      "lat": 51.3263038,
      "lon": 3.4825629
    },
    {
      "type": "node",
      "id": 3761280778,
      "lat": 51.3263163,
      "lon": 3.4861097
    },
    {
      "type": "node",
      "id": 3761280779,
      "lat": 51.3263463,
      "lon": 3.4842168
    },
    {
      "type": "node",
      "id": 3761280781,
      "lat": 51.3263766,
      "lon": 3.4824844
    },
    {
      "type": "node",
      "id": 3761280784,
      "lat": 51.3264843,
      "lon": 3.482992
    },
    {
      "type": "node",
      "id": 3761280785,
      "lat": 51.326502,
      "lon": 3.4830317
    },
    {
      "type": "node",
      "id": 3761280786,
      "lat": 51.326533,
      "lon": 3.4832456
    },
    {
      "type": "node",
      "id": 3761280787,
      "lat": 51.3265494,
      "lon": 3.4831444
    },
    {
      "type": "node",
      "id": 3761280788,
      "lat": 51.3265571,
      "lon": 3.4829135
    },
    {
      "type": "node",
      "id": 3766537613,
      "lat": 51.3275683,
      "lon": 3.4857491
    },
    {
      "type": "node",
      "id": 3766537614,
      "lat": 51.3275826,
      "lon": 3.4857808
    },
    {
      "type": "node",
      "id": 3766537615,
      "lat": 51.3275957,
      "lon": 3.4858159
    },
    {
      "type": "node",
      "id": 3766546897,
      "lat": 51.328673,
      "lon": 3.4849817
    },
    {
      "type": "node",
      "id": 3766546898,
      "lat": 51.3286713,
      "lon": 3.4850871
    },
    {
      "type": "node",
      "id": 3779746228,
      "lat": 51.32756,
      "lon": 3.4858187
    },
    {
      "type": "node",
      "id": 3779746255,
      "lat": 51.3285704,
      "lon": 3.4850474
    },
    {
      "type": "node",
      "id": 3786009851,
      "lat": 51.327556,
      "lon": 3.4853862
    },
    {
      "type": "node",
      "id": 3786009852,
      "lat": 51.3275415,
      "lon": 3.4854752
    },
    {
      "type": "node",
      "id": 3786009853,
      "lat": 51.3275304,
      "lon": 3.4854702
    },
    {
      "type": "node",
      "id": 3786396249,
      "lat": 51.328066,
      "lon": 3.483189
    },
    {
      "type": "node",
      "id": 3786396250,
      "lat": 51.3281052,
      "lon": 3.4833451
    },
    {
      "type": "node",
      "id": 3786396251,
      "lat": 51.3280526,
      "lon": 3.4833814
    },
    {
      "type": "node",
      "id": 3786396252,
      "lat": 51.3280153,
      "lon": 3.4832251
    },
    {
      "type": "node",
      "id": 3786478657,
      "lat": 51.3286066,
      "lon": 3.4850554
    },
    {
      "type": "node",
      "id": 4501113273,
      "lat": 51.3280257,
      "lon": 3.4832696
    },
    {
      "type": "node",
      "id": 4883404786,
      "lat": 51.3258836,
      "lon": 3.4840852
    },
    {
      "type": "node",
      "id": 4946804355,
      "lat": 51.3253279,
      "lon": 3.4825731
    },
    {
      "type": "node",
      "id": 4946804356,
      "lat": 51.3253942,
      "lon": 3.482548
    },
    {
      "type": "node",
      "id": 4946804357,
      "lat": 51.3253473,
      "lon": 3.4822007
    },
    {
      "type": "node",
      "id": 4946804358,
      "lat": 51.3252797,
      "lon": 3.4822269
    },
    {
      "type": "node",
      "id": 4946804391,
      "lat": 51.3250698,
      "lon": 3.4830784
    },
    {
      "type": "node",
      "id": 4946804392,
      "lat": 51.325503,
      "lon": 3.482791
    },
    {
      "type": "node",
      "id": 4946804393,
      "lat": 51.3251775,
      "lon": 3.4829006
    },
    {
      "type": "node",
      "id": 4946804394,
      "lat": 51.3251954,
      "lon": 3.483037
    },
    {
      "type": "node",
      "id": 4946804395,
      "lat": 51.3251558,
      "lon": 3.4830503
    },
    {
      "type": "node",
      "id": 4946804396,
      "lat": 51.3251387,
      "lon": 3.4829202
    },
    {
      "type": "node",
      "id": 4946804397,
      "lat": 51.3250871,
      "lon": 3.4829376
    },
    {
      "type": "node",
      "id": 4946804398,
      "lat": 51.3251041,
      "lon": 3.4830668
    },
    {
      "type": "node",
      "id": 4946804399,
      "lat": 51.32505,
      "lon": 3.4830851
    },
    {
      "type": "node",
      "id": 4946804400,
      "lat": 51.3250427,
      "lon": 3.4830297
    },
    {
      "type": "node",
      "id": 4946804401,
      "lat": 51.3250032,
      "lon": 3.483043
    },
    {
      "type": "node",
      "id": 4946804402,
      "lat": 51.3250206,
      "lon": 3.4831755
    },
    {
      "type": "node",
      "id": 4946804403,
      "lat": 51.3250606,
      "lon": 3.4831621
    },
    {
      "type": "node",
      "id": 4946804453,
      "lat": 51.3248822,
      "lon": 3.4827854
    },
    {
      "type": "node",
      "id": 4946804454,
      "lat": 51.3249082,
      "lon": 3.4827076
    },
    {
      "type": "node",
      "id": 4946804569,
      "lat": 51.3250713,
      "lon": 3.4832441
    },
    {
      "type": "node",
      "id": 7939555102,
      "lat": 51.3260148,
      "lon": 3.4864983
    },
    {
      "type": "node",
      "id": 879592519,
      "lat": 51.3234764,
      "lon": 3.488792
    },
    {
      "type": "node",
      "id": 3786088991,
      "lat": 51.3242524,
      "lon": 3.4909357
    },
    {
      "type": "node",
      "id": 3786088992,
      "lat": 51.3241837,
      "lon": 3.4908623
    },
    {
      "type": "node",
      "id": 3786088993,
      "lat": 51.3237451,
      "lon": 3.4919135
    },
    {
      "type": "node",
      "id": 3786088994,
      "lat": 51.3239008,
      "lon": 3.4920101
    },
    {
      "type": "node",
      "id": 3786088995,
      "lat": 51.3243413,
      "lon": 3.4919922
    },
    {
      "type": "node",
      "id": 3786088996,
      "lat": 51.3244351,
      "lon": 3.49183
    },
    {
      "type": "node",
      "id": 3786088997,
      "lat": 51.3243993,
      "lon": 3.4917769
    },
    {
      "type": "node",
      "id": 3786088998,
      "lat": 51.3243212,
      "lon": 3.4919119
    },
    {
      "type": "node",
      "id": 3786088999,
      "lat": 51.3239164,
      "lon": 3.4919405
    },
    {
      "type": "node",
      "id": 3786089000,
      "lat": 51.3238372,
      "lon": 3.4918852
    },
    {
      "type": "node",
      "id": 3786089001,
      "lat": 51.3238383,
      "lon": 3.4918174
    },
    {
      "type": "node",
      "id": 3786089002,
      "lat": 51.3240611,
      "lon": 3.4912846
    },
    {
      "type": "node",
      "id": 3786089003,
      "lat": 51.324042,
      "lon": 3.4912642
    },
    {
      "type": "node",
      "id": 3786089004,
      "lat": 51.3241803,
      "lon": 3.4909332
    },
    {
      "type": "node",
      "id": 3786089005,
      "lat": 51.3242309,
      "lon": 3.4909873
    },
    {
      "type": "node",
      "id": 3786089007,
      "lat": 51.3240842,
      "lon": 3.4917757
    },
    {
      "type": "node",
      "id": 3786089008,
      "lat": 51.3240603,
      "lon": 3.4918424
    },
    {
      "type": "node",
      "id": 3786089009,
      "lat": 51.3239822,
      "lon": 3.4918495
    },
    {
      "type": "node",
      "id": 3786089010,
      "lat": 51.3239387,
      "lon": 3.4918094
    },
    {
      "type": "node",
      "id": 3786089011,
      "lat": 51.3239841,
      "lon": 3.4916834
    },
    {
      "type": "node",
      "id": 3786089012,
      "lat": 51.3243185,
      "lon": 3.4917256
    },
    {
      "type": "node",
      "id": 3786089013,
      "lat": 51.3242933,
      "lon": 3.4917942
    },
    {
      "type": "node",
      "id": 3786089014,
      "lat": 51.3242427,
      "lon": 3.4918422
    },
    {
      "type": "node",
      "id": 3786089015,
      "lat": 51.3240297,
      "lon": 3.4916419
    },
    {
      "type": "node",
      "id": 3786089016,
      "lat": 51.3240809,
      "lon": 3.4915023
    },
    {
      "type": "node",
      "id": 3786089017,
      "lat": 51.3243584,
      "lon": 3.4915126
    },
    {
      "type": "node",
      "id": 3786089018,
      "lat": 51.3243343,
      "lon": 3.4915857
    },
    {
      "type": "node",
      "id": 3786089019,
      "lat": 51.3241391,
      "lon": 3.4914209
    },
    {
      "type": "node",
      "id": 3786089020,
      "lat": 51.3241632,
      "lon": 3.4913478
    },
    {
      "type": "node",
      "id": 4264491207,
      "lat": 51.3239625,
      "lon": 3.4918314
    },
    {
      "type": "node",
      "id": 4264491210,
      "lat": 51.3240278,
      "lon": 3.4913643
    },
    {
      "type": "node",
      "id": 4264491211,
      "lat": 51.3240395,
      "lon": 3.4917345
    },
    {
      "type": "node",
      "id": 4264491215,
      "lat": 51.324112,
      "lon": 3.4919267
    },
    {
      "type": "node",
      "id": 4264491216,
      "lat": 51.3242037,
      "lon": 3.4916177
    },
    {
      "type": "node",
      "id": 4264491218,
      "lat": 51.3242431,
      "lon": 3.4915087
    },
    {
      "type": "node",
      "id": 4264491221,
      "lat": 51.3243543,
      "lon": 3.4918547
    },
    {
      "type": "node",
      "id": 4573216076,
      "lat": 51.3235837,
      "lon": 3.4891523
    },
    {
      "type": "node",
      "id": 4573216086,
      "lat": 51.3234315,
      "lon": 3.4888283
    },
    {
      "type": "node",
      "id": 7777333220,
      "lat": 51.3235352,
      "lon": 3.4891852
    },
    {
      "type": "node",
      "id": 7777333221,
      "lat": 51.3235019,
      "lon": 3.4890725
    },
    {
      "type": "node",
      "id": 2762741477,
      "lat": 51.3245555,
      "lon": 3.4884719
    },
    {
      "type": "node",
      "id": 2762741804,
      "lat": 51.3246537,
      "lon": 3.491259
    },
    {
      "type": "node",
      "id": 3761280764,
      "lat": 51.3261286,
      "lon": 3.4866035
    },
    {
      "type": "node",
      "id": 3786088985,
      "lat": 51.3246752,
      "lon": 3.4911943
    },
    {
      "type": "node",
      "id": 3786088986,
      "lat": 51.3248036,
      "lon": 3.4913644
    },
    {
      "type": "node",
      "id": 3786088987,
      "lat": 51.3247439,
      "lon": 3.4914555
    },
    {
      "type": "node",
      "id": 3786088988,
      "lat": 51.3246447,
      "lon": 3.4912855
    },
    {
      "type": "node",
      "id": 3786089027,
      "lat": 51.3256601,
      "lon": 3.4905327
    },
    {
      "type": "node",
      "id": 3786089028,
      "lat": 51.3259543,
      "lon": 3.4910485
    },
    {
      "type": "node",
      "id": 3786089029,
      "lat": 51.3253014,
      "lon": 3.4910542
    },
    {
      "type": "node",
      "id": 3786089237,
      "lat": 51.3256957,
      "lon": 3.4888936
    },
    {
      "type": "node",
      "id": 3786089238,
      "lat": 51.3258295,
      "lon": 3.4898072
    },
    {
      "type": "node",
      "id": 3786089239,
      "lat": 51.3257715,
      "lon": 3.489941
    },
    {
      "type": "node",
      "id": 3786089240,
      "lat": 51.3256076,
      "lon": 3.4889061
    },
    {
      "type": "node",
      "id": 3786089241,
      "lat": 51.3256288,
      "lon": 3.4888526
    },
    {
      "type": "node",
      "id": 3786089242,
      "lat": 51.3256667,
      "lon": 3.4888508
    },
    {
      "type": "node",
      "id": 3786089243,
      "lat": 51.3256901,
      "lon": 3.4888651
    },
    {
      "type": "node",
      "id": 3786089244,
      "lat": 51.3252255,
      "lon": 3.4890337
    },
    {
      "type": "node",
      "id": 3786089245,
      "lat": 51.3252121,
      "lon": 3.4891711
    },
    {
      "type": "node",
      "id": 3786089246,
      "lat": 51.3253537,
      "lon": 3.4895048
    },
    {
      "type": "node",
      "id": 3786089247,
      "lat": 51.3250292,
      "lon": 3.4898813
    },
    {
      "type": "node",
      "id": 3786089248,
      "lat": 51.3248453,
      "lon": 3.4893299
    },
    {
      "type": "node",
      "id": 3786089249,
      "lat": 51.3251642,
      "lon": 3.489073
    },
    {
      "type": "node",
      "id": 3786100865,
      "lat": 51.3247949,
      "lon": 3.4886744
    },
    {
      "type": "node",
      "id": 3786100866,
      "lat": 51.3246613,
      "lon": 3.48878
    },
    {
      "type": "node",
      "id": 3786100867,
      "lat": 51.3247409,
      "lon": 3.488486
    },
    {
      "type": "node",
      "id": 3786478689,
      "lat": 51.3299953,
      "lon": 3.488597
    },
    {
      "type": "node",
      "id": 3786478690,
      "lat": 51.3299734,
      "lon": 3.4886631
    },
    {
      "type": "node",
      "id": 3786478691,
      "lat": 51.3298303,
      "lon": 3.4885444
    },
    {
      "type": "node",
      "id": 3786478692,
      "lat": 51.3298554,
      "lon": 3.4884732
    },
    {
      "type": "node",
      "id": 3786478693,
      "lat": 51.3302147,
      "lon": 3.4890461
    },
    {
      "type": "node",
      "id": 3786478694,
      "lat": 51.3296892,
      "lon": 3.4897461
    },
    {
      "type": "node",
      "id": 3786478695,
      "lat": 51.3296563,
      "lon": 3.4896766
    },
    {
      "type": "node",
      "id": 3786478696,
      "lat": 51.3301811,
      "lon": 3.4889868
    },
    {
      "type": "node",
      "id": 3786478697,
      "lat": 51.3303046,
      "lon": 3.4895192
    },
    {
      "type": "node",
      "id": 3786478698,
      "lat": 51.3302413,
      "lon": 3.4894913
    },
    {
      "type": "node",
      "id": 3786478699,
      "lat": 51.3303843,
      "lon": 3.4893108
    },
    {
      "type": "node",
      "id": 3786478700,
      "lat": 51.3304238,
      "lon": 3.489346
    },
    {
      "type": "node",
      "id": 3786478701,
      "lat": 51.3304339,
      "lon": 3.4893709
    },
    {
      "type": "node",
      "id": 4264491224,
      "lat": 51.3246889,
      "lon": 3.4911716
    },
    {
      "type": "node",
      "id": 4264491236,
      "lat": 51.3257074,
      "lon": 3.4889735
    },
    {
      "type": "node",
      "id": 4264491237,
      "lat": 51.3255783,
      "lon": 3.4915891
    },
    {
      "type": "node",
      "id": 5281856706,
      "lat": 51.3299656,
      "lon": 3.4885707
    },
    {
      "type": "node",
      "id": 6693382301,
      "lat": 51.3253289,
      "lon": 3.4910989
    },
    {
      "type": "node",
      "id": 6693382302,
      "lat": 51.3253532,
      "lon": 3.4911954
    },
    {
      "type": "node",
      "id": 3786088957,
      "lat": 51.3281037,
      "lon": 3.4950066
    },
    {
      "type": "node",
      "id": 3786088958,
      "lat": 51.3280666,
      "lon": 3.4950571
    },
    {
      "type": "node",
      "id": 3786088959,
      "lat": 51.3281285,
      "lon": 3.4951598
    },
    {
      "type": "node",
      "id": 3786088960,
      "lat": 51.3281645,
      "lon": 3.4951075
    },
    {
      "type": "node",
      "id": 3786088961,
      "lat": 51.3284204,
      "lon": 3.4952545
    },
    {
      "type": "node",
      "id": 3786088962,
      "lat": 51.3283815,
      "lon": 3.4953048
    },
    {
      "type": "node",
      "id": 3786088963,
      "lat": 51.3285606,
      "lon": 3.495597
    },
    {
      "type": "node",
      "id": 3786088964,
      "lat": 51.328593,
      "lon": 3.4955483
    },
    {
      "type": "node",
      "id": 3786088965,
      "lat": 51.3286803,
      "lon": 3.495066
    },
    {
      "type": "node",
      "id": 3786088966,
      "lat": 51.3288237,
      "lon": 3.4952839
    },
    {
      "type": "node",
      "id": 3786088967,
      "lat": 51.3287626,
      "lon": 3.495387
    },
    {
      "type": "node",
      "id": 3786088968,
      "lat": 51.3286192,
      "lon": 3.495169
    },
    {
      "type": "node",
      "id": 3786088969,
      "lat": 51.3287537,
      "lon": 3.494943
    },
    {
      "type": "node",
      "id": 3786088970,
      "lat": 51.3289084,
      "lon": 3.4951834
    },
    {
      "type": "node",
      "id": 3786088971,
      "lat": 51.3288754,
      "lon": 3.4952393
    },
    {
      "type": "node",
      "id": 3786088972,
      "lat": 51.3287198,
      "lon": 3.4949965
    },
    {
      "type": "node",
      "id": 3786088973,
      "lat": 51.3288779,
      "lon": 3.4940484
    },
    {
      "type": "node",
      "id": 3786088974,
      "lat": 51.3289822,
      "lon": 3.4944817
    },
    {
      "type": "node",
      "id": 3786088975,
      "lat": 51.328948,
      "lon": 3.4945383
    },
    {
      "type": "node",
      "id": 3786088976,
      "lat": 51.3288397,
      "lon": 3.4940676
    },
    {
      "type": "node",
      "id": 3786088977,
      "lat": 51.3288685,
      "lon": 3.4943225
    },
    {
      "type": "node",
      "id": 3786088978,
      "lat": 51.3288984,
      "lon": 3.4944445
    },
    {
      "type": "node",
      "id": 3786088979,
      "lat": 51.3288419,
      "lon": 3.4945432
    },
    {
      "type": "node",
      "id": 3786088980,
      "lat": 51.3288068,
      "lon": 3.4944198
    },
    {
      "type": "node",
      "id": 3786088981,
      "lat": 51.3295556,
      "lon": 3.4935477
    },
    {
      "type": "node",
      "id": 3786088982,
      "lat": 51.329565,
      "lon": 3.4935875
    },
    {
      "type": "node",
      "id": 3786088983,
      "lat": 51.3286585,
      "lon": 3.4941799
    },
    {
      "type": "node",
      "id": 3786088984,
      "lat": 51.3286508,
      "lon": 3.4941428
    },
    {
      "type": "node",
      "id": 5516474686,
      "lat": 51.3286528,
      "lon": 3.4941061
    },
    {
      "type": "node",
      "id": 764082343,
      "lat": 51.3226846,
      "lon": 3.5003497
    },
    {
      "type": "node",
      "id": 764082348,
      "lat": 51.3227043,
      "lon": 3.5003539
    },
    {
      "type": "node",
      "id": 764082349,
      "lat": 51.3226805,
      "lon": 3.5003667
    },
    {
      "type": "node",
      "id": 764082350,
      "lat": 51.3226983,
      "lon": 3.50034
    },
    {
      "type": "node",
      "id": 1169748805,
      "lat": 51.3226736,
      "lon": 3.5003509
    },
    {
      "type": "node",
      "id": 4582781619,
      "lat": 51.3335799,
      "lon": 3.4945674
    },
    {
      "type": "node",
      "id": 4582781620,
      "lat": 51.3335899,
      "lon": 3.4946264
    },
    {
      "type": "node",
      "id": 4582781621,
      "lat": 51.3336083,
      "lon": 3.4946773
    },
    {
      "type": "node",
      "id": 4582781622,
      "lat": 51.3336469,
      "lon": 3.4949107
    },
    {
      "type": "node",
      "id": 4582781623,
      "lat": 51.3336821,
      "lon": 3.4951038
    },
    {
      "type": "node",
      "id": 4582781624,
      "lat": 51.3337742,
      "lon": 3.4956027
    },
    {
      "type": "node",
      "id": 4582781625,
      "lat": 51.333729,
      "lon": 3.4956268
    },
    {
      "type": "node",
      "id": 4582781626,
      "lat": 51.3335396,
      "lon": 3.4945781
    },
    {
      "type": "node",
      "id": 4582781627,
      "lat": 51.3336631,
      "lon": 3.4949998
    }
  ]
}