{
  "version": 0.6,
  "generator": "Overpass API 0.7.57 93a4d346",
  "osm3s": {
    "timestamp_osm_base": "2021-12-11T04:52:23Z",
    "copyright": "The data included in this document is from www.openstreetmap.org. The data is made available under ODbL."
  },
  "elements": [
    {
      "type": "node",
      "id": 754159458,
      "lat": 51.5165733,
      "lon": 5.4254993,
      "tags": {
        "amenity": "bench",
        "backrest": "yes",
        "colour": "brown",
        "material": "wood"
      }
    },
    {
      "type": "node",
      "id": 977871821,
      "lat": 51.5153581,
      "lon": 5.4258098,
      "tags": {
        "amenity": "bench"
      }
    },
    {
      "type": "node",
      "id": 977880838,
      "lat": 51.5130309,
      "lon": 5.4254126,
      "tags": {
        "amenity": "bench",
        "backrest": "yes"
      }
    },
    {
      "type": "node",
      "id": 977909442,
      "lat": 51.5147973,
      "lon": 5.4420173,
      "tags": {
        "amenity": "bench"
      }
    },
    {
      "type": "node",
      "id": 1348058200,
      "lat": 51.5124686,
      "lon": 5.3962592,
      "tags": {
        "amenity": "parking"
      }
    },
    {
      "type": "node",
      "id": 1611449092,
      "lat": 51.5089508,
      "lon": 5.3894142,
      "tags": {
        "amenity": "parking",
        "capacity": "80",
        "name": "P&R"
      }
    },
    {
      "type": "node",
      "id": 1660916552,
      "lat": 51.5410253,
      "lon": 5.3936292,
      "tags": {
        "leisure": "picnic_table"
      }
    },
    {
      "type": "node",
      "id": 1660916566,
      "lat": 51.5605404,
      "lon": 5.3752196,
      "tags": {
        "amenity": "bench"
      }
    },
    {
      "type": "node",
      "id": 1660960010,
      "lat": 51.5575693,
      "lon": 5.4036649,
      "tags": {
        "amenity": "bench"
      }
    },
    {
      "type": "node",
      "id": 1753952428,
      "lat": 51.515165,
      "lon": 5.4013114,
      "tags": {
        "amenity": "parking",
        "capacity": "25"
      }
    },
    {
      "type": "node",
      "id": 3530316493,
      "lat": 51.5129037,
      "lon": 5.3901531,
      "tags": {
        "amenity": "bench",
        "backrest": "yes",
        "material": "wood"
      }
    },
    {
      "type": "node",
      "id": 3688177041,
      "lat": 51.5418749,
      "lon": 5.4416366,
      "tags": {
        "information": "board",
        "tourism": "information"
      }
    },
    {
      "type": "node",
      "id": 4831097571,
      "lat": 51.5604226,
      "lon": 5.4442866,
      "tags": {
        "amenity": "bench"
      }
    },
    {
      "type": "node",
      "id": 4842137185,
      "lat": 51.5189737,
      "lon": 5.4181633,
      "tags": {
        "amenity": "bench",
        "survey:date": "2021-05-07"
      }
    },
    {
      "type": "node",
      "id": 4842557090,
      "lat": 51.5099675,
      "lon": 5.4283865,
      "tags": {
        "amenity": "bench"
      }
    },
    {
      "type": "node",
      "id": 4842590465,
      "lat": 51.51518,
      "lon": 5.4046775,
      "tags": {
        "amenity": "bench"
      }
    },
    {
      "type": "node",
      "id": 4849863457,
      "lat": 51.5099499,
      "lon": 5.4112417,
      "tags": {
        "amenity": "parking",
        "name": "Scouting"
      }
    },
    {
      "type": "node",
      "id": 4960497798,
      "lat": 51.514974,
      "lon": 5.4365304,
      "tags": {
        "leisure": "picnic_table"
      }
    },
    {
      "type": "node",
      "id": 5320254234,
      "lat": 51.5614193,
      "lon": 5.386666,
      "tags": {
        "leisure": "picnic_table"
      }
    },
    {
      "type": "node",
      "id": 5320254235,
      "lat": 51.5614764,
      "lon": 5.3866703,
      "tags": {
        "amenity": "bench"
      }
    },
    {
      "type": "node",
      "id": 5523644766,
      "lat": 51.5117898,
      "lon": 5.3911681,
      "tags": {
        "access": "yes",
        "amenity": "drinking_water",
        "bottle": "yes",
        "description": "openbare drinkwaterkraan van Brabant Water. Kraan wordt in winter verwijderd",
        "fee": "no",
        "man_made": "water_tap",
        "operator": "Brabant Water"
      }
    },
    {
      "type": "node",
      "id": 6141091993,
      "lat": 51.524886,
      "lon": 5.400706,
      "tags": {
        "bicycle": "yes",
        "fixme": "Resurvey needed to establish exact location",
        "highway": "trailhead",
        "hiking": "yes",
        "information": "board",
        "name": "Natuurpoort Het Groene Woud",
        "note": "Location is not confirmed by air view or field view",
        "source": "gpsfietsroutesnederland.nl",
        "tourism": "information",
        "url": "https://gpsfietsroutesnederland.nl/toeristische-overstappunten/",
        "website": "https://www.natuurpoorten.nl/",
        "wikipedia": "nl:Toeristisch Overstappunt"
      }
    },
    {
      "type": "node",
      "id": 6148234475,
      "lat": 51.5099809,
      "lon": 5.3940954,
      "tags": {
        "access": "permissive",
        "amenity": "parking",
        "fee": "yes",
        "name": "Molenveste",
        "parking": "underground"
      }
    },
    {
      "type": "node",
      "id": 6255667213,
      "lat": 51.5491168,
      "lon": 5.4245083,
      "tags": {
        "amenity": "bench"
      }
    },
    {
      "type": "node",
      "id": 6255674410,
      "lat": 51.5445915,
      "lon": 5.4360529,
      "tags": {
        "leisure": "picnic_table"
      }
    },
    {
      "type": "node",
      "id": 6255695419,
      "lat": 51.5274691,
      "lon": 5.4152642,
      "tags": {
        "amenity": "bench",
        "name": "Vleutense Molens"
      }
    },
    {
      "type": "node",
      "id": 6271978737,
      "lat": 51.5158083,
      "lon": 5.3650269,
      "tags": {
        "amenity": "bench"
      }
    },
    {
      "type": "node",
      "id": 6271980671,
      "lat": 51.5259409,
      "lon": 5.3736641,
      "tags": {
        "amenity": "bench",
        "name": "Malckersteegh"
      }
    },
    {
      "type": "node",
      "id": 6286431041,
      "lat": 51.5214879,
      "lon": 5.3774834,
      "tags": {
        "leisure": "picnic_table"
      }
    },
    {
      "type": "node",
      "id": 6289132581,
      "lat": 51.5314923,
      "lon": 5.3684035,
      "tags": {
        "amenity": "bench"
      }
    },
    {
      "type": "node",
      "id": 6352754275,
      "lat": 51.5386249,
      "lon": 5.3937425,
      "tags": {
        "amenity": "bench"
      }
    },
    {
      "type": "node",
      "id": 6352754443,
      "lat": 51.5140059,
      "lon": 5.4131956,
      "tags": {
        "amenity": "bench"
      }
    },
    {
      "type": "node",
      "id": 6352754444,
      "lat": 51.5311744,
      "lon": 5.3937144,
      "tags": {
        "amenity": "bench"
      }
    },
    {
      "type": "node",
      "id": 6373093269,
      "lat": 51.5617732,
      "lon": 5.3839354,
      "tags": {
        "amenity": "bench"
      }
    },
    {
      "type": "node",
      "id": 6373100498,
      "lat": 51.5633372,
      "lon": 5.3852343,
      "tags": {
        "amenity": "bench"
      }
    },
    {
      "type": "node",
      "id": 6565496709,
      "lat": 51.5091445,
      "lon": 5.380923,
      "tags": {
        "amenity": "bench"
      }
    },
    {
      "type": "node",
      "id": 6992402641,
      "lat": 51.5500264,
      "lon": 5.4224019,
      "tags": {
        "amenity": "drinking_water",
        "bottle": "yes",
        "note": "permission from Brabant Water to use source",
        "operator": "JoinThePipe, for Brabant Water",
        "source": "https://www.brabantwater.nl/overbrabantwater/download/tappunt.gpx"
      }
    },
    {
      "type": "node",
      "id": 7052040887,
      "lat": 51.5155579,
      "lon": 5.4002665,
      "tags": {
        "amenity": "parking",
        "capacity": "16"
      }
    },
    {
      "type": "node",
      "id": 7380301892,
      "lat": 51.5170041,
      "lon": 5.4274379,
      "tags": {
        "amenity": "bench"
      }
    },
    {
      "type": "node",
      "id": 7380301897,
      "lat": 51.5152928,
      "lon": 5.4286258,
      "tags": {
        "amenity": "bench"
      }
    },
    {
      "type": "node",
      "id": 7389921097,
      "lat": 51.5555137,
      "lon": 5.4481372,
      "tags": {
        "amenity": "bench",
        "backrest": "yes"
      }
    },
    {
      "type": "node",
      "id": 7389921116,
      "lat": 51.5514034,
      "lon": 5.4472625,
      "tags": {
        "leisure": "picnic_table"
      }
    },
    {
      "type": "node",
      "id": 7390220935,
      "lat": 51.5149223,
      "lon": 5.4394965,
      "tags": {
        "amenity": "bench",
        "backrest": "yes"
      }
    },
    {
      "type": "node",
      "id": 7390322939,
      "lat": 51.5150912,
      "lon": 5.4340385,
      "tags": {
        "amenity": "bench",
        "backrest": "no"
      }
    },
    {
      "type": "node",
      "id": 7394641367,
      "lat": 51.5119981,
      "lon": 5.4362622,
      "tags": {
        "amenity": "bench"
      }
    },
    {
      "type": "node",
      "id": 7394641372,
      "lat": 51.5118728,
      "lon": 5.4367674,
      "tags": {
        "amenity": "bench"
      }
    },
    {
      "type": "node",
      "id": 7394641373,
      "lat": 51.5121393,
      "lon": 5.4363538,
      "tags": {
        "amenity": "bench"
      }
    },
    {
      "type": "node",
      "id": 7394641374,
      "lat": 51.5122731,
      "lon": 5.4359127,
      "tags": {
        "leisure": "picnic_table"
      }
    },
    {
      "type": "node",
      "id": 7394641375,
      "lat": 51.5122756,
      "lon": 5.435344,
      "tags": {
        "leisure": "picnic_table"
      }
    },
    {
      "type": "node",
      "id": 7394641376,
      "lat": 51.5094078,
      "lon": 5.4346235,
      "tags": {
        "amenity": "bench"
      }
    },
    {
      "type": "node",
      "id": 7394641377,
      "lat": 51.51218,
      "lon": 5.4366449,
      "tags": {
        "leisure": "picnic_table"
      }
    },
    {
      "type": "node",
      "id": 7394641378,
      "lat": 51.5111296,
      "lon": 5.4379552,
      "tags": {
        "amenity": "bench"
      }
    },
    {
      "type": "node",
      "id": 7395600894,
      "lat": 51.5123891,
      "lon": 5.4347515,
      "tags": {
        "amenity": "bench",
        "backrest": "yes"
      }
    },
    {
      "type": "node",
      "id": 7395600895,
      "lat": 51.5123539,
      "lon": 5.4347385,
      "tags": {
        "amenity": "bench",
        "backrest": "yes"
      }
    },
    {
      "type": "node",
      "id": 7395600897,
      "lat": 51.5122439,
      "lon": 5.4346093,
      "tags": {
        "information": "board",
        "tourism": "information"
      }
    },
    {
      "type": "node",
      "id": 7419273780,
      "lat": 51.51171,
      "lon": 5.4342796,
      "tags": {
        "amenity": "bench"
      }
    },
    {
      "type": "node",
      "id": 7419273781,
      "lat": 51.5117475,
      "lon": 5.4248445,
      "tags": {
        "amenity": "bench"
      }
    },
    {
      "type": "node",
      "id": 7419273784,
      "lat": 51.5110042,
      "lon": 5.4336866,
      "tags": {
        "amenity": "bench"
      }
    },
    {
      "type": "node",
      "id": 7419279387,
      "lat": 51.5113147,
      "lon": 5.4292282,
      "tags": {
        "amenity": "bench"
      }
    },
    {
      "type": "node",
      "id": 7463281301,
      "lat": 51.5458934,
      "lon": 5.3867531,
      "tags": {
        "amenity": "bench",
        "backrest": "yes"
      }
    },
    {
      "type": "node",
      "id": 7463281303,
      "lat": 51.5442783,
      "lon": 5.3974988,
      "tags": {
        "amenity": "bench",
        "backrest": "yes"
      }
    },
    {
      "type": "node",
      "id": 7463281304,
      "lat": 51.5467885,
      "lon": 5.3826612,
      "tags": {
        "leisure": "picnic_table"
      }
    },
    {
      "type": "node",
      "id": 7463281306,
      "lat": 51.5474835,
      "lon": 5.3844822,
      "tags": {
        "amenity": "bench",
        "backrest": "yes"
      }
    },
    {
      "type": "node",
      "id": 7464327056,
      "lat": 51.5366836,
      "lon": 5.3906735,
      "tags": {
        "amenity": "bench",
        "backrest": "yes"
      }
    },
    {
      "type": "node",
      "id": 7464346158,
      "lat": 51.5317545,
      "lon": 5.3939969,
      "tags": {
        "amenity": "bench"
      }
    },
    {
      "type": "node",
      "id": 8108195710,
      "lat": 51.5150649,
      "lon": 5.4342306,
      "tags": {
        "leisure": "picnic_table"
      }
    },
    {
      "type": "node",
      "id": 8108195711,
      "lat": 51.5481923,
      "lon": 5.4068908,
      "tags": {
        "amenity": "bench"
      }
    },
    {
      "type": "node",
      "id": 8646932691,
      "lat": 51.5378939,
      "lon": 5.3618002,
      "tags": {
        "amenity": "bench",
        "backrest": "yes",
        "description": "2 \"chairs\" carved out of tree stumps",
        "seats": "2"
      }
    },
    {
      "type": "node",
      "id": 8681015834,
      "lat": 51.5254455,
      "lon": 5.3653458,
      "tags": {
        "amenity": "bench"
      }
    },
    {
      "type": "node",
      "id": 8696412560,
      "lat": 51.5600207,
      "lon": 5.3934583,
      "tags": {
        "amenity": "bench"
      }
    },
    {
      "type": "node",
      "id": 8714776135,
      "lat": 51.5144072,
      "lon": 5.3864683,
      "tags": {
        "amenity": "bench"
      }
    },
    {
      "type": "node",
      "id": 8714777684,
      "lat": 51.5143999,
      "lon": 5.3864907,
      "tags": {
        "amenity": "bench"
      }
    },
    {
      "type": "node",
      "id": 8714789418,
      "lat": 51.5144874,
      "lon": 5.3867775,
      "tags": {
        "leisure": "picnic_table"
      }
    },
    {
      "type": "node",
      "id": 8761425297,
      "lat": 51.5317689,
      "lon": 5.3939645,
      "tags": {
        "leisure": "picnic_table"
      }
    },
    {
      "type": "node",
      "id": 8762568509,
      "lat": 51.5317918,
      "lon": 5.3939409,
      "tags": {
        "amenity": "bench"
      }
    },
    {
      "type": "node",
      "id": 8779382101,
      "lat": 51.5291679,
      "lon": 5.3933059,
      "tags": {
        "amenity": "bench",
        "backrest": "no"
      }
    },
    {
      "type": "node",
      "id": 8779382104,
      "lat": 51.5284226,
      "lon": 5.3929885,
      "tags": {
        "amenity": "bench",
        "backrest": "no"
      }
    },
    {
      "type": "node",
      "id": 8779382105,
      "lat": 51.5283017,
      "lon": 5.3931364,
      "tags": {
        "amenity": "bench",
        "backrest": "no"
      }
    },
    {
      "type": "node",
      "id": 8779382107,
      "lat": 51.528744,
      "lon": 5.3931429,
      "tags": {
        "amenity": "bench",
        "backrest": "no"
      }
    },
    {
      "type": "node",
      "id": 8779382111,
      "lat": 51.5265589,
      "lon": 5.3996677,
      "tags": {
        "amenity": "bench",
        "backrest": "no"
      }
    },
    {
      "type": "node",
      "id": 8779403452,
      "lat": 51.526843,
      "lon": 5.4002197,
      "tags": {
        "amenity": "bench",
        "backrest": "yes"
      }
    },
    {
      "type": "node",
      "id": 8779410829,
      "lat": 51.528243,
      "lon": 5.393869,
      "tags": {
        "amenity": "bench",
        "backrest": "no"
      }
    },
    {
      "type": "node",
      "id": 8890656421,
      "lat": 51.5098579,
      "lon": 5.38909,
      "tags": {
        "access": "yes",
        "amenity": "toilets",
        "changing_table": "yes",
        "fee": "yes",
        "toilets:disposal": "flush",
        "unisex": "yes",
        "wheelchair": "yes"
      }
    },
    {
      "type": "node",
      "id": 9014792566,
      "lat": 51.5604568,
      "lon": 5.4255656,
      "tags": {
        "leisure": "picnic_table"
      }
    },
    {
      "type": "node",
      "id": 9014799243,
      "lat": 51.5606845,
      "lon": 5.425551,
      "tags": {
        "leisure": "picnic_table"
      }
    },
    {
      "type": "node",
      "id": 9046187718,
      "lat": 51.5291454,
      "lon": 5.4047845,
      "tags": {
        "leisure": "picnic_table"
      }
    },
    {
      "type": "node",
      "id": 9046198275,
      "lat": 51.5292006,
      "lon": 5.4050747,
      "tags": {
        "amenity": "bench"
      }
    },
    {
      "type": "node",
      "id": 9046199190,
      "lat": 51.5291115,
      "lon": 5.4050048,
      "tags": {
        "leisure": "picnic_table"
      }
    },
    {
      "type": "node",
      "id": 9046199334,
      "lat": 51.5291147,
      "lon": 5.4051352,
      "tags": {
        "amenity": "bench"
      }
    },
    {
      "type": "node",
      "id": 9046199637,
      "lat": 51.529163,
      "lon": 5.4051297,
      "tags": {
        "amenity": "bench"
      }
    },
    {
      "type": "node",
      "id": 9073924528,
      "lat": 51.5124849,
      "lon": 5.3941021,
      "tags": {
        "amenity": "bench",
        "artwork_type": "mosaic",
        "name": "Social Sofa",
        "tourism": "artwork"
      }
    },
    {
      "type": "way",
      "id": 39837222,
      "nodes": [
        7463541606,
        7463541610,
        477544262,
        7463541603,
        477544263,
        7463541602,
        7463541606
      ],
      "tags": {
        "amenity": "parking"
      }
    },
    {
      "type": "way",
      "id": 39904779,
      "nodes": [
        479094957,
        479094961,
        479094963,
        479094966,
        479094957
      ],
      "tags": {
        "amenity": "parking"
      }
    },
    {
      "type": "way",
      "id": 39905755,
      "nodes": [
        479103522,
        7388939244,
        479103540,
        479103561,
        479103581,
        479103522
      ],
      "tags": {
        "access": "yes",
        "amenity": "parking",
        "fee": "no",
        "parking": "surface"
      }
    },
    {
      "type": "way",
      "id": 39906382,
      "nodes": [
        479113800,
        479113817,
        479113889,
        479113916,
        5131621253,
        5131621252,
        5131621251,
        479113800
      ],
      "tags": {
        "amenity": "parking",
        "campers": "yes",
        "capacity": "44",
        "fee": "no",
        "name": "Carpool Best-West A2",
        "park_ride": "no",
        "supervised": "yes",
        "surface": "paved"
      }
    },
    {
      "type": "way",
      "id": 47419242,
      "nodes": [
        479103522,
        977880451,
        603568392,
        977908404,
        603568393,
        479103540,
        7388939244,
        479103522
      ],
      "tags": {
        "access": "yes",
        "amenity": "parking",
        "fee": "no",
        "parking": "surface"
      }
    },
    {
      "type": "way",
      "id": 128221524,
      "nodes": [
        1417450959,
        1417450923,
        1417450926,
        1417450964,
        1417450959
      ],
      "tags": {
        "addr:city": "Best",
        "addr:postcode": "5684AA",
        "addr:street": "Spoorstraat",
        "amenity": "parking",
        "level": "0",
        "name": "P+R Spoorstraat",
        "operator": "Q-Park"
      }
    },
    {
      "type": "way",
      "id": 128221539,
      "nodes": [
        1417450980,
        1417450983,
        1417450976,
        1417450967,
        1417450980
      ],
      "tags": {
        "amenity": "parking"
      }
    },
    {
      "type": "way",
      "id": 128221540,
      "nodes": [
        1417450927,
        1417450907,
        1417450912,
        1417450936,
        1417450934,
        1417450927
      ],
      "tags": {
        "amenity": "parking"
      }
    },
    {
      "type": "way",
      "id": 128221541,
      "nodes": [
        1417450966,
        1417450956,
        1417450949,
        1417450947,
        6838669324,
        6838669325,
        6838669326,
        7399127343,
        1417450966
      ],
      "tags": {
        "amenity": "parking",
        "level": "0",
        "parking": "surface"
      }
    },
    {
      "type": "way",
      "id": 207224176,
      "nodes": [
        2173879146,
        2173879142,
        2173879141,
        2173879145,
        2173879146
      ],
      "tags": {
        "amenity": "parking"
      }
    },
    {
      "type": "way",
      "id": 271100376,
      "nodes": [
        2760591182,
        2760591199,
        2760591201,
        2760626229,
        2760591203,
        2760591207,
        2760591208,
        2760591209,
        2760591182
      ],
      "tags": {
        "amenity": "parking"
      }
    },
    {
      "type": "way",
      "id": 271100381,
      "nodes": [
        2760591215,
        2763366446,
        2763366444,
        2763366445,
        2760591216,
        2760591203,
        2760591207,
        2760591220,
        2760591215
      ],
      "tags": {
        "amenity": "parking"
      }
    },
    {
      "type": "way",
      "id": 271103771,
      "nodes": [
        2760630404,
        2760630405,
        2760630406,
        2760630407,
        4961262301,
        2760630404
      ],
      "tags": {
        "amenity": "parking",
        "capacity": "8"
      }
    },
    {
      "type": "way",
      "id": 441983900,
      "nodes": [
        564721571,
        4396736743,
        4396736741,
        4396736739,
        4396736736,
        4396736737,
        4396736740,
        4396736744,
        564721571
      ],
      "tags": {
        "addr:city": "Best",
        "addr:postcode": "5683BC",
        "addr:street": "Molenstraat",
        "amenity": "parking",
        "capacity": "200",
        "name": "P+R Molenstraat",
        "operator": "Q-Park",
        "park_ride": "yes"
      }
    },
    {
      "type": "way",
      "id": 445369480,
      "nodes": [
        4428112023,
        4428112026,
        4428112027,
        4428112025,
        4428112023
      ],
      "tags": {
        "amenity": "parking"
      }
    },
    {
      "type": "way",
      "id": 528532002,
      "nodes": [
        5136047388,
        5136047389,
        5136047390,
        5136047392,
        5136047393,
        5136047394,
        5136047397,
        5136047398,
        5136047388
      ],
      "tags": {
        "amenity": "parking"
      }
    },
    {
      "type": "way",
      "id": 528532003,
      "nodes": [
        5136047400,
        7051709151,
        5136047401,
        5136047403,
        5136047404,
        5136047407,
        5136047409,
        5136047410,
        5136047400
      ],
      "tags": {
        "amenity": "parking"
      }
    },
    {
      "type": "way",
      "id": 528532004,
      "nodes": [
        5136047411,
        5136047412,
        5136047413,
        5136047414,
        5136047411
      ],
      "tags": {
        "amenity": "parking"
      }
    },
    {
      "type": "way",
      "id": 528532005,
      "nodes": [
        5136047415,
        5136047416,
        5136047417,
        5136047418,
        5136047419,
        5136047420,
        5136047415
      ],
      "tags": {
        "amenity": "parking"
      }
    },
    {
      "type": "way",
      "id": 528532006,
      "nodes": [
        5136047723,
        5136047724,
        7051709152,
        5136047725,
        5136047726,
        5136047727,
        5136047723
      ],
      "tags": {
        "access": "yes",
        "amenity": "parking",
        "fee": "no",
        "surface": "paving_stones"
      }
    },
    {
      "type": "way",
      "id": 528532007,
      "nodes": [
        5136047728,
        5136047729,
        7051709122,
        5136047730,
        5136047731,
        5136047732,
        5136047733,
        5136047734,
        5136047735,
        5136047728
      ],
      "tags": {
        "access": "yes",
        "amenity": "parking",
        "fee": "no",
        "surface": "paving_stones"
      }
    },
    {
      "type": "way",
      "id": 528532008,
      "nodes": [
        5136047736,
        5136047737,
        5136047738,
        5136047739,
        5136047740,
        5136047741,
        5136047742,
        5136047743,
        5136047744,
        5136047745,
        5136047746,
        5136047747,
        5136047736
      ],
      "tags": {
        "access": "yes",
        "amenity": "parking",
        "fee": "no",
        "surface": "paving_stones"
      }
    },
    {
      "type": "way",
      "id": 528535414,
      "nodes": [
        5136078046,
        5136078047,
        5136078048,
        5136078049,
        5136078050,
        5136078057,
        5136078058,
        5136078059,
        5136078060,
        5136078046
      ],
      "tags": {
        "amenity": "parking",
        "name": "Raadhuisplein"
      }
    },
    {
      "type": "way",
      "id": 528535415,
      "nodes": [
        5136078071,
        4638919043,
        5136078069,
        5136078066,
        5136078067,
        5136078068,
        5136078071
      ],
      "tags": {
        "amenity": "parking",
        "maxstay": "1 hr"
      }
    },
    {
      "type": "way",
      "id": 586067759,
      "nodes": [
        5600205797,
        3135507662,
        5600205798,
        5600205799,
        5600205800,
        5600205797
      ],
      "tags": {
        "access": "private",
        "amenity": "parking",
        "capacity": "26",
        "parking": "surface"
      }
    },
    {
      "type": "way",
      "id": 586067760,
      "nodes": [
        5600205801,
        5600205805,
        5600205802,
        5600205803,
        5600205808,
        5600205804,
        5600205801
      ],
      "tags": {
        "access": "yes",
        "amenity": "parking",
        "capacity": "12",
        "fee": "no",
        "parking": "surface",
        "surface": "paving_stones"
      }
    },
    {
      "type": "way",
      "id": 586067763,
      "nodes": [
        5600205809,
        5600205810,
        42850670,
        42851957,
        5600205811,
        5600205809
      ],
      "tags": {
        "access": "yes",
        "amenity": "parking",
        "capacity": "25",
        "fee": "no",
        "parking": "surface",
        "supervised": "no",
        "surface": "paving_stones"
      }
    },
    {
      "type": "way",
      "id": 646988927,
      "nodes": [
        6077151600,
        6077151601,
        6077151602,
        6077151603,
        6077151600
      ],
      "tags": {
        "amenity": "parking"
      }
    },
    {
      "type": "way",
      "id": 655723500,
      "nodes": [
        7051681655,
        6143361560,
        6143361561,
        6143361562,
        6143361563,
        7051681658,
        6143361564,
        6143361565,
        6143361566,
        6143361567,
        7051681657,
        7051681656,
        7051681655
      ],
      "tags": {
        "amenity": "parking",
        "name": "Den Ekker"
      }
    },
    {
      "type": "way",
      "id": 655723501,
      "nodes": [
        6143361568,
        6143361569,
        6143361570,
        6143361571,
        6143361572,
        6143361573,
        6143361574,
        6143361575,
        6143361568
      ],
      "tags": {
        "amenity": "parking",
        "name": "Den Ekker"
      }
    },
    {
      "type": "way",
      "id": 656315554,
      "nodes": [
        6148240765,
        6148240766,
        6148240767,
        6148240768,
        6148240769,
        6148240770,
        6148240771,
        6148240765
      ],
      "tags": {
        "amenity": "parking",
        "name": "Hoofdstraat / Tapijtcentrum Nederland"
      }
    },
    {
      "type": "way",
      "id": 673559743,
      "nodes": [
        6307756707,
        6307756708,
        6307756709,
        6307756710,
        6307756711,
        7389509374,
        6307756712,
        6307756713,
        6307756714,
        6307756707
      ],
      "tags": {
        "amenity": "parking"
      }
    },
    {
      "type": "way",
      "id": 730007736,
      "nodes": [
        6838669328,
        6838669329,
        6838669330,
        6838669331,
        6838669328
      ],
      "tags": {
        "amenity": "parking",
        "parking": "surface"
      }
    },
    {
      "type": "way",
      "id": 752830630,
      "nodes": [
        7034471639,
        7463591484,
        7034471640,
        7034471641,
        7034471642,
        7034471634,
        7034471639
      ],
      "tags": {
        "access": "yes",
        "amenity": "parking",
        "capacity": "200",
        "fee": "no",
        "name": "Parkeerplaats Natuurpoort de Scheeken",
        "parking": "surface",
        "surface": "grass_paver"
      }
    },
    {
      "type": "way",
      "id": 754900571,
      "nodes": [
        7052040890,
        7052040891,
        7052040892,
        7052040893,
        7052040894,
        7052040895,
        7052040890
      ],
      "tags": {
        "amenity": "parking",
        "surface": "paved"
      }
    },
    {
      "type": "way",
      "id": 771930358,
      "nodes": [
        7206351660,
        7206351661,
        7206351662,
        42868713,
        5528825920,
        7206351660
      ],
      "tags": {
        "access": "yes",
        "amenity": "parking",
        "capacity": "9",
        "fee": "no",
        "parking": "surface",
        "surface": "paved"
      }
    },
    {
      "type": "way",
      "id": 790450653,
      "nodes": [
        7389923103,
        7389923104,
        7389923105,
        7389923106,
        7389923103
      ],
      "tags": {
        "amenity": "parking"
      }
    },
    {
      "type": "way",
      "id": 791476484,
      "nodes": [
        7399127317,
        7399127318,
        7399127319,
        7399127320,
        7399127321,
        7399127324,
        7399127317
      ],
      "tags": {
        "access": "yes",
        "amenity": "parking",
        "capacity": "13",
        "fee": "no",
        "parking": "lane",
        "surface": "paving_stones"
      }
    },
    {
      "type": "way",
      "id": 791476486,
      "nodes": [
        7399127327,
        7399127328,
        7399127329,
        7399127330,
        7399127327
      ],
      "tags": {
        "access": "yes",
        "amenity": "parking",
        "capacity": "10",
        "fee": "no",
        "parking": "lane",
        "surface": "paving_stones"
      }
    },
    {
      "type": "way",
      "id": 791476487,
      "nodes": [
        42852287,
        7399127331,
        7399127332,
        7399127333,
        42852287
      ],
      "tags": {
        "access": "yes",
        "amenity": "parking",
        "capacity": "9",
        "fee": "no",
        "parking": "lane"
      }
    },
    {
      "type": "way",
      "id": 796450768,
      "nodes": [
        7448607353,
        7448607352,
        7448607351,
        977702994,
        977683802,
        7448607350,
        7448607349,
        7448607348,
        7448607347,
        7448607346,
        7448607353
      ],
      "tags": {
        "access": "yes",
        "amenity": "parking",
        "fee": "no"
      }
    },
    {
      "type": "way",
      "id": 797980534,
      "nodes": [
        7463541681,
        7463541682,
        7463541683,
        7463541684,
        7463547285,
        7463547286,
        7463547287,
        7463547288,
        7463547289,
        7463541681
      ],
      "tags": {
        "amenity": "parking"
      }
    },
    {
      "type": "way",
      "id": 797994898,
      "nodes": [
        7463591478,
        7463591479,
        7463591480,
        7463591481,
        7463591478
      ],
      "tags": {
        "amenity": "parking",
        "charge": "2 Euro per dag",
        "fee": "yes"
      }
    },
    {
      "type": "way",
      "id": 870883059,
      "nodes": [
        8112460192,
        8112460193,
        8112460194,
        8112460195,
        8112460196,
        8112460197,
        8112460169,
        8112460170,
        8112460192
      ],
      "tags": {
        "amenity": "parking",
        "operator": "Gasthuishoeve"
      }
    },
    {
      "type": "way",
      "id": 932903493,
      "nodes": [
        8647736593,
        8647736594,
        8647736585,
        8647736586,
        8647736587,
        8647736588,
        8647736589,
        8647736590,
        8647736591,
        8647736592,
        8647736593
      ],
      "tags": {
        "amenity": "parking"
      }
    },
    {
      "type": "way",
      "id": 932903494,
      "nodes": [
        8647736581,
        8647736582,
        8647736573,
        8647736574,
        8647736575,
        8647736576,
        8647736577,
        8647736578,
        8647736579,
        8647736580,
        8647736581
      ],
      "tags": {
        "amenity": "parking"
      }
    },
    {
      "type": "way",
      "id": 932903495,
      "nodes": [
        8647736668,
        8647736659,
        8647736660,
        8647736661,
        8647736662,
        8647736663,
        8647736664,
        8647736665,
        8647736666,
        8647736667,
        8647736668
      ],
      "tags": {
        "amenity": "parking"
      }
    },
    {
      "type": "way",
      "id": 932903496,
      "nodes": [
        8647736655,
        8647736656,
        8647736647,
        8647736648,
        8647736649,
        8647736650,
        8647736651,
        8647736652,
        8647736653,
        8647736654,
        8647736655
      ],
      "tags": {
        "amenity": "parking"
      }
    },
    {
      "type": "way",
      "id": 932903497,
      "nodes": [
        8647736636,
        8647736635,
        8647736644,
        8647736643,
        8647736642,
        8647736641,
        8647736640,
        8647736639,
        8647736638,
        8647736637,
        8647736636
      ],
      "tags": {
        "amenity": "parking"
      }
    },
    {
      "type": "way",
      "id": 970723781,
      "nodes": [
        978295885,
        8984142326,
        8984142325,
        8984142324,
        8984142323,
        8984142322,
        8984142321,
        8984142320,
        8984107889,
        8984107888,
        8984107887,
        8984107907,
        8984107906,
        8984107905,
        8984107904,
        8984107903,
        8984107886,
        8984107885,
        8984107884,
        8984107883,
        8984107882,
        8984107881,
        8984107880,
        8984107879,
        8984107878,
        8984107877,
        8984107876,
        8984107895,
        8984107875,
        8984107894,
        978340047,
        8984150654,
        8984150655,
        8984150652,
        8984150650,
        8984150648,
        8984150646,
        8984150647,
        8984150645,
        8984150649,
        8984150644,
        8984150642,
        8984150640,
        8984150641,
        8984150643,
        8984150651,
        8984150653,
        8984150656,
        8984150657,
        978295885
      ],
      "tags": {
        "access": "customers",
        "amenity": "parking"
      }
    },
    {
      "type": "node",
      "id": 754159458,
      "lat": 51.5165733,
      "lon": 5.4254993,
      "timestamp": "2020-04-08T13:48:55Z",
      "version": 2,
      "changeset": 83257543,
      "user": "Jvitegem",
      "uid": 6155361,
      "tags": {
        "amenity": "bench",
        "backrest": "yes",
        "colour": "brown",
        "material": "wood"
      }
    },
    {
      "type": "node",
      "id": 977871821,
      "lat": 51.5153581,
      "lon": 5.4258098,
      "timestamp": "2020-04-19T13:56:47Z",
      "version": 2,
      "changeset": 83773875,
      "user": "Jvitegem",
      "uid": 6155361,
      "tags": {
        "amenity": "bench"
      }
    },
    {
      "type": "node",
      "id": 977880838,
      "lat": 51.5130309,
      "lon": 5.4254126,
      "timestamp": "2020-04-19T16:25:49Z",
      "version": 3,
      "changeset": 83778521,
      "user": "Jvitegem",
      "uid": 6155361,
      "tags": {
        "amenity": "bench",
        "backrest": "yes"
      }
    },
    {
      "type": "node",
      "id": 977909442,
      "lat": 51.5147973,
      "lon": 5.4420173,
      "timestamp": "2020-04-08T13:48:55Z",
      "version": 2,
      "changeset": 83257543,
      "user": "Jvitegem",
      "uid": 6155361,
      "tags": {
        "amenity": "bench"
      }
    },
    {
      "type": "node",
      "id": 1348058200,
      "lat": 51.5124686,
      "lon": 5.3962592,
      "timestamp": "2011-07-03T15:49:48Z",
      "version": 1,
      "changeset": 8620383,
      "user": "barnasc",
      "uid": 85335,
      "tags": {
        "amenity": "parking"
      }
    },
    {
      "type": "node",
      "id": 1611449092,
      "lat": 51.5089508,
      "lon": 5.3894142,
      "timestamp": "2012-01-30T08:09:38Z",
      "version": 2,
      "changeset": 10537398,
      "user": "NSWS",
      "uid": 595916,
      "tags": {
        "amenity": "parking",
        "capacity": "80",
        "name": "P&R"
      }
    },
    {
      "type": "node",
      "id": 1660916552,
      "lat": 51.5410253,
      "lon": 5.3936292,
      "timestamp": "2020-04-29T13:34:33Z",
      "version": 3,
      "changeset": 84342999,
      "user": "Jvitegem",
      "uid": 6155361,
      "tags": {
        "leisure": "picnic_table"
      }
    },
    {
      "type": "node",
      "id": 1660916566,
      "lat": 51.5605404,
      "lon": 5.3752196,
      "timestamp": "2012-03-05T17:43:12Z",
      "version": 1,
      "changeset": 10882009,
      "user": "d'n Deen",
      "uid": 240070,
      "tags": {
        "amenity": "bench"
      }
    },
    {
      "type": "node",
      "id": 1660960010,
      "lat": 51.5575693,
      "lon": 5.4036649,
      "timestamp": "2012-03-05T18:01:06Z",
      "version": 1,
      "changeset": 10882212,
      "user": "d'n Deen",
      "uid": 240070,
      "tags": {
        "amenity": "bench"
      }
    },
    {
      "type": "node",
      "id": 1753952428,
      "lat": 51.515165,
      "lon": 5.4013114,
      "timestamp": "2012-05-15T15:17:14Z",
      "version": 2,
      "changeset": 11605905,
      "user": "stevebeer",
      "uid": 576088,
      "tags": {
        "amenity": "parking",
        "capacity": "25"
      }
    },
    {
      "type": "node",
      "id": 3530316493,
      "lat": 51.5129037,
      "lon": 5.3901531,
      "timestamp": "2015-06-01T10:11:46Z",
      "version": 2,
      "changeset": 31629616,
      "user": "stevebeer",
      "uid": 576088,
      "tags": {
        "amenity": "bench",
        "backrest": "yes",
        "material": "wood"
      }
    },
    {
      "type": "node",
      "id": 3688177041,
      "lat": 51.5418749,
      "lon": 5.4416366,
      "timestamp": "2015-08-09T14:59:23Z",
      "version": 1,
      "changeset": 33220846,
      "user": "lupien",
      "uid": 1626843,
      "tags": {
        "information": "board",
        "tourism": "information"
      }
    },
    {
      "type": "node",
      "id": 4831097571,
      "lat": 51.5604226,
      "lon": 5.4442866,
      "timestamp": "2017-05-02T15:47:40Z",
      "version": 1,
      "changeset": 48339571,
      "user": "WanFie",
      "uid": 1018083,
      "tags": {
        "amenity": "bench"
      }
    },
    {
      "type": "node",
      "id": 4842137185,
      "lat": 51.5189737,
      "lon": 5.4181633,
      "timestamp": "2021-05-10T08:03:02Z",
      "version": 2,
      "changeset": 104432365,
      "user": "henkvanderspek",
      "uid": 518500,
      "tags": {
        "amenity": "bench",
        "survey:date": "2021-05-07"
      }
    },
    {
      "type": "node",
      "id": 4842557090,
      "lat": 51.5099675,
      "lon": 5.4283865,
      "timestamp": "2020-04-19T13:56:47Z",
      "version": 2,
      "changeset": 83773875,
      "user": "Jvitegem",
      "uid": 6155361,
      "tags": {
        "amenity": "bench"
      }
    },
    {
      "type": "node",
      "id": 4842590465,
      "lat": 51.51518,
      "lon": 5.4046775,
      "timestamp": "2019-12-18T11:45:29Z",
      "version": 2,
      "changeset": 78579777,
      "user": "SapientGuy",
      "uid": 7835054,
      "tags": {
        "amenity": "bench"
      }
    },
    {
      "type": "node",
      "id": 4849863457,
      "lat": 51.5099499,
      "lon": 5.4112417,
      "timestamp": "2017-05-12T15:44:48Z",
      "version": 1,
      "changeset": 48627889,
      "user": "Commodoortje",
      "uid": 1771198,
      "tags": {
        "amenity": "parking",
        "name": "Scouting"
      }
    },
    {
      "type": "node",
      "id": 4960497798,
      "lat": 51.514974,
      "lon": 5.4365304,
      "timestamp": "2020-04-08T13:48:55Z",
      "version": 2,
      "changeset": 83257543,
      "user": "Jvitegem",
      "uid": 6155361,
      "tags": {
        "leisure": "picnic_table"
      }
    },
    {
      "type": "node",
      "id": 5320254234,
      "lat": 51.5614193,
      "lon": 5.386666,
      "timestamp": "2018-01-04T13:28:39Z",
      "version": 1,
      "changeset": 55157836,
      "user": "byckel",
      "uid": 2195662,
      "tags": {
        "leisure": "picnic_table"
      }
    },
    {
      "type": "node",
      "id": 5320254235,
      "lat": 51.5614764,
      "lon": 5.3866703,
      "timestamp": "2018-01-04T13:28:39Z",
      "version": 1,
      "changeset": 55157836,
      "user": "byckel",
      "uid": 2195662,
      "tags": {
        "amenity": "bench"
      }
    },
    {
      "type": "node",
      "id": 5523644766,
      "lat": 51.5117898,
      "lon": 5.3911681,
      "timestamp": "2021-09-08T13:05:51Z",
      "version": 4,
      "changeset": 110919691,
      "user": "byckel",
      "uid": 2195662,
      "tags": {
        "access": "yes",
        "amenity": "drinking_water",
        "bottle": "yes",
        "description": "openbare drinkwaterkraan van Brabant Water. Kraan wordt in winter verwijderd",
        "fee": "no",
        "man_made": "water_tap",
        "operator": "Brabant Water"
      }
    },
    {
      "type": "node",
      "id": 6141091993,
      "lat": 51.524886,
      "lon": 5.400706,
      "timestamp": "2018-12-16T20:34:42Z",
      "version": 1,
      "changeset": 65531302,
      "user": "Peter Elderson",
      "uid": 7103674,
      "tags": {
        "bicycle": "yes",
        "fixme": "Resurvey needed to establish exact location",
        "highway": "trailhead",
        "hiking": "yes",
        "information": "board",
        "name": "Natuurpoort Het Groene Woud",
        "note": "Location is not confirmed by air view or field view",
        "source": "gpsfietsroutesnederland.nl",
        "tourism": "information",
        "url": "https://gpsfietsroutesnederland.nl/toeristische-overstappunten/",
        "website": "https://www.natuurpoorten.nl/",
        "wikipedia": "nl:Toeristisch Overstappunt"
      }
    },
    {
      "type": "node",
      "id": 6148234475,
      "lat": 51.5099809,
      "lon": 5.3940954,
      "timestamp": "2019-12-13T11:01:58Z",
      "version": 3,
      "changeset": 78368246,
      "user": "SapientGuy",
      "uid": 7835054,
      "tags": {
        "access": "permissive",
        "amenity": "parking",
        "fee": "yes",
        "name": "Molenveste",
        "parking": "underground"
      }
    },
    {
      "type": "node",
      "id": 6255667213,
      "lat": 51.5491168,
      "lon": 5.4245083,
      "timestamp": "2019-02-03T13:25:54Z",
      "version": 1,
      "changeset": 66876187,
      "user": "Wim van der Ven",
      "uid": 1817282,
      "tags": {
        "amenity": "bench"
      }
    },
    {
      "type": "node",
      "id": 6255674410,
      "lat": 51.5445915,
      "lon": 5.4360529,
      "timestamp": "2019-02-03T13:34:34Z",
      "version": 1,
      "changeset": 66876187,
      "user": "Wim van der Ven",
      "uid": 1817282,
      "tags": {
        "leisure": "picnic_table"
      }
    },
    {
      "type": "node",
      "id": 6255695419,
      "lat": 51.5274691,
      "lon": 5.4152642,
      "timestamp": "2019-02-03T13:51:57Z",
      "version": 1,
      "changeset": 66876187,
      "user": "Wim van der Ven",
      "uid": 1817282,
      "tags": {
        "amenity": "bench",
        "name": "Vleutense Molens"
      }
    },
    {
      "type": "node",
      "id": 6271978737,
      "lat": 51.5158083,
      "lon": 5.3650269,
      "timestamp": "2019-02-11T15:51:40Z",
      "version": 1,
      "changeset": 67104408,
      "user": "Wim van der Ven",
      "uid": 1817282,
      "tags": {
        "amenity": "bench"
      }
    },
    {
      "type": "node",
      "id": 6271980671,
      "lat": 51.5259409,
      "lon": 5.3736641,
      "timestamp": "2019-02-11T15:51:40Z",
      "version": 1,
      "changeset": 67104408,
      "user": "Wim van der Ven",
      "uid": 1817282,
      "tags": {
        "amenity": "bench",
        "name": "Malckersteegh"
      }
    },
    {
      "type": "node",
      "id": 6286431041,
      "lat": 51.5214879,
      "lon": 5.3774834,
      "timestamp": "2019-02-18T16:04:09Z",
      "version": 1,
      "changeset": 67321122,
      "user": "Wim van der Ven",
      "uid": 1817282,
      "tags": {
        "leisure": "picnic_table"
      }
    },
    {
      "type": "node",
      "id": 6289132581,
      "lat": 51.5314923,
      "lon": 5.3684035,
      "timestamp": "2019-02-19T15:50:54Z",
      "version": 1,
      "changeset": 67357917,
      "user": "Wim van der Ven",
      "uid": 1817282,
      "tags": {
        "amenity": "bench"
      }
    },
    {
      "type": "node",
      "id": 6352754275,
      "lat": 51.5386249,
      "lon": 5.3937425,
      "timestamp": "2020-04-29T17:11:09Z",
      "version": 2,
      "changeset": 84354204,
      "user": "Jvitegem",
      "uid": 6155361,
      "tags": {
        "amenity": "bench"
      }
    },
    {
      "type": "node",
      "id": 6352754443,
      "lat": 51.5140059,
      "lon": 5.4131956,
      "timestamp": "2019-03-21T18:05:38Z",
      "version": 1,
      "changeset": 68383116,
      "user": "Wim van der Ven",
      "uid": 1817282,
      "tags": {
        "amenity": "bench"
      }
    },
    {
      "type": "node",
      "id": 6352754444,
      "lat": 51.5311744,
      "lon": 5.3937144,
      "timestamp": "2019-03-21T18:05:39Z",
      "version": 1,
      "changeset": 68383116,
      "user": "Wim van der Ven",
      "uid": 1817282,
      "tags": {
        "amenity": "bench"
      }
    },
    {
      "type": "node",
      "id": 6373093269,
      "lat": 51.5617732,
      "lon": 5.3839354,
      "timestamp": "2019-03-30T21:42:01Z",
      "version": 1,
      "changeset": 68710449,
      "user": "Wim van der Ven",
      "uid": 1817282,
      "tags": {
        "amenity": "bench"
      }
    },
    {
      "type": "node",
      "id": 6373100498,
      "lat": 51.5633372,
      "lon": 5.3852343,
      "timestamp": "2019-03-30T21:42:01Z",
      "version": 1,
      "changeset": 68710449,
      "user": "Wim van der Ven",
      "uid": 1817282,
      "tags": {
        "amenity": "bench"
      }
    },
    {
      "type": "node",
      "id": 6565496709,
      "lat": 51.5091445,
      "lon": 5.380923,
      "timestamp": "2019-06-23T06:15:13Z",
      "version": 1,
      "changeset": 71524050,
      "user": "Wim van der Ven",
      "uid": 1817282,
      "tags": {
        "amenity": "bench"
      }
    },
    {
      "type": "node",
      "id": 6992402641,
      "lat": 51.5500264,
      "lon": 5.4224019,
      "timestamp": "2019-11-20T12:38:30Z",
      "version": 1,
      "changeset": 77323557,
      "user": "Infodisiac",
      "uid": 8367,
      "tags": {
        "amenity": "drinking_water",
        "bottle": "yes",
        "note": "permission from Brabant Water to use source",
        "operator": "JoinThePipe, for Brabant Water",
        "source": "https://www.brabantwater.nl/overbrabantwater/download/tappunt.gpx"
      }
    },
    {
      "type": "node",
      "id": 7052040887,
      "lat": 51.5155579,
      "lon": 5.4002665,
      "timestamp": "2019-12-12T13:21:24Z",
      "version": 1,
      "changeset": 78319389,
      "user": "SapientGuy",
      "uid": 7835054,
      "tags": {
        "amenity": "parking",
        "capacity": "16"
      }
    },
    {
      "type": "node",
      "id": 7380301892,
      "lat": 51.5170041,
      "lon": 5.4274379,
      "timestamp": "2020-04-10T18:15:37Z",
      "version": 2,
      "changeset": 83378061,
      "user": "Jvitegem",
      "uid": 6155361,
      "tags": {
        "amenity": "bench"
      }
    },
    {
      "type": "node",
      "id": 7380301897,
      "lat": 51.5152928,
      "lon": 5.4286258,
      "timestamp": "2020-04-10T18:15:37Z",
      "version": 2,
      "changeset": 83378061,
      "user": "Jvitegem",
      "uid": 6155361,
      "tags": {
        "amenity": "bench"
      }
    },
    {
      "type": "node",
      "id": 7389921097,
      "lat": 51.5555137,
      "lon": 5.4481372,
      "timestamp": "2020-04-10T16:28:01Z",
      "version": 1,
      "changeset": 83374489,
      "user": "Jvitegem",
      "uid": 6155361,
      "tags": {
        "amenity": "bench",
        "backrest": "yes"
      }
    },
    {
      "type": "node",
      "id": 7389921116,
      "lat": 51.5514034,
      "lon": 5.4472625,
      "timestamp": "2020-04-10T16:28:01Z",
      "version": 1,
      "changeset": 83374489,
      "user": "Jvitegem",
      "uid": 6155361,
      "tags": {
        "leisure": "picnic_table"
      }
    },
    {
      "type": "node",
      "id": 7390220935,
      "lat": 51.5149223,
      "lon": 5.4394965,
      "timestamp": "2020-04-10T17:45:25Z",
      "version": 1,
      "changeset": 83377144,
      "user": "Jvitegem",
      "uid": 6155361,
      "tags": {
        "amenity": "bench",
        "backrest": "yes"
      }
    },
    {
      "type": "node",
      "id": 7390322939,
      "lat": 51.5150912,
      "lon": 5.4340385,
      "timestamp": "2020-04-10T18:15:37Z",
      "version": 1,
      "changeset": 83378061,
      "user": "Jvitegem",
      "uid": 6155361,
      "tags": {
        "amenity": "bench",
        "backrest": "no"
      }
    },
    {
      "type": "node",
      "id": 7394641367,
      "lat": 51.5119981,
      "lon": 5.4362622,
      "timestamp": "2020-04-12T13:02:42Z",
      "version": 1,
      "changeset": 83426822,
      "user": "Jvitegem",
      "uid": 6155361,
      "tags": {
        "amenity": "bench"
      }
    },
    {
      "type": "node",
      "id": 7394641372,
      "lat": 51.5118728,
      "lon": 5.4367674,
      "timestamp": "2020-04-12T13:02:42Z",
      "version": 1,
      "changeset": 83426822,
      "user": "Jvitegem",
      "uid": 6155361,
      "tags": {
        "amenity": "bench"
      }
    },
    {
      "type": "node",
      "id": 7394641373,
      "lat": 51.5121393,
      "lon": 5.4363538,
      "timestamp": "2020-04-12T13:02:42Z",
      "version": 1,
      "changeset": 83426822,
      "user": "Jvitegem",
      "uid": 6155361,
      "tags": {
        "amenity": "bench"
      }
    },
    {
      "type": "node",
      "id": 7394641374,
      "lat": 51.5122731,
      "lon": 5.4359127,
      "timestamp": "2020-04-12T17:12:10Z",
      "version": 2,
      "changeset": 83433898,
      "user": "Jvitegem",
      "uid": 6155361,
      "tags": {
        "leisure": "picnic_table"
      }
    },
    {
      "type": "node",
      "id": 7394641375,
      "lat": 51.5122756,
      "lon": 5.435344,
      "timestamp": "2020-04-12T17:12:10Z",
      "version": 2,
      "changeset": 83433898,
      "user": "Jvitegem",
      "uid": 6155361,
      "tags": {
        "leisure": "picnic_table"
      }
    },
    {
      "type": "node",
      "id": 7394641376,
      "lat": 51.5094078,
      "lon": 5.4346235,
      "timestamp": "2020-04-12T17:12:10Z",
      "version": 2,
      "changeset": 83433898,
      "user": "Jvitegem",
      "uid": 6155361,
      "tags": {
        "amenity": "bench"
      }
    },
    {
      "type": "node",
      "id": 7394641377,
      "lat": 51.51218,
      "lon": 5.4366449,
      "timestamp": "2020-04-12T13:02:42Z",
      "version": 1,
      "changeset": 83426822,
      "user": "Jvitegem",
      "uid": 6155361,
      "tags": {
        "leisure": "picnic_table"
      }
    },
    {
      "type": "node",
      "id": 7394641378,
      "lat": 51.5111296,
      "lon": 5.4379552,
      "timestamp": "2020-04-12T13:02:42Z",
      "version": 1,
      "changeset": 83426822,
      "user": "Jvitegem",
      "uid": 6155361,
      "tags": {
        "amenity": "bench"
      }
    },
    {
      "type": "node",
      "id": 7395600894,
      "lat": 51.5123891,
      "lon": 5.4347515,
      "timestamp": "2020-04-19T18:08:06Z",
      "version": 2,
      "changeset": 83781153,
      "user": "Jvitegem",
      "uid": 6155361,
      "tags": {
        "amenity": "bench",
        "backrest": "yes"
      }
    },
    {
      "type": "node",
      "id": 7395600895,
      "lat": 51.5123539,
      "lon": 5.4347385,
      "timestamp": "2020-04-19T18:08:06Z",
      "version": 2,
      "changeset": 83781153,
      "user": "Jvitegem",
      "uid": 6155361,
      "tags": {
        "amenity": "bench",
        "backrest": "yes"
      }
    },
    {
      "type": "node",
      "id": 7395600897,
      "lat": 51.5122439,
      "lon": 5.4346093,
      "timestamp": "2020-04-12T17:12:10Z",
      "version": 1,
      "changeset": 83433898,
      "user": "Jvitegem",
      "uid": 6155361,
      "tags": {
        "information": "board",
        "tourism": "information"
      }
    },
    {
      "type": "node",
      "id": 7419273780,
      "lat": 51.51171,
      "lon": 5.4342796,
      "timestamp": "2020-04-19T16:25:49Z",
      "version": 2,
      "changeset": 83778521,
      "user": "Jvitegem",
      "uid": 6155361,
      "tags": {
        "amenity": "bench"
      }
    },
    {
      "type": "node",
      "id": 7419273781,
      "lat": 51.5117475,
      "lon": 5.4248445,
      "timestamp": "2020-04-19T13:56:47Z",
      "version": 1,
      "changeset": 83773875,
      "user": "Jvitegem",
      "uid": 6155361,
      "tags": {
        "amenity": "bench"
      }
    },
    {
      "type": "node",
      "id": 7419273784,
      "lat": 51.5110042,
      "lon": 5.4336866,
      "timestamp": "2020-04-19T13:56:47Z",
      "version": 1,
      "changeset": 83773875,
      "user": "Jvitegem",
      "uid": 6155361,
      "tags": {
        "amenity": "bench"
      }
    },
    {
      "type": "node",
      "id": 7419279387,
      "lat": 51.5113147,
      "lon": 5.4292282,
      "timestamp": "2020-04-19T16:25:49Z",
      "version": 2,
      "changeset": 83778521,
      "user": "Jvitegem",
      "uid": 6155361,
      "tags": {
        "amenity": "bench"
      }
    },
    {
      "type": "node",
      "id": 7463281301,
      "lat": 51.5458934,
      "lon": 5.3867531,
      "timestamp": "2020-04-29T17:11:09Z",
      "version": 2,
      "changeset": 84354204,
      "user": "Jvitegem",
      "uid": 6155361,
      "tags": {
        "amenity": "bench",
        "backrest": "yes"
      }
    },
    {
      "type": "node",
      "id": 7463281303,
      "lat": 51.5442783,
      "lon": 5.3974988,
      "timestamp": "2020-04-29T12:51:35Z",
      "version": 1,
      "changeset": 84340508,
      "user": "Jvitegem",
      "uid": 6155361,
      "tags": {
        "amenity": "bench",
        "backrest": "yes"
      }
    },
    {
      "type": "node",
      "id": 7463281304,
      "lat": 51.5467885,
      "lon": 5.3826612,
      "timestamp": "2020-04-29T13:34:33Z",
      "version": 2,
      "changeset": 84342999,
      "user": "Jvitegem",
      "uid": 6155361,
      "tags": {
        "leisure": "picnic_table"
      }
    },
    {
      "type": "node",
      "id": 7463281306,
      "lat": 51.5474835,
      "lon": 5.3844822,
      "timestamp": "2020-04-29T15:22:52Z",
      "version": 2,
      "changeset": 84348517,
      "user": "Jvitegem",
      "uid": 6155361,
      "tags": {
        "amenity": "bench",
        "backrest": "yes"
      }
    },
    {
      "type": "node",
      "id": 7464327056,
      "lat": 51.5366836,
      "lon": 5.3906735,
      "timestamp": "2020-04-29T17:11:09Z",
      "version": 1,
      "changeset": 84354204,
      "user": "Jvitegem",
      "uid": 6155361,
      "tags": {
        "amenity": "bench",
        "backrest": "yes"
      }
    },
    {
      "type": "node",
      "id": 7464346158,
      "lat": 51.5317545,
      "lon": 5.3939969,
      "timestamp": "2021-05-24T20:36:06Z",
      "version": 2,
      "changeset": 105249566,
      "user": "EnumMapper",
      "uid": 2188716,
      "tags": {
        "amenity": "bench"
      }
    },
    {
      "type": "node",
      "id": 8108195710,
      "lat": 51.5150649,
      "lon": 5.4342306,
      "timestamp": "2020-11-11T13:27:50Z",
      "version": 1,
      "changeset": 93930969,
      "user": "Jan van Bekkum",
      "uid": 1203657,
      "tags": {
        "leisure": "picnic_table"
      }
    },
    {
      "type": "node",
      "id": 8108195711,
      "lat": 51.5481923,
      "lon": 5.4068908,
      "timestamp": "2020-11-11T13:27:50Z",
      "version": 1,
      "changeset": 93930969,
      "user": "Jan van Bekkum",
      "uid": 1203657,
      "tags": {
        "amenity": "bench"
      }
    },
    {
      "type": "node",
      "id": 8646932691,
      "lat": 51.5378939,
      "lon": 5.3618002,
      "timestamp": "2021-04-20T10:32:48Z",
      "version": 2,
      "changeset": 103262157,
      "user": "Peter Elderson",
      "uid": 7103674,
      "tags": {
        "amenity": "bench",
        "backrest": "yes",
        "description": "2 \"chairs\" carved out of tree stumps",
        "seats": "2"
      }
    },
    {
      "type": "node",
      "id": 8681015834,
      "lat": 51.5254455,
      "lon": 5.3653458,
      "timestamp": "2021-04-29T20:02:51Z",
      "version": 1,
      "changeset": 103867613,
      "user": "Wim van der Ven",
      "uid": 1817282,
      "tags": {
        "amenity": "bench"
      }
    },
    {
      "type": "node",
      "id": 8696412560,
      "lat": 51.5600207,
      "lon": 5.3934583,
      "timestamp": "2021-05-04T07:44:06Z",
      "version": 1,
      "changeset": 104103502,
      "user": "Jan van Bekkum",
      "uid": 1203657,
      "tags": {
        "amenity": "bench"
      }
    },
    {
      "type": "node",
      "id": 8714776135,
      "lat": 51.5144072,
      "lon": 5.3864683,
      "timestamp": "2021-05-09T13:23:47Z",
      "version": 1,
      "changeset": 104396378,
      "user": "l3lockbuster",
      "uid": 13228771,
      "tags": {
        "amenity": "bench"
      }
    },
    {
      "type": "node",
      "id": 8714777684,
      "lat": 51.5143999,
      "lon": 5.3864907,
      "timestamp": "2021-05-09T13:23:57Z",
      "version": 1,
      "changeset": 104396388,
      "user": "l3lockbuster",
      "uid": 13228771,
      "tags": {
        "amenity": "bench"
      }
    },
    {
      "type": "node",
      "id": 8714789418,
      "lat": 51.5144874,
      "lon": 5.3867775,
      "timestamp": "2021-05-09T13:24:04Z",
      "version": 1,
      "changeset": 104396394,
      "user": "l3lockbuster",
      "uid": 13228771,
      "tags": {
        "leisure": "picnic_table"
      }
    },
    {
      "type": "node",
      "id": 8761425297,
      "lat": 51.5317689,
      "lon": 5.3939645,
      "timestamp": "2021-05-24T20:36:06Z",
      "version": 2,
      "changeset": 105249566,
      "user": "EnumMapper",
      "uid": 2188716,
      "tags": {
        "leisure": "picnic_table"
      }
    },
    {
      "type": "node",
      "id": 8762568509,
      "lat": 51.5317918,
      "lon": 5.3939409,
      "timestamp": "2021-05-24T20:36:06Z",
      "version": 1,
      "changeset": 105249566,
      "user": "EnumMapper",
      "uid": 2188716,
      "tags": {
        "amenity": "bench"
      }
    },
    {
      "type": "node",
      "id": 8779382101,
      "lat": 51.5291679,
      "lon": 5.3933059,
      "timestamp": "2021-05-29T18:50:38Z",
      "version": 2,
      "changeset": 105544988,
      "user": "Jvitegem",
      "uid": 6155361,
      "tags": {
        "amenity": "bench",
        "backrest": "no"
      }
    },
    {
      "type": "node",
      "id": 8779382104,
      "lat": 51.5284226,
      "lon": 5.3929885,
      "timestamp": "2021-05-29T18:50:38Z",
      "version": 2,
      "changeset": 105544988,
      "user": "Jvitegem",
      "uid": 6155361,
      "tags": {
        "amenity": "bench",
        "backrest": "no"
      }
    },
    {
      "type": "node",
      "id": 8779382105,
      "lat": 51.5283017,
      "lon": 5.3931364,
      "timestamp": "2021-05-29T18:50:38Z",
      "version": 2,
      "changeset": 105544988,
      "user": "Jvitegem",
      "uid": 6155361,
      "tags": {
        "amenity": "bench",
        "backrest": "no"
      }
    },
    {
      "type": "node",
      "id": 8779382107,
      "lat": 51.528744,
      "lon": 5.3931429,
      "timestamp": "2021-05-29T18:50:38Z",
      "version": 2,
      "changeset": 105544988,
      "user": "Jvitegem",
      "uid": 6155361,
      "tags": {
        "amenity": "bench",
        "backrest": "no"
      }
    },
    {
      "type": "node",
      "id": 8779382111,
      "lat": 51.5265589,
      "lon": 5.3996677,
      "timestamp": "2021-05-29T18:50:38Z",
      "version": 2,
      "changeset": 105544988,
      "user": "Jvitegem",
      "uid": 6155361,
      "tags": {
        "amenity": "bench",
        "backrest": "no"
      }
    },
    {
      "type": "node",
      "id": 8779403452,
      "lat": 51.526843,
      "lon": 5.4002197,
      "timestamp": "2021-05-29T18:50:38Z",
      "version": 2,
      "changeset": 105544988,
      "user": "Jvitegem",
      "uid": 6155361,
      "tags": {
        "amenity": "bench",
        "backrest": "yes"
      }
    },
    {
      "type": "node",
      "id": 8779410829,
      "lat": 51.528243,
      "lon": 5.393869,
      "timestamp": "2021-05-29T18:50:38Z",
      "version": 1,
      "changeset": 105544988,
      "user": "Jvitegem",
      "uid": 6155361,
      "tags": {
        "amenity": "bench",
        "backrest": "no"
      }
    },
    {
      "type": "node",
      "id": 8890656421,
      "lat": 51.5098579,
      "lon": 5.38909,
      "timestamp": "2021-07-03T17:02:23Z",
      "version": 1,
      "changeset": 107362417,
      "user": "Guusje2",
      "uid": 11766462,
      "tags": {
        "access": "yes",
        "amenity": "toilets",
        "changing_table": "yes",
        "fee": "yes",
        "toilets:disposal": "flush",
        "unisex": "yes",
        "wheelchair": "yes"
      }
    },
    {
      "type": "node",
      "id": 9014792566,
      "lat": 51.5604568,
      "lon": 5.4255656,
      "timestamp": "2021-08-17T17:01:47Z",
      "version": 1,
      "changeset": 109824663,
      "user": "Jvitegem",
      "uid": 6155361,
      "tags": {
        "leisure": "picnic_table"
      }
    },
    {
      "type": "node",
      "id": 9014799243,
      "lat": 51.5606845,
      "lon": 5.425551,
      "timestamp": "2021-08-17T17:03:29Z",
      "version": 1,
      "changeset": 109824735,
      "user": "Jvitegem",
      "uid": 6155361,
      "tags": {
        "leisure": "picnic_table"
      }
    },
    {
      "type": "node",
      "id": 9046187718,
      "lat": 51.5291454,
      "lon": 5.4047845,
      "timestamp": "2021-08-29T20:42:00Z",
      "version": 1,
      "changeset": 110426922,
      "user": "Wim van der Ven",
      "uid": 1817282,
      "tags": {
        "leisure": "picnic_table"
      }
    },
    {
      "type": "node",
      "id": 9046198275,
      "lat": 51.5292006,
      "lon": 5.4050747,
      "timestamp": "2021-08-29T20:42:00Z",
      "version": 1,
      "changeset": 110426922,
      "user": "Wim van der Ven",
      "uid": 1817282,
      "tags": {
        "amenity": "bench"
      }
    },
    {
      "type": "node",
      "id": 9046199190,
      "lat": 51.5291115,
      "lon": 5.4050048,
      "timestamp": "2021-08-29T20:42:00Z",
      "version": 1,
      "changeset": 110426922,
      "user": "Wim van der Ven",
      "uid": 1817282,
      "tags": {
        "leisure": "picnic_table"
      }
    },
    {
      "type": "node",
      "id": 9046199334,
      "lat": 51.5291147,
      "lon": 5.4051352,
      "timestamp": "2021-08-29T20:42:00Z",
      "version": 1,
      "changeset": 110426922,
      "user": "Wim van der Ven",
      "uid": 1817282,
      "tags": {
        "amenity": "bench"
      }
    },
    {
      "type": "node",
      "id": 9046199637,
      "lat": 51.529163,
      "lon": 5.4051297,
      "timestamp": "2021-08-29T20:42:01Z",
      "version": 1,
      "changeset": 110426922,
      "user": "Wim van der Ven",
      "uid": 1817282,
      "tags": {
        "amenity": "bench"
      }
    },
    {
      "type": "node",
      "id": 9073924528,
      "lat": 51.5124849,
      "lon": 5.3941021,
      "timestamp": "2021-09-08T13:05:51Z",
      "version": 1,
      "changeset": 110919691,
      "user": "byckel",
      "uid": 2195662,
      "tags": {
        "amenity": "bench",
        "artwork_type": "mosaic",
        "name": "Social Sofa",
        "tourism": "artwork"
      }
    },
    {
      "type": "way",
      "id": 39837222,
      "timestamp": "2020-04-29T13:34:33Z",
      "version": 3,
      "changeset": 84342999,
      "user": "Jvitegem",
      "uid": 6155361,
      "nodes": [
        7463541606,
        7463541610,
        477544262,
        7463541603,
        477544263,
        7463541602,
        7463541606
      ],
      "tags": {
        "amenity": "parking"
      }
    },
    {
      "type": "way",
      "id": 39904779,
      "timestamp": "2020-04-12T17:12:10Z",
      "version": 3,
      "changeset": 83433898,
      "user": "Jvitegem",
      "uid": 6155361,
      "nodes": [
        479094957,
        479094961,
        479094963,
        479094966,
        479094957
      ],
      "tags": {
        "amenity": "parking"
      }
    },
    {
      "type": "way",
      "id": 39905755,
      "timestamp": "2021-11-27T12:22:17Z",
      "version": 5,
      "changeset": 114292581,
      "user": "cos",
      "uid": 15444,
      "nodes": [
        479103522,
        7388939244,
        479103540,
        479103561,
        479103581,
        479103522
      ],
      "tags": {
        "access": "yes",
        "amenity": "parking",
        "fee": "no",
        "parking": "surface"
      }
    },
    {
      "type": "way",
      "id": 39906382,
      "timestamp": "2017-10-06T14:01:36Z",
      "version": 4,
      "changeset": 52684366,
      "user": "mepper",
      "uid": 6709085,
      "nodes": [
        479113800,
        479113817,
        479113889,
        479113916,
        5131621253,
        5131621252,
        5131621251,
        479113800
      ],
      "tags": {
        "amenity": "parking",
        "campers": "yes",
        "capacity": "44",
        "fee": "no",
        "name": "Carpool Best-West A2",
        "park_ride": "no",
        "supervised": "yes",
        "surface": "paved"
      }
    },
    {
      "type": "way",
      "id": 47419242,
      "timestamp": "2021-11-27T12:21:36Z",
      "version": 6,
      "changeset": 114292581,
      "user": "cos",
      "uid": 15444,
      "nodes": [
        479103522,
        977880451,
        603568392,
        977908404,
        603568393,
        479103540,
        7388939244,
        479103522
      ],
      "tags": {
        "access": "yes",
        "amenity": "parking",
        "fee": "no",
        "parking": "surface"
      }
    },
    {
      "type": "way",
      "id": 128221524,
      "timestamp": "2017-12-02T23:05:16Z",
      "version": 2,
      "changeset": 54284134,
      "user": "JJJWegdam",
      "uid": 1758654,
      "nodes": [
        1417450959,
        1417450923,
        1417450926,
        1417450964,
        1417450959
      ],
      "tags": {
        "addr:city": "Best",
        "addr:postcode": "5684AA",
        "addr:street": "Spoorstraat",
        "amenity": "parking",
        "level": "0",
        "name": "P+R Spoorstraat",
        "operator": "Q-Park"
      }
    },
    {
      "type": "way",
      "id": 128221539,
      "timestamp": "2011-08-29T19:16:20Z",
      "version": 1,
      "changeset": 9160941,
      "user": "RutgerNijlunsing",
      "uid": 346345,
      "nodes": [
        1417450980,
        1417450983,
        1417450976,
        1417450967,
        1417450980
      ],
      "tags": {
        "amenity": "parking"
      }
    },
    {
      "type": "way",
      "id": 128221540,
      "timestamp": "2011-08-29T19:16:21Z",
      "version": 1,
      "changeset": 9160941,
      "user": "RutgerNijlunsing",
      "uid": 346345,
      "nodes": [
        1417450927,
        1417450907,
        1417450912,
        1417450936,
        1417450934,
        1417450927
      ],
      "tags": {
        "amenity": "parking"
      }
    },
    {
      "type": "way",
      "id": 128221541,
      "timestamp": "2020-04-13T16:55:13Z",
      "version": 4,
      "changeset": 83489341,
      "user": "mcarton",
      "uid": 8229059,
      "nodes": [
        1417450966,
        1417450956,
        1417450949,
        1417450947,
        6838669324,
        6838669325,
        6838669326,
        7399127343,
        1417450966
      ],
      "tags": {
        "amenity": "parking",
        "level": "0",
        "parking": "surface"
      }
    },
    {
      "type": "way",
      "id": 207224176,
      "timestamp": "2013-02-25T19:16:18Z",
      "version": 1,
      "changeset": 15165324,
      "user": "RutgerNijlunsing",
      "uid": 346345,
      "nodes": [
        2173879146,
        2173879142,
        2173879141,
        2173879145,
        2173879146
      ],
      "tags": {
        "amenity": "parking"
      }
    },
    {
      "type": "way",
      "id": 271100376,
      "timestamp": "2014-04-02T12:08:34Z",
      "version": 2,
      "changeset": 21457019,
      "user": "geritsel",
      "uid": 159027,
      "nodes": [
        2760591182,
        2760591199,
        2760591201,
        2760626229,
        2760591203,
        2760591207,
        2760591208,
        2760591209,
        2760591182
      ],
      "tags": {
        "amenity": "parking"
      }
    },
    {
      "type": "way",
      "id": 271100381,
      "timestamp": "2014-04-03T05:09:48Z",
      "version": 2,
      "changeset": 21469868,
      "user": "geritsel",
      "uid": 159027,
      "nodes": [
        2760591215,
        2763366446,
        2763366444,
        2763366445,
        2760591216,
        2760591203,
        2760591207,
        2760591220,
        2760591215
      ],
      "tags": {
        "amenity": "parking"
      }
    },
    {
      "type": "way",
      "id": 271103771,
      "timestamp": "2017-07-10T07:36:55Z",
      "version": 2,
      "changeset": 50168170,
      "user": "eggie",
      "uid": 334075,
      "nodes": [
        2760630404,
        2760630405,
        2760630406,
        2760630407,
        4961262301,
        2760630404
      ],
      "tags": {
        "amenity": "parking",
        "capacity": "8"
      }
    },
    {
      "type": "way",
      "id": 441983900,
      "timestamp": "2019-12-13T10:56:57Z",
      "version": 3,
      "changeset": 78367990,
      "user": "SapientGuy",
      "uid": 7835054,
      "nodes": [
        564721571,
        4396736743,
        4396736741,
        4396736739,
        4396736736,
        4396736737,
        4396736740,
        4396736744,
        564721571
      ],
      "tags": {
        "addr:city": "Best",
        "addr:postcode": "5683BC",
        "addr:street": "Molenstraat",
        "amenity": "parking",
        "capacity": "200",
        "name": "P+R Molenstraat",
        "operator": "Q-Park",
        "park_ride": "yes"
      }
    },
    {
      "type": "way",
      "id": 445369480,
      "timestamp": "2016-10-02T19:26:00Z",
      "version": 1,
      "changeset": 42589918,
      "user": "stevebeer",
      "uid": 576088,
      "nodes": [
        4428112023,
        4428112026,
        4428112027,
        4428112025,
        4428112023
      ],
      "tags": {
        "amenity": "parking"
      }
    },
    {
      "type": "way",
      "id": 528532002,
      "timestamp": "2019-12-12T11:08:55Z",
      "version": 2,
      "changeset": 78313492,
      "user": "SapientGuy",
      "uid": 7835054,
      "nodes": [
        5136047388,
        5136047389,
        5136047390,
        5136047392,
        5136047393,
        5136047394,
        5136047397,
        5136047398,
        5136047388
      ],
      "tags": {
        "amenity": "parking"
      }
    },
    {
      "type": "way",
      "id": 528532003,
      "timestamp": "2019-12-12T11:08:55Z",
      "version": 2,
      "changeset": 78313492,
      "user": "SapientGuy",
      "uid": 7835054,
      "nodes": [
        5136047400,
        7051709151,
        5136047401,
        5136047403,
        5136047404,
        5136047407,
        5136047409,
        5136047410,
        5136047400
      ],
      "tags": {
        "amenity": "parking"
      }
    },
    {
      "type": "way",
      "id": 528532004,
      "timestamp": "2017-09-28T19:24:03Z",
      "version": 1,
      "changeset": 52455694,
      "user": "mepper",
      "uid": 6709085,
      "nodes": [
        5136047411,
        5136047412,
        5136047413,
        5136047414,
        5136047411
      ],
      "tags": {
        "amenity": "parking"
      }
    },
    {
      "type": "way",
      "id": 528532005,
      "timestamp": "2017-09-28T19:24:03Z",
      "version": 1,
      "changeset": 52455694,
      "user": "mepper",
      "uid": 6709085,
      "nodes": [
        5136047415,
        5136047416,
        5136047417,
        5136047418,
        5136047419,
        5136047420,
        5136047415
      ],
      "tags": {
        "amenity": "parking"
      }
    },
    {
      "type": "way",
      "id": 528532006,
      "timestamp": "2020-04-13T16:55:13Z",
      "version": 3,
      "changeset": 83489341,
      "user": "mcarton",
      "uid": 8229059,
      "nodes": [
        5136047723,
        5136047724,
        7051709152,
        5136047725,
        5136047726,
        5136047727,
        5136047723
      ],
      "tags": {
        "access": "yes",
        "amenity": "parking",
        "fee": "no",
        "surface": "paving_stones"
      }
    },
    {
      "type": "way",
      "id": 528532007,
      "timestamp": "2020-04-13T16:55:13Z",
      "version": 3,
      "changeset": 83489341,
      "user": "mcarton",
      "uid": 8229059,
      "nodes": [
        5136047728,
        5136047729,
        7051709122,
        5136047730,
        5136047731,
        5136047732,
        5136047733,
        5136047734,
        5136047735,
        5136047728
      ],
      "tags": {
        "access": "yes",
        "amenity": "parking",
        "fee": "no",
        "surface": "paving_stones"
      }
    },
    {
      "type": "way",
      "id": 528532008,
      "timestamp": "2020-04-13T16:55:13Z",
      "version": 2,
      "changeset": 83489341,
      "user": "mcarton",
      "uid": 8229059,
      "nodes": [
        5136047736,
        5136047737,
        5136047738,
        5136047739,
        5136047740,
        5136047741,
        5136047742,
        5136047743,
        5136047744,
        5136047745,
        5136047746,
        5136047747,
        5136047736
      ],
      "tags": {
        "access": "yes",
        "amenity": "parking",
        "fee": "no",
        "surface": "paving_stones"
      }
    },
    {
      "type": "way",
      "id": 528535414,
      "timestamp": "2019-12-12T10:59:33Z",
      "version": 3,
      "changeset": 78313089,
      "user": "SapientGuy",
      "uid": 7835054,
      "nodes": [
        5136078046,
        5136078047,
        5136078048,
        5136078049,
        5136078050,
        5136078057,
        5136078058,
        5136078059,
        5136078060,
        5136078046
      ],
      "tags": {
        "amenity": "parking",
        "name": "Raadhuisplein"
      }
    },
    {
      "type": "way",
      "id": 528535415,
      "timestamp": "2018-11-13T20:07:16Z",
      "version": 3,
      "changeset": 64456308,
      "user": "eggie",
      "uid": 334075,
      "nodes": [
        5136078071,
        4638919043,
        5136078069,
        5136078066,
        5136078067,
        5136078068,
        5136078071
      ],
      "tags": {
        "amenity": "parking",
        "maxstay": "1 hr"
      }
    },
    {
      "type": "way",
      "id": 586067759,
      "timestamp": "2018-05-06T13:36:54Z",
      "version": 1,
      "changeset": 58730322,
      "user": "mcarton",
      "uid": 8229059,
      "nodes": [
        5600205797,
        3135507662,
        5600205798,
        5600205799,
        5600205800,
        5600205797
      ],
      "tags": {
        "access": "private",
        "amenity": "parking",
        "capacity": "26",
        "parking": "surface"
      }
    },
    {
      "type": "way",
      "id": 586067760,
      "timestamp": "2020-07-14T17:21:21Z",
      "version": 2,
      "changeset": 87989748,
      "user": "mcarton",
      "uid": 8229059,
      "nodes": [
        5600205801,
        5600205805,
        5600205802,
        5600205803,
        5600205808,
        5600205804,
        5600205801
      ],
      "tags": {
        "access": "yes",
        "amenity": "parking",
        "capacity": "12",
        "fee": "no",
        "parking": "surface",
        "surface": "paving_stones"
      }
    },
    {
      "type": "way",
      "id": 586067763,
      "timestamp": "2018-05-06T13:36:54Z",
      "version": 1,
      "changeset": 58730322,
      "user": "mcarton",
      "uid": 8229059,
      "nodes": [
        5600205809,
        5600205810,
        42850670,
        42851957,
        5600205811,
        5600205809
      ],
      "tags": {
        "access": "yes",
        "amenity": "parking",
        "capacity": "25",
        "fee": "no",
        "parking": "surface",
        "supervised": "no",
        "surface": "paving_stones"
      }
    },
    {
      "type": "way",
      "id": 646988927,
      "timestamp": "2018-11-20T18:34:47Z",
      "version": 1,
      "changeset": 64710152,
      "user": "Royke71",
      "uid": 7465939,
      "nodes": [
        6077151600,
        6077151601,
        6077151602,
        6077151603,
        6077151600
      ],
      "tags": {
        "amenity": "parking"
      }
    },
    {
      "type": "way",
      "id": 655723500,
      "timestamp": "2019-12-12T10:59:33Z",
      "version": 2,
      "changeset": 78313089,
      "user": "SapientGuy",
      "uid": 7835054,
      "nodes": [
        7051681655,
        6143361560,
        6143361561,
        6143361562,
        6143361563,
        7051681658,
        6143361564,
        6143361565,
        6143361566,
        6143361567,
        7051681657,
        7051681656,
        7051681655
      ],
      "tags": {
        "amenity": "parking",
        "name": "Den Ekker"
      }
    },
    {
      "type": "way",
      "id": 655723501,
      "timestamp": "2018-12-17T20:03:22Z",
      "version": 1,
      "changeset": 65561440,
      "user": "Royke71",
      "uid": 7465939,
      "nodes": [
        6143361568,
        6143361569,
        6143361570,
        6143361571,
        6143361572,
        6143361573,
        6143361574,
        6143361575,
        6143361568
      ],
      "tags": {
        "amenity": "parking",
        "name": "Den Ekker"
      }
    },
    {
      "type": "way",
      "id": 656315554,
      "timestamp": "2018-12-19T19:11:11Z",
      "version": 1,
      "changeset": 65620825,
      "user": "Royke71",
      "uid": 7465939,
      "nodes": [
        6148240765,
        6148240766,
        6148240767,
        6148240768,
        6148240769,
        6148240770,
        6148240771,
        6148240765
      ],
      "tags": {
        "amenity": "parking",
        "name": "Hoofdstraat / Tapijtcentrum Nederland"
      }
    },
    {
      "type": "way",
      "id": 673559743,
      "timestamp": "2020-04-10T13:47:06Z",
      "version": 2,
      "changeset": 83367580,
      "user": "Jvitegem",
      "uid": 6155361,
      "nodes": [
        6307756707,
        6307756708,
        6307756709,
        6307756710,
        6307756711,
        7389509374,
        6307756712,
        6307756713,
        6307756714,
        6307756707
      ],
      "tags": {
        "amenity": "parking"
      }
    },
    {
      "type": "way",
      "id": 730007736,
      "timestamp": "2019-09-30T18:59:54Z",
      "version": 1,
      "changeset": 75116760,
      "user": "Rifertia",
      "uid": 1333083,
      "nodes": [
        6838669328,
        6838669329,
        6838669330,
        6838669331,
        6838669328
      ],
      "tags": {
        "amenity": "parking",
        "parking": "surface"
      }
    },
    {
      "type": "way",
      "id": 752830630,
      "timestamp": "2020-04-29T13:52:53Z",
      "version": 2,
      "changeset": 84343959,
      "user": "Jvitegem",
      "uid": 6155361,
      "nodes": [
        7034471639,
        7463591484,
        7034471640,
        7034471641,
        7034471642,
        7034471634,
        7034471639
      ],
      "tags": {
        "access": "yes",
        "amenity": "parking",
        "capacity": "200",
        "fee": "no",
        "name": "Parkeerplaats Natuurpoort de Scheeken",
        "parking": "surface",
        "surface": "grass_paver"
      }
    },
    {
      "type": "way",
      "id": 754900571,
      "timestamp": "2019-12-12T13:21:24Z",
      "version": 1,
      "changeset": 78319389,
      "user": "SapientGuy",
      "uid": 7835054,
      "nodes": [
        7052040890,
        7052040891,
        7052040892,
        7052040893,
        7052040894,
        7052040895,
        7052040890
      ],
      "tags": {
        "amenity": "parking",
        "surface": "paved"
      }
    },
    {
      "type": "way",
      "id": 771930358,
      "timestamp": "2020-02-12T16:26:38Z",
      "version": 1,
      "changeset": 80914778,
      "user": "geritsel",
      "uid": 159027,
      "nodes": [
        7206351660,
        7206351661,
        7206351662,
        42868713,
        5528825920,
        7206351660
      ],
      "tags": {
        "access": "yes",
        "amenity": "parking",
        "capacity": "9",
        "fee": "no",
        "parking": "surface",
        "surface": "paved"
      }
    },
    {
      "type": "way",
      "id": 790450653,
      "timestamp": "2020-04-10T16:28:01Z",
      "version": 1,
      "changeset": 83374489,
      "user": "Jvitegem",
      "uid": 6155361,
      "nodes": [
        7389923103,
        7389923104,
        7389923105,
        7389923106,
        7389923103
      ],
      "tags": {
        "amenity": "parking"
      }
    },
    {
      "type": "way",
      "id": 791476484,
      "timestamp": "2020-04-13T16:55:13Z",
      "version": 1,
      "changeset": 83489341,
      "user": "mcarton",
      "uid": 8229059,
      "nodes": [
        7399127317,
        7399127318,
        7399127319,
        7399127320,
        7399127321,
        7399127324,
        7399127317
      ],
      "tags": {
        "access": "yes",
        "amenity": "parking",
        "capacity": "13",
        "fee": "no",
        "parking": "lane",
        "surface": "paving_stones"
      }
    },
    {
      "type": "way",
      "id": 791476486,
      "timestamp": "2020-04-13T16:55:13Z",
      "version": 1,
      "changeset": 83489341,
      "user": "mcarton",
      "uid": 8229059,
      "nodes": [
        7399127327,
        7399127328,
        7399127329,
        7399127330,
        7399127327
      ],
      "tags": {
        "access": "yes",
        "amenity": "parking",
        "capacity": "10",
        "fee": "no",
        "parking": "lane",
        "surface": "paving_stones"
      }
    },
    {
      "type": "way",
      "id": 791476487,
      "timestamp": "2020-04-13T16:55:13Z",
      "version": 1,
      "changeset": 83489341,
      "user": "mcarton",
      "uid": 8229059,
      "nodes": [
        42852287,
        7399127331,
        7399127332,
        7399127333,
        42852287
      ],
      "tags": {
        "access": "yes",
        "amenity": "parking",
        "capacity": "9",
        "fee": "no",
        "parking": "lane"
      }
    },
    {
      "type": "way",
      "id": 796450768,
      "timestamp": "2021-08-18T07:57:25Z",
      "version": 3,
      "changeset": 109856053,
      "user": "rantionemonish",
      "uid": 2377564,
      "nodes": [
        7448607353,
        7448607352,
        7448607351,
        977702994,
        977683802,
        7448607350,
        7448607349,
        7448607348,
        7448607347,
        7448607346,
        7448607353
      ],
      "tags": {
        "access": "yes",
        "amenity": "parking",
        "fee": "no"
      }
    },
    {
      "type": "way",
      "id": 797980534,
      "timestamp": "2020-04-29T13:34:33Z",
      "version": 1,
      "changeset": 84342999,
      "user": "Jvitegem",
      "uid": 6155361,
      "nodes": [
        7463541681,
        7463541682,
        7463541683,
        7463541684,
        7463547285,
        7463547286,
        7463547287,
        7463547288,
        7463547289,
        7463541681
      ],
      "tags": {
        "amenity": "parking"
      }
    },
    {
      "type": "way",
      "id": 797994898,
      "timestamp": "2020-04-29T13:52:53Z",
      "version": 1,
      "changeset": 84343959,
      "user": "Jvitegem",
      "uid": 6155361,
      "nodes": [
        7463591478,
        7463591479,
        7463591480,
        7463591481,
        7463591478
      ],
      "tags": {
        "amenity": "parking",
        "charge": "2 Euro per dag",
        "fee": "yes"
      }
    },
    {
      "type": "way",
      "id": 870883059,
      "timestamp": "2020-11-12T18:21:27Z",
      "version": 1,
      "changeset": 94012573,
      "user": "geritsel",
      "uid": 159027,
      "nodes": [
        8112460192,
        8112460193,
        8112460194,
        8112460195,
        8112460196,
        8112460197,
        8112460169,
        8112460170,
        8112460192
      ],
      "tags": {
        "amenity": "parking",
        "operator": "Gasthuishoeve"
      }
    },
    {
      "type": "way",
      "id": 932903493,
      "timestamp": "2021-04-20T14:12:39Z",
      "version": 1,
      "changeset": 103277325,
      "user": "A67-A67",
      "uid": 553736,
      "nodes": [
        8647736593,
        8647736594,
        8647736585,
        8647736586,
        8647736587,
        8647736588,
        8647736589,
        8647736590,
        8647736591,
        8647736592,
        8647736593
      ],
      "tags": {
        "amenity": "parking"
      }
    },
    {
      "type": "way",
      "id": 932903494,
      "timestamp": "2021-04-20T14:12:39Z",
      "version": 1,
      "changeset": 103277325,
      "user": "A67-A67",
      "uid": 553736,
      "nodes": [
        8647736581,
        8647736582,
        8647736573,
        8647736574,
        8647736575,
        8647736576,
        8647736577,
        8647736578,
        8647736579,
        8647736580,
        8647736581
      ],
      "tags": {
        "amenity": "parking"
      }
    },
    {
      "type": "way",
      "id": 932903495,
      "timestamp": "2021-04-20T14:12:39Z",
      "version": 1,
      "changeset": 103277325,
      "user": "A67-A67",
      "uid": 553736,
      "nodes": [
        8647736668,
        8647736659,
        8647736660,
        8647736661,
        8647736662,
        8647736663,
        8647736664,
        8647736665,
        8647736666,
        8647736667,
        8647736668
      ],
      "tags": {
        "amenity": "parking"
      }
    },
    {
      "type": "way",
      "id": 932903496,
      "timestamp": "2021-04-20T14:12:39Z",
      "version": 1,
      "changeset": 103277325,
      "user": "A67-A67",
      "uid": 553736,
      "nodes": [
        8647736655,
        8647736656,
        8647736647,
        8647736648,
        8647736649,
        8647736650,
        8647736651,
        8647736652,
        8647736653,
        8647736654,
        8647736655
      ],
      "tags": {
        "amenity": "parking"
      }
    },
    {
      "type": "way",
      "id": 932903497,
      "timestamp": "2021-04-20T14:12:39Z",
      "version": 1,
      "changeset": 103277325,
      "user": "A67-A67",
      "uid": 553736,
      "nodes": [
        8647736636,
        8647736635,
        8647736644,
        8647736643,
        8647736642,
        8647736641,
        8647736640,
        8647736639,
        8647736638,
        8647736637,
        8647736636
      ],
      "tags": {
        "amenity": "parking"
      }
    },
    {
      "type": "way",
      "id": 970723781,
      "timestamp": "2021-08-05T20:05:46Z",
      "version": 3,
      "changeset": 109220100,
      "user": "eggie",
      "uid": 334075,
      "nodes": [
        978295885,
        8984142326,
        8984142325,
        8984142324,
        8984142323,
        8984142322,
        8984142321,
        8984142320,
        8984107889,
        8984107888,
        8984107887,
        8984107907,
        8984107906,
        8984107905,
        8984107904,
        8984107903,
        8984107886,
        8984107885,
        8984107884,
        8984107883,
        8984107882,
        8984107881,
        8984107880,
        8984107879,
        8984107878,
        8984107877,
        8984107876,
        8984107895,
        8984107875,
        8984107894,
        978340047,
        8984150654,
        8984150655,
        8984150652,
        8984150650,
        8984150648,
        8984150646,
        8984150647,
        8984150645,
        8984150649,
        8984150644,
        8984150642,
        8984150640,
        8984150641,
        8984150643,
        8984150651,
        8984150653,
        8984150656,
        8984150657,
        978295885
      ],
      "tags": {
        "access": "customers",
        "amenity": "parking"
      }
    },
    {
      "type": "node",
      "id": 978295885,
      "lat": 51.509628,
      "lon": 5.3787325
    },
    {
      "type": "node",
      "id": 978340047,
      "lat": 51.5095517,
      "lon": 5.3790842
    },
    {
      "type": "node",
      "id": 8984107875,
      "lat": 51.5095216,
      "lon": 5.3790655
    },
    {
      "type": "node",
      "id": 8984107876,
      "lat": 51.5094271,
      "lon": 5.3790646
    },
    {
      "type": "node",
      "id": 8984107877,
      "lat": 51.5094423,
      "lon": 5.3790005
    },
    {
      "type": "node",
      "id": 8984107878,
      "lat": 51.5093725,
      "lon": 5.3789533
    },
    {
      "type": "node",
      "id": 8984107879,
      "lat": 51.5093965,
      "lon": 5.3788647
    },
    {
      "type": "node",
      "id": 8984107880,
      "lat": 51.5094364,
      "lon": 5.3788911
    },
    {
      "type": "node",
      "id": 8984107881,
      "lat": 51.5094376,
      "lon": 5.3787571
    },
    {
      "type": "node",
      "id": 8984107882,
      "lat": 51.5094124,
      "lon": 5.3787543
    },
    {
      "type": "node",
      "id": 8984107883,
      "lat": 51.5094282,
      "lon": 5.3788166
    },
    {
      "type": "node",
      "id": 8984107884,
      "lat": 51.509319,
      "lon": 5.3789052
    },
    {
      "type": "node",
      "id": 8984107885,
      "lat": 51.5092973,
      "lon": 5.3788458
    },
    {
      "type": "node",
      "id": 8984107886,
      "lat": 51.5092991,
      "lon": 5.3789109
    },
    {
      "type": "node",
      "id": 8984107887,
      "lat": 51.5091928,
      "lon": 5.3787216
    },
    {
      "type": "node",
      "id": 8984107888,
      "lat": 51.5092592,
      "lon": 5.3787024
    },
    {
      "type": "node",
      "id": 8984107889,
      "lat": 51.5093678,
      "lon": 5.378626
    },
    {
      "type": "node",
      "id": 8984107894,
      "lat": 51.5095239,
      "lon": 5.379059
    },
    {
      "type": "node",
      "id": 8984107895,
      "lat": 51.5095028,
      "lon": 5.3791193
    },
    {
      "type": "node",
      "id": 8984107903,
      "lat": 51.509204,
      "lon": 5.3789429
    },
    {
      "type": "node",
      "id": 8984107904,
      "lat": 51.509204,
      "lon": 5.3788637
    },
    {
      "type": "node",
      "id": 8984107905,
      "lat": 51.5091594,
      "lon": 5.3788769
    },
    {
      "type": "node",
      "id": 8984107906,
      "lat": 51.5091535,
      "lon": 5.3787939
    },
    {
      "type": "node",
      "id": 8984107907,
      "lat": 51.5091975,
      "lon": 5.378793
    },
    {
      "type": "node",
      "id": 8984142320,
      "lat": 51.5094585,
      "lon": 5.3785963
    },
    {
      "type": "node",
      "id": 8984142321,
      "lat": 51.5095131,
      "lon": 5.3785883
    },
    {
      "type": "node",
      "id": 8984142322,
      "lat": 51.5095169,
      "lon": 5.3786595
    },
    {
      "type": "node",
      "id": 8984142323,
      "lat": 51.5095286,
      "lon": 5.3786637
    },
    {
      "type": "node",
      "id": 8984142324,
      "lat": 51.5095486,
      "lon": 5.3785921
    },
    {
      "type": "node",
      "id": 8984142325,
      "lat": 51.5096073,
      "lon": 5.3786487
    },
    {
      "type": "node",
      "id": 8984142326,
      "lat": 51.5095991,
      "lon": 5.3787128
    },
    {
      "type": "node",
      "id": 8984150640,
      "lat": 51.5095056,
      "lon": 5.3787519
    },
    {
      "type": "node",
      "id": 8984150641,
      "lat": 51.5095205,
      "lon": 5.3787588
    },
    {
      "type": "node",
      "id": 8984150642,
      "lat": 51.5094941,
      "lon": 5.3787538
    },
    {
      "type": "node",
      "id": 8984150643,
      "lat": 51.5095022,
      "lon": 5.3788164
    },
    {
      "type": "node",
      "id": 8984150644,
      "lat": 51.5094969,
      "lon": 5.3788232
    },
    {
      "type": "node",
      "id": 8984150645,
      "lat": 51.5094604,
      "lon": 5.3787595
    },
    {
      "type": "node",
      "id": 8984150646,
      "lat": 51.5094595,
      "lon": 5.3788357
    },
    {
      "type": "node",
      "id": 8984150647,
      "lat": 51.5094561,
      "lon": 5.3787595
    },
    {
      "type": "node",
      "id": 8984150648,
      "lat": 51.5094529,
      "lon": 5.3789066
    },
    {
      "type": "node",
      "id": 8984150649,
      "lat": 51.509464,
      "lon": 5.3788279
    },
    {
      "type": "node",
      "id": 8984150650,
      "lat": 51.5094727,
      "lon": 5.3788385
    },
    {
      "type": "node",
      "id": 8984150651,
      "lat": 51.5095007,
      "lon": 5.3788246
    },
    {
      "type": "node",
      "id": 8984150652,
      "lat": 51.5095571,
      "lon": 5.3788984
    },
    {
      "type": "node",
      "id": 8984150653,
      "lat": 51.5095652,
      "lon": 5.3788687
    },
    {
      "type": "node",
      "id": 8984150654,
      "lat": 51.5095814,
      "lon": 5.3789911
    },
    {
      "type": "node",
      "id": 8984150655,
      "lat": 51.5095392,
      "lon": 5.3789613
    },
    {
      "type": "node",
      "id": 8984150656,
      "lat": 51.5095829,
      "lon": 5.3788067
    },
    {
      "type": "node",
      "id": 8984150657,
      "lat": 51.5096164,
      "lon": 5.3788312
    },
    {
      "type": "node",
      "id": 42868713,
      "lat": 51.5141142,
      "lon": 5.3873528
    },
    {
      "type": "node",
      "id": 564721571,
      "lat": 51.5084983,
      "lon": 5.3912696
    },
    {
      "type": "node",
      "id": 1417450907,
      "lat": 51.5096535,
      "lon": 5.3883268
    },
    {
      "type": "node",
      "id": 1417450912,
      "lat": 51.509713,
      "lon": 5.3885788
    },
    {
      "type": "node",
      "id": 1417450923,
      "lat": 51.5098877,
      "lon": 5.3885855
    },
    {
      "type": "node",
      "id": 1417450926,
      "lat": 51.5099555,
      "lon": 5.3887895
    },
    {
      "type": "node",
      "id": 1417450927,
      "lat": 51.5099913,
      "lon": 5.3879999
    },
    {
      "type": "node",
      "id": 1417450934,
      "lat": 51.5100267,
      "lon": 5.3879728
    },
    {
      "type": "node",
      "id": 1417450936,
      "lat": 51.5101111,
      "lon": 5.3882597
    },
    {
      "type": "node",
      "id": 1417450947,
      "lat": 51.5100734,
      "lon": 5.3896121
    },
    {
      "type": "node",
      "id": 1417450949,
      "lat": 51.5101524,
      "lon": 5.3898292
    },
    {
      "type": "node",
      "id": 1417450956,
      "lat": 51.5103347,
      "lon": 5.3896542
    },
    {
      "type": "node",
      "id": 1417450959,
      "lat": 51.5105562,
      "lon": 5.3879778
    },
    {
      "type": "node",
      "id": 1417450964,
      "lat": 51.5106215,
      "lon": 5.3881858
    },
    {
      "type": "node",
      "id": 1417450966,
      "lat": 51.5104623,
      "lon": 5.3895288
    },
    {
      "type": "node",
      "id": 1417450967,
      "lat": 51.5107603,
      "lon": 5.389321
    },
    {
      "type": "node",
      "id": 1417450976,
      "lat": 51.5108443,
      "lon": 5.3895492
    },
    {
      "type": "node",
      "id": 1417450980,
      "lat": 51.5110149,
      "lon": 5.389062
    },
    {
      "type": "node",
      "id": 1417450983,
      "lat": 51.5111178,
      "lon": 5.3892861
    },
    {
      "type": "node",
      "id": 4396736736,
      "lat": 51.509457,
      "lon": 5.3915111
    },
    {
      "type": "node",
      "id": 4396736737,
      "lat": 51.5092098,
      "lon": 5.3908106
    },
    {
      "type": "node",
      "id": 4396736739,
      "lat": 51.509076,
      "lon": 5.3918857
    },
    {
      "type": "node",
      "id": 4396736740,
      "lat": 51.5090162,
      "lon": 5.3902407
    },
    {
      "type": "node",
      "id": 4396736741,
      "lat": 51.5087485,
      "lon": 5.3911125
    },
    {
      "type": "node",
      "id": 4396736743,
      "lat": 51.5087052,
      "lon": 5.3910595
    },
    {
      "type": "node",
      "id": 4396736744,
      "lat": 51.5083547,
      "lon": 5.3908312
    },
    {
      "type": "node",
      "id": 4428112023,
      "lat": 51.5104231,
      "lon": 5.39146
    },
    {
      "type": "node",
      "id": 4428112025,
      "lat": 51.5105817,
      "lon": 5.391295
    },
    {
      "type": "node",
      "id": 4428112026,
      "lat": 51.5106267,
      "lon": 5.3919844
    },
    {
      "type": "node",
      "id": 4428112027,
      "lat": 51.510792,
      "lon": 5.3918167
    },
    {
      "type": "node",
      "id": 5136047388,
      "lat": 51.511198,
      "lon": 5.3930603
    },
    {
      "type": "node",
      "id": 5136047389,
      "lat": 51.5111698,
      "lon": 5.3929689
    },
    {
      "type": "node",
      "id": 5136047390,
      "lat": 51.5112476,
      "lon": 5.3928264
    },
    {
      "type": "node",
      "id": 5136047392,
      "lat": 51.5112414,
      "lon": 5.3927231
    },
    {
      "type": "node",
      "id": 5136047393,
      "lat": 51.5111784,
      "lon": 5.3925721
    },
    {
      "type": "node",
      "id": 5136047394,
      "lat": 51.5109531,
      "lon": 5.3928294
    },
    {
      "type": "node",
      "id": 5136047397,
      "lat": 51.5110742,
      "lon": 5.3931106
    },
    {
      "type": "node",
      "id": 5136047398,
      "lat": 51.5111302,
      "lon": 5.3931307
    },
    {
      "type": "node",
      "id": 5136047400,
      "lat": 51.5111808,
      "lon": 5.3921474
    },
    {
      "type": "node",
      "id": 5136047401,
      "lat": 51.5111912,
      "lon": 5.3920589
    },
    {
      "type": "node",
      "id": 5136047403,
      "lat": 51.5110962,
      "lon": 5.392063
    },
    {
      "type": "node",
      "id": 5136047404,
      "lat": 51.5110263,
      "lon": 5.3920632
    },
    {
      "type": "node",
      "id": 5136047407,
      "lat": 51.5109105,
      "lon": 5.3921731
    },
    {
      "type": "node",
      "id": 5136047409,
      "lat": 51.5110187,
      "lon": 5.3924382
    },
    {
      "type": "node",
      "id": 5136047410,
      "lat": 51.5112156,
      "lon": 5.3922424
    },
    {
      "type": "node",
      "id": 5136047411,
      "lat": 51.5108933,
      "lon": 5.3917771
    },
    {
      "type": "node",
      "id": 5136047412,
      "lat": 51.5106793,
      "lon": 5.3912229
    },
    {
      "type": "node",
      "id": 5136047413,
      "lat": 51.5106213,
      "lon": 5.3912684
    },
    {
      "type": "node",
      "id": 5136047414,
      "lat": 51.5108398,
      "lon": 5.3918339
    },
    {
      "type": "node",
      "id": 5136047415,
      "lat": 51.5106908,
      "lon": 5.392447
    },
    {
      "type": "node",
      "id": 5136047416,
      "lat": 51.510671,
      "lon": 5.3923139
    },
    {
      "type": "node",
      "id": 5136047417,
      "lat": 51.5106513,
      "lon": 5.3922791
    },
    {
      "type": "node",
      "id": 5136047418,
      "lat": 51.5102846,
      "lon": 5.3925832
    },
    {
      "type": "node",
      "id": 5136047419,
      "lat": 51.5103576,
      "lon": 5.3927986
    },
    {
      "type": "node",
      "id": 5136047420,
      "lat": 51.5106986,
      "lon": 5.3925135
    },
    {
      "type": "node",
      "id": 5136047723,
      "lat": 51.5108428,
      "lon": 5.3935904
    },
    {
      "type": "node",
      "id": 5136047731,
      "lat": 51.5106119,
      "lon": 5.3935842
    },
    {
      "type": "node",
      "id": 5528825920,
      "lat": 51.5142035,
      "lon": 5.3872091
    },
    {
      "type": "node",
      "id": 6077151600,
      "lat": 51.5100879,
      "lon": 5.3926133
    },
    {
      "type": "node",
      "id": 6077151601,
      "lat": 51.51016,
      "lon": 5.3928191
    },
    {
      "type": "node",
      "id": 6077151602,
      "lat": 51.5093591,
      "lon": 5.3935897
    },
    {
      "type": "node",
      "id": 6077151603,
      "lat": 51.5092939,
      "lon": 5.3933915
    },
    {
      "type": "node",
      "id": 6148240765,
      "lat": 51.5113373,
      "lon": 5.3895265
    },
    {
      "type": "node",
      "id": 6148240766,
      "lat": 51.5112198,
      "lon": 5.3896459
    },
    {
      "type": "node",
      "id": 6148240767,
      "lat": 51.5111376,
      "lon": 5.389602
    },
    {
      "type": "node",
      "id": 6148240768,
      "lat": 51.5109827,
      "lon": 5.3897553
    },
    {
      "type": "node",
      "id": 6148240769,
      "lat": 51.5109988,
      "lon": 5.3901137
    },
    {
      "type": "node",
      "id": 6148240770,
      "lat": 51.5111648,
      "lon": 5.3905457
    },
    {
      "type": "node",
      "id": 6148240771,
      "lat": 51.5115787,
      "lon": 5.3901595
    },
    {
      "type": "node",
      "id": 6838669324,
      "lat": 51.5102696,
      "lon": 5.3894485
    },
    {
      "type": "node",
      "id": 6838669325,
      "lat": 51.5101857,
      "lon": 5.3892013
    },
    {
      "type": "node",
      "id": 6838669326,
      "lat": 51.5103043,
      "lon": 5.38909
    },
    {
      "type": "node",
      "id": 6838669328,
      "lat": 51.5080741,
      "lon": 5.3899692
    },
    {
      "type": "node",
      "id": 6838669329,
      "lat": 51.5082152,
      "lon": 5.3903631
    },
    {
      "type": "node",
      "id": 6838669330,
      "lat": 51.5091364,
      "lon": 5.38952
    },
    {
      "type": "node",
      "id": 6838669331,
      "lat": 51.5090181,
      "lon": 5.3891239
    },
    {
      "type": "node",
      "id": 7051709151,
      "lat": 51.5112352,
      "lon": 5.3920897
    },
    {
      "type": "node",
      "id": 7206351660,
      "lat": 51.5142611,
      "lon": 5.3871285
    },
    {
      "type": "node",
      "id": 7206351661,
      "lat": 51.5142979,
      "lon": 5.3871888
    },
    {
      "type": "node",
      "id": 7206351662,
      "lat": 51.5141535,
      "lon": 5.3874121
    },
    {
      "type": "node",
      "id": 7399127343,
      "lat": 51.5104387,
      "lon": 5.3894633
    },
    {
      "type": "node",
      "id": 42852287,
      "lat": 51.50991,
      "lon": 5.39547
    },
    {
      "type": "node",
      "id": 3135507662,
      "lat": 51.5088784,
      "lon": 5.3994908
    },
    {
      "type": "node",
      "id": 4638919043,
      "lat": 51.5128164,
      "lon": 5.3941142
    },
    {
      "type": "node",
      "id": 5136047724,
      "lat": 51.5107523,
      "lon": 5.3936789
    },
    {
      "type": "node",
      "id": 5136047725,
      "lat": 51.5107687,
      "lon": 5.3938823
    },
    {
      "type": "node",
      "id": 5136047726,
      "lat": 51.5109041,
      "lon": 5.3942692
    },
    {
      "type": "node",
      "id": 5136047727,
      "lat": 51.5110521,
      "lon": 5.3941268
    },
    {
      "type": "node",
      "id": 5136047728,
      "lat": 51.5108412,
      "lon": 5.3943274
    },
    {
      "type": "node",
      "id": 5136047729,
      "lat": 51.5106437,
      "lon": 5.3938001
    },
    {
      "type": "node",
      "id": 5136047730,
      "lat": 51.5106653,
      "lon": 5.3936243
    },
    {
      "type": "node",
      "id": 5136047732,
      "lat": 51.5105114,
      "lon": 5.3936919
    },
    {
      "type": "node",
      "id": 5136047733,
      "lat": 51.5105285,
      "lon": 5.3937492
    },
    {
      "type": "node",
      "id": 5136047734,
      "lat": 51.5104536,
      "lon": 5.3938281
    },
    {
      "type": "node",
      "id": 5136047735,
      "lat": 51.5106967,
      "lon": 5.3944754
    },
    {
      "type": "node",
      "id": 5136047736,
      "lat": 51.51143,
      "lon": 5.3953485
    },
    {
      "type": "node",
      "id": 5136047737,
      "lat": 51.5116134,
      "lon": 5.3951617
    },
    {
      "type": "node",
      "id": 5136047738,
      "lat": 51.5115897,
      "lon": 5.395092
    },
    {
      "type": "node",
      "id": 5136047739,
      "lat": 51.5117888,
      "lon": 5.394753
    },
    {
      "type": "node",
      "id": 5136047740,
      "lat": 51.5115838,
      "lon": 5.3944774
    },
    {
      "type": "node",
      "id": 5136047741,
      "lat": 51.5114596,
      "lon": 5.3946992
    },
    {
      "type": "node",
      "id": 5136047742,
      "lat": 51.5113413,
      "lon": 5.3945345
    },
    {
      "type": "node",
      "id": 5136047743,
      "lat": 51.5113236,
      "lon": 5.3945598
    },
    {
      "type": "node",
      "id": 5136047744,
      "lat": 51.5112763,
      "lon": 5.3944869
    },
    {
      "type": "node",
      "id": 5136047745,
      "lat": 51.5111004,
      "lon": 5.3942093
    },
    {
      "type": "node",
      "id": 5136047746,
      "lat": 51.5109545,
      "lon": 5.3943381
    },
    {
      "type": "node",
      "id": 5136047747,
      "lat": 51.5112848,
      "lon": 5.3951854
    },
    {
      "type": "node",
      "id": 5136078046,
      "lat": 51.5121677,
      "lon": 5.3962837
    },
    {
      "type": "node",
      "id": 5136078047,
      "lat": 51.5124765,
      "lon": 5.3959404
    },
    {
      "type": "node",
      "id": 5136078048,
      "lat": 51.5124448,
      "lon": 5.3958358
    },
    {
      "type": "node",
      "id": 5136078049,
      "lat": 51.5124999,
      "lon": 5.3957956
    },
    {
      "type": "node",
      "id": 5136078050,
      "lat": 51.5124323,
      "lon": 5.3956267
    },
    {
      "type": "node",
      "id": 5136078057,
      "lat": 51.5123179,
      "lon": 5.3957607
    },
    {
      "type": "node",
      "id": 5136078058,
      "lat": 51.5121293,
      "lon": 5.3959645
    },
    {
      "type": "node",
      "id": 5136078059,
      "lat": 51.5121677,
      "lon": 5.3960826
    },
    {
      "type": "node",
      "id": 5136078060,
      "lat": 51.512106,
      "lon": 5.3961469
    },
    {
      "type": "node",
      "id": 5136078066,
      "lat": 51.5129181,
      "lon": 5.3945683
    },
    {
      "type": "node",
      "id": 5136078067,
      "lat": 51.5131318,
      "lon": 5.3944154
    },
    {
      "type": "node",
      "id": 5136078068,
      "lat": 51.5133237,
      "lon": 5.3941821
    },
    {
      "type": "node",
      "id": 5136078069,
      "lat": 51.5127596,
      "lon": 5.3941498
    },
    {
      "type": "node",
      "id": 5136078071,
      "lat": 51.5131768,
      "lon": 5.3938123
    },
    {
      "type": "node",
      "id": 5600205797,
      "lat": 51.5089027,
      "lon": 5.3994656
    },
    {
      "type": "node",
      "id": 5600205798,
      "lat": 51.5086425,
      "lon": 5.3997362
    },
    {
      "type": "node",
      "id": 5600205799,
      "lat": 51.5087212,
      "lon": 5.399917
    },
    {
      "type": "node",
      "id": 5600205800,
      "lat": 51.5089781,
      "lon": 5.3996463
    },
    {
      "type": "node",
      "id": 5600205801,
      "lat": 51.5089066,
      "lon": 5.3990288
    },
    {
      "type": "node",
      "id": 5600205802,
      "lat": 51.5087732,
      "lon": 5.3990424
    },
    {
      "type": "node",
      "id": 5600205803,
      "lat": 51.5087882,
      "lon": 5.3993287
    },
    {
      "type": "node",
      "id": 5600205804,
      "lat": 51.5089189,
      "lon": 5.3993161
    },
    {
      "type": "node",
      "id": 5600205805,
      "lat": 51.5088454,
      "lon": 5.399035
    },
    {
      "type": "node",
      "id": 5600205808,
      "lat": 51.5088349,
      "lon": 5.3993242
    },
    {
      "type": "node",
      "id": 5600205809,
      "lat": 51.5095811,
      "lon": 5.3998074
    },
    {
      "type": "node",
      "id": 5600205810,
      "lat": 51.5095092,
      "lon": 5.39988
    },
    {
      "type": "node",
      "id": 6143361560,
      "lat": 51.5130339,
      "lon": 5.398234
    },
    {
      "type": "node",
      "id": 6143361561,
      "lat": 51.5131492,
      "lon": 5.3982037
    },
    {
      "type": "node",
      "id": 6143361562,
      "lat": 51.5131813,
      "lon": 5.3981915
    },
    {
      "type": "node",
      "id": 6143361563,
      "lat": 51.5132793,
      "lon": 5.3979944
    },
    {
      "type": "node",
      "id": 6143361564,
      "lat": 51.5133455,
      "lon": 5.3976604
    },
    {
      "type": "node",
      "id": 6143361565,
      "lat": 51.5133344,
      "lon": 5.3975659
    },
    {
      "type": "node",
      "id": 6143361566,
      "lat": 51.5130868,
      "lon": 5.3971953
    },
    {
      "type": "node",
      "id": 6143361567,
      "lat": 51.5129753,
      "lon": 5.397168
    },
    {
      "type": "node",
      "id": 6143361568,
      "lat": 51.5128468,
      "lon": 5.397171
    },
    {
      "type": "node",
      "id": 6143361569,
      "lat": 51.5126615,
      "lon": 5.3968187
    },
    {
      "type": "node",
      "id": 6143361570,
      "lat": 51.5127768,
      "lon": 5.3966001
    },
    {
      "type": "node",
      "id": 6143361571,
      "lat": 51.5127296,
      "lon": 5.396515
    },
    {
      "type": "node",
      "id": 6143361572,
      "lat": 51.512508,
      "lon": 5.3967969
    },
    {
      "type": "node",
      "id": 6143361573,
      "lat": 51.5125241,
      "lon": 5.3968301
    },
    {
      "type": "node",
      "id": 6143361574,
      "lat": 51.5124482,
      "lon": 5.3969336
    },
    {
      "type": "node",
      "id": 6143361575,
      "lat": 51.5126402,
      "lon": 5.3973881
    },
    {
      "type": "node",
      "id": 7051681655,
      "lat": 51.5127739,
      "lon": 5.3975738
    },
    {
      "type": "node",
      "id": 7051681656,
      "lat": 51.5128629,
      "lon": 5.3974814
    },
    {
      "type": "node",
      "id": 7051681657,
      "lat": 51.5128129,
      "lon": 5.3973532
    },
    {
      "type": "node",
      "id": 7051681658,
      "lat": 51.5132623,
      "lon": 5.397872
    },
    {
      "type": "node",
      "id": 7051709122,
      "lat": 51.5106392,
      "lon": 5.3937065
    },
    {
      "type": "node",
      "id": 7051709152,
      "lat": 51.5108097,
      "lon": 5.3938402
    },
    {
      "type": "node",
      "id": 7399127317,
      "lat": 51.5091182,
      "lon": 5.3991986
    },
    {
      "type": "node",
      "id": 7399127318,
      "lat": 51.509053,
      "lon": 5.3992684
    },
    {
      "type": "node",
      "id": 7399127319,
      "lat": 51.5092097,
      "lon": 5.3996517
    },
    {
      "type": "node",
      "id": 7399127320,
      "lat": 51.5092723,
      "lon": 5.3995907
    },
    {
      "type": "node",
      "id": 7399127321,
      "lat": 51.5092374,
      "lon": 5.399502
    },
    {
      "type": "node",
      "id": 7399127324,
      "lat": 51.5091668,
      "lon": 5.3993223
    },
    {
      "type": "node",
      "id": 7399127327,
      "lat": 51.5095154,
      "lon": 5.3987372
    },
    {
      "type": "node",
      "id": 7399127328,
      "lat": 51.5093945,
      "lon": 5.3988598
    },
    {
      "type": "node",
      "id": 7399127329,
      "lat": 51.5093401,
      "lon": 5.3987118
    },
    {
      "type": "node",
      "id": 7399127330,
      "lat": 51.5094575,
      "lon": 5.3985894
    },
    {
      "type": "node",
      "id": 7399127331,
      "lat": 51.5099616,
      "lon": 5.3955648
    },
    {
      "type": "node",
      "id": 7399127332,
      "lat": 51.5098019,
      "lon": 5.3957498
    },
    {
      "type": "node",
      "id": 7399127333,
      "lat": 51.509756,
      "lon": 5.3956481
    },
    {
      "type": "node",
      "id": 8647736573,
      "lat": 51.515602,
      "lon": 5.3834214
    },
    {
      "type": "node",
      "id": 8647736574,
      "lat": 51.5155637,
      "lon": 5.3834554
    },
    {
      "type": "node",
      "id": 8647736575,
      "lat": 51.5156181,
      "lon": 5.3836105
    },
    {
      "type": "node",
      "id": 8647736576,
      "lat": 51.515657,
      "lon": 5.3835765
    },
    {
      "type": "node",
      "id": 8647736577,
      "lat": 51.515663,
      "lon": 5.3835925
    },
    {
      "type": "node",
      "id": 8647736578,
      "lat": 51.5157103,
      "lon": 5.3835498
    },
    {
      "type": "node",
      "id": 8647736579,
      "lat": 51.5157041,
      "lon": 5.3835328
    },
    {
      "type": "node",
      "id": 8647736580,
      "lat": 51.5157432,
      "lon": 5.3834975
    },
    {
      "type": "node",
      "id": 8647736581,
      "lat": 51.5156884,
      "lon": 5.3833419
    },
    {
      "type": "node",
      "id": 8647736582,
      "lat": 51.5156493,
      "lon": 5.3833768
    },
    {
      "type": "node",
      "id": 8647736585,
      "lat": 51.5158067,
      "lon": 5.3832335
    },
    {
      "type": "node",
      "id": 8647736586,
      "lat": 51.5157677,
      "lon": 5.3832694
    },
    {
      "type": "node",
      "id": 8647736587,
      "lat": 51.5158231,
      "lon": 5.3834236
    },
    {
      "type": "node",
      "id": 8647736588,
      "lat": 51.5158606,
      "lon": 5.3833886
    },
    {
      "type": "node",
      "id": 8647736589,
      "lat": 51.5158661,
      "lon": 5.3834024
    },
    {
      "type": "node",
      "id": 8647736590,
      "lat": 51.5159132,
      "lon": 5.3833601
    },
    {
      "type": "node",
      "id": 8647736591,
      "lat": 51.5159086,
      "lon": 5.3833451
    },
    {
      "type": "node",
      "id": 8647736592,
      "lat": 51.5159471,
      "lon": 5.3833103
    },
    {
      "type": "node",
      "id": 8647736593,
      "lat": 51.515892,
      "lon": 5.3831561
    },
    {
      "type": "node",
      "id": 8647736594,
      "lat": 51.5158534,
      "lon": 5.3831903
    },
    {
      "type": "node",
      "id": 8647736635,
      "lat": 51.5147735,
      "lon": 5.3841791
    },
    {
      "type": "node",
      "id": 8647736636,
      "lat": 51.5147343,
      "lon": 5.3842137
    },
    {
      "type": "node",
      "id": 8647736637,
      "lat": 51.5147889,
      "lon": 5.3843689
    },
    {
      "type": "node",
      "id": 8647736638,
      "lat": 51.5148283,
      "lon": 5.3843341
    },
    {
      "type": "node",
      "id": 8647736639,
      "lat": 51.5148355,
      "lon": 5.3843547
    },
    {
      "type": "node",
      "id": 8647736640,
      "lat": 51.5148818,
      "lon": 5.384313
    },
    {
      "type": "node",
      "id": 8647736641,
      "lat": 51.5148743,
      "lon": 5.3842906
    },
    {
      "type": "node",
      "id": 8647736642,
      "lat": 51.5149133,
      "lon": 5.3842555
    },
    {
      "type": "node",
      "id": 8647736643,
      "lat": 51.5148598,
      "lon": 5.3841012
    },
    {
      "type": "node",
      "id": 8647736644,
      "lat": 51.51482,
      "lon": 5.3841343
    },
    {
      "type": "node",
      "id": 8647736647,
      "lat": 51.5149782,
      "lon": 5.3839906
    },
    {
      "type": "node",
      "id": 8647736648,
      "lat": 51.5149394,
      "lon": 5.384026
    },
    {
      "type": "node",
      "id": 8647736649,
      "lat": 51.5149954,
      "lon": 5.3841807
    },
    {
      "type": "node",
      "id": 8647736650,
      "lat": 51.5150337,
      "lon": 5.3841449
    },
    {
      "type": "node",
      "id": 8647736651,
      "lat": 51.5150419,
      "lon": 5.3841666
    },
    {
      "type": "node",
      "id": 8647736652,
      "lat": 51.5150887,
      "lon": 5.3841251
    },
    {
      "type": "node",
      "id": 8647736653,
      "lat": 51.5150809,
      "lon": 5.384102
    },
    {
      "type": "node",
      "id": 8647736654,
      "lat": 51.5151192,
      "lon": 5.3840668
    },
    {
      "type": "node",
      "id": 8647736655,
      "lat": 51.5150637,
      "lon": 5.3839131
    },
    {
      "type": "node",
      "id": 8647736656,
      "lat": 51.515025,
      "lon": 5.3839473
    },
    {
      "type": "node",
      "id": 8647736659,
      "lat": 51.5151838,
      "lon": 5.3838037
    },
    {
      "type": "node",
      "id": 8647736660,
      "lat": 51.5151453,
      "lon": 5.3838393
    },
    {
      "type": "node",
      "id": 8647736661,
      "lat": 51.5152005,
      "lon": 5.3839925
    },
    {
      "type": "node",
      "id": 8647736662,
      "lat": 51.5152388,
      "lon": 5.3839567
    },
    {
      "type": "node",
      "id": 8647736663,
      "lat": 51.5152451,
      "lon": 5.383973
    },
    {
      "type": "node",
      "id": 8647736664,
      "lat": 51.5152918,
      "lon": 5.383931
    },
    {
      "type": "node",
      "id": 8647736665,
      "lat": 51.5152858,
      "lon": 5.3839147
    },
    {
      "type": "node",
      "id": 8647736666,
      "lat": 51.5153251,
      "lon": 5.3838789
    },
    {
      "type": "node",
      "id": 8647736667,
      "lat": 51.5152699,
      "lon": 5.383724
    },
    {
      "type": "node",
      "id": 8647736668,
      "lat": 51.5152315,
      "lon": 5.3837591
    },
    {
      "type": "node",
      "id": 479113889,
      "lat": 51.5210128,
      "lon": 5.3945782
    },
    {
      "type": "node",
      "id": 479113916,
      "lat": 51.5208432,
      "lon": 5.3941461
    },
    {
      "type": "node",
      "id": 5131621251,
      "lat": 51.5209159,
      "lon": 5.39395
    },
    {
      "type": "node",
      "id": 5131621252,
      "lat": 51.5208757,
      "lon": 5.3939961
    },
    {
      "type": "node",
      "id": 5131621253,
      "lat": 51.5208431,
      "lon": 5.39409
    },
    {
      "type": "node",
      "id": 7052040894,
      "lat": 51.5156631,
      "lon": 5.4000536
    },
    {
      "type": "node",
      "id": 7052040895,
      "lat": 51.5156403,
      "lon": 5.3999818
    },
    {
      "type": "node",
      "id": 479113800,
      "lat": 51.5212426,
      "lon": 5.3936228
    },
    {
      "type": "node",
      "id": 479113817,
      "lat": 51.5214444,
      "lon": 5.3941275
    },
    {
      "type": "node",
      "id": 7034471639,
      "lat": 51.5253592,
      "lon": 5.4001007
    },
    {
      "type": "node",
      "id": 7463591479,
      "lat": 51.5275906,
      "lon": 5.4000256
    },
    {
      "type": "node",
      "id": 477544262,
      "lat": 51.5466608,
      "lon": 5.3827286
    },
    {
      "type": "node",
      "id": 477544263,
      "lat": 51.5467848,
      "lon": 5.3827119
    },
    {
      "type": "node",
      "id": 7463541602,
      "lat": 51.5468234,
      "lon": 5.3826824
    },
    {
      "type": "node",
      "id": 7463541603,
      "lat": 51.5467525,
      "lon": 5.3826496
    },
    {
      "type": "node",
      "id": 7463541606,
      "lat": 51.5469145,
      "lon": 5.3829269
    },
    {
      "type": "node",
      "id": 7463541610,
      "lat": 51.546791,
      "lon": 5.3830737
    },
    {
      "type": "node",
      "id": 7463541682,
      "lat": 51.5408489,
      "lon": 5.3935822
    },
    {
      "type": "node",
      "id": 7463541683,
      "lat": 51.5408882,
      "lon": 5.3935598
    },
    {
      "type": "node",
      "id": 7463541684,
      "lat": 51.5409373,
      "lon": 5.3935782
    },
    {
      "type": "node",
      "id": 7463541681,
      "lat": 51.5408235,
      "lon": 5.3936915
    },
    {
      "type": "node",
      "id": 7463547285,
      "lat": 51.540966,
      "lon": 5.3936296
    },
    {
      "type": "node",
      "id": 7463547286,
      "lat": 51.5409791,
      "lon": 5.3937047
    },
    {
      "type": "node",
      "id": 7463547287,
      "lat": 51.5409685,
      "lon": 5.39376
    },
    {
      "type": "node",
      "id": 7463547288,
      "lat": 51.5409324,
      "lon": 5.3937956
    },
    {
      "type": "node",
      "id": 7463547289,
      "lat": 51.5408611,
      "lon": 5.3937679
    },
    {
      "type": "node",
      "id": 42850670,
      "lat": 51.5098131,
      "lon": 5.4006575
    },
    {
      "type": "node",
      "id": 42851957,
      "lat": 51.5098482,
      "lon": 5.4007156
    },
    {
      "type": "node",
      "id": 5600205811,
      "lat": 51.5099158,
      "lon": 5.4006308
    },
    {
      "type": "node",
      "id": 7052040890,
      "lat": 51.5154071,
      "lon": 5.4001987
    },
    {
      "type": "node",
      "id": 7052040891,
      "lat": 51.5155123,
      "lon": 5.4005081
    },
    {
      "type": "node",
      "id": 7052040892,
      "lat": 51.515678,
      "lon": 5.4003487
    },
    {
      "type": "node",
      "id": 7052040893,
      "lat": 51.5157018,
      "lon": 5.4002641
    },
    {
      "type": "node",
      "id": 7034471634,
      "lat": 51.5253077,
      "lon": 5.4001882
    },
    {
      "type": "node",
      "id": 7034471640,
      "lat": 51.5261618,
      "lon": 5.4011754
    },
    {
      "type": "node",
      "id": 7034471641,
      "lat": 51.5256049,
      "lon": 5.4016962
    },
    {
      "type": "node",
      "id": 7034471642,
      "lat": 51.5249502,
      "lon": 5.4008922
    },
    {
      "type": "node",
      "id": 7463591480,
      "lat": 51.5272204,
      "lon": 5.400736
    },
    {
      "type": "node",
      "id": 7463591481,
      "lat": 51.5275793,
      "lon": 5.4012379
    },
    {
      "type": "node",
      "id": 7463591484,
      "lat": 51.525957,
      "lon": 5.4008333
    },
    {
      "type": "node",
      "id": 479094957,
      "lat": 51.5125377,
      "lon": 5.4348963
    },
    {
      "type": "node",
      "id": 479094961,
      "lat": 51.5123913,
      "lon": 5.4348841
    },
    {
      "type": "node",
      "id": 479094963,
      "lat": 51.5122991,
      "lon": 5.4375412
    },
    {
      "type": "node",
      "id": 479094966,
      "lat": 51.5124636,
      "lon": 5.4375412
    },
    {
      "type": "node",
      "id": 479103561,
      "lat": 51.5152963,
      "lon": 5.439258
    },
    {
      "type": "node",
      "id": 479103581,
      "lat": 51.5156601,
      "lon": 5.4392714
    },
    {
      "type": "node",
      "id": 479103522,
      "lat": 51.5156381,
      "lon": 5.439927
    },
    {
      "type": "node",
      "id": 479103540,
      "lat": 51.5152666,
      "lon": 5.439896
    },
    {
      "type": "node",
      "id": 603568392,
      "lat": 51.5156015,
      "lon": 5.4409949
    },
    {
      "type": "node",
      "id": 603568393,
      "lat": 51.5152284,
      "lon": 5.4409413
    },
    {
      "type": "node",
      "id": 977880451,
      "lat": 51.5156358,
      "lon": 5.4399942
    },
    {
      "type": "node",
      "id": 977908404,
      "lat": 51.5155539,
      "lon": 5.4409881
    },
    {
      "type": "node",
      "id": 7388939244,
      "lat": 51.5155293,
      "lon": 5.4399179
    },
    {
      "type": "node",
      "id": 2173879141,
      "lat": 51.5288545,
      "lon": 5.4021246
    },
    {
      "type": "node",
      "id": 2173879142,
      "lat": 51.528887,
      "lon": 5.4022567
    },
    {
      "type": "node",
      "id": 2173879145,
      "lat": 51.528963,
      "lon": 5.4020556
    },
    {
      "type": "node",
      "id": 2173879146,
      "lat": 51.5289955,
      "lon": 5.4021878
    },
    {
      "type": "node",
      "id": 7463591478,
      "lat": 51.5279708,
      "lon": 5.400309
    },
    {
      "type": "node",
      "id": 2760591182,
      "lat": 51.5511389,
      "lon": 5.4164032
    },
    {
      "type": "node",
      "id": 2760591199,
      "lat": 51.5511406,
      "lon": 5.4167197
    },
    {
      "type": "node",
      "id": 2760591201,
      "lat": 51.5510605,
      "lon": 5.4167143
    },
    {
      "type": "node",
      "id": 2760591203,
      "lat": 51.5510656,
      "lon": 5.4157865
    },
    {
      "type": "node",
      "id": 2760591207,
      "lat": 51.5512781,
      "lon": 5.4157821
    },
    {
      "type": "node",
      "id": 2760591208,
      "lat": 51.5512723,
      "lon": 5.416312
    },
    {
      "type": "node",
      "id": 2760591209,
      "lat": 51.5511422,
      "lon": 5.4163039
    },
    {
      "type": "node",
      "id": 2760591215,
      "lat": 51.5512705,
      "lon": 5.4152765
    },
    {
      "type": "node",
      "id": 2760591216,
      "lat": 51.5510616,
      "lon": 5.4152808
    },
    {
      "type": "node",
      "id": 2760591220,
      "lat": 51.5512685,
      "lon": 5.415633
    },
    {
      "type": "node",
      "id": 2760626229,
      "lat": 51.5510618,
      "lon": 5.4164756
    },
    {
      "type": "node",
      "id": 2763366444,
      "lat": 51.5511366,
      "lon": 5.4150762
    },
    {
      "type": "node",
      "id": 2763366445,
      "lat": 51.5511383,
      "lon": 5.4152787
    },
    {
      "type": "node",
      "id": 2763366446,
      "lat": 51.5512698,
      "lon": 5.4150748
    },
    {
      "type": "node",
      "id": 2760630404,
      "lat": 51.5504989,
      "lon": 5.4217771
    },
    {
      "type": "node",
      "id": 2760630405,
      "lat": 51.5505468,
      "lon": 5.4218668
    },
    {
      "type": "node",
      "id": 2760630406,
      "lat": 51.5503963,
      "lon": 5.4220575
    },
    {
      "type": "node",
      "id": 2760630407,
      "lat": 51.5503305,
      "lon": 5.4218621
    },
    {
      "type": "node",
      "id": 4961262301,
      "lat": 51.5504113,
      "lon": 5.42186
    },
    {
      "type": "node",
      "id": 7389923103,
      "lat": 51.5470054,
      "lon": 5.4350182
    },
    {
      "type": "node",
      "id": 7389923104,
      "lat": 51.5464485,
      "lon": 5.4353684
    },
    {
      "type": "node",
      "id": 7389923105,
      "lat": 51.5464703,
      "lon": 5.435458
    },
    {
      "type": "node",
      "id": 7389923106,
      "lat": 51.5470272,
      "lon": 5.4351076
    },
    {
      "type": "node",
      "id": 7448607352,
      "lat": 51.5569257,
      "lon": 5.3603799
    },
    {
      "type": "node",
      "id": 7448607353,
      "lat": 51.5568102,
      "lon": 5.3604564
    },
    {
      "type": "node",
      "id": 977683802,
      "lat": 51.5564678,
      "lon": 5.3618608
    },
    {
      "type": "node",
      "id": 977702994,
      "lat": 51.5570084,
      "lon": 5.3614101
    },
    {
      "type": "node",
      "id": 7448607346,
      "lat": 51.5558948,
      "lon": 5.3612896
    },
    {
      "type": "node",
      "id": 7448607347,
      "lat": 51.5558429,
      "lon": 5.3613675
    },
    {
      "type": "node",
      "id": 7448607348,
      "lat": 51.5559236,
      "lon": 5.36153
    },
    {
      "type": "node",
      "id": 7448607349,
      "lat": 51.5562039,
      "lon": 5.3616967
    },
    {
      "type": "node",
      "id": 7448607350,
      "lat": 51.5564357,
      "lon": 5.3617677
    },
    {
      "type": "node",
      "id": 7448607351,
      "lat": 51.5571363,
      "lon": 5.3612459
    },
    {
      "type": "node",
      "id": 8112460169,
      "lat": 51.5601644,
      "lon": 5.4247403
    },
    {
      "type": "node",
      "id": 8112460170,
      "lat": 51.5601573,
      "lon": 5.4245735
    },
    {
      "type": "node",
      "id": 8112460192,
      "lat": 51.5602077,
      "lon": 5.4244164
    },
    {
      "type": "node",
      "id": 8112460193,
      "lat": 51.5604542,
      "lon": 5.4245224
    },
    {
      "type": "node",
      "id": 8112460195,
      "lat": 51.5603566,
      "lon": 5.4249445
    },
    {
      "type": "node",
      "id": 8112460196,
      "lat": 51.5602398,
      "lon": 5.4249093
    },
    {
      "type": "node",
      "id": 8112460197,
      "lat": 51.560183,
      "lon": 5.4248943
    },
    {
      "type": "node",
      "id": 8112460194,
      "lat": 51.5604735,
      "lon": 5.4250764
    },
    {
      "type": "node",
      "id": 6307756707,
      "lat": 51.5582439,
      "lon": 5.449217
    },
    {
      "type": "node",
      "id": 6307756708,
      "lat": 51.5584245,
      "lon": 5.449155
    },
    {
      "type": "node",
      "id": 6307756709,
      "lat": 51.5585718,
      "lon": 5.44959
    },
    {
      "type": "node",
      "id": 6307756710,
      "lat": 51.5588745,
      "lon": 5.4503246
    },
    {
      "type": "node",
      "id": 6307756711,
      "lat": 51.5585516,
      "lon": 5.4506784
    },
    {
      "type": "node",
      "id": 6307756712,
      "lat": 51.558185,
      "lon": 5.4495607
    },
    {
      "type": "node",
      "id": 6307756713,
      "lat": 51.558231,
      "lon": 5.4493902
    },
    {
      "type": "node",
      "id": 6307756714,
      "lat": 51.5581921,
      "lon": 5.449354
    },
    {
      "type": "node",
      "id": 7389509374,
      "lat": 51.5583253,
      "lon": 5.4498949
    }
  ]
}