{
 "type": "FeatureCollection",
 "features": [
  {
   "type": "Feature",
   "properties": {
    "addr:housenumber": "56",
    "addr:street": "Iepersteenweg",
    "information": "visitor_centre",
    "name": "Provinciaal Bezoekerscentrum De Blankaart",
    "operator": "Natuurpunt",
    "tourism": "information",
    "website": "https://www.natuurpunt.be/bezoekerscentrum/provinciaal-bezoekerscentrum-de-blankaart",
    "id": "node/8902269315",
    "_lat": "50.9839022",
    "_lon": "2.8712033",
    "_layer": "visitor_information_centre",
    "_surface": "0",
    "_surface:ha": "0",
    "_length": "0",
    "_length:km": "0.0",
    "_last_edit:contributor": "WardBeyens",
    "_last_edit:contributor:uid": 10343215,
    "_last_edit:changeset": 107590793,
    "_last_edit:timestamp": "2021-07-07T21:54:12Z",
    "_version_number": 1,
    "_geometry:type": "Point",
    "_country": "be"
   },
   "geometry": {
    "type": "Point",
    "coordinates": [
     2.8712033,
     50.9839022
    ]
   },
   "id": "node/8902269315"
  },
  {
   "type": "Feature",
   "properties": {
    "addr:housenumber": "20",
    "addr:street": "Kuiperscheeweg",
    "building": "yes",
    "description": "Groenwaecke",
    "email": "uitkerksepolder@natuurpunt.be",
    "information": "office",
    "name": "Bezoekerscentrum Uitkerkse Polder",
    "opening_hours": "Tu-Sa 13:30-17:30; Su 10:00-17:30; SH Mo 13:30-17:30",
    "operator": "Natuurpunt",
    "operator:wikidata": "Q2482933",
    "phone": "+32 50 42 90 40",
    "source:geometry:date": "2014-11-06",
    "source:geometry:ref": "Gbg/4453906",
    "tourism": "information",
    "website": "https://www.natuurpunt.be/afdelingen/bezoekerscentrum-uitkerkse-polder",
    "id": "way/344376787",
    "_lat": "51.29116965",
    "_lon": "3.1369005",
    "_layer": "visitor_information_centre",
    "_surface": "265.54020257807355",
    "_surface:ha": "0",
    "_length": "68.94084747336171",
    "_length:km": "0.1",
    "_last_edit:contributor": "WardBeyens",
    "_last_edit:contributor:uid": 10343215,
    "_last_edit:changeset": 107590930,
    "_last_edit:timestamp": "2021-07-07T22:00:23Z",
    "_version_number": 5,
    "_geometry:type": "Polygon",
    "_country": "be"
   },
   "geometry": {
    "type": "Point",
    "coordinates": [
     3.1369005,
     51.29116965
    ]
   },
   "id": "way/344376787"
  },
  {
   "type": "Feature",
   "properties": {
    "addr:housenumber": "32",
    "addr:street": "Driepikkelstraat",
    "information": "visitor_centre",
    "name": "Bezoekerscentrum De Bourgoyen",
    "operator": "Natuurpunt",
    "tourism": "information",
    "website": "https://www.natuurpunt.be/bezoekerscentrum/bezoekerscentrum-de-bourgoyen",
    "id": "node/8902256191",
    "_lat": "51.0669791",
    "_lon": "3.6822671",
    "_layer": "visitor_information_centre",
    "_surface": "0",
    "_surface:ha": "0",
    "_length": "0",
    "_length:km": "0.0",
    "_last_edit:contributor": "WardBeyens",
    "_last_edit:contributor:uid": 10343215,
    "_last_edit:changeset": 107590402,
    "_last_edit:timestamp": "2021-07-07T21:39:51Z",
    "_version_number": 1,
    "_geometry:type": "Point",
    "_country": "be"
   },
   "geometry": {
    "type": "Point",
    "coordinates": [
     3.6822671,
     51.0669791
    ]
   },
   "id": "node/8902256191"
  },
  {
   "type": "Feature",
   "properties": {
    "addr:city": "Muizen",
    "addr:housenumber": "5",
    "addr:postcode": "2812",
    "addr:street": "Muizenhoekstraat",
    "information": "visitor_centre",
    "name": "Bezoekerscentrum Mechels Rivierengebied",
    "opening_hours": "Th 13:30-17:30; Su 13:30-17:30; SH, Sa 13:30-17:30",
    "operator": "Natuurpunt",
    "tourism": "information",
    "website": "https://www.natuurpunt.be/afdelingen/bezoekerscentrum-mechels-rivierengebied",
    "id": "node/3726212504",
    "_lat": "51.0119826",
    "_lon": "4.5202885",
    "_layer": "visitor_information_centre",
    "_surface": "0",
    "_surface:ha": "0",
    "_length": "0",
    "_length:km": "0.0",
    "_last_edit:contributor": "WardBeyens",
    "_last_edit:contributor:uid": 10343215,
    "_last_edit:changeset": 107574416,
    "_last_edit:timestamp": "2021-07-07T15:26:09Z",
    "_version_number": 4,
    "_geometry:type": "Point",
    "_country": "be"
   },
   "geometry": {
    "type": "Point",
    "coordinates": [
     4.5202885,
     51.0119826
    ]
   },
   "id": "node/3726212504"
  },
  {
   "type": "Feature",
   "properties": {
    "addr:housenumber": "60",
    "addr:street": "Lelieboomgaardenstraat",
    "information": "visitor_centre",
    "name": "Bezoekerscentrum De Groene Vallei",
    "operator": "Natuurpunt",
    "tourism": "information",
    "website": "https://www.natuurpunt.be/afdelingen/bezoekerscentrum-groene-vallei",
    "id": "node/4449314508",
    "_lat": "50.9134905",
    "_lon": "4.5729707",
    "_layer": "visitor_information_centre",
    "_surface": "0",
    "_surface:ha": "0",
    "_length": "0",
    "_length:km": "0.0",
    "_last_edit:contributor": "Thierry1030",
    "_last_edit:contributor:uid": 286563,
    "_last_edit:changeset": 119231718,
    "_last_edit:timestamp": "2022-04-02T11:36:53Z",
    "_version_number": 3,
    "_geometry:type": "Point",
    "_country": "be"
   },
   "geometry": {
    "type": "Point",
    "coordinates": [
     4.5729707,
     50.9134905
    ]
   },
   "id": "node/4449314508"
  },
  {
   "type": "Feature",
   "properties": {
    "addr:housenumber": "41",
    "addr:street": "Kolonie",
    "information": "visitor_centre",
    "name": "Bezoekerscentrum Vallei van het Merkske",
    "operator": "Natuurpunt Markvallei",
    "tourism": "information",
    "website": "https://www.natuurpuntmarkvallei.be/bezoekerscentrum-de-klapekster/",
    "id": "node/1737516659",
    "_lat": "51.403811",
    "_lon": "4.8242325",
    "_layer": "visitor_information_centre",
    "_surface": "0",
    "_surface:ha": "0",
    "_length": "0",
    "_length:km": "0.0",
    "_last_edit:contributor": "Drej Oomen",
    "_last_edit:contributor:uid": 11263070,
    "_last_edit:changeset": 108968685,
    "_last_edit:timestamp": "2021-08-01T10:31:23Z",
    "_version_number": 4,
    "_geometry:type": "Point",
    "_country": "be"
   },
   "geometry": {
    "type": "Point",
    "coordinates": [
     4.8242325,
     51.403811
    ]
   },
   "id": "node/1737516659"
  },
  {
   "type": "Feature",
   "properties": {
    "addr:housenumber": "43",
    "addr:street": "Schuurhovenberg",
    "building": "yes",
    "information": "visitor_centre",
    "internet_access": "wlan",
    "internet_access:fee": "customers",
    "name": "Bezoekerscentrum De Liereman",
    "operator": "Natuurpunt",
    "source:geometry:date": "2009-06-24",
    "source:geometry:ref": "Gbg/1134746",
    "tourism": "information",
    "website": "https://www.natuurpunt.be/bezoekerscentrum/landschap-de-liereman-oud-turnhout",
    "wheelchair": "yes",
    "id": "way/180377144",
    "_lat": "51.3273837",
    "_lon": "5.00338245",
    "_layer": "visitor_information_centre",
    "_surface": "686.6561289342271",
    "_surface:ha": "0",
    "_length": "144.51095948921136",
    "_length:km": "0.1",
    "_last_edit:contributor": "Stinus_Clasius",
    "_last_edit:contributor:uid": 1086503,
    "_last_edit:changeset": 119418124,
    "_last_edit:timestamp": "2022-04-07T08:16:22Z",
    "_version_number": 7,
    "_geometry:type": "Polygon",
    "_country": "be"
   },
   "geometry": {
    "type": "Point",
    "coordinates": [
     5.00338245,
     51.3273837
    ]
   },
   "id": "way/180377144"
  },
  {
   "type": "Feature",
   "properties": {
    "addr:city": "Meerhout",
    "addr:housenumber": "7",
    "addr:postcode": "2450",
    "addr:street": "Watermolen",
    "building": "yes",
    "information": "visitor_centre",
    "name": "Bezoekerscentrum Grote Netewoud",
    "operator": "Natuurpunt",
    "tourism": "information",
    "website": "https://www.natuurpunt.be/afdelingen/bezoekerscentrum-grote-netewoud/werking",
    "id": "node/8901374760",
    "_lat": "51.1365934",
    "_lon": "5.0832804",
    "_layer": "visitor_information_centre",
    "_surface": "0",
    "_surface:ha": "0",
    "_length": "0",
    "_length:km": "0.0",
    "_last_edit:contributor": "WardBeyens",
    "_last_edit:contributor:uid": 10343215,
    "_last_edit:changeset": 107574000,
    "_last_edit:timestamp": "2021-07-07T15:19:00Z",
    "_version_number": 2,
    "_geometry:type": "Point",
    "_country": "be"
   },
   "geometry": {
    "type": "Point",
    "coordinates": [
     5.0832804,
     51.1365934
    ]
   },
   "id": "node/8901374760"
  },
  {
   "type": "Feature",
   "properties": {
    "addr:housenumber": "60",
    "addr:street": "Demerstraat",
    "information": "visitor_centre",
    "name": "Bezoekerscentrum Schulensmeer",
    "operator": "Natuurpunt",
    "tourism": "information",
    "website": "https://www.natuurpunt.be/afdelingen/bezoekerscentrum-schulensmeer",
    "id": "node/1991887092",
    "_lat": "50.9631616",
    "_lon": "5.1466271",
    "_layer": "visitor_information_centre",
    "_surface": "0",
    "_surface:ha": "0",
    "_length": "0",
    "_length:km": "0.0",
    "_last_edit:contributor": "WardBeyens",
    "_last_edit:contributor:uid": 10343215,
    "_last_edit:changeset": 107590086,
    "_last_edit:timestamp": "2021-07-07T21:28:16Z",
    "_version_number": 3,
    "_geometry:type": "Point",
    "_country": "be"
   },
   "geometry": {
    "type": "Point",
    "coordinates": [
     5.1466271,
     50.9631616
    ]
   },
   "id": "node/1991887092"
  },
  {
   "type": "Feature",
   "properties": {
    "addr:city": "Beringen",
    "addr:housenumber": "7",
    "addr:postcode": "3582",
    "addr:street": "Grauwe steenstraat",
    "amenity": "community_centre",
    "building": "yes",
    "information": "visitor_centre",
    "name": "Bezoekerscentrum De Watersnip",
    "operator": "Natuurpunt",
    "tourism": "information",
    "website": "https://www.natuurpunt.be/bezoekerscentrum/bezoekerscentrum-de-watersnip",
    "id": "way/97688885",
    "_lat": "51.0801651",
    "_lon": "5.3257136",
    "_layer": "visitor_information_centre",
    "_surface": "1769.091278297114",
    "_surface:ha": "0.1",
    "_length": "218.18674791649897",
    "_length:km": "0.2",
    "_last_edit:contributor": "WardBeyens",
    "_last_edit:contributor:uid": 10343215,
    "_last_edit:changeset": 107589859,
    "_last_edit:timestamp": "2021-07-07T21:18:31Z",
    "_version_number": 8,
    "_geometry:type": "Polygon",
    "_country": "be"
   },
   "geometry": {
    "type": "Point",
    "coordinates": [
     5.3257136,
     51.0801651
    ]
   },
   "id": "way/97688885"
  },
  {
   "type": "Feature",
   "properties": {
    "addr:housenumber": "10",
    "addr:postcode": "3910",
    "addr:street": "Tussenstraat",
    "alt_name": "Bezoekerscentrum De Wulp",
    "amenity": "community_centre",
    "building": "house",
    "information": "visitor_centre",
    "name": "Bezoekerscentrum Hageven",
    "opening_hours": "We 13:00-17:00; Sa,Su 14:00-18:00",
    "operator": "Natuurpunt",
    "tourism": "information",
    "website": "https://www.natuurpunt.be/afdelingen/bezoekerscentrum-hageven",
    "id": "way/289082015",
    "_lat": "51.248836749999995",
    "_lon": "5.416430050000001",
    "_layer": "visitor_information_centre",
    "_surface": "323.47229213533893",
    "_surface:ha": "0",
    "_length": "87.17015684612795",
    "_length:km": "0.1",
    "_last_edit:contributor": "WardBeyens",
    "_last_edit:contributor:uid": 10343215,
    "_last_edit:changeset": 107589642,
    "_last_edit:timestamp": "2021-07-07T21:09:00Z",
    "_version_number": 5,
    "_geometry:type": "Polygon",
    "_country": "be"
   },
   "geometry": {
    "type": "Point",
    "coordinates": [
     5.416430050000001,
     51.248836749999995
    ]
   },
   "id": "way/289082015"
  },
  {
   "type": "Feature",
   "properties": {
    "addr:housenumber": "112",
    "addr:street": "Putvennestraat",
    "information": "visitor_centre",
    "name": "Bezoekerscentrum Kiewit",
    "operator": "Natuurpunt",
    "tourism": "information",
    "website": "https://www.natuurpunt.be/bezoekerscentrum/bezoekerscentrum-kiewit",
    "id": "node/7288580851",
    "_lat": "50.9606521",
    "_lon": "5.3767642",
    "_layer": "visitor_information_centre",
    "_surface": "0",
    "_surface:ha": "0",
    "_length": "0",
    "_length:km": "0.0",
    "_last_edit:contributor": "WardBeyens",
    "_last_edit:contributor:uid": 10343215,
    "_last_edit:changeset": 107576794,
    "_last_edit:timestamp": "2021-07-07T16:07:30Z",
    "_version_number": 2,
    "_geometry:type": "Point",
    "_country": "be"
   },
   "geometry": {
    "type": "Point",
    "coordinates": [
     5.3767642,
     50.9606521
    ]
   },
   "id": "node/7288580851"
  }
 ]
}