{
 "type": "FeatureCollection",
 "features": [
  {
   "type": "Feature",
   "id": "node/3693682026",
   "properties": {
    "addr:city": "Terlanen",
    "addr:housenumber": "1",
    "addr:postcode": "3090",
    "addr:street": "Bollestraat",
    "amenity": "pub",
    "brewery": "Palm",
    "drinking_water": "yes",
    "name": "'t Klein Verzet",
    "opening_hours": "Th- Su 10:00-22:00",
    "outdoor_seating": "yes",
    "smoking": "outside",
    "website": "https://www.tkleinverzet.vlaanderen",
    "id": "node/3693682026",
    "_lat": "50.7699175",
    "_lon": "4.6037008",
    "_layer": "drinking_water",
    "_surface": "0",
    "_surface:ha": "0",
    "_length": "0",
    "_length:km": "0.0",
    "_last_edit:contributor": "Tuur Jena",
    "_last_edit:contributor:uid": 10072061,
    "_last_edit:changeset": 90485756,
    "_last_edit:timestamp": "2020-09-06T16:10:03Z",
    "_version_number": 8,
    "_geometry:type": "Point",
    "_country": "be",
    "_closest_other_drinking_water": "{\"id\":\"way/810476785\",\"distance\":\"24.579922603027573\"}",
    "_closest_other_drinking_water_id": "way/810476785",
    "_closest_other_drinking_water_distance": "24"
   },
   "geometry": {
    "type": "Point",
    "coordinates": [
     4.6037008,
     50.7699175
    ]
   },
   "_lon": 4.6037008,
   "_lat": 50.7699175,
   "_is_patched": true
  }
 ]
}