{
  "version": 0.6,
  "generator": "Overpass API 0.7.56.8 7d656e78",
  "osm3s": {
    "timestamp_osm_base": "2021-12-11T04:28:14Z",
    "copyright": "The data included in this document is from www.openstreetmap.org. The data is made available under ODbL."
  },
  "elements": [
    {
      "type": "node",
      "id": 289172951,
      "lat": 51.418037,
      "lon": 4.4188698,
      "tags": {
        "amenity": "parking",
        "capacity": "10",
        "name": "NOORD",
        "surface": "ground"
      }
    },
    {
      "type": "node",
      "id": 1247247091,
      "lat": 51.412151,
      "lon": 4.4806458,
      "tags": {
        "amenity": "bench"
      }
    },
    {
      "type": "node",
      "id": 1359948660,
      "lat": 51.4109025,
      "lon": 4.4346825,
      "tags": {
        "amenity": "bench",
        "backrest": "yes",
        "check_date": "2021-01-03"
      }
    },
    {
      "type": "node",
      "id": 2328471981,
      "lat": 51.4009473,
      "lon": 4.455626,
      "tags": {
        "amenity": "bench"
      }
    },
    {
      "type": "node",
      "id": 2346538010,
      "lat": 51.4190711,
      "lon": 4.4401439,
      "tags": {
        "amenity": "bench"
      }
    },
    {
      "type": "node",
      "id": 2494283176,
      "lat": 51.4359521,
      "lon": 4.4558645,
      "tags": {
        "board_type": "nature",
        "description": "Stuifzandduinen of zandduinen",
        "information": "board",
        "tourism": "information"
      }
    },
    {
      "type": "node",
      "id": 2494283178,
      "lat": 51.4367402,
      "lon": 4.4513839,
      "tags": {
        "amenity": "bench",
        "backrest": "yes"
      }
    },
    {
      "type": "node",
      "id": 2494283179,
      "lat": 51.4366004,
      "lon": 4.4554758,
      "tags": {
        "board_type": "nature",
        "description": "De wereld rond",
        "information": "board",
        "tourism": "information"
      }
    },
    {
      "type": "node",
      "id": 2494283180,
      "lat": 51.4368128,
      "lon": 4.4559528,
      "tags": {
        "board_type": "nature",
        "check_date": "2021-04-08",
        "description": "Corsikaanse den",
        "information": "board",
        "tourism": "information"
      }
    },
    {
      "type": "node",
      "id": 2494283181,
      "lat": 51.4371934,
      "lon": 4.4518104,
      "tags": {
        "board_type": "nature",
        "description": "De Beuk",
        "information": "board",
        "tourism": "information"
      }
    },
    {
      "type": "node",
      "id": 2494283182,
      "lat": 51.4377987,
      "lon": 4.4557626,
      "tags": {
        "board_type": "nature",
        "check_date": "2021-04-08",
        "description": "Het naaldhout en zijn bewoners",
        "information": "board",
        "tourism": "information"
      }
    },
    {
      "type": "node",
      "id": 2494283183,
      "lat": 51.4384028,
      "lon": 4.4553257,
      "tags": {
        "board_type": "nature",
        "check_date": "2021-04-08",
        "description": "De douglas",
        "information": "board",
        "tourism": "information"
      }
    },
    {
      "type": "node",
      "id": 2494283184,
      "lat": 51.4385205,
      "lon": 4.4513413,
      "tags": {
        "board_type": "nature",
        "description": "Spontane Bosontwikkeling",
        "information": "board",
        "tourism": "information"
      }
    },
    {
      "type": "node",
      "id": 2494283185,
      "lat": 51.4386649,
      "lon": 4.4536092,
      "tags": {
        "board_type": "nature",
        "description": "Bladeren kleuren het bos",
        "information": "board",
        "tourism": "information"
      }
    },
    {
      "type": "node",
      "id": 2494283186,
      "lat": 51.4387931,
      "lon": 4.4535281,
      "tags": {
        "amenity": "bench",
        "backrest": "yes"
      }
    },
    {
      "type": "node",
      "id": 2494283187,
      "lat": 51.4388527,
      "lon": 4.4537552,
      "tags": {
        "board_type": "nature",
        "description": "De lork",
        "information": "board",
        "tourism": "information"
      }
    },
    {
      "type": "node",
      "id": 2494283188,
      "lat": 51.4390061,
      "lon": 4.4509556,
      "tags": {
        "board_type": "nature",
        "description": "De bosrand",
        "information": "board",
        "tourism": "information"
      }
    },
    {
      "type": "node",
      "id": 2494283189,
      "lat": 51.439332,
      "lon": 4.4508577,
      "tags": {
        "board_type": "nature",
        "check_date": "2021-04-08",
        "description": "De rhodondendron",
        "information": "board",
        "tourism": "information"
      }
    },
    {
      "type": "node",
      "id": 2494283190,
      "lat": 51.4394364,
      "lon": 4.4539468,
      "tags": {
        "board_type": "nature",
        "check_date": "2021-04-08",
        "description": "Bramen, een stekelige rijkdom",
        "information": "board",
        "tourism": "information"
      }
    },
    {
      "type": "node",
      "id": 2494283191,
      "lat": 51.4399427,
      "lon": 4.45121,
      "tags": {
        "board_type": "nature",
        "description": "Levende Doden",
        "information": "board",
        "tourism": "information"
      }
    },
    {
      "type": "node",
      "id": 2494283192,
      "lat": 51.4399886,
      "lon": 4.4534798,
      "tags": {
        "board_type": "nature",
        "check_date": "2021-04-08",
        "description": "Inheems of uitheems",
        "information": "board",
        "tourism": "information"
      }
    },
    {
      "type": "node",
      "id": 2494283193,
      "lat": 51.4407981,
      "lon": 4.452254,
      "tags": {
        "board_type": "nature",
        "description": "Ree",
        "information": "board",
        "tourism": "information"
      }
    },
    {
      "type": "node",
      "id": 2494283195,
      "lat": 51.4410142,
      "lon": 4.4524417,
      "tags": {
        "amenity": "bench",
        "backrest": "yes"
      }
    },
    {
      "type": "node",
      "id": 3783446254,
      "lat": 51.4020983,
      "lon": 4.4454102,
      "tags": {
        "amenity": "bench"
      }
    },
    {
      "type": "node",
      "id": 3783446255,
      "lat": 51.4016196,
      "lon": 4.445176,
      "tags": {
        "amenity": "bench"
      }
    },
    {
      "type": "node",
      "id": 3783446256,
      "lat": 51.4027198,
      "lon": 4.4412563,
      "tags": {
        "amenity": "bench",
        "backrest": "yes",
        "material": "wood",
        "seats": "5"
      }
    },
    {
      "type": "node",
      "id": 3938196688,
      "lat": 51.4222998,
      "lon": 4.4649758,
      "tags": {
        "leisure": "picnic_table"
      }
    },
    {
      "type": "node",
      "id": 3944578651,
      "lat": 51.4326743,
      "lon": 4.4607143,
      "tags": {
        "leisure": "picnic_table"
      }
    },
    {
      "type": "node",
      "id": 3958448918,
      "lat": 51.4074605,
      "lon": 4.4662432,
      "tags": {
        "leisure": "picnic_table"
      }
    },
    {
      "type": "node",
      "id": 3964432227,
      "lat": 51.4537122,
      "lon": 4.4812683,
      "tags": {
        "leisure": "picnic_table"
      }
    },
    {
      "type": "node",
      "id": 3964432230,
      "lat": 51.4345442,
      "lon": 4.4790782,
      "tags": {
        "leisure": "picnic_table"
      }
    },
    {
      "type": "node",
      "id": 5810451636,
      "lat": 51.437167,
      "lon": 4.4732621,
      "tags": {
        "amenity": "bench",
        "backrest": "yes"
      }
    },
    {
      "type": "node",
      "id": 6400060764,
      "lat": 51.4456537,
      "lon": 4.4096636,
      "tags": {
        "amenity": "bench"
      }
    },
    {
      "type": "node",
      "id": 6400060765,
      "lat": 51.4456872,
      "lon": 4.40974,
      "tags": {
        "amenity": "bench"
      }
    },
    {
      "type": "node",
      "id": 6400072195,
      "lat": 51.4459542,
      "lon": 4.4099298,
      "tags": {
        "amenity": "bench"
      }
    },
    {
      "type": "node",
      "id": 6400082474,
      "lat": 51.4462677,
      "lon": 4.4109477,
      "tags": {
        "leisure": "picnic_table"
      }
    },
    {
      "type": "node",
      "id": 6515180860,
      "lat": 51.4027612,
      "lon": 4.4412756,
      "tags": {
        "amenity": "bench",
        "backrest": "yes",
        "material": "wood",
        "seats": "3"
      }
    },
    {
      "type": "node",
      "id": 7853713924,
      "lat": 51.4530446,
      "lon": 4.4447836,
      "tags": {
        "amenity": "bench",
        "backrest": "yes"
      }
    },
    {
      "type": "node",
      "id": 7880600610,
      "lat": 51.4498058,
      "lon": 4.4751784,
      "tags": {
        "leisure": "picnic_table"
      }
    },
    {
      "type": "node",
      "id": 7880600611,
      "lat": 51.4494965,
      "lon": 4.4752092,
      "tags": {
        "leisure": "picnic_table"
      }
    },
    {
      "type": "node",
      "id": 7880600612,
      "lat": 51.4493672,
      "lon": 4.4753926,
      "tags": {
        "board_type": "nature",
        "information": "board",
        "name": "’t Spijkerbroekje",
        "tourism": "information"
      }
    },
    {
      "type": "node",
      "id": 7930515859,
      "lat": 51.450378,
      "lon": 4.4265994,
      "tags": {
        "amenity": "bench",
        "backrest": "yes"
      }
    },
    {
      "type": "node",
      "id": 7955891906,
      "lat": 51.4332468,
      "lon": 4.4599332,
      "tags": {
        "board_type": "nature",
        "information": "board",
        "name": "Achterste en Wildertse Duintjes",
        "operator": "Agentschap voor Natuur en Bos",
        "tourism": "information"
      }
    },
    {
      "type": "node",
      "id": 7968964673,
      "lat": 51.4474811,
      "lon": 4.4453414,
      "tags": {
        "amenity": "bench"
      }
    },
    {
      "type": "node",
      "id": 7968964675,
      "lat": 51.4476351,
      "lon": 4.4450959,
      "tags": {
        "amenity": "bench"
      }
    },
    {
      "type": "node",
      "id": 7969053994,
      "lat": 51.4467787,
      "lon": 4.4431161,
      "tags": {
        "amenity": "bench"
      }
    },
    {
      "type": "node",
      "id": 7969053995,
      "lat": 51.4467365,
      "lon": 4.443112,
      "tags": {
        "amenity": "bench"
      }
    },
    {
      "type": "node",
      "id": 7972698060,
      "lat": 51.4391325,
      "lon": 4.4679739,
      "tags": {
        "amenity": "bench"
      }
    },
    {
      "type": "node",
      "id": 7972698061,
      "lat": 51.439116,
      "lon": 4.4679536,
      "tags": {
        "board_type": "history",
        "information": "board",
        "name": "Alfons Tireliren, Rose Gronon",
        "tourism": "information"
      }
    },
    {
      "type": "node",
      "id": 7997582529,
      "lat": 51.4480513,
      "lon": 4.4160188,
      "tags": {
        "amenity": "bench",
        "backrest": "yes"
      }
    },
    {
      "type": "node",
      "id": 7997582530,
      "lat": 51.4448314,
      "lon": 4.424611,
      "tags": {
        "amenity": "bench",
        "backrest": "yes"
      }
    },
    {
      "type": "node",
      "id": 8016436291,
      "lat": 51.4291443,
      "lon": 4.4398277,
      "tags": {
        "amenity": "bench",
        "backrest": "yes"
      }
    },
    {
      "type": "node",
      "id": 8016555588,
      "lat": 51.4273413,
      "lon": 4.4711508,
      "tags": {
        "amenity": "bench"
      }
    },
    {
      "type": "node",
      "id": 8016555589,
      "lat": 51.4273238,
      "lon": 4.4711737,
      "tags": {
        "amenity": "bench"
      }
    },
    {
      "type": "node",
      "id": 8016555590,
      "lat": 51.4272716,
      "lon": 4.4710514,
      "tags": {
        "amenity": "bench"
      }
    },
    {
      "type": "node",
      "id": 8037586610,
      "lat": 51.4529869,
      "lon": 4.4505402,
      "tags": {
        "amenity": "bench",
        "backrest": "yes"
      }
    },
    {
      "type": "node",
      "id": 8044594646,
      "lat": 51.426548,
      "lon": 4.4619875,
      "tags": {
        "amenity": "bench"
      }
    },
    {
      "type": "node",
      "id": 8068637127,
      "lat": 51.4375597,
      "lon": 4.432895,
      "tags": {
        "amenity": "bench",
        "backrest": "yes",
        "material": "wood"
      }
    },
    {
      "type": "node",
      "id": 8068637128,
      "lat": 51.4375464,
      "lon": 4.4330167,
      "tags": {
        "amenity": "bench",
        "backrest": "yes",
        "material": "wood"
      }
    },
    {
      "type": "node",
      "id": 8068637137,
      "lat": 51.4392114,
      "lon": 4.4334693,
      "tags": {
        "board_type": "nature",
        "information": "board",
        "name": "Welkom in de kloostertuin",
        "tourism": "information"
      }
    },
    {
      "type": "node",
      "id": 8068637169,
      "lat": 51.4365701,
      "lon": 4.4324332,
      "tags": {
        "amenity": "bench",
        "backrest": "yes",
        "material": "wood"
      }
    },
    {
      "type": "node",
      "id": 8068637172,
      "lat": 51.4360593,
      "lon": 4.4311321,
      "tags": {
        "amenity": "bench",
        "backrest": "no"
      }
    },
    {
      "type": "node",
      "id": 8068637173,
      "lat": 51.4360132,
      "lon": 4.4311197,
      "tags": {
        "amenity": "bench",
        "backrest": "no"
      }
    },
    {
      "type": "node",
      "id": 8068663696,
      "lat": 51.4379606,
      "lon": 4.4326065,
      "tags": {
        "amenity": "bench",
        "backrest": "yes",
        "material": "wood"
      }
    },
    {
      "type": "node",
      "id": 8068663757,
      "lat": 51.4397948,
      "lon": 4.4320741,
      "tags": {
        "amenity": "bench",
        "backrest": "no"
      }
    },
    {
      "type": "node",
      "id": 8068663758,
      "lat": 51.4398142,
      "lon": 4.4320513,
      "tags": {
        "amenity": "bench",
        "backrest": "no"
      }
    },
    {
      "type": "node",
      "id": 8068663759,
      "lat": 51.4397999,
      "lon": 4.4320243,
      "tags": {
        "amenity": "bench",
        "backrest": "no"
      }
    },
    {
      "type": "node",
      "id": 8068663760,
      "lat": 51.4397818,
      "lon": 4.432045,
      "tags": {
        "amenity": "bench",
        "backrest": "no"
      }
    },
    {
      "type": "node",
      "id": 8084938844,
      "lat": 51.4280966,
      "lon": 4.4389867,
      "tags": {
        "amenity": "bench"
      }
    },
    {
      "type": "node",
      "id": 8090856578,
      "lat": 51.4362964,
      "lon": 4.4781345,
      "tags": {
        "board_type": "nature",
        "information": "board",
        "name": "Waterconservering",
        "operator": "Regionaal Landschap De Voorkempen",
        "tourism": "information"
      }
    },
    {
      "type": "node",
      "id": 8107756468,
      "lat": 51.431018,
      "lon": 4.4643991,
      "tags": {
        "amenity": "bench",
        "backrest": "no",
        "material": "wood"
      }
    },
    {
      "type": "node",
      "id": 8107756469,
      "lat": 51.4320752,
      "lon": 4.4729666,
      "tags": {
        "amenity": "bench",
        "backrest": "yes",
        "material": "wood"
      }
    },
    {
      "type": "node",
      "id": 8107787800,
      "lat": 51.4381429,
      "lon": 4.4650167,
      "tags": {
        "amenity": "bench",
        "backrest": "yes",
        "material": "wood"
      }
    },
    {
      "type": "node",
      "id": 8107848724,
      "lat": 51.4281039,
      "lon": 4.4688796,
      "tags": {
        "amenity": "bench"
      }
    },
    {
      "type": "node",
      "id": 8107848725,
      "lat": 51.4280863,
      "lon": 4.4683096,
      "tags": {
        "amenity": "bench"
      }
    },
    {
      "type": "node",
      "id": 8108331291,
      "lat": 51.4253167,
      "lon": 4.4655079,
      "tags": {
        "amenity": "bench",
        "backrest": "no"
      }
    },
    {
      "type": "node",
      "id": 8108331296,
      "lat": 51.4257074,
      "lon": 4.4674438,
      "tags": {
        "amenity": "bench"
      }
    },
    {
      "type": "node",
      "id": 8108331297,
      "lat": 51.4252866,
      "lon": 4.4675149,
      "tags": {
        "amenity": "bench"
      }
    },
    {
      "type": "node",
      "id": 8120563515,
      "lat": 51.4274649,
      "lon": 4.4601013,
      "tags": {
        "amenity": "bench"
      }
    },
    {
      "type": "node",
      "id": 8120563516,
      "lat": 51.4273878,
      "lon": 4.4601496,
      "tags": {
        "amenity": "bench"
      }
    },
    {
      "type": "node",
      "id": 8120607451,
      "lat": 51.4270176,
      "lon": 4.4594227,
      "tags": {
        "amenity": "bench"
      }
    },
    {
      "type": "node",
      "id": 8120607452,
      "lat": 51.4272291,
      "lon": 4.4598239,
      "tags": {
        "amenity": "bench"
      }
    },
    {
      "type": "node",
      "id": 8121162274,
      "lat": 51.4237269,
      "lon": 4.4556689,
      "tags": {
        "amenity": "bench"
      }
    },
    {
      "type": "node",
      "id": 8121162275,
      "lat": 51.4237369,
      "lon": 4.4555707,
      "tags": {
        "amenity": "bench"
      }
    },
    {
      "type": "node",
      "id": 8121162276,
      "lat": 51.4247419,
      "lon": 4.4544387,
      "tags": {
        "amenity": "bench"
      }
    },
    {
      "type": "node",
      "id": 8121188455,
      "lat": 51.4266246,
      "lon": 4.4567118,
      "tags": {
        "amenity": "bench",
        "backrest": "yes",
        "material": "wood"
      }
    },
    {
      "type": "node",
      "id": 8137785910,
      "lat": 51.4530831,
      "lon": 4.4053629,
      "tags": {
        "amenity": "bench",
        "backrest": "yes",
        "material": "steel",
        "seats": "3"
      }
    },
    {
      "type": "node",
      "id": 8137864675,
      "lat": 51.4499252,
      "lon": 4.4109907,
      "tags": {
        "amenity": "bench",
        "backrest": "yes"
      }
    },
    {
      "type": "node",
      "id": 8139203498,
      "lat": 51.4469367,
      "lon": 4.4097507,
      "tags": {
        "amenity": "bench",
        "backrest": "yes"
      }
    },
    {
      "type": "node",
      "id": 8139543910,
      "lat": 51.4462824,
      "lon": 4.4110812,
      "tags": {
        "amenity": "bench"
      }
    },
    {
      "type": "node",
      "id": 8149597034,
      "lat": 51.4496296,
      "lon": 4.4469533,
      "tags": {
        "amenity": "bench",
        "backrest": "yes"
      }
    },
    {
      "type": "node",
      "id": 8150950849,
      "lat": 51.4501743,
      "lon": 4.4523428,
      "tags": {
        "amenity": "bench",
        "backrest": "no"
      }
    },
    {
      "type": "node",
      "id": 8164930864,
      "lat": 51.4462442,
      "lon": 4.4120026,
      "tags": {
        "amenity": "bench",
        "backrest": "yes"
      }
    },
    {
      "type": "node",
      "id": 8165138847,
      "lat": 51.4417514,
      "lon": 4.4022457,
      "tags": {
        "amenity": "bench",
        "backrest": "yes"
      }
    },
    {
      "type": "node",
      "id": 8176260576,
      "lat": 51.4456253,
      "lon": 4.4100023,
      "tags": {
        "amenity": "bench",
        "backrest": "yes"
      }
    },
    {
      "type": "node",
      "id": 8176260577,
      "lat": 51.445314,
      "lon": 4.4098852,
      "tags": {
        "amenity": "bench",
        "backrest": "yes"
      }
    },
    {
      "type": "node",
      "id": 8187589683,
      "lat": 51.4389137,
      "lon": 4.4519628,
      "tags": {
        "board_type": "nature",
        "information": "board",
        "name": "Retentiebekken Bergenven",
        "tourism": "information"
      }
    },
    {
      "type": "node",
      "id": 8210282448,
      "lat": 51.4328404,
      "lon": 4.4542822,
      "tags": {
        "amenity": "bench",
        "backrest": "yes"
      }
    },
    {
      "type": "node",
      "id": 8210282449,
      "lat": 51.432636,
      "lon": 4.4537999,
      "tags": {
        "amenity": "bench",
        "backrest": "yes"
      }
    },
    {
      "type": "node",
      "id": 8210282469,
      "lat": 51.4331331,
      "lon": 4.4593548,
      "tags": {
        "amenity": "bench",
        "backrest": "yes"
      }
    },
    {
      "type": "node",
      "id": 8210282470,
      "lat": 51.4327979,
      "lon": 4.4564361,
      "tags": {
        "amenity": "bench",
        "backrest": "yes"
      }
    },
    {
      "type": "node",
      "id": 8429390103,
      "lat": 51.4333461,
      "lon": 4.4576955,
      "tags": {
        "amenity": "bench",
        "backrest": "yes"
      }
    },
    {
      "type": "node",
      "id": 8429390104,
      "lat": 51.4337168,
      "lon": 4.4578029,
      "tags": {
        "amenity": "bench",
        "backrest": "yes"
      }
    },
    {
      "type": "node",
      "id": 8728930817,
      "lat": 51.4139547,
      "lon": 4.4429354,
      "tags": {
        "amenity": "bench"
      }
    },
    {
      "type": "node",
      "id": 8769394487,
      "lat": 51.4092874,
      "lon": 4.3975213,
      "tags": {
        "amenity": "bench",
        "backrest": "yes",
        "material": "wood"
      }
    },
    {
      "type": "node",
      "id": 8919437674,
      "lat": 51.4375122,
      "lon": 4.433337,
      "tags": {
        "leisure": "picnic_table"
      }
    },
    {
      "type": "node",
      "id": 9062457650,
      "lat": 51.4484432,
      "lon": 4.445345,
      "tags": {
        "amenity": "bench"
      }
    },
    {
      "type": "node",
      "id": 9227199386,
      "lat": 51.4084981,
      "lon": 4.447357,
      "tags": {
        "amenity": "bench",
        "backrest": "yes"
      }
    },
    {
      "type": "way",
      "id": 35214597,
      "nodes": [
        412951733,
        412951734,
        412951735,
        412951736,
        1246797241,
        412951733
      ],
      "tags": {
        "access": "yes",
        "amenity": "parking",
        "capacity": "40",
        "fee": "no",
        "name": "ZUID",
        "parking": "surface",
        "surface": "ground"
      }
    },
    {
      "type": "way",
      "id": 49158466,
      "nodes": [
        623565208,
        623565209,
        623565210,
        623565208
      ],
      "tags": {
        "amenity": "parking"
      }
    },
    {
      "type": "way",
      "id": 390659218,
      "nodes": [
        3938196701,
        3938196702,
        3938196703,
        5196298641,
        3938196704,
        3938196705,
        5196298640,
        3938196701
      ],
      "tags": {
        "access": "yes",
        "amenity": "parking",
        "fee": "no",
        "parking": "surface"
      }
    },
    {
      "type": "way",
      "id": 509273222,
      "nodes": [
        8107848739,
        5095384535,
        8107848740,
        8107848741,
        5095384531,
        5095384536,
        5095358742,
        4985237393,
        4985237394,
        8107848742,
        8107848743,
        5095358744,
        5095384534,
        5095384532,
        5095384533,
        8107848744,
        8107848746,
        8107848747,
        8107848745,
        8107848739
      ],
      "tags": {
        "amenity": "parking",
        "parking": "surface"
      }
    },
    {
      "type": "way",
      "id": 509273223,
      "nodes": [
        4985158611,
        4985237400,
        4985237401,
        4985237402,
        4985237403,
        4985237404,
        4985158611
      ],
      "tags": {
        "amenity": "parking",
        "parking": "surface"
      }
    },
    {
      "type": "way",
      "id": 848826099,
      "nodes": [
        7919878546,
        7919878547,
        7919878548,
        7919878549,
        7919878546
      ],
      "tags": {
        "amenity": "parking"
      }
    },
    {
      "type": "way",
      "id": 850166008,
      "nodes": [
        7931646155,
        7931646156,
        7931646157,
        7931646153,
        7931646155
      ],
      "tags": {
        "amenity": "parking"
      }
    },
    {
      "type": "way",
      "id": 851662747,
      "nodes": [
        7943318578,
        7943318561,
        7943318562,
        7943318563,
        7943318578
      ],
      "tags": {
        "amenity": "parking"
      }
    },
    {
      "type": "way",
      "id": 851768376,
      "nodes": [
        7944441130,
        7944441131,
        891074937,
        7944441129,
        7944441143,
        7944441130
      ],
      "tags": {
        "access": "customers",
        "amenity": "parking"
      }
    },
    {
      "type": "way",
      "id": 851768377,
      "nodes": [
        7944441132,
        7944441133,
        7944441141,
        7944441140,
        7944441134,
        7944441135,
        7944441132
      ],
      "tags": {
        "access": "customers",
        "amenity": "parking"
      }
    },
    {
      "type": "way",
      "id": 852017302,
      "nodes": [
        7947556866,
        1359428678,
        7947556868,
        7947556869,
        7947556870,
        7947556871,
        7947556866
      ],
      "tags": {
        "amenity": "parking"
      }
    },
    {
      "type": "way",
      "id": 854535246,
      "nodes": [
        7968993278,
        7968993279,
        7968993280,
        7968993281,
        7968996700,
        7968993282,
        7968993283,
        7968993278
      ],
      "tags": {
        "access": "customers",
        "amenity": "parking"
      }
    },
    {
      "type": "way",
      "id": 863565906,
      "nodes": [
        8044576738,
        4625937933,
        8044576739,
        8044576740,
        8044576738
      ],
      "tags": {
        "amenity": "parking"
      }
    },
    {
      "type": "way",
      "id": 865634876,
      "nodes": [
        8068663702,
        8068663703,
        8068663704,
        8068663705,
        8068663702
      ],
      "tags": {
        "amenity": "parking",
        "parking": "street_side"
      }
    },
    {
      "type": "way",
      "id": 870301650,
      "nodes": [
        8107848735,
        8107848736,
        8107848737,
        8107848738,
        8107848735
      ],
      "tags": {
        "access": "customers",
        "amenity": "parking"
      }
    },
    {
      "type": "way",
      "id": 870388296,
      "nodes": [
        8108386192,
        8108386193,
        8108386194,
        8108386195,
        8108386192
      ],
      "tags": {
        "amenity": "parking"
      }
    },
    {
      "type": "way",
      "id": 874327444,
      "nodes": [
        8139203487,
        8139203496,
        8139203489,
        8139203488,
        8139203487
      ],
      "tags": {
        "amenity": "parking"
      }
    },
    {
      "type": "way",
      "id": 874327445,
      "nodes": [
        8139203484,
        8139203485,
        8139203497,
        8139203492,
        8139203484
      ],
      "tags": {
        "amenity": "parking"
      }
    },
    {
      "type": "way",
      "id": 874327446,
      "nodes": [
        8139203501,
        8139203502,
        8139203503,
        8139203504,
        8139203501
      ],
      "tags": {
        "amenity": "parking"
      }
    },
    {
      "type": "way",
      "id": 874354344,
      "nodes": [
        8139543912,
        8139543913,
        8139543914,
        8139543915,
        8139543912
      ],
      "tags": {
        "amenity": "parking"
      }
    },
    {
      "type": "way",
      "id": 874354345,
      "nodes": [
        8139543916,
        8139629417,
        8139629418,
        8139629419,
        8139543916
      ],
      "tags": {
        "amenity": "parking"
      }
    },
    {
      "type": "way",
      "id": 955344671,
      "nodes": [
        644213154,
        8842124283,
        8842124284,
        644213148,
        644213154
      ],
      "tags": {
        "amenity": "parking"
      }
    },
    {
      "type": "way",
      "id": 984053163,
      "nodes": [
        9098865302,
        9098865303,
        9098865295,
        9098865304,
        9098865305,
        9098865302
      ],
      "tags": {
        "access": "permit",
        "amenity": "parking",
        "parking": "surface"
      }
    },
    {
      "type": "relation",
      "id": 12707453,
      "members": [
        {
          "type": "way",
          "ref": 942686864,
          "role": "outer"
        },
        {
          "type": "way",
          "ref": 942686865,
          "role": "inner"
        },
        {
          "type": "way",
          "ref": 942686866,
          "role": "outer"
        },
        {
          "type": "way",
          "ref": 942686867,
          "role": "outer"
        },
        {
          "type": "way",
          "ref": 942686868,
          "role": "outer"
        },
        {
          "type": "way",
          "ref": 942686870,
          "role": "outer"
        },
        {
          "type": "way",
          "ref": 942686871,
          "role": "outer"
        },
        {
          "type": "way",
          "ref": 942686872,
          "role": "outer"
        },
        {
          "type": "way",
          "ref": 942686873,
          "role": "inner"
        },
        {
          "type": "way",
          "ref": 942686874,
          "role": "outer"
        },
        {
          "type": "way",
          "ref": 942686875,
          "role": "outer"
        },
        {
          "type": "way",
          "ref": 942686876,
          "role": "inner"
        },
        {
          "type": "way",
          "ref": 942686877,
          "role": "inner"
        },
        {
          "type": "way",
          "ref": 942686878,
          "role": "inner"
        },
        {
          "type": "way",
          "ref": 942686879,
          "role": "inner"
        },
        {
          "type": "way",
          "ref": 942686880,
          "role": "inner"
        },
        {
          "type": "way",
          "ref": 942686881,
          "role": "outer"
        },
        {
          "type": "way",
          "ref": 942686882,
          "role": "outer"
        },
        {
          "type": "relation",
          "ref": 12711008,
          "role": "outer"
        }
      ],
      "tags": {
        "OnroerendErfgoed:criteria": "LG",
        "boundary": "protected_area",
        "heritage": "4",
        "heritage:operator": "OnroerendErfgoed",
        "heritage:website": "https://id.erfgoed.net/erfgoedobjecten/135003",
        "leisure": "nature_reserve",
        "name": "Kalmthoutse Heide",
        "natura2000_sitecode": "BE2100015, BE2100323",
        "operator": "Agentschap voor Natuur en Bos, Natuurpunt, particulieren",
        "protect_class": "97",
        "protection_title": "Natura 2000",
        "ref:OnroerendErfgoed": "135003",
        "ref:natura2000": "8",
        "source": "https://www.geopunt.be/;https://www.natura2000.vlaanderen.be/gebied/kalmthoutse-heide",
        "type": "multipolygon",
        "wikidata": "Q18285999",
        "wikipedia": "nl:Kalmthoutse Heide"
      }
    },
    {
      "type": "relation",
      "id": 12711008,
      "members": [
        {
          "type": "way",
          "ref": 942822994,
          "role": "outer"
        }
      ],
      "tags": {
        "leisure": "nature_reserve",
        "name": "Stappersven",
        "operator": "Natuurpunt Beheer v.z.w.",
        "source": "https://www.geopunt.be/",
        "type": "multipolygon",
        "website": "https://www.natuurpunt.be/natuurgebied/stappersven-kalmthoutse-heide"
      }
    },
    {
      "type": "node",
      "id": 289172951,
      "lat": 51.418037,
      "lon": 4.4188698,
      "timestamp": "2020-05-27T14:26:42Z",
      "version": 2,
      "changeset": 85838834,
      "user": "JAHEUK",
      "uid": 1832224,
      "tags": {
        "amenity": "parking",
        "capacity": "10",
        "name": "NOORD",
        "surface": "ground"
      }
    },
    {
      "type": "node",
      "id": 1247247091,
      "lat": 51.412151,
      "lon": 4.4806458,
      "timestamp": "2011-04-16T17:26:04Z",
      "version": 1,
      "changeset": 7880220,
      "user": "ivom",
      "uid": 10613,
      "tags": {
        "amenity": "bench"
      }
    },
    {
      "type": "node",
      "id": 1359948660,
      "lat": 51.4109025,
      "lon": 4.4346825,
      "timestamp": "2021-01-03T09:39:06Z",
      "version": 5,
      "changeset": 96838147,
      "user": "Laurent Peuch",
      "uid": 118718,
      "tags": {
        "amenity": "bench",
        "backrest": "yes",
        "check_date": "2021-01-03"
      }
    },
    {
      "type": "node",
      "id": 2328471981,
      "lat": 51.4009473,
      "lon": 4.455626,
      "timestamp": "2013-06-01T20:27:32Z",
      "version": 1,
      "changeset": 16382950,
      "user": "escada",
      "uid": 436365,
      "tags": {
        "amenity": "bench"
      }
    },
    {
      "type": "node",
      "id": 2346538010,
      "lat": 51.4190711,
      "lon": 4.4401439,
      "timestamp": "2020-10-17T14:29:47Z",
      "version": 2,
      "changeset": 92630512,
      "user": "GeertDD",
      "uid": 2776338,
      "tags": {
        "amenity": "bench"
      }
    },
    {
      "type": "node",
      "id": 2494283176,
      "lat": 51.4359521,
      "lon": 4.4558645,
      "timestamp": "2020-12-09T16:06:08Z",
      "version": 2,
      "changeset": 95564085,
      "user": "GeertDD",
      "uid": 2776338,
      "tags": {
        "board_type": "nature",
        "description": "Stuifzandduinen of zandduinen",
        "information": "board",
        "tourism": "information"
      }
    },
    {
      "type": "node",
      "id": 2494283178,
      "lat": 51.4367402,
      "lon": 4.4513839,
      "timestamp": "2021-10-10T10:28:47Z",
      "version": 3,
      "changeset": 112328008,
      "user": "staf",
      "uid": 377797,
      "tags": {
        "amenity": "bench",
        "backrest": "yes"
      }
    },
    {
      "type": "node",
      "id": 2494283179,
      "lat": 51.4366004,
      "lon": 4.4554758,
      "timestamp": "2013-10-12T20:43:43Z",
      "version": 1,
      "changeset": 18322186,
      "user": "escada",
      "uid": 436365,
      "tags": {
        "board_type": "nature",
        "description": "De wereld rond",
        "information": "board",
        "tourism": "information"
      }
    },
    {
      "type": "node",
      "id": 2494283180,
      "lat": 51.4368128,
      "lon": 4.4559528,
      "timestamp": "2021-04-08T10:23:59Z",
      "version": 2,
      "changeset": 102554105,
      "user": "staf",
      "uid": 377797,
      "tags": {
        "board_type": "nature",
        "check_date": "2021-04-08",
        "description": "Corsikaanse den",
        "information": "board",
        "tourism": "information"
      }
    },
    {
      "type": "node",
      "id": 2494283181,
      "lat": 51.4371934,
      "lon": 4.4518104,
      "timestamp": "2013-10-12T20:43:43Z",
      "version": 1,
      "changeset": 18322186,
      "user": "escada",
      "uid": 436365,
      "tags": {
        "board_type": "nature",
        "description": "De Beuk",
        "information": "board",
        "tourism": "information"
      }
    },
    {
      "type": "node",
      "id": 2494283182,
      "lat": 51.4377987,
      "lon": 4.4557626,
      "timestamp": "2021-04-08T10:26:10Z",
      "version": 2,
      "changeset": 102554105,
      "user": "staf",
      "uid": 377797,
      "tags": {
        "board_type": "nature",
        "check_date": "2021-04-08",
        "description": "Het naaldhout en zijn bewoners",
        "information": "board",
        "tourism": "information"
      }
    },
    {
      "type": "node",
      "id": 2494283183,
      "lat": 51.4384028,
      "lon": 4.4553257,
      "timestamp": "2021-04-08T10:26:11Z",
      "version": 2,
      "changeset": 102554105,
      "user": "staf",
      "uid": 377797,
      "tags": {
        "board_type": "nature",
        "check_date": "2021-04-08",
        "description": "De douglas",
        "information": "board",
        "tourism": "information"
      }
    },
    {
      "type": "node",
      "id": 2494283184,
      "lat": 51.4385205,
      "lon": 4.4513413,
      "timestamp": "2020-12-09T16:06:08Z",
      "version": 3,
      "changeset": 95564085,
      "user": "GeertDD",
      "uid": 2776338,
      "tags": {
        "board_type": "nature",
        "description": "Spontane Bosontwikkeling",
        "information": "board",
        "tourism": "information"
      }
    },
    {
      "type": "node",
      "id": 2494283185,
      "lat": 51.4386649,
      "lon": 4.4536092,
      "timestamp": "2020-09-23T17:18:59Z",
      "version": 2,
      "changeset": 91382939,
      "user": "pointseven",
      "uid": 4355310,
      "tags": {
        "board_type": "nature",
        "description": "Bladeren kleuren het bos",
        "information": "board",
        "tourism": "information"
      }
    },
    {
      "type": "node",
      "id": 2494283186,
      "lat": 51.4387931,
      "lon": 4.4535281,
      "timestamp": "2020-12-09T16:06:08Z",
      "version": 4,
      "changeset": 95564085,
      "user": "GeertDD",
      "uid": 2776338,
      "tags": {
        "amenity": "bench",
        "backrest": "yes"
      }
    },
    {
      "type": "node",
      "id": 2494283187,
      "lat": 51.4388527,
      "lon": 4.4537552,
      "timestamp": "2020-09-23T17:18:59Z",
      "version": 2,
      "changeset": 91382939,
      "user": "pointseven",
      "uid": 4355310,
      "tags": {
        "board_type": "nature",
        "description": "De lork",
        "information": "board",
        "tourism": "information"
      }
    },
    {
      "type": "node",
      "id": 2494283188,
      "lat": 51.4390061,
      "lon": 4.4509556,
      "timestamp": "2020-09-24T13:38:43Z",
      "version": 2,
      "changeset": 91439439,
      "user": "pointseven",
      "uid": 4355310,
      "tags": {
        "board_type": "nature",
        "description": "De bosrand",
        "information": "board",
        "tourism": "information"
      }
    },
    {
      "type": "node",
      "id": 2494283189,
      "lat": 51.439332,
      "lon": 4.4508577,
      "timestamp": "2021-04-08T09:23:04Z",
      "version": 2,
      "changeset": 102548020,
      "user": "staf",
      "uid": 377797,
      "tags": {
        "board_type": "nature",
        "check_date": "2021-04-08",
        "description": "De rhodondendron",
        "information": "board",
        "tourism": "information"
      }
    },
    {
      "type": "node",
      "id": 2494283190,
      "lat": 51.4394364,
      "lon": 4.4539468,
      "timestamp": "2021-04-08T10:31:02Z",
      "version": 2,
      "changeset": 102554105,
      "user": "staf",
      "uid": 377797,
      "tags": {
        "board_type": "nature",
        "check_date": "2021-04-08",
        "description": "Bramen, een stekelige rijkdom",
        "information": "board",
        "tourism": "information"
      }
    },
    {
      "type": "node",
      "id": 2494283191,
      "lat": 51.4399427,
      "lon": 4.45121,
      "timestamp": "2020-09-30T15:37:52Z",
      "version": 2,
      "changeset": 91777443,
      "user": "GeertDD",
      "uid": 2776338,
      "tags": {
        "board_type": "nature",
        "description": "Levende Doden",
        "information": "board",
        "tourism": "information"
      }
    },
    {
      "type": "node",
      "id": 2494283192,
      "lat": 51.4399886,
      "lon": 4.4534798,
      "timestamp": "2021-04-08T10:31:03Z",
      "version": 2,
      "changeset": 102554105,
      "user": "staf",
      "uid": 377797,
      "tags": {
        "board_type": "nature",
        "check_date": "2021-04-08",
        "description": "Inheems of uitheems",
        "information": "board",
        "tourism": "information"
      }
    },
    {
      "type": "node",
      "id": 2494283193,
      "lat": 51.4407981,
      "lon": 4.452254,
      "timestamp": "2020-09-30T15:37:52Z",
      "version": 2,
      "changeset": 91777443,
      "user": "GeertDD",
      "uid": 2776338,
      "tags": {
        "board_type": "nature",
        "description": "Ree",
        "information": "board",
        "tourism": "information"
      }
    },
    {
      "type": "node",
      "id": 2494283195,
      "lat": 51.4410142,
      "lon": 4.4524417,
      "timestamp": "2020-12-09T16:32:40Z",
      "version": 4,
      "changeset": 95565190,
      "user": "GeertDD",
      "uid": 2776338,
      "tags": {
        "amenity": "bench",
        "backrest": "yes"
      }
    },
    {
      "type": "node",
      "id": 3783446254,
      "lat": 51.4020983,
      "lon": 4.4454102,
      "timestamp": "2015-10-12T15:40:15Z",
      "version": 1,
      "changeset": 34593040,
      "user": "Renrew1968",
      "uid": 1112163,
      "tags": {
        "amenity": "bench"
      }
    },
    {
      "type": "node",
      "id": 3783446255,
      "lat": 51.4016196,
      "lon": 4.445176,
      "timestamp": "2015-10-12T15:40:15Z",
      "version": 1,
      "changeset": 34593040,
      "user": "Renrew1968",
      "uid": 1112163,
      "tags": {
        "amenity": "bench"
      }
    },
    {
      "type": "node",
      "id": 3783446256,
      "lat": 51.4027198,
      "lon": 4.4412563,
      "timestamp": "2019-06-01T15:46:46Z",
      "version": 2,
      "changeset": 70838191,
      "user": "open-steet-map-editor",
      "uid": 7434674,
      "tags": {
        "amenity": "bench",
        "backrest": "yes",
        "material": "wood",
        "seats": "5"
      }
    },
    {
      "type": "node",
      "id": 3938196688,
      "lat": 51.4222998,
      "lon": 4.4649758,
      "timestamp": "2016-01-10T20:23:12Z",
      "version": 1,
      "changeset": 36490858,
      "user": "GeertDD",
      "uid": 2776338,
      "tags": {
        "leisure": "picnic_table"
      }
    },
    {
      "type": "node",
      "id": 3944578651,
      "lat": 51.4326743,
      "lon": 4.4607143,
      "timestamp": "2016-01-13T17:51:54Z",
      "version": 1,
      "changeset": 36554973,
      "user": "GeertDD",
      "uid": 2776338,
      "tags": {
        "leisure": "picnic_table"
      }
    },
    {
      "type": "node",
      "id": 3958448918,
      "lat": 51.4074605,
      "lon": 4.4662432,
      "timestamp": "2016-01-21T17:13:04Z",
      "version": 1,
      "changeset": 36724513,
      "user": "GeertDD",
      "uid": 2776338,
      "tags": {
        "leisure": "picnic_table"
      }
    },
    {
      "type": "node",
      "id": 3964432227,
      "lat": 51.4537122,
      "lon": 4.4812683,
      "timestamp": "2020-10-28T15:08:01Z",
      "version": 2,
      "changeset": 93187371,
      "user": "GeertDD",
      "uid": 2776338,
      "tags": {
        "leisure": "picnic_table"
      }
    },
    {
      "type": "node",
      "id": 3964432230,
      "lat": 51.4345442,
      "lon": 4.4790782,
      "timestamp": "2020-10-14T12:53:31Z",
      "version": 2,
      "changeset": 92474534,
      "user": "GeertDD",
      "uid": 2776338,
      "tags": {
        "leisure": "picnic_table"
      }
    },
    {
      "type": "node",
      "id": 5810451636,
      "lat": 51.437167,
      "lon": 4.4732621,
      "timestamp": "2018-08-05T15:08:29Z",
      "version": 1,
      "changeset": 61376340,
      "user": "7Bee",
      "uid": 8596208,
      "tags": {
        "amenity": "bench",
        "backrest": "yes"
      }
    },
    {
      "type": "node",
      "id": 6400060764,
      "lat": 51.4456537,
      "lon": 4.4096636,
      "timestamp": "2019-04-12T07:45:42Z",
      "version": 1,
      "changeset": 69140511,
      "user": "Jakka",
      "uid": 2403313,
      "tags": {
        "amenity": "bench"
      }
    },
    {
      "type": "node",
      "id": 6400060765,
      "lat": 51.4456872,
      "lon": 4.40974,
      "timestamp": "2019-04-12T07:45:42Z",
      "version": 1,
      "changeset": 69140511,
      "user": "Jakka",
      "uid": 2403313,
      "tags": {
        "amenity": "bench"
      }
    },
    {
      "type": "node",
      "id": 6400072195,
      "lat": 51.4459542,
      "lon": 4.4099298,
      "timestamp": "2019-04-12T07:58:31Z",
      "version": 1,
      "changeset": 69140807,
      "user": "Jakka",
      "uid": 2403313,
      "tags": {
        "amenity": "bench"
      }
    },
    {
      "type": "node",
      "id": 6400082474,
      "lat": 51.4462677,
      "lon": 4.4109477,
      "timestamp": "2019-04-12T08:07:16Z",
      "version": 1,
      "changeset": 69141010,
      "user": "Jakka",
      "uid": 2403313,
      "tags": {
        "leisure": "picnic_table"
      }
    },
    {
      "type": "node",
      "id": 6515180860,
      "lat": 51.4027612,
      "lon": 4.4412756,
      "timestamp": "2019-06-01T15:46:46Z",
      "version": 1,
      "changeset": 70838191,
      "user": "open-steet-map-editor",
      "uid": 7434674,
      "tags": {
        "amenity": "bench",
        "backrest": "yes",
        "material": "wood",
        "seats": "3"
      }
    },
    {
      "type": "node",
      "id": 7853713924,
      "lat": 51.4530446,
      "lon": 4.4447836,
      "timestamp": "2020-08-28T13:59:15Z",
      "version": 1,
      "changeset": 90086056,
      "user": "GeertDD",
      "uid": 2776338,
      "tags": {
        "amenity": "bench",
        "backrest": "yes"
      }
    },
    {
      "type": "node",
      "id": 7880600610,
      "lat": 51.4498058,
      "lon": 4.4751784,
      "timestamp": "2020-09-06T09:33:45Z",
      "version": 1,
      "changeset": 90474260,
      "user": "GeertDD",
      "uid": 2776338,
      "tags": {
        "leisure": "picnic_table"
      }
    },
    {
      "type": "node",
      "id": 7880600611,
      "lat": 51.4494965,
      "lon": 4.4752092,
      "timestamp": "2020-09-06T09:33:45Z",
      "version": 1,
      "changeset": 90474260,
      "user": "GeertDD",
      "uid": 2776338,
      "tags": {
        "leisure": "picnic_table"
      }
    },
    {
      "type": "node",
      "id": 7880600612,
      "lat": 51.4493672,
      "lon": 4.4753926,
      "timestamp": "2020-09-06T09:33:45Z",
      "version": 1,
      "changeset": 90474260,
      "user": "GeertDD",
      "uid": 2776338,
      "tags": {
        "board_type": "nature",
        "information": "board",
        "name": "’t Spijkerbroekje",
        "tourism": "information"
      }
    },
    {
      "type": "node",
      "id": 7930515859,
      "lat": 51.450378,
      "lon": 4.4265994,
      "timestamp": "2021-09-18T11:39:00Z",
      "version": 2,
      "changeset": 111372087,
      "user": "alazeo",
      "uid": 8657522,
      "tags": {
        "amenity": "bench",
        "backrest": "yes"
      }
    },
    {
      "type": "node",
      "id": 7955891906,
      "lat": 51.4332468,
      "lon": 4.4599332,
      "timestamp": "2020-12-09T16:06:08Z",
      "version": 3,
      "changeset": 95564085,
      "user": "GeertDD",
      "uid": 2776338,
      "tags": {
        "board_type": "nature",
        "information": "board",
        "name": "Achterste en Wildertse Duintjes",
        "operator": "Agentschap voor Natuur en Bos",
        "tourism": "information"
      }
    },
    {
      "type": "node",
      "id": 7968964673,
      "lat": 51.4474811,
      "lon": 4.4453414,
      "timestamp": "2020-10-03T15:15:27Z",
      "version": 1,
      "changeset": 91905831,
      "user": "GeertDD",
      "uid": 2776338,
      "tags": {
        "amenity": "bench"
      }
    },
    {
      "type": "node",
      "id": 7968964675,
      "lat": 51.4476351,
      "lon": 4.4450959,
      "timestamp": "2020-10-03T15:15:27Z",
      "version": 1,
      "changeset": 91905831,
      "user": "GeertDD",
      "uid": 2776338,
      "tags": {
        "amenity": "bench"
      }
    },
    {
      "type": "node",
      "id": 7969053994,
      "lat": 51.4467787,
      "lon": 4.4431161,
      "timestamp": "2020-10-03T15:19:28Z",
      "version": 1,
      "changeset": 91905956,
      "user": "GeertDD",
      "uid": 2776338,
      "tags": {
        "amenity": "bench"
      }
    },
    {
      "type": "node",
      "id": 7969053995,
      "lat": 51.4467365,
      "lon": 4.443112,
      "timestamp": "2020-10-03T15:19:28Z",
      "version": 1,
      "changeset": 91905956,
      "user": "GeertDD",
      "uid": 2776338,
      "tags": {
        "amenity": "bench"
      }
    },
    {
      "type": "node",
      "id": 7972698060,
      "lat": 51.4391325,
      "lon": 4.4679739,
      "timestamp": "2020-10-04T08:09:40Z",
      "version": 1,
      "changeset": 91923447,
      "user": "GeertDD",
      "uid": 2776338,
      "tags": {
        "amenity": "bench"
      }
    },
    {
      "type": "node",
      "id": 7972698061,
      "lat": 51.439116,
      "lon": 4.4679536,
      "timestamp": "2020-10-04T08:09:40Z",
      "version": 1,
      "changeset": 91923447,
      "user": "GeertDD",
      "uid": 2776338,
      "tags": {
        "board_type": "history",
        "information": "board",
        "name": "Alfons Tireliren, Rose Gronon",
        "tourism": "information"
      }
    },
    {
      "type": "node",
      "id": 7997582529,
      "lat": 51.4480513,
      "lon": 4.4160188,
      "timestamp": "2020-10-11T16:59:40Z",
      "version": 1,
      "changeset": 92308079,
      "user": "GeertDD",
      "uid": 2776338,
      "tags": {
        "amenity": "bench",
        "backrest": "yes"
      }
    },
    {
      "type": "node",
      "id": 7997582530,
      "lat": 51.4448314,
      "lon": 4.424611,
      "timestamp": "2020-10-11T16:59:40Z",
      "version": 1,
      "changeset": 92308079,
      "user": "GeertDD",
      "uid": 2776338,
      "tags": {
        "amenity": "bench",
        "backrest": "yes"
      }
    },
    {
      "type": "node",
      "id": 8016436291,
      "lat": 51.4291443,
      "lon": 4.4398277,
      "timestamp": "2021-10-10T11:21:18Z",
      "version": 2,
      "changeset": 112328008,
      "user": "staf",
      "uid": 377797,
      "tags": {
        "amenity": "bench",
        "backrest": "yes"
      }
    },
    {
      "type": "node",
      "id": 8016555588,
      "lat": 51.4273413,
      "lon": 4.4711508,
      "timestamp": "2020-10-17T14:54:47Z",
      "version": 1,
      "changeset": 92631353,
      "user": "GeertDD",
      "uid": 2776338,
      "tags": {
        "amenity": "bench"
      }
    },
    {
      "type": "node",
      "id": 8016555589,
      "lat": 51.4273238,
      "lon": 4.4711737,
      "timestamp": "2020-10-17T14:54:47Z",
      "version": 1,
      "changeset": 92631353,
      "user": "GeertDD",
      "uid": 2776338,
      "tags": {
        "amenity": "bench"
      }
    },
    {
      "type": "node",
      "id": 8016555590,
      "lat": 51.4272716,
      "lon": 4.4710514,
      "timestamp": "2020-10-17T14:54:47Z",
      "version": 1,
      "changeset": 92631353,
      "user": "GeertDD",
      "uid": 2776338,
      "tags": {
        "amenity": "bench"
      }
    },
    {
      "type": "node",
      "id": 8037586610,
      "lat": 51.4529869,
      "lon": 4.4505402,
      "timestamp": "2020-10-22T15:48:46Z",
      "version": 1,
      "changeset": 92906748,
      "user": "GeertDD",
      "uid": 2776338,
      "tags": {
        "amenity": "bench",
        "backrest": "yes"
      }
    },
    {
      "type": "node",
      "id": 8044594646,
      "lat": 51.426548,
      "lon": 4.4619875,
      "timestamp": "2020-10-25T17:36:52Z",
      "version": 1,
      "changeset": 93023695,
      "user": "GeertDD",
      "uid": 2776338,
      "tags": {
        "amenity": "bench"
      }
    },
    {
      "type": "node",
      "id": 8068637127,
      "lat": 51.4375597,
      "lon": 4.432895,
      "timestamp": "2020-10-31T12:04:09Z",
      "version": 1,
      "changeset": 93335315,
      "user": "GeertDD",
      "uid": 2776338,
      "tags": {
        "amenity": "bench",
        "backrest": "yes",
        "material": "wood"
      }
    },
    {
      "type": "node",
      "id": 8068637128,
      "lat": 51.4375464,
      "lon": 4.4330167,
      "timestamp": "2020-10-31T12:04:09Z",
      "version": 1,
      "changeset": 93335315,
      "user": "GeertDD",
      "uid": 2776338,
      "tags": {
        "amenity": "bench",
        "backrest": "yes",
        "material": "wood"
      }
    },
    {
      "type": "node",
      "id": 8068637137,
      "lat": 51.4392114,
      "lon": 4.4334693,
      "timestamp": "2021-04-08T08:58:18Z",
      "version": 2,
      "changeset": 102545512,
      "user": "staf",
      "uid": 377797,
      "tags": {
        "board_type": "nature",
        "information": "board",
        "name": "Welkom in de kloostertuin",
        "tourism": "information"
      }
    },
    {
      "type": "node",
      "id": 8068637169,
      "lat": 51.4365701,
      "lon": 4.4324332,
      "timestamp": "2020-10-31T12:04:09Z",
      "version": 1,
      "changeset": 93335315,
      "user": "GeertDD",
      "uid": 2776338,
      "tags": {
        "amenity": "bench",
        "backrest": "yes",
        "material": "wood"
      }
    },
    {
      "type": "node",
      "id": 8068637172,
      "lat": 51.4360593,
      "lon": 4.4311321,
      "timestamp": "2020-10-31T12:04:09Z",
      "version": 1,
      "changeset": 93335315,
      "user": "GeertDD",
      "uid": 2776338,
      "tags": {
        "amenity": "bench",
        "backrest": "no"
      }
    },
    {
      "type": "node",
      "id": 8068637173,
      "lat": 51.4360132,
      "lon": 4.4311197,
      "timestamp": "2020-10-31T12:04:09Z",
      "version": 1,
      "changeset": 93335315,
      "user": "GeertDD",
      "uid": 2776338,
      "tags": {
        "amenity": "bench",
        "backrest": "no"
      }
    },
    {
      "type": "node",
      "id": 8068663696,
      "lat": 51.4379606,
      "lon": 4.4326065,
      "timestamp": "2020-10-31T12:04:09Z",
      "version": 1,
      "changeset": 93335315,
      "user": "GeertDD",
      "uid": 2776338,
      "tags": {
        "amenity": "bench",
        "backrest": "yes",
        "material": "wood"
      }
    },
    {
      "type": "node",
      "id": 8068663757,
      "lat": 51.4397948,
      "lon": 4.4320741,
      "timestamp": "2020-10-31T12:04:09Z",
      "version": 1,
      "changeset": 93335315,
      "user": "GeertDD",
      "uid": 2776338,
      "tags": {
        "amenity": "bench",
        "backrest": "no"
      }
    },
    {
      "type": "node",
      "id": 8068663758,
      "lat": 51.4398142,
      "lon": 4.4320513,
      "timestamp": "2020-10-31T12:04:09Z",
      "version": 1,
      "changeset": 93335315,
      "user": "GeertDD",
      "uid": 2776338,
      "tags": {
        "amenity": "bench",
        "backrest": "no"
      }
    },
    {
      "type": "node",
      "id": 8068663759,
      "lat": 51.4397999,
      "lon": 4.4320243,
      "timestamp": "2020-10-31T12:04:09Z",
      "version": 1,
      "changeset": 93335315,
      "user": "GeertDD",
      "uid": 2776338,
      "tags": {
        "amenity": "bench",
        "backrest": "no"
      }
    },
    {
      "type": "node",
      "id": 8068663760,
      "lat": 51.4397818,
      "lon": 4.432045,
      "timestamp": "2020-10-31T12:04:09Z",
      "version": 1,
      "changeset": 93335315,
      "user": "GeertDD",
      "uid": 2776338,
      "tags": {
        "amenity": "bench",
        "backrest": "no"
      }
    },
    {
      "type": "node",
      "id": 8084938844,
      "lat": 51.4280966,
      "lon": 4.4389867,
      "timestamp": "2020-11-05T15:30:33Z",
      "version": 1,
      "changeset": 93611526,
      "user": "GeertDD",
      "uid": 2776338,
      "tags": {
        "amenity": "bench"
      }
    },
    {
      "type": "node",
      "id": 8090856578,
      "lat": 51.4362964,
      "lon": 4.4781345,
      "timestamp": "2020-11-07T13:32:59Z",
      "version": 1,
      "changeset": 93707352,
      "user": "GeertDD",
      "uid": 2776338,
      "tags": {
        "board_type": "nature",
        "information": "board",
        "name": "Waterconservering",
        "operator": "Regionaal Landschap De Voorkempen",
        "tourism": "information"
      }
    },
    {
      "type": "node",
      "id": 8107756468,
      "lat": 51.431018,
      "lon": 4.4643991,
      "timestamp": "2020-11-11T10:51:13Z",
      "version": 1,
      "changeset": 93920778,
      "user": "GeertDD",
      "uid": 2776338,
      "tags": {
        "amenity": "bench",
        "backrest": "no",
        "material": "wood"
      }
    },
    {
      "type": "node",
      "id": 8107756469,
      "lat": 51.4320752,
      "lon": 4.4729666,
      "timestamp": "2020-11-11T10:51:13Z",
      "version": 1,
      "changeset": 93920778,
      "user": "GeertDD",
      "uid": 2776338,
      "tags": {
        "amenity": "bench",
        "backrest": "yes",
        "material": "wood"
      }
    },
    {
      "type": "node",
      "id": 8107787800,
      "lat": 51.4381429,
      "lon": 4.4650167,
      "timestamp": "2020-11-11T10:59:15Z",
      "version": 1,
      "changeset": 93921383,
      "user": "GeertDD",
      "uid": 2776338,
      "tags": {
        "amenity": "bench",
        "backrest": "yes",
        "material": "wood"
      }
    },
    {
      "type": "node",
      "id": 8107848724,
      "lat": 51.4281039,
      "lon": 4.4688796,
      "timestamp": "2020-11-11T11:17:52Z",
      "version": 1,
      "changeset": 93922800,
      "user": "GeertDD",
      "uid": 2776338,
      "tags": {
        "amenity": "bench"
      }
    },
    {
      "type": "node",
      "id": 8107848725,
      "lat": 51.4280863,
      "lon": 4.4683096,
      "timestamp": "2020-11-11T11:17:52Z",
      "version": 1,
      "changeset": 93922800,
      "user": "GeertDD",
      "uid": 2776338,
      "tags": {
        "amenity": "bench"
      }
    },
    {
      "type": "node",
      "id": 8108331291,
      "lat": 51.4253167,
      "lon": 4.4655079,
      "timestamp": "2021-10-10T11:57:58Z",
      "version": 2,
      "changeset": 112328008,
      "user": "staf",
      "uid": 377797,
      "tags": {
        "amenity": "bench",
        "backrest": "no"
      }
    },
    {
      "type": "node",
      "id": 8108331296,
      "lat": 51.4257074,
      "lon": 4.4674438,
      "timestamp": "2020-11-11T13:21:01Z",
      "version": 1,
      "changeset": 93930603,
      "user": "GeertDD",
      "uid": 2776338,
      "tags": {
        "amenity": "bench"
      }
    },
    {
      "type": "node",
      "id": 8108331297,
      "lat": 51.4252866,
      "lon": 4.4675149,
      "timestamp": "2020-11-11T13:21:01Z",
      "version": 1,
      "changeset": 93930603,
      "user": "GeertDD",
      "uid": 2776338,
      "tags": {
        "amenity": "bench"
      }
    },
    {
      "type": "node",
      "id": 8120563515,
      "lat": 51.4274649,
      "lon": 4.4601013,
      "timestamp": "2020-11-15T11:18:28Z",
      "version": 1,
      "changeset": 94140908,
      "user": "GeertDD",
      "uid": 2776338,
      "tags": {
        "amenity": "bench"
      }
    },
    {
      "type": "node",
      "id": 8120563516,
      "lat": 51.4273878,
      "lon": 4.4601496,
      "timestamp": "2020-11-15T11:18:28Z",
      "version": 1,
      "changeset": 94140908,
      "user": "GeertDD",
      "uid": 2776338,
      "tags": {
        "amenity": "bench"
      }
    },
    {
      "type": "node",
      "id": 8120607451,
      "lat": 51.4270176,
      "lon": 4.4594227,
      "timestamp": "2020-11-15T11:18:28Z",
      "version": 1,
      "changeset": 94140908,
      "user": "GeertDD",
      "uid": 2776338,
      "tags": {
        "amenity": "bench"
      }
    },
    {
      "type": "node",
      "id": 8120607452,
      "lat": 51.4272291,
      "lon": 4.4598239,
      "timestamp": "2020-11-15T11:18:28Z",
      "version": 1,
      "changeset": 94140908,
      "user": "GeertDD",
      "uid": 2776338,
      "tags": {
        "amenity": "bench"
      }
    },
    {
      "type": "node",
      "id": 8121162274,
      "lat": 51.4237269,
      "lon": 4.4556689,
      "timestamp": "2020-11-15T15:45:02Z",
      "version": 1,
      "changeset": 94152766,
      "user": "GeertDD",
      "uid": 2776338,
      "tags": {
        "amenity": "bench"
      }
    },
    {
      "type": "node",
      "id": 8121162275,
      "lat": 51.4237369,
      "lon": 4.4555707,
      "timestamp": "2020-11-15T15:45:02Z",
      "version": 1,
      "changeset": 94152766,
      "user": "GeertDD",
      "uid": 2776338,
      "tags": {
        "amenity": "bench"
      }
    },
    {
      "type": "node",
      "id": 8121162276,
      "lat": 51.4247419,
      "lon": 4.4544387,
      "timestamp": "2020-11-15T15:45:02Z",
      "version": 1,
      "changeset": 94152766,
      "user": "GeertDD",
      "uid": 2776338,
      "tags": {
        "amenity": "bench"
      }
    },
    {
      "type": "node",
      "id": 8121188455,
      "lat": 51.4266246,
      "lon": 4.4567118,
      "timestamp": "2020-11-15T15:45:02Z",
      "version": 1,
      "changeset": 94152766,
      "user": "GeertDD",
      "uid": 2776338,
      "tags": {
        "amenity": "bench",
        "backrest": "yes",
        "material": "wood"
      }
    },
    {
      "type": "node",
      "id": 8137785910,
      "lat": 51.4530831,
      "lon": 4.4053629,
      "timestamp": "2020-11-18T14:54:41Z",
      "version": 1,
      "changeset": 94372842,
      "user": "GeertDD",
      "uid": 2776338,
      "tags": {
        "amenity": "bench",
        "backrest": "yes",
        "material": "steel",
        "seats": "3"
      }
    },
    {
      "type": "node",
      "id": 8137864675,
      "lat": 51.4499252,
      "lon": 4.4109907,
      "timestamp": "2020-11-18T14:59:39Z",
      "version": 1,
      "changeset": 94373184,
      "user": "GeertDD",
      "uid": 2776338,
      "tags": {
        "amenity": "bench",
        "backrest": "yes"
      }
    },
    {
      "type": "node",
      "id": 8139203498,
      "lat": 51.4469367,
      "lon": 4.4097507,
      "timestamp": "2020-11-18T20:11:42Z",
      "version": 1,
      "changeset": 94393067,
      "user": "GeertDD",
      "uid": 2776338,
      "tags": {
        "amenity": "bench",
        "backrest": "yes"
      }
    },
    {
      "type": "node",
      "id": 8139543910,
      "lat": 51.4462824,
      "lon": 4.4110812,
      "timestamp": "2020-11-18T20:21:06Z",
      "version": 1,
      "changeset": 94393516,
      "user": "GeertDD",
      "uid": 2776338,
      "tags": {
        "amenity": "bench"
      }
    },
    {
      "type": "node",
      "id": 8149597034,
      "lat": 51.4496296,
      "lon": 4.4469533,
      "timestamp": "2020-11-22T11:06:39Z",
      "version": 2,
      "changeset": 94575406,
      "user": "GeertDD",
      "uid": 2776338,
      "tags": {
        "amenity": "bench",
        "backrest": "yes"
      }
    },
    {
      "type": "node",
      "id": 8150950849,
      "lat": 51.4501743,
      "lon": 4.4523428,
      "timestamp": "2020-11-22T11:11:42Z",
      "version": 1,
      "changeset": 94575593,
      "user": "GeertDD",
      "uid": 2776338,
      "tags": {
        "amenity": "bench",
        "backrest": "no"
      }
    },
    {
      "type": "node",
      "id": 8164930864,
      "lat": 51.4462442,
      "lon": 4.4120026,
      "timestamp": "2020-11-25T15:20:16Z",
      "version": 1,
      "changeset": 94784339,
      "user": "GeertDD",
      "uid": 2776338,
      "tags": {
        "amenity": "bench",
        "backrest": "yes"
      }
    },
    {
      "type": "node",
      "id": 8165138847,
      "lat": 51.4417514,
      "lon": 4.4022457,
      "timestamp": "2020-11-25T16:31:59Z",
      "version": 1,
      "changeset": 94788030,
      "user": "GeertDD",
      "uid": 2776338,
      "tags": {
        "amenity": "bench",
        "backrest": "yes"
      }
    },
    {
      "type": "node",
      "id": 8176260576,
      "lat": 51.4456253,
      "lon": 4.4100023,
      "timestamp": "2020-11-29T13:31:56Z",
      "version": 1,
      "changeset": 94983760,
      "user": "GeertDD",
      "uid": 2776338,
      "tags": {
        "amenity": "bench",
        "backrest": "yes"
      }
    },
    {
      "type": "node",
      "id": 8176260577,
      "lat": 51.445314,
      "lon": 4.4098852,
      "timestamp": "2020-11-29T13:31:56Z",
      "version": 1,
      "changeset": 94983760,
      "user": "GeertDD",
      "uid": 2776338,
      "tags": {
        "amenity": "bench",
        "backrest": "yes"
      }
    },
    {
      "type": "node",
      "id": 8187589683,
      "lat": 51.4389137,
      "lon": 4.4519628,
      "timestamp": "2020-12-09T16:06:08Z",
      "version": 2,
      "changeset": 95564085,
      "user": "GeertDD",
      "uid": 2776338,
      "tags": {
        "board_type": "nature",
        "information": "board",
        "name": "Retentiebekken Bergenven",
        "tourism": "information"
      }
    },
    {
      "type": "node",
      "id": 8210282448,
      "lat": 51.4328404,
      "lon": 4.4542822,
      "timestamp": "2020-12-09T16:06:08Z",
      "version": 1,
      "changeset": 95564085,
      "user": "GeertDD",
      "uid": 2776338,
      "tags": {
        "amenity": "bench",
        "backrest": "yes"
      }
    },
    {
      "type": "node",
      "id": 8210282449,
      "lat": 51.432636,
      "lon": 4.4537999,
      "timestamp": "2020-12-09T16:06:08Z",
      "version": 1,
      "changeset": 95564085,
      "user": "GeertDD",
      "uid": 2776338,
      "tags": {
        "amenity": "bench",
        "backrest": "yes"
      }
    },
    {
      "type": "node",
      "id": 8210282469,
      "lat": 51.4331331,
      "lon": 4.4593548,
      "timestamp": "2020-12-14T14:52:50Z",
      "version": 2,
      "changeset": 95813332,
      "user": "GeertDD",
      "uid": 2776338,
      "tags": {
        "amenity": "bench",
        "backrest": "yes"
      }
    },
    {
      "type": "node",
      "id": 8210282470,
      "lat": 51.4327979,
      "lon": 4.4564361,
      "timestamp": "2020-12-09T19:45:38Z",
      "version": 2,
      "changeset": 95573008,
      "user": "GeertDD",
      "uid": 2776338,
      "tags": {
        "amenity": "bench",
        "backrest": "yes"
      }
    },
    {
      "type": "node",
      "id": 8429390103,
      "lat": 51.4333461,
      "lon": 4.4576955,
      "timestamp": "2021-02-16T17:02:06Z",
      "version": 1,
      "changeset": 99396080,
      "user": "GeertDD",
      "uid": 2776338,
      "tags": {
        "amenity": "bench",
        "backrest": "yes"
      }
    },
    {
      "type": "node",
      "id": 8429390104,
      "lat": 51.4337168,
      "lon": 4.4578029,
      "timestamp": "2021-02-16T17:02:06Z",
      "version": 1,
      "changeset": 99396080,
      "user": "GeertDD",
      "uid": 2776338,
      "tags": {
        "amenity": "bench",
        "backrest": "yes"
      }
    },
    {
      "type": "node",
      "id": 8728930817,
      "lat": 51.4139547,
      "lon": 4.4429354,
      "timestamp": "2021-05-13T16:45:30Z",
      "version": 1,
      "changeset": 104649506,
      "user": "ElsWillems",
      "uid": 9606803,
      "tags": {
        "amenity": "bench"
      }
    },
    {
      "type": "node",
      "id": 8769394487,
      "lat": 51.4092874,
      "lon": 4.3975213,
      "timestamp": "2021-05-26T17:00:10Z",
      "version": 1,
      "changeset": 105371541,
      "user": "GeertDD",
      "uid": 2776338,
      "tags": {
        "amenity": "bench",
        "backrest": "yes",
        "material": "wood"
      }
    },
    {
      "type": "node",
      "id": 8919437674,
      "lat": 51.4375122,
      "lon": 4.433337,
      "timestamp": "2021-07-14T11:56:53Z",
      "version": 1,
      "changeset": 107978185,
      "user": "GeertDD",
      "uid": 2776338,
      "tags": {
        "leisure": "picnic_table"
      }
    },
    {
      "type": "node",
      "id": 9062457650,
      "lat": 51.4484432,
      "lon": 4.445345,
      "timestamp": "2021-09-04T15:42:16Z",
      "version": 1,
      "changeset": 110721980,
      "user": "GeertDD",
      "uid": 2776338,
      "tags": {
        "amenity": "bench"
      }
    },
    {
      "type": "node",
      "id": 9227199386,
      "lat": 51.4084981,
      "lon": 4.447357,
      "timestamp": "2021-11-05T13:53:05Z",
      "version": 1,
      "changeset": 113410590,
      "user": "GeertDD",
      "uid": 2776338,
      "tags": {
        "amenity": "bench",
        "backrest": "yes"
      }
    },
    {
      "type": "way",
      "id": 35214597,
      "timestamp": "2021-11-05T15:53:58Z",
      "version": 7,
      "changeset": 113415306,
      "user": "GeertDD",
      "uid": 2776338,
      "nodes": [
        412951733,
        412951734,
        412951735,
        412951736,
        1246797241,
        412951733
      ],
      "tags": {
        "access": "yes",
        "amenity": "parking",
        "capacity": "40",
        "fee": "no",
        "name": "ZUID",
        "parking": "surface",
        "surface": "ground"
      }
    },
    {
      "type": "way",
      "id": 49158466,
      "timestamp": "2020-10-16T18:05:40Z",
      "version": 3,
      "changeset": 92598267,
      "user": "GeertDD",
      "uid": 2776338,
      "nodes": [
        623565208,
        623565209,
        623565210,
        623565208
      ],
      "tags": {
        "amenity": "parking"
      }
    },
    {
      "type": "way",
      "id": 390659218,
      "timestamp": "2021-10-10T11:54:35Z",
      "version": 6,
      "changeset": 112330494,
      "user": "staf",
      "uid": 377797,
      "nodes": [
        3938196701,
        3938196702,
        3938196703,
        5196298641,
        3938196704,
        3938196705,
        5196298640,
        3938196701
      ],
      "tags": {
        "access": "yes",
        "amenity": "parking",
        "fee": "no",
        "parking": "surface"
      }
    },
    {
      "type": "way",
      "id": 509273222,
      "timestamp": "2020-11-11T11:17:52Z",
      "version": 4,
      "changeset": 93922800,
      "user": "GeertDD",
      "uid": 2776338,
      "nodes": [
        8107848739,
        5095384535,
        8107848740,
        8107848741,
        5095384531,
        5095384536,
        5095358742,
        4985237393,
        4985237394,
        8107848742,
        8107848743,
        5095358744,
        5095384534,
        5095384532,
        5095384533,
        8107848744,
        8107848746,
        8107848747,
        8107848745,
        8107848739
      ],
      "tags": {
        "amenity": "parking",
        "parking": "surface"
      }
    },
    {
      "type": "way",
      "id": 509273223,
      "timestamp": "2017-09-10T16:39:41Z",
      "version": 2,
      "changeset": 51913128,
      "user": "QuercE",
      "uid": 551808,
      "nodes": [
        4985158611,
        4985237400,
        4985237401,
        4985237402,
        4985237403,
        4985237404,
        4985158611
      ],
      "tags": {
        "amenity": "parking",
        "parking": "surface"
      }
    },
    {
      "type": "way",
      "id": 848826099,
      "timestamp": "2020-09-18T10:09:25Z",
      "version": 1,
      "changeset": 91104178,
      "user": "GeertDD",
      "uid": 2776338,
      "nodes": [
        7919878546,
        7919878547,
        7919878548,
        7919878549,
        7919878546
      ],
      "tags": {
        "amenity": "parking"
      }
    },
    {
      "type": "way",
      "id": 850166008,
      "timestamp": "2020-09-22T15:11:39Z",
      "version": 1,
      "changeset": 91305017,
      "user": "GeertDD",
      "uid": 2776338,
      "nodes": [
        7931646155,
        7931646156,
        7931646157,
        7931646153,
        7931646155
      ],
      "tags": {
        "amenity": "parking"
      }
    },
    {
      "type": "way",
      "id": 851662747,
      "timestamp": "2020-09-25T20:59:29Z",
      "version": 1,
      "changeset": 91531633,
      "user": "GeertDD",
      "uid": 2776338,
      "nodes": [
        7943318578,
        7943318561,
        7943318562,
        7943318563,
        7943318578
      ],
      "tags": {
        "amenity": "parking"
      }
    },
    {
      "type": "way",
      "id": 851768376,
      "timestamp": "2020-09-26T09:39:30Z",
      "version": 1,
      "changeset": 91544882,
      "user": "GeertDD",
      "uid": 2776338,
      "nodes": [
        7944441130,
        7944441131,
        891074937,
        7944441129,
        7944441143,
        7944441130
      ],
      "tags": {
        "access": "customers",
        "amenity": "parking"
      }
    },
    {
      "type": "way",
      "id": 851768377,
      "timestamp": "2020-09-26T09:39:30Z",
      "version": 1,
      "changeset": 91544882,
      "user": "GeertDD",
      "uid": 2776338,
      "nodes": [
        7944441132,
        7944441133,
        7944441141,
        7944441140,
        7944441134,
        7944441135,
        7944441132
      ],
      "tags": {
        "access": "customers",
        "amenity": "parking"
      }
    },
    {
      "type": "way",
      "id": 852017302,
      "timestamp": "2020-09-27T11:07:33Z",
      "version": 1,
      "changeset": 91578793,
      "user": "GeertDD",
      "uid": 2776338,
      "nodes": [
        7947556866,
        1359428678,
        7947556868,
        7947556869,
        7947556870,
        7947556871,
        7947556866
      ],
      "tags": {
        "amenity": "parking"
      }
    },
    {
      "type": "way",
      "id": 854535246,
      "timestamp": "2020-10-03T14:53:13Z",
      "version": 1,
      "changeset": 91905101,
      "user": "GeertDD",
      "uid": 2776338,
      "nodes": [
        7968993278,
        7968993279,
        7968993280,
        7968993281,
        7968996700,
        7968993282,
        7968993283,
        7968993278
      ],
      "tags": {
        "access": "customers",
        "amenity": "parking"
      }
    },
    {
      "type": "way",
      "id": 863565906,
      "timestamp": "2020-10-25T17:20:39Z",
      "version": 1,
      "changeset": 93023127,
      "user": "GeertDD",
      "uid": 2776338,
      "nodes": [
        8044576738,
        4625937933,
        8044576739,
        8044576740,
        8044576738
      ],
      "tags": {
        "amenity": "parking"
      }
    },
    {
      "type": "way",
      "id": 865634876,
      "timestamp": "2021-10-10T09:58:13Z",
      "version": 2,
      "changeset": 112326992,
      "user": "staf",
      "uid": 377797,
      "nodes": [
        8068663702,
        8068663703,
        8068663704,
        8068663705,
        8068663702
      ],
      "tags": {
        "amenity": "parking",
        "parking": "street_side"
      }
    },
    {
      "type": "way",
      "id": 870301650,
      "timestamp": "2020-11-11T11:17:52Z",
      "version": 1,
      "changeset": 93922800,
      "user": "GeertDD",
      "uid": 2776338,
      "nodes": [
        8107848735,
        8107848736,
        8107848737,
        8107848738,
        8107848735
      ],
      "tags": {
        "access": "customers",
        "amenity": "parking"
      }
    },
    {
      "type": "way",
      "id": 870388296,
      "timestamp": "2020-11-11T13:34:14Z",
      "version": 1,
      "changeset": 93931288,
      "user": "GeertDD",
      "uid": 2776338,
      "nodes": [
        8108386192,
        8108386193,
        8108386194,
        8108386195,
        8108386192
      ],
      "tags": {
        "amenity": "parking"
      }
    },
    {
      "type": "way",
      "id": 874327444,
      "timestamp": "2020-11-18T20:11:42Z",
      "version": 1,
      "changeset": 94393067,
      "user": "GeertDD",
      "uid": 2776338,
      "nodes": [
        8139203487,
        8139203496,
        8139203489,
        8139203488,
        8139203487
      ],
      "tags": {
        "amenity": "parking"
      }
    },
    {
      "type": "way",
      "id": 874327445,
      "timestamp": "2020-11-18T20:11:42Z",
      "version": 1,
      "changeset": 94393067,
      "user": "GeertDD",
      "uid": 2776338,
      "nodes": [
        8139203484,
        8139203485,
        8139203497,
        8139203492,
        8139203484
      ],
      "tags": {
        "amenity": "parking"
      }
    },
    {
      "type": "way",
      "id": 874327446,
      "timestamp": "2020-11-18T20:11:42Z",
      "version": 1,
      "changeset": 94393067,
      "user": "GeertDD",
      "uid": 2776338,
      "nodes": [
        8139203501,
        8139203502,
        8139203503,
        8139203504,
        8139203501
      ],
      "tags": {
        "amenity": "parking"
      }
    },
    {
      "type": "way",
      "id": 874354344,
      "timestamp": "2020-11-18T20:21:06Z",
      "version": 1,
      "changeset": 94393516,
      "user": "GeertDD",
      "uid": 2776338,
      "nodes": [
        8139543912,
        8139543913,
        8139543914,
        8139543915,
        8139543912
      ],
      "tags": {
        "amenity": "parking"
      }
    },
    {
      "type": "way",
      "id": 874354345,
      "timestamp": "2020-11-18T20:21:06Z",
      "version": 1,
      "changeset": 94393516,
      "user": "GeertDD",
      "uid": 2776338,
      "nodes": [
        8139543916,
        8139629417,
        8139629418,
        8139629419,
        8139543916
      ],
      "tags": {
        "amenity": "parking"
      }
    },
    {
      "type": "way",
      "id": 955344671,
      "timestamp": "2021-06-17T14:03:59Z",
      "version": 1,
      "changeset": 106534849,
      "user": "GeertDD",
      "uid": 2776338,
      "nodes": [
        644213154,
        8842124283,
        8842124284,
        644213148,
        644213154
      ],
      "tags": {
        "amenity": "parking"
      }
    },
    {
      "type": "way",
      "id": 984053163,
      "timestamp": "2021-09-16T18:57:33Z",
      "version": 1,
      "changeset": 111305464,
      "user": "H4N5-antw",
      "uid": 10846743,
      "nodes": [
        9098865302,
        9098865303,
        9098865295,
        9098865304,
        9098865305,
        9098865302
      ],
      "tags": {
        "access": "permit",
        "amenity": "parking",
        "parking": "surface"
      }
    },
    {
      "type": "relation",
      "id": 12707453,
      "timestamp": "2021-05-20T09:44:49Z",
      "version": 4,
      "changeset": 105017451,
      "user": "Leo Slager",
      "uid": 6686188,
      "members": [
        {
          "type": "way",
          "ref": 942686864,
          "role": "outer"
        },
        {
          "type": "way",
          "ref": 942686865,
          "role": "inner"
        },
        {
          "type": "way",
          "ref": 942686866,
          "role": "outer"
        },
        {
          "type": "way",
          "ref": 942686867,
          "role": "outer"
        },
        {
          "type": "way",
          "ref": 942686868,
          "role": "outer"
        },
        {
          "type": "way",
          "ref": 942686870,
          "role": "outer"
        },
        {
          "type": "way",
          "ref": 942686871,
          "role": "outer"
        },
        {
          "type": "way",
          "ref": 942686872,
          "role": "outer"
        },
        {
          "type": "way",
          "ref": 942686873,
          "role": "inner"
        },
        {
          "type": "way",
          "ref": 942686874,
          "role": "outer"
        },
        {
          "type": "way",
          "ref": 942686875,
          "role": "outer"
        },
        {
          "type": "way",
          "ref": 942686876,
          "role": "inner"
        },
        {
          "type": "way",
          "ref": 942686877,
          "role": "inner"
        },
        {
          "type": "way",
          "ref": 942686878,
          "role": "inner"
        },
        {
          "type": "way",
          "ref": 942686879,
          "role": "inner"
        },
        {
          "type": "way",
          "ref": 942686880,
          "role": "inner"
        },
        {
          "type": "way",
          "ref": 942686881,
          "role": "outer"
        },
        {
          "type": "way",
          "ref": 942686882,
          "role": "outer"
        },
        {
          "type": "relation",
          "ref": 12711008,
          "role": "outer"
        }
      ],
      "tags": {
        "OnroerendErfgoed:criteria": "LG",
        "boundary": "protected_area",
        "heritage": "4",
        "heritage:operator": "OnroerendErfgoed",
        "heritage:website": "https://id.erfgoed.net/erfgoedobjecten/135003",
        "leisure": "nature_reserve",
        "name": "Kalmthoutse Heide",
        "natura2000_sitecode": "BE2100015, BE2100323",
        "operator": "Agentschap voor Natuur en Bos, Natuurpunt, particulieren",
        "protect_class": "97",
        "protection_title": "Natura 2000",
        "ref:OnroerendErfgoed": "135003",
        "ref:natura2000": "8",
        "source": "https://www.geopunt.be/;https://www.natura2000.vlaanderen.be/gebied/kalmthoutse-heide",
        "type": "multipolygon",
        "wikidata": "Q18285999",
        "wikipedia": "nl:Kalmthoutse Heide"
      }
    },
    {
      "type": "relation",
      "id": 12711008,
      "timestamp": "2021-05-14T09:47:44Z",
      "version": 1,
      "changeset": 104677481,
      "user": "Rienux",
      "uid": 11911273,
      "members": [
        {
          "type": "way",
          "ref": 942822994,
          "role": "outer"
        }
      ],
      "tags": {
        "leisure": "nature_reserve",
        "name": "Stappersven",
        "operator": "Natuurpunt Beheer v.z.w.",
        "source": "https://www.geopunt.be/",
        "type": "multipolygon",
        "website": "https://www.natuurpunt.be/natuurgebied/stappersven-kalmthoutse-heide"
      }
    },
    {
      "type": "node",
      "id": 8729218816,
      "lat": 51.3683007,
      "lon": 4.4430837
    },
    {
      "type": "node",
      "id": 8729218920,
      "lat": 51.3699982,
      "lon": 4.4419397
    },
    {
      "type": "node",
      "id": 8729218921,
      "lat": 51.3699451,
      "lon": 4.4419942
    },
    {
      "type": "node",
      "id": 8729218924,
      "lat": 51.3681136,
      "lon": 4.4446881
    },
    {
      "type": "node",
      "id": 8729218925,
      "lat": 51.3683296,
      "lon": 4.443701
    },
    {
      "type": "node",
      "id": 8729218926,
      "lat": 51.3684301,
      "lon": 4.4435884
    },
    {
      "type": "node",
      "id": 8729218927,
      "lat": 51.3685599,
      "lon": 4.44363
    },
    {
      "type": "node",
      "id": 8729218951,
      "lat": 51.3689034,
      "lon": 4.4451179
    },
    {
      "type": "node",
      "id": 8729218952,
      "lat": 51.368848,
      "lon": 4.4434962
    },
    {
      "type": "node",
      "id": 8729218941,
      "lat": 51.3695415,
      "lon": 4.4560127
    },
    {
      "type": "node",
      "id": 8729218942,
      "lat": 51.3693214,
      "lon": 4.4556715
    },
    {
      "type": "node",
      "id": 8729218943,
      "lat": 51.3690019,
      "lon": 4.4553601
    },
    {
      "type": "node",
      "id": 8729218944,
      "lat": 51.367455,
      "lon": 4.4545663
    },
    {
      "type": "node",
      "id": 8729218945,
      "lat": 51.3673484,
      "lon": 4.4550506
    },
    {
      "type": "node",
      "id": 8729218946,
      "lat": 51.3673978,
      "lon": 4.4551861
    },
    {
      "type": "node",
      "id": 8729218947,
      "lat": 51.3671612,
      "lon": 4.4550531
    },
    {
      "type": "node",
      "id": 8729218948,
      "lat": 51.3672348,
      "lon": 4.4550067
    },
    {
      "type": "node",
      "id": 8729218949,
      "lat": 51.3673022,
      "lon": 4.4546742
    },
    {
      "type": "node",
      "id": 8729218950,
      "lat": 51.3669873,
      "lon": 4.454506
    },
    {
      "type": "node",
      "id": 8729218810,
      "lat": 51.3832762,
      "lon": 4.4288471
    },
    {
      "type": "node",
      "id": 8729218808,
      "lat": 51.3856081,
      "lon": 4.4189316
    },
    {
      "type": "node",
      "id": 8729218809,
      "lat": 51.3877658,
      "lon": 4.4234711
    },
    {
      "type": "node",
      "id": 8729218907,
      "lat": 51.3913646,
      "lon": 4.4174183
    },
    {
      "type": "node",
      "id": 8729218908,
      "lat": 51.3910871,
      "lon": 4.4177417
    },
    {
      "type": "node",
      "id": 8729218909,
      "lat": 51.3927218,
      "lon": 4.4212187
    },
    {
      "type": "node",
      "id": 8729218910,
      "lat": 51.3929993,
      "lon": 4.4208791
    },
    {
      "type": "node",
      "id": 8729218811,
      "lat": 51.3797132,
      "lon": 4.4331518
    },
    {
      "type": "node",
      "id": 8729218812,
      "lat": 51.3797413,
      "lon": 4.4332055
    },
    {
      "type": "node",
      "id": 8729218813,
      "lat": 51.3794907,
      "lon": 4.4334201
    },
    {
      "type": "node",
      "id": 8729218814,
      "lat": 51.3771696,
      "lon": 4.4356059
    },
    {
      "type": "node",
      "id": 8729218815,
      "lat": 51.3770303,
      "lon": 4.4353684
    },
    {
      "type": "node",
      "id": 8729218922,
      "lat": 51.3708781,
      "lon": 4.444282
    },
    {
      "type": "node",
      "id": 8729218923,
      "lat": 51.3709337,
      "lon": 4.4442236
    },
    {
      "type": "node",
      "id": 8729218928,
      "lat": 51.3705768,
      "lon": 4.4447887
    },
    {
      "type": "node",
      "id": 8729218953,
      "lat": 51.3707329,
      "lon": 4.4448785
    },
    {
      "type": "node",
      "id": 8729218959,
      "lat": 51.3769158,
      "lon": 4.4491733
    },
    {
      "type": "node",
      "id": 8729218929,
      "lat": 51.374364,
      "lon": 4.4549768
    },
    {
      "type": "node",
      "id": 8729218954,
      "lat": 51.3744207,
      "lon": 4.454863
    },
    {
      "type": "node",
      "id": 8729218955,
      "lat": 51.3744693,
      "lon": 4.454981
    },
    {
      "type": "node",
      "id": 8729218956,
      "lat": 51.3764081,
      "lon": 4.4503864
    },
    {
      "type": "node",
      "id": 8729218960,
      "lat": 51.3770878,
      "lon": 4.448763
    },
    {
      "type": "node",
      "id": 8729218817,
      "lat": 51.3802894,
      "lon": 4.4505039
    },
    {
      "type": "node",
      "id": 8729218957,
      "lat": 51.3785002,
      "lon": 4.4526348
    },
    {
      "type": "node",
      "id": 8729218958,
      "lat": 51.3790364,
      "lon": 4.451419
    },
    {
      "type": "node",
      "id": 8729218911,
      "lat": 51.3860408,
      "lon": 4.4428218
    },
    {
      "type": "node",
      "id": 8729218915,
      "lat": 51.3848958,
      "lon": 4.4432846
    },
    {
      "type": "node",
      "id": 8729218916,
      "lat": 51.3852404,
      "lon": 4.4431062
    },
    {
      "type": "node",
      "id": 8729218917,
      "lat": 51.3852003,
      "lon": 4.442713
    },
    {
      "type": "node",
      "id": 8729218918,
      "lat": 51.3855118,
      "lon": 4.4426405
    },
    {
      "type": "node",
      "id": 8729218919,
      "lat": 51.3854997,
      "lon": 4.4425987
    },
    {
      "type": "node",
      "id": 8729218818,
      "lat": 51.3875164,
      "lon": 4.4491486
    },
    {
      "type": "node",
      "id": 8729218819,
      "lat": 51.3874381,
      "lon": 4.4484244
    },
    {
      "type": "node",
      "id": 8729218820,
      "lat": 51.3883179,
      "lon": 4.4486175
    },
    {
      "type": "node",
      "id": 8729218821,
      "lat": 51.3884218,
      "lon": 4.4494986
    },
    {
      "type": "node",
      "id": 8729218912,
      "lat": 51.3863715,
      "lon": 4.4444948
    },
    {
      "type": "node",
      "id": 8729218913,
      "lat": 51.3854596,
      "lon": 4.4449967
    },
    {
      "type": "node",
      "id": 8729218914,
      "lat": 51.3854144,
      "lon": 4.444927
    },
    {
      "type": "node",
      "id": 8729218822,
      "lat": 51.3902822,
      "lon": 4.4503122
    },
    {
      "type": "node",
      "id": 8729218934,
      "lat": 51.3701266,
      "lon": 4.4574607
    },
    {
      "type": "node",
      "id": 8729218935,
      "lat": 51.369913,
      "lon": 4.457731
    },
    {
      "type": "node",
      "id": 8729218936,
      "lat": 51.3699033,
      "lon": 4.457806
    },
    {
      "type": "node",
      "id": 8729218937,
      "lat": 51.3697808,
      "lon": 4.4575594
    },
    {
      "type": "node",
      "id": 8729218938,
      "lat": 51.3698565,
      "lon": 4.4575697
    },
    {
      "type": "node",
      "id": 8729218939,
      "lat": 51.3702036,
      "lon": 4.4571329
    },
    {
      "type": "node",
      "id": 8729218940,
      "lat": 51.3700554,
      "lon": 4.4568595
    },
    {
      "type": "node",
      "id": 8729218930,
      "lat": 51.3716022,
      "lon": 4.461515
    },
    {
      "type": "node",
      "id": 8729218931,
      "lat": 51.3706386,
      "lon": 4.4594267
    },
    {
      "type": "node",
      "id": 8729218932,
      "lat": 51.370704,
      "lon": 4.4594442
    },
    {
      "type": "node",
      "id": 8729218933,
      "lat": 51.370926,
      "lon": 4.4591852
    },
    {
      "type": "node",
      "id": 8729218800,
      "lat": 51.3997779,
      "lon": 4.4017577
    },
    {
      "type": "node",
      "id": 8729218803,
      "lat": 51.3997312,
      "lon": 4.4018105
    },
    {
      "type": "node",
      "id": 8729218804,
      "lat": 51.4001478,
      "lon": 4.4034484
    },
    {
      "type": "node",
      "id": 8729218805,
      "lat": 51.4000877,
      "lon": 4.4034471
    },
    {
      "type": "node",
      "id": 8729218788,
      "lat": 51.4076607,
      "lon": 4.3959668
    },
    {
      "type": "node",
      "id": 8729218789,
      "lat": 51.4092574,
      "lon": 4.3939442
    },
    {
      "type": "node",
      "id": 8729218794,
      "lat": 51.4089412,
      "lon": 4.3911184
    },
    {
      "type": "node",
      "id": 8729218795,
      "lat": 51.4081554,
      "lon": 4.3916304
    },
    {
      "type": "node",
      "id": 8729218796,
      "lat": 51.4049417,
      "lon": 4.3954867
    },
    {
      "type": "node",
      "id": 8729218799,
      "lat": 51.4038909,
      "lon": 4.3967742
    },
    {
      "type": "node",
      "id": 8729218775,
      "lat": 51.4092982,
      "lon": 4.4011041
    },
    {
      "type": "node",
      "id": 8729218776,
      "lat": 51.4090353,
      "lon": 4.4014047
    },
    {
      "type": "node",
      "id": 8729218777,
      "lat": 51.408537,
      "lon": 4.4003525
    },
    {
      "type": "node",
      "id": 8729218778,
      "lat": 51.4087889,
      "lon": 4.4000637
    },
    {
      "type": "node",
      "id": 8729218779,
      "lat": 51.4084874,
      "lon": 4.3993887
    },
    {
      "type": "node",
      "id": 8729218780,
      "lat": 51.4082245,
      "lon": 4.39971
    },
    {
      "type": "node",
      "id": 8729218781,
      "lat": 51.4079524,
      "lon": 4.3991323
    },
    {
      "type": "node",
      "id": 8729218782,
      "lat": 51.4082116,
      "lon": 4.3988258
    },
    {
      "type": "node",
      "id": 8729218783,
      "lat": 51.4087346,
      "lon": 4.3981652
    },
    {
      "type": "node",
      "id": 8729218784,
      "lat": 51.4089537,
      "lon": 4.3986069
    },
    {
      "type": "node",
      "id": 8729218785,
      "lat": 51.4094984,
      "lon": 4.3979193
    },
    {
      "type": "node",
      "id": 8729218786,
      "lat": 51.4093043,
      "lon": 4.3974776
    },
    {
      "type": "node",
      "id": 8729218787,
      "lat": 51.4088661,
      "lon": 4.3980146
    },
    {
      "type": "node",
      "id": 8729218797,
      "lat": 51.4071369,
      "lon": 4.4001109
    },
    {
      "type": "node",
      "id": 8729218798,
      "lat": 51.4060694,
      "lon": 4.401393
    },
    {
      "type": "node",
      "id": 8729218889,
      "lat": 51.4092763,
      "lon": 4.3992679
    },
    {
      "type": "node",
      "id": 8729213510,
      "lat": 51.415657,
      "lon": 4.3896812
    },
    {
      "type": "node",
      "id": 8729213511,
      "lat": 51.4157076,
      "lon": 4.3896259
    },
    {
      "type": "node",
      "id": 8729213512,
      "lat": 51.4147174,
      "lon": 4.3875676
    },
    {
      "type": "node",
      "id": 8729218633,
      "lat": 51.4141544,
      "lon": 4.3879145
    },
    {
      "type": "node",
      "id": 8729218634,
      "lat": 51.4143562,
      "lon": 4.3887683
    },
    {
      "type": "node",
      "id": 8729218635,
      "lat": 51.4147037,
      "lon": 4.388327
    },
    {
      "type": "node",
      "id": 8729218636,
      "lat": 51.4150529,
      "lon": 4.3889508
    },
    {
      "type": "node",
      "id": 8729218637,
      "lat": 51.4152946,
      "lon": 4.3895111
    },
    {
      "type": "node",
      "id": 8729218638,
      "lat": 51.4153506,
      "lon": 4.3898661
    },
    {
      "type": "node",
      "id": 8729218639,
      "lat": 51.4154117,
      "lon": 4.3901242
    },
    {
      "type": "node",
      "id": 8729218640,
      "lat": 51.4156353,
      "lon": 4.3898537
    },
    {
      "type": "node",
      "id": 8729218649,
      "lat": 51.4121022,
      "lon": 4.3891822
    },
    {
      "type": "node",
      "id": 8729213496,
      "lat": 51.4197951,
      "lon": 4.3844121
    },
    {
      "type": "node",
      "id": 8729213497,
      "lat": 51.4206495,
      "lon": 4.3858416
    },
    {
      "type": "node",
      "id": 8729213498,
      "lat": 51.4203487,
      "lon": 4.3862034
    },
    {
      "type": "node",
      "id": 8729213499,
      "lat": 51.4202747,
      "lon": 4.3865633
    },
    {
      "type": "node",
      "id": 8729213500,
      "lat": 51.4203104,
      "lon": 4.3871683
    },
    {
      "type": "node",
      "id": 8729213501,
      "lat": 51.420165,
      "lon": 4.387793
    },
    {
      "type": "node",
      "id": 8729213502,
      "lat": 51.4200207,
      "lon": 4.3880026
    },
    {
      "type": "node",
      "id": 8729213503,
      "lat": 51.4199295,
      "lon": 4.3882676
    },
    {
      "type": "node",
      "id": 8729213504,
      "lat": 51.4198296,
      "lon": 4.3893154
    },
    {
      "type": "node",
      "id": 8729213505,
      "lat": 51.4196286,
      "lon": 4.3906738
    },
    {
      "type": "node",
      "id": 8729213513,
      "lat": 51.418253,
      "lon": 4.3853739
    },
    {
      "type": "node",
      "id": 8729213514,
      "lat": 51.4186977,
      "lon": 4.3862393
    },
    {
      "type": "node",
      "id": 8729213515,
      "lat": 51.4185088,
      "lon": 4.3864609
    },
    {
      "type": "node",
      "id": 8729213516,
      "lat": 51.4182055,
      "lon": 4.3858724
    },
    {
      "type": "node",
      "id": 8729218617,
      "lat": 51.4176108,
      "lon": 4.3864228
    },
    {
      "type": "node",
      "id": 8729218618,
      "lat": 51.4180544,
      "lon": 4.3873557
    },
    {
      "type": "node",
      "id": 8729218619,
      "lat": 51.4184009,
      "lon": 4.3869282
    },
    {
      "type": "node",
      "id": 8729218620,
      "lat": 51.418565,
      "lon": 4.3872743
    },
    {
      "type": "node",
      "id": 8729218621,
      "lat": 51.4182174,
      "lon": 4.3877087
    },
    {
      "type": "node",
      "id": 8729218622,
      "lat": 51.4188784,
      "lon": 4.3890818
    },
    {
      "type": "node",
      "id": 8729218623,
      "lat": 51.4192261,
      "lon": 4.3886606
    },
    {
      "type": "node",
      "id": 8729218624,
      "lat": 51.4187514,
      "lon": 4.3876661
    },
    {
      "type": "node",
      "id": 8729218625,
      "lat": 51.4193358,
      "lon": 4.3870631
    },
    {
      "type": "node",
      "id": 8729218626,
      "lat": 51.4188475,
      "lon": 4.3860626
    },
    {
      "type": "node",
      "id": 8729218627,
      "lat": 51.4190337,
      "lon": 4.3858392
    },
    {
      "type": "node",
      "id": 8729218628,
      "lat": 51.4186823,
      "lon": 4.3851097
    },
    {
      "type": "node",
      "id": 8729218629,
      "lat": 51.4182583,
      "lon": 4.3889932
    },
    {
      "type": "node",
      "id": 8729218630,
      "lat": 51.4186141,
      "lon": 4.3897406
    },
    {
      "type": "node",
      "id": 8729218631,
      "lat": 51.4184214,
      "lon": 4.3899702
    },
    {
      "type": "node",
      "id": 8729218632,
      "lat": 51.4180778,
      "lon": 4.3892021
    },
    {
      "type": "node",
      "id": 8729218647,
      "lat": 51.4161063,
      "lon": 4.3928953
    },
    {
      "type": "node",
      "id": 8729218648,
      "lat": 51.4146903,
      "lon": 4.3946088
    },
    {
      "type": "node",
      "id": 8729218656,
      "lat": 51.4141651,
      "lon": 4.3969999
    },
    {
      "type": "node",
      "id": 8729218665,
      "lat": 51.415216,
      "lon": 4.3957248
    },
    {
      "type": "node",
      "id": 8729218744,
      "lat": 51.4125141,
      "lon": 4.3972049
    },
    {
      "type": "node",
      "id": 8729218790,
      "lat": 51.41035,
      "lon": 4.3962329
    },
    {
      "type": "node",
      "id": 8729218791,
      "lat": 51.41143,
      "lon": 4.3949078
    },
    {
      "type": "node",
      "id": 8729218792,
      "lat": 51.4103437,
      "lon": 4.3926241
    },
    {
      "type": "node",
      "id": 8729218793,
      "lat": 51.4099054,
      "lon": 4.3931461
    },
    {
      "type": "node",
      "id": 8729218657,
      "lat": 51.4148558,
      "lon": 4.3984565
    },
    {
      "type": "node",
      "id": 8729218658,
      "lat": 51.4148112,
      "lon": 4.3984766
    },
    {
      "type": "node",
      "id": 8729218659,
      "lat": 51.4148171,
      "lon": 4.3984877
    },
    {
      "type": "node",
      "id": 8729218660,
      "lat": 51.4148631,
      "lon": 4.3984693
    },
    {
      "type": "node",
      "id": 8729218661,
      "lat": 51.4157403,
      "lon": 4.4002984
    },
    {
      "type": "node",
      "id": 8729218662,
      "lat": 51.4157481,
      "lon": 4.4002913
    },
    {
      "type": "node",
      "id": 8729218663,
      "lat": 51.4157914,
      "lon": 4.4003811
    },
    {
      "type": "node",
      "id": 8729218742,
      "lat": 51.415028,
      "lon": 4.4039991
    },
    {
      "type": "node",
      "id": 8729218743,
      "lat": 51.4152819,
      "lon": 4.4029556
    },
    {
      "type": "node",
      "id": 8729218745,
      "lat": 51.4120957,
      "lon": 4.3977381
    },
    {
      "type": "node",
      "id": 8729218746,
      "lat": 51.4123639,
      "lon": 4.3993549
    },
    {
      "type": "node",
      "id": 8729218747,
      "lat": 51.4123675,
      "lon": 4.3995327
    },
    {
      "type": "node",
      "id": 8729218748,
      "lat": 51.4125043,
      "lon": 4.400795
    },
    {
      "type": "node",
      "id": 8729218749,
      "lat": 51.4125337,
      "lon": 4.400754
    },
    {
      "type": "node",
      "id": 8729218750,
      "lat": 51.4133642,
      "lon": 4.4025633
    },
    {
      "type": "node",
      "id": 8729218751,
      "lat": 51.4131111,
      "lon": 4.4027767
    },
    {
      "type": "node",
      "id": 8729218752,
      "lat": 51.4127086,
      "lon": 4.4030038
    },
    {
      "type": "node",
      "id": 8729218753,
      "lat": 51.4129207,
      "lon": 4.4038477
    },
    {
      "type": "node",
      "id": 8729218767,
      "lat": 51.4125962,
      "lon": 4.4033352
    },
    {
      "type": "node",
      "id": 8729218768,
      "lat": 51.4121476,
      "lon": 4.4034089
    },
    {
      "type": "node",
      "id": 8729218769,
      "lat": 51.4114895,
      "lon": 4.4020148
    },
    {
      "type": "node",
      "id": 8729218770,
      "lat": 51.4111898,
      "lon": 4.4023803
    },
    {
      "type": "node",
      "id": 8729218771,
      "lat": 51.4110207,
      "lon": 4.4020531
    },
    {
      "type": "node",
      "id": 8729218772,
      "lat": 51.4106016,
      "lon": 4.4021651
    },
    {
      "type": "node",
      "id": 8729218773,
      "lat": 51.4104435,
      "lon": 4.4021504
    },
    {
      "type": "node",
      "id": 8729218774,
      "lat": 51.4097541,
      "lon": 4.4018439
    },
    {
      "type": "node",
      "id": 8729218890,
      "lat": 51.4098303,
      "lon": 4.398603
    },
    {
      "type": "node",
      "id": 8729218891,
      "lat": 51.4102893,
      "lon": 4.3995419
    },
    {
      "type": "node",
      "id": 8729218892,
      "lat": 51.409729,
      "lon": 4.4002423
    },
    {
      "type": "node",
      "id": 8729218893,
      "lat": 51.4119807,
      "lon": 4.3978066
    },
    {
      "type": "node",
      "id": 8729218894,
      "lat": 51.4103976,
      "lon": 4.3997469
    },
    {
      "type": "node",
      "id": 8729218895,
      "lat": 51.410944,
      "lon": 4.4008964
    },
    {
      "type": "node",
      "id": 8729218896,
      "lat": 51.4119898,
      "lon": 4.3996126
    },
    {
      "type": "node",
      "id": 8729218897,
      "lat": 51.4123289,
      "lon": 4.4003151
    },
    {
      "type": "node",
      "id": 8729218898,
      "lat": 51.4122574,
      "lon": 4.3995602
    },
    {
      "type": "node",
      "id": 8729213506,
      "lat": 51.4200823,
      "lon": 4.3916248
    },
    {
      "type": "node",
      "id": 8729213507,
      "lat": 51.4189998,
      "lon": 4.3929079
    },
    {
      "type": "node",
      "id": 8729213508,
      "lat": 51.4182575,
      "lon": 4.3913519
    },
    {
      "type": "node",
      "id": 8729213509,
      "lat": 51.4171564,
      "lon": 4.3926608
    },
    {
      "type": "node",
      "id": 8729218641,
      "lat": 51.4167706,
      "lon": 4.3920967
    },
    {
      "type": "node",
      "id": 8729218642,
      "lat": 51.41894,
      "lon": 4.3964903
    },
    {
      "type": "node",
      "id": 8729218643,
      "lat": 51.4189552,
      "lon": 4.3965162
    },
    {
      "type": "node",
      "id": 8729218645,
      "lat": 51.4168243,
      "lon": 4.3955835
    },
    {
      "type": "node",
      "id": 8729218646,
      "lat": 51.4171859,
      "lon": 4.3951527
    },
    {
      "type": "node",
      "id": 8729218644,
      "lat": 51.4178888,
      "lon": 4.3978085
    },
    {
      "type": "node",
      "id": 8729218650,
      "lat": 51.4198108,
      "lon": 4.3982537
    },
    {
      "type": "node",
      "id": 8729218651,
      "lat": 51.4207408,
      "lon": 4.3999378
    },
    {
      "type": "node",
      "id": 8729218652,
      "lat": 51.4204756,
      "lon": 4.400071
    },
    {
      "type": "node",
      "id": 8729218653,
      "lat": 51.4200698,
      "lon": 4.3991964
    },
    {
      "type": "node",
      "id": 8729218654,
      "lat": 51.4179393,
      "lon": 4.4008663
    },
    {
      "type": "node",
      "id": 8729218655,
      "lat": 51.4176175,
      "lon": 4.400278
    },
    {
      "type": "node",
      "id": 8729218664,
      "lat": 51.4168395,
      "lon": 4.3991029
    },
    {
      "type": "node",
      "id": 8729218801,
      "lat": 51.4008874,
      "lon": 4.406676
    },
    {
      "type": "node",
      "id": 8729218802,
      "lat": 51.4008386,
      "lon": 4.4067032
    },
    {
      "type": "node",
      "id": 8729218806,
      "lat": 51.4003966,
      "lon": 4.4046001
    },
    {
      "type": "node",
      "id": 8729218807,
      "lat": 51.4003541,
      "lon": 4.404669
    },
    {
      "type": "node",
      "id": 8729218899,
      "lat": 51.4017979,
      "lon": 4.4065888
    },
    {
      "type": "node",
      "id": 8729218900,
      "lat": 51.4023522,
      "lon": 4.4077617
    },
    {
      "type": "node",
      "id": 8729218901,
      "lat": 51.4012796,
      "lon": 4.40905
    },
    {
      "type": "node",
      "id": 8729218902,
      "lat": 51.4007281,
      "lon": 4.4078772
    },
    {
      "type": "node",
      "id": 8729218903,
      "lat": 51.4018208,
      "lon": 4.4101777
    },
    {
      "type": "node",
      "id": 8729218904,
      "lat": 51.4029865,
      "lon": 4.4126516
    },
    {
      "type": "node",
      "id": 8729218905,
      "lat": 51.4018444,
      "lon": 4.4140436
    },
    {
      "type": "node",
      "id": 8729218906,
      "lat": 51.4006927,
      "lon": 4.4115924
    },
    {
      "type": "node",
      "id": 8729218879,
      "lat": 51.4071502,
      "lon": 4.407219
    },
    {
      "type": "node",
      "id": 8729218880,
      "lat": 51.4062813,
      "lon": 4.4083077
    },
    {
      "type": "node",
      "id": 8729218881,
      "lat": 51.4052137,
      "lon": 4.4060361
    },
    {
      "type": "node",
      "id": 8729218882,
      "lat": 51.4060871,
      "lon": 4.4049836
    },
    {
      "type": "node",
      "id": 8729218883,
      "lat": 51.4066156,
      "lon": 4.406094
    },
    {
      "type": "node",
      "id": 8729218884,
      "lat": 51.4077073,
      "lon": 4.4048074
    },
    {
      "type": "node",
      "id": 8729218885,
      "lat": 51.4082464,
      "lon": 4.4059613
    },
    {
      "type": "node",
      "id": 8729218886,
      "lat": 51.4093215,
      "lon": 4.404677
    },
    {
      "type": "node",
      "id": 8729218888,
      "lat": 51.4093233,
      "lon": 4.4082766
    },
    {
      "type": "node",
      "id": 8729218878,
      "lat": 51.4094137,
      "lon": 4.4120152
    },
    {
      "type": "node",
      "id": 8729218734,
      "lat": 51.4082693,
      "lon": 4.4235363
    },
    {
      "type": "node",
      "id": 8729218735,
      "lat": 51.4083365,
      "lon": 4.4233693
    },
    {
      "type": "node",
      "id": 8729218736,
      "lat": 51.4086792,
      "lon": 4.422896
    },
    {
      "type": "node",
      "id": 8729218737,
      "lat": 51.4089943,
      "lon": 4.4222535
    },
    {
      "type": "node",
      "id": 8729218858,
      "lat": 51.4081581,
      "lon": 4.4236373
    },
    {
      "type": "node",
      "id": 8729218859,
      "lat": 51.4082094,
      "lon": 4.4235047
    },
    {
      "type": "node",
      "id": 8729218860,
      "lat": 51.4082698,
      "lon": 4.4233667
    },
    {
      "type": "node",
      "id": 8729218861,
      "lat": 51.4085933,
      "lon": 4.4229264
    },
    {
      "type": "node",
      "id": 8729218862,
      "lat": 51.4088944,
      "lon": 4.4223123
    },
    {
      "type": "node",
      "id": 8729218863,
      "lat": 51.4093535,
      "lon": 4.4212062
    },
    {
      "type": "node",
      "id": 8729218724,
      "lat": 51.4048895,
      "lon": 4.4300533
    },
    {
      "type": "node",
      "id": 8729218725,
      "lat": 51.4051663,
      "lon": 4.4295229
    },
    {
      "type": "node",
      "id": 8729218726,
      "lat": 51.4058781,
      "lon": 4.4287981
    },
    {
      "type": "node",
      "id": 8729218727,
      "lat": 51.4060943,
      "lon": 4.4284346
    },
    {
      "type": "node",
      "id": 8729218728,
      "lat": 51.4066493,
      "lon": 4.426873
    },
    {
      "type": "node",
      "id": 8729218729,
      "lat": 51.4067112,
      "lon": 4.4266088
    },
    {
      "type": "node",
      "id": 8729218730,
      "lat": 51.4075944,
      "lon": 4.4249183
    },
    {
      "type": "node",
      "id": 8729218731,
      "lat": 51.407746,
      "lon": 4.4247746
    },
    {
      "type": "node",
      "id": 8729218732,
      "lat": 51.4080987,
      "lon": 4.424578
    },
    {
      "type": "node",
      "id": 8729218733,
      "lat": 51.4081309,
      "lon": 4.424483
    },
    {
      "type": "node",
      "id": 8729218845,
      "lat": 51.4051573,
      "lon": 4.4294757
    },
    {
      "type": "node",
      "id": 8729218846,
      "lat": 51.405806,
      "lon": 4.4288073
    },
    {
      "type": "node",
      "id": 8729218847,
      "lat": 51.405959,
      "lon": 4.4285712
    },
    {
      "type": "node",
      "id": 8729218848,
      "lat": 51.4060691,
      "lon": 4.4283205
    },
    {
      "type": "node",
      "id": 8729218849,
      "lat": 51.4065117,
      "lon": 4.4270658
    },
    {
      "type": "node",
      "id": 8729218850,
      "lat": 51.4066623,
      "lon": 4.4265141
    },
    {
      "type": "node",
      "id": 8729218851,
      "lat": 51.4069494,
      "lon": 4.4259212
    },
    {
      "type": "node",
      "id": 8729218852,
      "lat": 51.4075368,
      "lon": 4.4248681
    },
    {
      "type": "node",
      "id": 8729218853,
      "lat": 51.407574,
      "lon": 4.4248217
    },
    {
      "type": "node",
      "id": 8729218854,
      "lat": 51.407708,
      "lon": 4.4247143
    },
    {
      "type": "node",
      "id": 8729218855,
      "lat": 51.4079637,
      "lon": 4.4246055
    },
    {
      "type": "node",
      "id": 8729218856,
      "lat": 51.4080141,
      "lon": 4.4245485
    },
    {
      "type": "node",
      "id": 8729218857,
      "lat": 51.4080348,
      "lon": 4.4244901
    },
    {
      "type": "node",
      "id": 8729218874,
      "lat": 51.4067476,
      "lon": 4.4263756
    },
    {
      "type": "node",
      "id": 8729218875,
      "lat": 51.4062293,
      "lon": 4.428085
    },
    {
      "type": "node",
      "id": 8729218876,
      "lat": 51.4049053,
      "lon": 4.4299281
    },
    {
      "type": "node",
      "id": 8729218703,
      "lat": 51.4137751,
      "lon": 4.4084283
    },
    {
      "type": "node",
      "id": 8729218740,
      "lat": 51.4138335,
      "lon": 4.4079157
    },
    {
      "type": "node",
      "id": 8729218741,
      "lat": 51.4146592,
      "lon": 4.4052059
    },
    {
      "type": "node",
      "id": 8729218754,
      "lat": 51.4132287,
      "lon": 4.4048826
    },
    {
      "type": "node",
      "id": 8729218755,
      "lat": 51.4135515,
      "lon": 4.4064859
    },
    {
      "type": "node",
      "id": 8729218756,
      "lat": 51.4136544,
      "lon": 4.4067254
    },
    {
      "type": "node",
      "id": 8729218757,
      "lat": 51.4136041,
      "lon": 4.4067812
    },
    {
      "type": "node",
      "id": 8729218758,
      "lat": 51.413716,
      "lon": 4.4083171
    },
    {
      "type": "node",
      "id": 8729218759,
      "lat": 51.4135482,
      "lon": 4.4073232
    },
    {
      "type": "node",
      "id": 8729218760,
      "lat": 51.4134994,
      "lon": 4.4070833
    },
    {
      "type": "node",
      "id": 8729218761,
      "lat": 51.4126419,
      "lon": 4.4081222
    },
    {
      "type": "node",
      "id": 8729218762,
      "lat": 51.4114623,
      "lon": 4.4056455
    },
    {
      "type": "node",
      "id": 8729218763,
      "lat": 51.4125594,
      "lon": 4.404299
    },
    {
      "type": "node",
      "id": 8729218764,
      "lat": 51.4131844,
      "lon": 4.4055398
    },
    {
      "type": "node",
      "id": 8729218765,
      "lat": 51.4130704,
      "lon": 4.4049504
    },
    {
      "type": "node",
      "id": 8729218766,
      "lat": 51.412791,
      "lon": 4.4040279
    },
    {
      "type": "node",
      "id": 8729218887,
      "lat": 51.4104085,
      "lon": 4.4069585
    },
    {
      "type": "node",
      "id": 8729218739,
      "lat": 51.4114881,
      "lon": 4.4147475
    },
    {
      "type": "node",
      "id": 8729218871,
      "lat": 51.4113787,
      "lon": 4.4147075
    },
    {
      "type": "node",
      "id": 8729218872,
      "lat": 51.412414,
      "lon": 4.4121701
    },
    {
      "type": "node",
      "id": 8729218877,
      "lat": 51.4104954,
      "lon": 4.4107102
    },
    {
      "type": "node",
      "id": 8729218704,
      "lat": 51.4154261,
      "lon": 4.4186623
    },
    {
      "type": "node",
      "id": 8729218705,
      "lat": 51.4155495,
      "lon": 4.4190364
    },
    {
      "type": "node",
      "id": 8729218706,
      "lat": 51.4159455,
      "lon": 4.4221577
    },
    {
      "type": "node",
      "id": 8729218738,
      "lat": 51.4104007,
      "lon": 4.4187879
    },
    {
      "type": "node",
      "id": 8729218869,
      "lat": 51.4102018,
      "lon": 4.419027
    },
    {
      "type": "node",
      "id": 8729218870,
      "lat": 51.4103137,
      "lon": 4.4187106
    },
    {
      "type": "node",
      "id": 8729218873,
      "lat": 51.4097775,
      "lon": 4.4202631
    },
    {
      "type": "node",
      "id": 8730625676,
      "lat": 51.4156818,
      "lon": 4.4229593
    },
    {
      "type": "node",
      "id": 8729218707,
      "lat": 51.4151717,
      "lon": 4.4238065
    },
    {
      "type": "node",
      "id": 8729218708,
      "lat": 51.4141268,
      "lon": 4.4259501
    },
    {
      "type": "node",
      "id": 8729218709,
      "lat": 51.4140003,
      "lon": 4.4261312
    },
    {
      "type": "node",
      "id": 8730625677,
      "lat": 51.4141716,
      "lon": 4.4261621
    },
    {
      "type": "node",
      "id": 8730627533,
      "lat": 51.422624,
      "lon": 4.4292088
    },
    {
      "type": "node",
      "id": 8730627534,
      "lat": 51.422473,
      "lon": 4.4300055
    },
    {
      "type": "node",
      "id": 8730627535,
      "lat": 51.41967,
      "lon": 4.4271161
    },
    {
      "type": "node",
      "id": 8730627536,
      "lat": 51.4193223,
      "lon": 4.4267974
    },
    {
      "type": "node",
      "id": 8730627537,
      "lat": 51.4192516,
      "lon": 4.426776
    },
    {
      "type": "node",
      "id": 8730627538,
      "lat": 51.4192057,
      "lon": 4.4267362
    },
    {
      "type": "node",
      "id": 8730627539,
      "lat": 51.4175376,
      "lon": 4.42601
    },
    {
      "type": "node",
      "id": 8730627540,
      "lat": 51.4171095,
      "lon": 4.4265615
    },
    {
      "type": "node",
      "id": 8730627541,
      "lat": 51.4170408,
      "lon": 4.4264451
    },
    {
      "type": "node",
      "id": 8729218826,
      "lat": 51.4026032,
      "lon": 4.4423105
    },
    {
      "type": "node",
      "id": 8729218827,
      "lat": 51.4027424,
      "lon": 4.4412633
    },
    {
      "type": "node",
      "id": 8729218828,
      "lat": 51.4030185,
      "lon": 4.4401585
    },
    {
      "type": "node",
      "id": 8730625681,
      "lat": 51.4029561,
      "lon": 4.4407757
    },
    {
      "type": "node",
      "id": 8730625682,
      "lat": 51.4027667,
      "lon": 4.4416305
    },
    {
      "type": "node",
      "id": 8730625683,
      "lat": 51.4027153,
      "lon": 4.4420269
    },
    {
      "type": "node",
      "id": 8730625684,
      "lat": 51.4025875,
      "lon": 4.4430143
    },
    {
      "type": "node",
      "id": 8729218717,
      "lat": 51.4041012,
      "lon": 4.4359533
    },
    {
      "type": "node",
      "id": 8729218718,
      "lat": 51.4041328,
      "lon": 4.435778
    },
    {
      "type": "node",
      "id": 8729218719,
      "lat": 51.4042053,
      "lon": 4.4351757
    },
    {
      "type": "node",
      "id": 8729218720,
      "lat": 51.4042501,
      "lon": 4.434565
    },
    {
      "type": "node",
      "id": 8729218721,
      "lat": 51.4042659,
      "lon": 4.4339057
    },
    {
      "type": "node",
      "id": 8729218722,
      "lat": 51.4044518,
      "lon": 4.4322257
    },
    {
      "type": "node",
      "id": 8729218723,
      "lat": 51.404701,
      "lon": 4.4305372
    },
    {
      "type": "node",
      "id": 8729218835,
      "lat": 51.4040355,
      "lon": 4.4359914
    },
    {
      "type": "node",
      "id": 8729218836,
      "lat": 51.4040916,
      "lon": 4.4356063
    },
    {
      "type": "node",
      "id": 8729218837,
      "lat": 51.404123,
      "lon": 4.4352213
    },
    {
      "type": "node",
      "id": 8729218838,
      "lat": 51.4041634,
      "lon": 4.4349586
    },
    {
      "type": "node",
      "id": 8729218839,
      "lat": 51.4041868,
      "lon": 4.4340528
    },
    {
      "type": "node",
      "id": 8729218840,
      "lat": 51.4042141,
      "lon": 4.433842
    },
    {
      "type": "node",
      "id": 8729218841,
      "lat": 51.4042696,
      "lon": 4.433017
    },
    {
      "type": "node",
      "id": 8729218842,
      "lat": 51.4045633,
      "lon": 4.4309559
    },
    {
      "type": "node",
      "id": 8729218843,
      "lat": 51.4046171,
      "lon": 4.4306668
    },
    {
      "type": "node",
      "id": 8729218844,
      "lat": 51.4047445,
      "lon": 4.430253
    },
    {
      "type": "node",
      "id": 8730625678,
      "lat": 51.4086815,
      "lon": 4.4325233
    },
    {
      "type": "node",
      "id": 8729218711,
      "lat": 51.4034855,
      "lon": 4.4383539
    },
    {
      "type": "node",
      "id": 8729218712,
      "lat": 51.4035145,
      "lon": 4.4382335
    },
    {
      "type": "node",
      "id": 8729218713,
      "lat": 51.4034961,
      "lon": 4.4379545
    },
    {
      "type": "node",
      "id": 8729218714,
      "lat": 51.4035449,
      "lon": 4.4376185
    },
    {
      "type": "node",
      "id": 8729218715,
      "lat": 51.40374,
      "lon": 4.4372804
    },
    {
      "type": "node",
      "id": 8729218716,
      "lat": 51.4037558,
      "lon": 4.4372191
    },
    {
      "type": "node",
      "id": 8729218829,
      "lat": 51.4034046,
      "lon": 4.4384564
    },
    {
      "type": "node",
      "id": 8729218830,
      "lat": 51.4034316,
      "lon": 4.4383521
    },
    {
      "type": "node",
      "id": 8729218831,
      "lat": 51.4034316,
      "lon": 4.4380066
    },
    {
      "type": "node",
      "id": 8729218832,
      "lat": 51.4034832,
      "lon": 4.4376503
    },
    {
      "type": "node",
      "id": 8729218833,
      "lat": 51.4036897,
      "lon": 4.4372941
    },
    {
      "type": "node",
      "id": 8729218834,
      "lat": 51.4037257,
      "lon": 4.4371501
    },
    {
      "type": "node",
      "id": 8730625679,
      "lat": 51.4034393,
      "lon": 4.4385416
    },
    {
      "type": "node",
      "id": 8730625680,
      "lat": 51.4033845,
      "lon": 4.4388821
    },
    {
      "type": "node",
      "id": 412951733,
      "lat": 51.4013802,
      "lon": 4.4447021
    },
    {
      "type": "node",
      "id": 412951734,
      "lat": 51.4022305,
      "lon": 4.4451321
    },
    {
      "type": "node",
      "id": 412951735,
      "lat": 51.4021481,
      "lon": 4.4458022
    },
    {
      "type": "node",
      "id": 412951736,
      "lat": 51.4014581,
      "lon": 4.4455277
    },
    {
      "type": "node",
      "id": 1246797241,
      "lat": 51.4012742,
      "lon": 4.44523
    },
    {
      "type": "node",
      "id": 8729218823,
      "lat": 51.3983803,
      "lon": 4.4472045
    },
    {
      "type": "node",
      "id": 8729218824,
      "lat": 51.3983915,
      "lon": 4.4472837
    },
    {
      "type": "node",
      "id": 8729218825,
      "lat": 51.4021654,
      "lon": 4.4458083
    },
    {
      "type": "node",
      "id": 8730625685,
      "lat": 51.4024441,
      "lon": 4.4442286
    },
    {
      "type": "node",
      "id": 8730625686,
      "lat": 51.4023273,
      "lon": 4.4452042
    },
    {
      "type": "node",
      "id": 8730625687,
      "lat": 51.4020644,
      "lon": 4.4473498
    },
    {
      "type": "node",
      "id": 8730625688,
      "lat": 51.4018446,
      "lon": 4.4491757
    },
    {
      "type": "node",
      "id": 8730625689,
      "lat": 51.4015523,
      "lon": 4.4513288
    },
    {
      "type": "node",
      "id": 8730625690,
      "lat": 51.4011459,
      "lon": 4.4545532
    },
    {
      "type": "node",
      "id": 8730625691,
      "lat": 51.4010053,
      "lon": 4.4556599
    },
    {
      "type": "node",
      "id": 8730625692,
      "lat": 51.4010062,
      "lon": 4.4558073
    },
    {
      "type": "node",
      "id": 8729218710,
      "lat": 51.4104018,
      "lon": 4.4303388
    },
    {
      "type": "node",
      "id": 8730627527,
      "lat": 51.4227844,
      "lon": 4.435775
    },
    {
      "type": "node",
      "id": 8730627529,
      "lat": 51.4223546,
      "lon": 4.4331828
    },
    {
      "type": "node",
      "id": 8730627530,
      "lat": 51.4225552,
      "lon": 4.4321503
    },
    {
      "type": "node",
      "id": 8730627517,
      "lat": 51.4188847,
      "lon": 4.4414832
    },
    {
      "type": "node",
      "id": 8730627518,
      "lat": 51.4190624,
      "lon": 4.4399206
    },
    {
      "type": "node",
      "id": 8730627519,
      "lat": 51.4191866,
      "lon": 4.4398746
    },
    {
      "type": "node",
      "id": 8730627520,
      "lat": 51.421105,
      "lon": 4.4400585
    },
    {
      "type": "node",
      "id": 8730627521,
      "lat": 51.4220183,
      "lon": 4.4398562
    },
    {
      "type": "node",
      "id": 8730627522,
      "lat": 51.4217431,
      "lon": 4.4382997
    },
    {
      "type": "node",
      "id": 8730625704,
      "lat": 51.4143052,
      "lon": 4.4561313
    },
    {
      "type": "node",
      "id": 8730625705,
      "lat": 51.4144565,
      "lon": 4.4562649
    },
    {
      "type": "node",
      "id": 8730625706,
      "lat": 51.415191,
      "lon": 4.4551797
    },
    {
      "type": "node",
      "id": 8730625707,
      "lat": 51.4151382,
      "lon": 4.4555797
    },
    {
      "type": "node",
      "id": 8730625708,
      "lat": 51.4151071,
      "lon": 4.455747
    },
    {
      "type": "node",
      "id": 8730625709,
      "lat": 51.4154357,
      "lon": 4.4558681
    },
    {
      "type": "node",
      "id": 8730625710,
      "lat": 51.4154465,
      "lon": 4.4557066
    },
    {
      "type": "node",
      "id": 8730625715,
      "lat": 51.4180516,
      "lon": 4.4468514
    },
    {
      "type": "node",
      "id": 8730625716,
      "lat": 51.4185083,
      "lon": 4.4438027
    },
    {
      "type": "node",
      "id": 8730625711,
      "lat": 51.4167439,
      "lon": 4.4553518
    },
    {
      "type": "node",
      "id": 8730625712,
      "lat": 51.4168932,
      "lon": 4.4543043
    },
    {
      "type": "node",
      "id": 8730625713,
      "lat": 51.4168769,
      "lon": 4.4542706
    },
    {
      "type": "node",
      "id": 8730625714,
      "lat": 51.4174879,
      "lon": 4.4506385
    },
    {
      "type": "node",
      "id": 8730627531,
      "lat": 51.4235659,
      "lon": 4.4297205
    },
    {
      "type": "node",
      "id": 8730627532,
      "lat": 51.4232965,
      "lon": 4.4294141
    },
    {
      "type": "node",
      "id": 8139203484,
      "lat": 51.446895,
      "lon": 4.4098017
    },
    {
      "type": "node",
      "id": 8139203485,
      "lat": 51.4468774,
      "lon": 4.4097427
    },
    {
      "type": "node",
      "id": 8139203487,
      "lat": 51.4470113,
      "lon": 4.4099115
    },
    {
      "type": "node",
      "id": 8139203488,
      "lat": 51.4469717,
      "lon": 4.4099464
    },
    {
      "type": "node",
      "id": 8139203489,
      "lat": 51.4470108,
      "lon": 4.4100609
    },
    {
      "type": "node",
      "id": 8139203492,
      "lat": 51.4468298,
      "lon": 4.4098518
    },
    {
      "type": "node",
      "id": 8139203496,
      "lat": 51.4470505,
      "lon": 4.410026
    },
    {
      "type": "node",
      "id": 8139203497,
      "lat": 51.4468122,
      "lon": 4.4097928
    },
    {
      "type": "node",
      "id": 8139203501,
      "lat": 51.4471604,
      "lon": 4.4093023
    },
    {
      "type": "node",
      "id": 8139203502,
      "lat": 51.4472134,
      "lon": 4.4094569
    },
    {
      "type": "node",
      "id": 8139203503,
      "lat": 51.4471714,
      "lon": 4.4094939
    },
    {
      "type": "node",
      "id": 8139203504,
      "lat": 51.4471184,
      "lon": 4.4093394
    },
    {
      "type": "node",
      "id": 7944441129,
      "lat": 51.4487896,
      "lon": 4.4167941
    },
    {
      "type": "node",
      "id": 7944441130,
      "lat": 51.4488575,
      "lon": 4.4171238
    },
    {
      "type": "node",
      "id": 7944441143,
      "lat": 51.4487965,
      "lon": 4.4168279
    },
    {
      "type": "node",
      "id": 8139543912,
      "lat": 51.4464869,
      "lon": 4.4110467
    },
    {
      "type": "node",
      "id": 8139543913,
      "lat": 51.4464888,
      "lon": 4.4111249
    },
    {
      "type": "node",
      "id": 8139543914,
      "lat": 51.4463283,
      "lon": 4.4111349
    },
    {
      "type": "node",
      "id": 8139543915,
      "lat": 51.4463264,
      "lon": 4.4110568
    },
    {
      "type": "node",
      "id": 8139543916,
      "lat": 51.4464329,
      "lon": 4.4108125
    },
    {
      "type": "node",
      "id": 8139629417,
      "lat": 51.4464362,
      "lon": 4.4109644
    },
    {
      "type": "node",
      "id": 8139629418,
      "lat": 51.446287,
      "lon": 4.4109727
    },
    {
      "type": "node",
      "id": 8139629419,
      "lat": 51.4462837,
      "lon": 4.4108208
    },
    {
      "type": "node",
      "id": 7944441132,
      "lat": 51.4476318,
      "lon": 4.4176961
    },
    {
      "type": "node",
      "id": 7944441133,
      "lat": 51.4476953,
      "lon": 4.418035
    },
    {
      "type": "node",
      "id": 7944441134,
      "lat": 51.4480888,
      "lon": 4.4176626
    },
    {
      "type": "node",
      "id": 7944441135,
      "lat": 51.448045,
      "lon": 4.4173953
    },
    {
      "type": "node",
      "id": 7944441140,
      "lat": 51.4480237,
      "lon": 4.4177214
    },
    {
      "type": "node",
      "id": 7944441141,
      "lat": 51.4480465,
      "lon": 4.4178749
    },
    {
      "type": "node",
      "id": 644213148,
      "lat": 51.4271147,
      "lon": 4.4311745
    },
    {
      "type": "node",
      "id": 644213154,
      "lat": 51.4276836,
      "lon": 4.4312939
    },
    {
      "type": "node",
      "id": 8730627526,
      "lat": 51.4234799,
      "lon": 4.4363265
    },
    {
      "type": "node",
      "id": 8730627528,
      "lat": 51.4235143,
      "lon": 4.4342001
    },
    {
      "type": "node",
      "id": 8842124283,
      "lat": 51.4276629,
      "lon": 4.4315481
    },
    {
      "type": "node",
      "id": 8842124284,
      "lat": 51.4270939,
      "lon": 4.4314288
    },
    {
      "type": "node",
      "id": 8730627523,
      "lat": 51.4244982,
      "lon": 4.4370772
    },
    {
      "type": "node",
      "id": 8730627524,
      "lat": 51.4245288,
      "lon": 4.4370986
    },
    {
      "type": "node",
      "id": 8730627525,
      "lat": 51.4245804,
      "lon": 4.4369883
    },
    {
      "type": "node",
      "id": 8068663702,
      "lat": 51.4393261,
      "lon": 4.4336404
    },
    {
      "type": "node",
      "id": 8068663703,
      "lat": 51.439214,
      "lon": 4.4336075
    },
    {
      "type": "node",
      "id": 8068663704,
      "lat": 51.439168,
      "lon": 4.4340102
    },
    {
      "type": "node",
      "id": 8068663705,
      "lat": 51.4392802,
      "lon": 4.4340432
    },
    {
      "type": "node",
      "id": 7943318561,
      "lat": 51.4015024,
      "lon": 4.4682851
    },
    {
      "type": "node",
      "id": 7943318562,
      "lat": 51.4016022,
      "lon": 4.4685285
    },
    {
      "type": "node",
      "id": 7943318563,
      "lat": 51.4018654,
      "lon": 4.4682511
    },
    {
      "type": "node",
      "id": 7943318578,
      "lat": 51.4017656,
      "lon": 4.4680077
    },
    {
      "type": "node",
      "id": 8730625693,
      "lat": 51.4035188,
      "lon": 4.4573591
    },
    {
      "type": "node",
      "id": 8730625694,
      "lat": 51.4036015,
      "lon": 4.4573999
    },
    {
      "type": "node",
      "id": 8730625695,
      "lat": 51.4037054,
      "lon": 4.4597599
    },
    {
      "type": "node",
      "id": 8730625696,
      "lat": 51.4052995,
      "lon": 4.4591881
    },
    {
      "type": "node",
      "id": 8730625697,
      "lat": 51.4052967,
      "lon": 4.4590009
    },
    {
      "type": "node",
      "id": 8730625698,
      "lat": 51.4057858,
      "lon": 4.4588197
    },
    {
      "type": "node",
      "id": 8730625699,
      "lat": 51.4073887,
      "lon": 4.4582463
    },
    {
      "type": "node",
      "id": 8730625700,
      "lat": 51.4075272,
      "lon": 4.4583244
    },
    {
      "type": "node",
      "id": 8730625701,
      "lat": 51.4093836,
      "lon": 4.4577037
    },
    {
      "type": "node",
      "id": 8730625702,
      "lat": 51.4119413,
      "lon": 4.456861
    },
    {
      "type": "node",
      "id": 8730625703,
      "lat": 51.4126771,
      "lon": 4.4566082
    },
    {
      "type": "node",
      "id": 3938196701,
      "lat": 51.4279655,
      "lon": 4.4636266
    },
    {
      "type": "node",
      "id": 3938196702,
      "lat": 51.427787,
      "lon": 4.4635841
    },
    {
      "type": "node",
      "id": 3938196703,
      "lat": 51.4275766,
      "lon": 4.4636181
    },
    {
      "type": "node",
      "id": 3938196704,
      "lat": 51.4275925,
      "lon": 4.4638505
    },
    {
      "type": "node",
      "id": 3938196705,
      "lat": 51.4279725,
      "lon": 4.4637825
    },
    {
      "type": "node",
      "id": 4625937933,
      "lat": 51.427804,
      "lon": 4.463258
    },
    {
      "type": "node",
      "id": 4985237393,
      "lat": 51.4280965,
      "lon": 4.468778
    },
    {
      "type": "node",
      "id": 4985237394,
      "lat": 51.4281331,
      "lon": 4.4688394
    },
    {
      "type": "node",
      "id": 5095358742,
      "lat": 51.4280479,
      "lon": 4.4687777
    },
    {
      "type": "node",
      "id": 5095358744,
      "lat": 51.4282242,
      "lon": 4.4689013
    },
    {
      "type": "node",
      "id": 5095384531,
      "lat": 51.4280941,
      "lon": 4.468432
    },
    {
      "type": "node",
      "id": 5095384532,
      "lat": 51.4283951,
      "lon": 4.4687651
    },
    {
      "type": "node",
      "id": 5095384533,
      "lat": 51.4284307,
      "lon": 4.4686924
    },
    {
      "type": "node",
      "id": 5095384534,
      "lat": 51.4284048,
      "lon": 4.4688465
    },
    {
      "type": "node",
      "id": 5095384535,
      "lat": 51.4281418,
      "lon": 4.4683083
    },
    {
      "type": "node",
      "id": 5095384536,
      "lat": 51.4280531,
      "lon": 4.468432
    },
    {
      "type": "node",
      "id": 5196298640,
      "lat": 51.4279677,
      "lon": 4.4636748
    },
    {
      "type": "node",
      "id": 5196298641,
      "lat": 51.427585,
      "lon": 4.4637415
    },
    {
      "type": "node",
      "id": 8044576738,
      "lat": 51.4277933,
      "lon": 4.4631785
    },
    {
      "type": "node",
      "id": 8044576739,
      "lat": 51.4275781,
      "lon": 4.4633363
    },
    {
      "type": "node",
      "id": 8044576740,
      "lat": 51.4275674,
      "lon": 4.4632567
    },
    {
      "type": "node",
      "id": 8107848735,
      "lat": 51.4286159,
      "lon": 4.4675331
    },
    {
      "type": "node",
      "id": 8107848736,
      "lat": 51.4286505,
      "lon": 4.4677473
    },
    {
      "type": "node",
      "id": 8107848737,
      "lat": 51.4280519,
      "lon": 4.4677607
    },
    {
      "type": "node",
      "id": 8107848738,
      "lat": 51.4280519,
      "lon": 4.467581
    },
    {
      "type": "node",
      "id": 8107848739,
      "lat": 51.4281452,
      "lon": 4.4682144
    },
    {
      "type": "node",
      "id": 8107848740,
      "lat": 51.4281238,
      "lon": 4.4683963
    },
    {
      "type": "node",
      "id": 8107848741,
      "lat": 51.4280955,
      "lon": 4.468394
    },
    {
      "type": "node",
      "id": 8107848742,
      "lat": 51.4281886,
      "lon": 4.468828
    },
    {
      "type": "node",
      "id": 8107848743,
      "lat": 51.4282008,
      "lon": 4.4689052
    },
    {
      "type": "node",
      "id": 8107848744,
      "lat": 51.4285132,
      "lon": 4.468666
    },
    {
      "type": "node",
      "id": 8107848745,
      "lat": 51.4283953,
      "lon": 4.4681859
    },
    {
      "type": "node",
      "id": 8107848746,
      "lat": 51.4284543,
      "lon": 4.4682536
    },
    {
      "type": "node",
      "id": 8107848747,
      "lat": 51.4283973,
      "lon": 4.4682683
    },
    {
      "type": "node",
      "id": 9098865295,
      "lat": 51.4273897,
      "lon": 4.4677599
    },
    {
      "type": "node",
      "id": 9098865302,
      "lat": 51.4273871,
      "lon": 4.4681334
    },
    {
      "type": "node",
      "id": 9098865303,
      "lat": 51.4272398,
      "lon": 4.4677264
    },
    {
      "type": "node",
      "id": 9098865304,
      "lat": 51.4274047,
      "lon": 4.4677591
    },
    {
      "type": "node",
      "id": 9098865305,
      "lat": 51.4274901,
      "lon": 4.4680382
    },
    {
      "type": "node",
      "id": 623565208,
      "lat": 51.432611,
      "lon": 4.4609507
    },
    {
      "type": "node",
      "id": 623565209,
      "lat": 51.4326057,
      "lon": 4.4605318
    },
    {
      "type": "node",
      "id": 623565210,
      "lat": 51.431938,
      "lon": 4.4610145
    },
    {
      "type": "node",
      "id": 4985158611,
      "lat": 51.4276814,
      "lon": 4.4727805
    },
    {
      "type": "node",
      "id": 4985237400,
      "lat": 51.4278306,
      "lon": 4.4732133
    },
    {
      "type": "node",
      "id": 4985237401,
      "lat": 51.4281695,
      "lon": 4.4729932
    },
    {
      "type": "node",
      "id": 4985237402,
      "lat": 51.4281492,
      "lon": 4.4729208
    },
    {
      "type": "node",
      "id": 4985237403,
      "lat": 51.4281962,
      "lon": 4.4728869
    },
    {
      "type": "node",
      "id": 4985237404,
      "lat": 51.4280891,
      "lon": 4.4725108
    },
    {
      "type": "node",
      "id": 8108386192,
      "lat": 51.4256311,
      "lon": 4.4706469
    },
    {
      "type": "node",
      "id": 8108386193,
      "lat": 51.4259748,
      "lon": 4.4711194
    },
    {
      "type": "node",
      "id": 8108386194,
      "lat": 51.4259417,
      "lon": 4.4711814
    },
    {
      "type": "node",
      "id": 8108386195,
      "lat": 51.425598,
      "lon": 4.4707088
    },
    {
      "type": "node",
      "id": 7968993278,
      "lat": 51.4241242,
      "lon": 4.4793053
    },
    {
      "type": "node",
      "id": 7968993279,
      "lat": 51.4237515,
      "lon": 4.4794626
    },
    {
      "type": "node",
      "id": 7968993280,
      "lat": 51.4236187,
      "lon": 4.4798416
    },
    {
      "type": "node",
      "id": 7968993281,
      "lat": 51.4236536,
      "lon": 4.4799151
    },
    {
      "type": "node",
      "id": 7968993282,
      "lat": 51.4241352,
      "lon": 4.4797162
    },
    {
      "type": "node",
      "id": 7968993283,
      "lat": 51.4241745,
      "lon": 4.479616
    },
    {
      "type": "node",
      "id": 7968996700,
      "lat": 51.4237064,
      "lon": 4.4798933
    },
    {
      "type": "node",
      "id": 891074937,
      "lat": 51.4491801,
      "lon": 4.4164875
    },
    {
      "type": "node",
      "id": 7944441131,
      "lat": 51.4492731,
      "lon": 4.4168075
    },
    {
      "type": "node",
      "id": 7931646153,
      "lat": 51.4501342,
      "lon": 4.4522415
    },
    {
      "type": "node",
      "id": 7931646155,
      "lat": 51.4500763,
      "lon": 4.4522892
    },
    {
      "type": "node",
      "id": 7931646156,
      "lat": 51.4501615,
      "lon": 4.4525704
    },
    {
      "type": "node",
      "id": 7931646157,
      "lat": 51.4502219,
      "lon": 4.4525284
    },
    {
      "type": "node",
      "id": 7919878546,
      "lat": 51.4541073,
      "lon": 4.4639678
    },
    {
      "type": "node",
      "id": 7919878547,
      "lat": 51.4539546,
      "lon": 4.4640116
    },
    {
      "type": "node",
      "id": 7919878548,
      "lat": 51.4540073,
      "lon": 4.4645689
    },
    {
      "type": "node",
      "id": 7919878549,
      "lat": 51.4541628,
      "lon": 4.4645324
    },
    {
      "type": "node",
      "id": 7947556866,
      "lat": 51.4507705,
      "lon": 4.4691583
    },
    {
      "type": "node",
      "id": 7947556871,
      "lat": 51.4505635,
      "lon": 4.4692069
    },
    {
      "type": "node",
      "id": 1359428678,
      "lat": 51.4508437,
      "lon": 4.469904
    },
    {
      "type": "node",
      "id": 7947556868,
      "lat": 51.4507834,
      "lon": 4.4699292
    },
    {
      "type": "node",
      "id": 7947556869,
      "lat": 51.4506838,
      "lon": 4.4698164
    },
    {
      "type": "node",
      "id": 7947556870,
      "lat": 51.4506215,
      "lon": 4.4698241
    },
    {
      "type": "way",
      "id": 942686872,
      "nodes": [
        8729218758,
        8729218759,
        8729218760,
        8729218761,
        8729218762,
        8729218763,
        8729218764,
        8729218765,
        8729218766,
        8729218767,
        8729218768,
        8729218769,
        8729218770,
        8729218771,
        8729218772,
        8729218773,
        8729218774,
        8729218775,
        8729218776,
        8729218777,
        8729218778,
        8729218779,
        8729218780,
        8729218781,
        8729218782,
        8729218783,
        8729218784,
        8729218785,
        8729218786,
        8729218787,
        8729218788,
        8729218789,
        8729218790,
        8729218791,
        8729218792,
        8729218793,
        8729218794,
        8729218795,
        8729218796,
        8729218797,
        8729218798,
        8729218799,
        8729218800,
        8729218804,
        8729218806,
        8729218801,
        8729218802,
        8729218807,
        8729218805,
        8729218803,
        8729218808,
        8729218809,
        8729218810,
        8729218811,
        8729218812,
        8729218813,
        8729218814,
        8729218815,
        8729218816,
        8729218952,
        8729218817,
        8729218818,
        8729218819,
        8729218820,
        8729218821,
        8729218822,
        8729218823,
        8729218824,
        8729218825,
        8729218826,
        8729218827,
        8729218828,
        8729218829,
        8729218830,
        8729218831,
        8729218832,
        8729218833,
        8729218834,
        8729218835,
        8729218836,
        8729218837,
        8729218838,
        8729218839,
        8729218840,
        8729218841,
        8729218842,
        8729218843,
        8729218844,
        8729218876,
        8729218845,
        8729218846,
        8729218847,
        8729218848,
        8729218849,
        8729218850,
        8729218874,
        8729218851,
        8729218852,
        8729218853,
        8729218854,
        8729218855,
        8729218856,
        8729218857,
        8729218858,
        8729218859,
        8729218860,
        8729218861,
        8729218862,
        8729218863,
        8729218869,
        8729218870,
        8729218871,
        8729218758
      ]
    },
    {
      "type": "way",
      "id": 942686880,
      "nodes": [
        8729218920,
        8729218921,
        8729218922,
        8729218923,
        8729218920
      ]
    },
    {
      "type": "way",
      "id": 942686881,
      "nodes": [
        8729218924,
        8729218925,
        8729218926,
        8729218927,
        8729218928,
        8729218929,
        8729218930,
        8729218931,
        8729218932,
        8729218933,
        8729218934,
        8729218935,
        8729218936,
        8729218937,
        8729218938,
        8729218939,
        8729218940,
        8729218941,
        8729218942,
        8729218943,
        8729218944,
        8729218945,
        8729218946,
        8729218947,
        8729218948,
        8729218949,
        8729218950,
        8729218951,
        8729218924
      ]
    },
    {
      "type": "way",
      "id": 942686878,
      "nodes": [
        8729218907,
        8729218908,
        8729218909,
        8729218910,
        8729218907
      ]
    },
    {
      "type": "way",
      "id": 942686882,
      "nodes": [
        8729218953,
        8729218954,
        8729218955,
        8729218956,
        8729218957,
        8729218958,
        8729218959,
        8729218960,
        8729218953
      ]
    },
    {
      "type": "way",
      "id": 942686879,
      "nodes": [
        8729218911,
        8729218912,
        8729218913,
        8729218914,
        8729218915,
        8729218916,
        8729218917,
        8729218918,
        8729218919,
        8729218911
      ]
    },
    {
      "type": "way",
      "id": 942686874,
      "nodes": [
        8729218889,
        8729218890,
        8729218891,
        8729218892,
        8729218889
      ]
    },
    {
      "type": "way",
      "id": 942686864,
      "nodes": [
        8729213496,
        8729213497,
        8729213498,
        8729213499,
        8729213500,
        8729213501,
        8729213502,
        8729213503,
        8729213504,
        8729213505,
        8729213506,
        8729213507,
        8729213508,
        8729213509,
        8729213510,
        8729213511,
        8729213512,
        8729213513,
        8729213514,
        8729213515,
        8729213516,
        8729218617,
        8729218618,
        8729218619,
        8729218620,
        8729218621,
        8729218622,
        8729218623,
        8729218624,
        8729218625,
        8729218626,
        8729218627,
        8729218628,
        8729213496
      ]
    },
    {
      "type": "way",
      "id": 942686866,
      "nodes": [
        8729218633,
        8729218634,
        8729218635,
        8729218636,
        8729218637,
        8729218638,
        8729218639,
        8729218640,
        8729218641,
        8729218642,
        8729218643,
        8729218644,
        8729218645,
        8729218646,
        8729218647,
        8729218648,
        8729218649,
        8729218633
      ]
    },
    {
      "type": "way",
      "id": 942686865,
      "nodes": [
        8729218629,
        8729218630,
        8729218631,
        8729218632,
        8729218629
      ]
    },
    {
      "type": "way",
      "id": 942686875,
      "nodes": [
        8729218893,
        8729218894,
        8729218895,
        8729218896,
        8729218897,
        8729218898,
        8729218893
      ]
    },
    {
      "type": "way",
      "id": 942686868,
      "nodes": [
        8729218656,
        8729218657,
        8729218658,
        8729218659,
        8729218660,
        8729218661,
        8729218662,
        8729218663,
        8729218664,
        8729218665,
        8729218656
      ]
    },
    {
      "type": "way",
      "id": 942686871,
      "nodes": [
        8729218740,
        8729218741,
        8729218742,
        8729218743,
        8729218744,
        8729218745,
        8729218746,
        8729218747,
        8729218748,
        8729218749,
        8729218750,
        8729218751,
        8729218752,
        8729218753,
        8729218754,
        8729218755,
        8729218756,
        8729218757,
        8729218740
      ]
    },
    {
      "type": "way",
      "id": 942686867,
      "nodes": [
        8729218650,
        8729218651,
        8729218652,
        8729218653,
        8729218654,
        8729218655,
        8729218650
      ]
    },
    {
      "type": "way",
      "id": 942686876,
      "nodes": [
        8729218899,
        8729218900,
        8729218901,
        8729218902,
        8729218899
      ]
    },
    {
      "type": "way",
      "id": 942686873,
      "nodes": [
        8729218877,
        8729218878,
        8729218879,
        8729218880,
        8729218881,
        8729218882,
        8729218883,
        8729218884,
        8729218885,
        8729218886,
        8729218887,
        8729218888,
        8729218877
      ]
    },
    {
      "type": "way",
      "id": 942686877,
      "nodes": [
        8729218903,
        8729218904,
        8729218905,
        8729218906,
        8729218903
      ]
    },
    {
      "type": "way",
      "id": 942686870,
      "nodes": [
        8729218703,
        8729218704,
        8729218705,
        8729218706,
        8729218707,
        8729218708,
        8729218709,
        8729218710,
        8729218711,
        8729218712,
        8729218713,
        8729218714,
        8729218715,
        8729218716,
        8729218717,
        8729218718,
        8729218719,
        8729218720,
        8729218721,
        8729218722,
        8729218723,
        8729218724,
        8729218725,
        8729218726,
        8729218727,
        8729218875,
        8729218728,
        8729218729,
        8729218730,
        8729218731,
        8729218732,
        8729218733,
        8729218734,
        8729218735,
        8729218736,
        8729218737,
        8729218873,
        8729218738,
        8729218739,
        8729218872,
        8729218703
      ]
    },
    {
      "type": "way",
      "id": 942822994,
      "nodes": [
        8730625676,
        8730625677,
        8730625678,
        8730625679,
        8730625680,
        8730625681,
        8730625682,
        8730625683,
        8730625684,
        8730625685,
        8730625686,
        8730625687,
        8730625688,
        8730625689,
        8730625690,
        8730625691,
        8730625692,
        8730625693,
        8730625694,
        8730625695,
        8730625696,
        8730625697,
        8730625698,
        8730625699,
        8730625700,
        8730625701,
        8730625702,
        8730625703,
        8730625704,
        8730625705,
        8730625706,
        8730625707,
        8730625708,
        8730625709,
        8730625710,
        8730625711,
        8730625712,
        8730625713,
        8730625714,
        8730625715,
        8730625716,
        8730627517,
        8730627518,
        8730627519,
        8730627520,
        8730627521,
        8730627522,
        8730627523,
        8730627524,
        8730627525,
        8730627526,
        8730627527,
        8730627528,
        8730627529,
        8730627530,
        8730627531,
        8730627532,
        8730627533,
        8730627534,
        8730627535,
        8730627536,
        8730627537,
        8730627538,
        8730627539,
        8730627540,
        8730627541,
        8730625676
      ]
    }
  ]
}