{
  "version": 0.6,
  "generator": "Overpass API 0.7.56.8 7d656e78",
  "osm3s": {
    "timestamp_osm_base": "2021-12-11T05:01:41Z",
    "copyright": "The data included in this document is from www.openstreetmap.org. The data is made available under ODbL."
  },
  "elements": [
    {
      "type": "node",
      "id": 747028591,
      "lat": 51.0912016,
      "lon": 5.7937985,
      "tags": {
        "amenity": "parking",
        "capacity": "373",
        "fee": "yes",
        "layer": "-1",
        "name": "P3 Kloosterbempden",
        "parking": "underground",
        "wheelchair": "yes"
      }
    },
    {
      "type": "node",
      "id": 935184441,
      "lat": 51.0823979,
      "lon": 5.7489373,
      "tags": {
        "amenity": "bench"
      }
    },
    {
      "type": "node",
      "id": 935184474,
      "lat": 51.0707746,
      "lon": 5.7922094,
      "tags": {
        "amenity": "bench",
        "backrest": "yes"
      }
    },
    {
      "type": "node",
      "id": 935184478,
      "lat": 51.0766102,
      "lon": 5.795393,
      "tags": {
        "amenity": "bench"
      }
    },
    {
      "type": "node",
      "id": 935184479,
      "lat": 51.080939,
      "lon": 5.7455745,
      "tags": {
        "amenity": "bench"
      }
    },
    {
      "type": "node",
      "id": 935184526,
      "lat": 51.0922884,
      "lon": 5.7960407,
      "tags": {
        "amenity": "bench"
      }
    },
    {
      "type": "node",
      "id": 935184561,
      "lat": 51.0915052,
      "lon": 5.7952048,
      "tags": {
        "amenity": "bench",
        "backrest": "yes",
        "material": "wood"
      }
    },
    {
      "type": "node",
      "id": 2357289960,
      "lat": 51.0766534,
      "lon": 5.7951305,
      "tags": {
        "amenity": "toilets"
      }
    },
    {
      "type": "node",
      "id": 2367373262,
      "lat": 51.1022733,
      "lon": 5.7825979,
      "tags": {
        "amenity": "bench"
      }
    },
    {
      "type": "node",
      "id": 2412206492,
      "lat": 51.0812345,
      "lon": 5.7454354,
      "tags": {
        "leisure": "picnic_table"
      }
    },
    {
      "type": "node",
      "id": 2425693586,
      "lat": 51.1186816,
      "lon": 5.7474006,
      "tags": {
        "amenity": "bench"
      }
    },
    {
      "type": "node",
      "id": 2429353568,
      "lat": 51.0726017,
      "lon": 5.7453367,
      "tags": {
        "amenity": "bench"
      }
    },
    {
      "type": "node",
      "id": 2500979479,
      "lat": 51.08647,
      "lon": 5.7382765,
      "tags": {
        "board_type": "board",
        "information": "board",
        "name": "Natuurgebied Tösch-Langeren",
        "tourism": "information"
      }
    },
    {
      "type": "node",
      "id": 2500979480,
      "lat": 51.0938465,
      "lon": 5.7437249,
      "tags": {
        "information": "board",
        "name": "Natuurgebied Tösch-Langeren",
        "tourism": "information"
      }
    },
    {
      "type": "node",
      "id": 2500979505,
      "lat": 51.086545,
      "lon": 5.7383632,
      "tags": {
        "leisure": "picnic_table"
      }
    },
    {
      "type": "node",
      "id": 2500979557,
      "lat": 51.0938215,
      "lon": 5.7437512,
      "tags": {
        "amenity": "bench"
      }
    },
    {
      "type": "node",
      "id": 3151289493,
      "lat": 51.1016313,
      "lon": 5.7995213,
      "tags": {
        "amenity": "bench"
      }
    },
    {
      "type": "node",
      "id": 3151420873,
      "lat": 51.0894342,
      "lon": 5.7942299,
      "tags": {
        "amenity": "bench",
        "backrest": "yes",
        "material": "wood"
      }
    },
    {
      "type": "node",
      "id": 3151420874,
      "lat": 51.0930762,
      "lon": 5.7974644,
      "tags": {
        "amenity": "bench",
        "backrest": "yes"
      }
    },
    {
      "type": "node",
      "id": 3188922319,
      "lat": 51.0965784,
      "lon": 5.7572679,
      "tags": {
        "information": "board",
        "name": "Grenspark KempenBroek - Wandelgebied Tösch-Langeren",
        "tourism": "information"
      }
    },
    {
      "type": "node",
      "id": 3188922320,
      "lat": 51.116442,
      "lon": 5.7307544,
      "tags": {
        "information": "board",
        "name": "Jagersborg",
        "tourism": "information"
      }
    },
    {
      "type": "node",
      "id": 3188922321,
      "lat": 51.1052145,
      "lon": 5.7352528,
      "tags": {
        "information": "board",
        "name": "Welkom in het domeinbos Jagersborg",
        "tourism": "information"
      }
    },
    {
      "type": "node",
      "id": 3188922343,
      "lat": 51.0934145,
      "lon": 5.7279681,
      "tags": {
        "amenity": "bench"
      }
    },
    {
      "type": "node",
      "id": 3188928664,
      "lat": 51.0968549,
      "lon": 5.7588983,
      "tags": {
        "leisure": "picnic_table"
      }
    },
    {
      "type": "node",
      "id": 3254017312,
      "lat": 51.1185134,
      "lon": 5.7345972,
      "tags": {
        "information": "board",
        "name": "Welkom in het domeinbos Jagersborg",
        "tourism": "information"
      }
    },
    {
      "type": "node",
      "id": 3254019480,
      "lat": 51.1185145,
      "lon": 5.7345557,
      "tags": {
        "leisure": "picnic_table"
      }
    },
    {
      "type": "node",
      "id": 3297083609,
      "lat": 51.0811504,
      "lon": 5.7310665,
      "tags": {
        "amenity": "bench"
      }
    },
    {
      "type": "node",
      "id": 3297083618,
      "lat": 51.0830351,
      "lon": 5.7524437,
      "tags": {
        "amenity": "bench"
      }
    },
    {
      "type": "node",
      "id": 3297083631,
      "lat": 51.0860284,
      "lon": 5.7271892,
      "tags": {
        "amenity": "bench"
      }
    },
    {
      "type": "node",
      "id": 3297083659,
      "lat": 51.0910939,
      "lon": 5.7131261,
      "tags": {
        "leisure": "picnic_table"
      }
    },
    {
      "type": "node",
      "id": 3297083660,
      "lat": 51.0911241,
      "lon": 5.7130841,
      "tags": {
        "leisure": "picnic_table"
      }
    },
    {
      "type": "node",
      "id": 4006053488,
      "lat": 51.0708801,
      "lon": 5.7922963,
      "tags": {
        "amenity": "bench"
      }
    },
    {
      "type": "node",
      "id": 4172143700,
      "lat": 51.0943394,
      "lon": 5.7729183,
      "tags": {
        "amenity": "bench",
        "backrest": "yes"
      }
    },
    {
      "type": "node",
      "id": 4172143701,
      "lat": 51.0943722,
      "lon": 5.7730001,
      "tags": {
        "amenity": "bench",
        "backrest": "yes"
      }
    },
    {
      "type": "node",
      "id": 4172166499,
      "lat": 51.0947761,
      "lon": 5.7914772,
      "tags": {
        "amenity": "bench",
        "backrest": "yes",
        "material": "wood"
      }
    },
    {
      "type": "node",
      "id": 4172166500,
      "lat": 51.0950316,
      "lon": 5.7913094,
      "tags": {
        "amenity": "bench",
        "backrest": "yes"
      }
    },
    {
      "type": "node",
      "id": 5236894453,
      "lat": 51.0876842,
      "lon": 5.794464,
      "tags": {
        "amenity": "bench"
      }
    },
    {
      "type": "node",
      "id": 5236894454,
      "lat": 51.0876537,
      "lon": 5.7944689,
      "tags": {
        "addr:city": "Maaseik",
        "addr:postcode": "3680",
        "addr:street": "Heppersteenweg",
        "board_type": "history",
        "information": "board",
        "name": "Oude Maashaven",
        "tourism": "information"
      }
    },
    {
      "type": "node",
      "id": 8154778544,
      "lat": 51.0927469,
      "lon": 5.7928535,
      "tags": {
        "access": "yes",
        "amenity": "toilets"
      }
    },
    {
      "type": "node",
      "id": 8154792482,
      "lat": 51.095541,
      "lon": 5.7851141,
      "tags": {
        "access": "yes",
        "amenity": "parking",
        "fee": "yes",
        "layer": "-1",
        "name": "P1 Bospoort",
        "parking": "underground",
        "payment:cash": "yes",
        "payment:contactless": "yes"
      }
    },
    {
      "type": "node",
      "id": 8724317127,
      "lat": 51.1016997,
      "lon": 5.7683216,
      "tags": {
        "amenity": "bench"
      }
    },
    {
      "type": "node",
      "id": 8724317128,
      "lat": 51.1017485,
      "lon": 5.7682344,
      "tags": {
        "amenity": "bench"
      }
    },
    {
      "type": "node",
      "id": 8724317129,
      "lat": 51.1018732,
      "lon": 5.7681445,
      "tags": {
        "amenity": "bench"
      }
    },
    {
      "type": "node",
      "id": 8724317134,
      "lat": 51.1016892,
      "lon": 5.7686092,
      "tags": {
        "amenity": "bench"
      }
    },
    {
      "type": "node",
      "id": 8724317135,
      "lat": 51.1017287,
      "lon": 5.768573,
      "tags": {
        "amenity": "bench"
      }
    },
    {
      "type": "node",
      "id": 8792218239,
      "lat": 51.08853,
      "lon": 5.7671965,
      "tags": {
        "access": "customers",
        "amenity": "parking",
        "capacity:disabled": "0",
        "fee": "no",
        "operator": "Conings Garden",
        "operator:type": "business",
        "parking": "surface",
        "surface": "paving_stones"
      }
    },
    {
      "type": "node",
      "id": 8869716920,
      "lat": 51.0918412,
      "lon": 5.8002521,
      "tags": {
        "amenity": "bench",
        "material": "wood"
      }
    },
    {
      "type": "node",
      "id": 8919039245,
      "lat": 51.0915429,
      "lon": 5.7985929,
      "tags": {
        "amenity": "bench"
      }
    },
    {
      "type": "node",
      "id": 9132850209,
      "lat": 51.0906636,
      "lon": 5.7947944,
      "tags": {
        "amenity": "bench",
        "material": "wood"
      }
    },
    {
      "type": "node",
      "id": 9132852824,
      "lat": 51.0926765,
      "lon": 5.7963005,
      "tags": {
        "board_type": "nature",
        "information": "board",
        "name": "Plukweide Labaerdijk",
        "tourism": "information"
      }
    },
    {
      "type": "node",
      "id": 9132852864,
      "lat": 51.0857342,
      "lon": 5.8005529,
      "tags": {
        "amenity": "bench",
        "backrest": "yes"
      }
    },
    {
      "type": "node",
      "id": 9134842299,
      "lat": 51.0775752,
      "lon": 5.7907501,
      "tags": {
        "amenity": "bench",
        "backrest": "yes"
      }
    },
    {
      "type": "node",
      "id": 9134842303,
      "lat": 51.0770965,
      "lon": 5.7947436,
      "tags": {
        "amenity": "bench",
        "backrest": "yes"
      }
    },
    {
      "type": "node",
      "id": 9134842316,
      "lat": 51.0767654,
      "lon": 5.7945366,
      "tags": {
        "amenity": "bench",
        "backrest": "yes"
      }
    },
    {
      "type": "node",
      "id": 9134853535,
      "lat": 51.07649,
      "lon": 5.795236,
      "tags": {
        "amenity": "bench",
        "backrest": "yes"
      }
    },
    {
      "type": "node",
      "id": 9134853536,
      "lat": 51.0764429,
      "lon": 5.7952059,
      "tags": {
        "amenity": "bench",
        "backrest": "yes"
      }
    },
    {
      "type": "node",
      "id": 9311059464,
      "lat": 51.1087,
      "lon": 5.7808005,
      "tags": {
        "access": "private",
        "amenity": "toilets",
        "changing_table": "no",
        "male": "yes"
      }
    },
    {
      "type": "node",
      "id": 9311059465,
      "lat": 51.1087069,
      "lon": 5.7808493,
      "tags": {
        "access": "private",
        "amenity": "toilets",
        "changing_table": "no",
        "female": "yes"
      }
    },
    {
      "type": "way",
      "id": 109836037,
      "nodes": [
        1256376198,
        1256376211,
        1256376199,
        1256376239,
        1256376198
      ],
      "tags": {
        "amenity": "parking",
        "fee": "yes"
      }
    },
    {
      "type": "way",
      "id": 109836040,
      "nodes": [
        1256376182,
        1256376217,
        1256376252,
        1256376245,
        1256376182
      ],
      "tags": {
        "amenity": "parking"
      }
    },
    {
      "type": "way",
      "id": 109836045,
      "nodes": [
        1256376196,
        6238317795,
        6238317794,
        3125833564,
        6238317796,
        1256376209,
        6238317239,
        3125833562,
        6238317240,
        3125833560,
        1256376223,
        1256376258,
        3125833559,
        3125833561,
        1256376216,
        3125833563,
        1256376242,
        1256376196
      ],
      "tags": {
        "access": "yes",
        "amenity": "parking",
        "fee": "yes",
        "name": "P2 Hepperpoort",
        "parking": "surface",
        "wheelchair": "yes"
      }
    },
    {
      "type": "way",
      "id": 182989513,
      "nodes": [
        1933550915,
        1933550913,
        1933550912,
        1933550914,
        1933550915
      ],
      "tags": {
        "amenity": "parking"
      }
    },
    {
      "type": "way",
      "id": 182989514,
      "nodes": [
        1933550911,
        1933550917,
        1933550916,
        1933550918,
        1933550911
      ],
      "tags": {
        "amenity": "parking"
      }
    },
    {
      "type": "way",
      "id": 182989933,
      "nodes": [
        1933551635,
        1933551648,
        1933551632,
        1933551621,
        1933551635
      ],
      "tags": {
        "amenity": "parking"
      }
    },
    {
      "type": "way",
      "id": 182989934,
      "nodes": [
        1933551639,
        1933551641,
        1933551628,
        1933551624,
        1933551637,
        1933551626,
        1933551639
      ],
      "tags": {
        "amenity": "parking"
      }
    },
    {
      "type": "way",
      "id": 182990164,
      "nodes": [
        1933552008,
        1933552026,
        1933552030,
        1933552029,
        1933552008
      ],
      "tags": {
        "amenity": "parking"
      }
    },
    {
      "type": "way",
      "id": 182990165,
      "nodes": [
        1933552010,
        1933552014,
        1933552006,
        1933552012,
        1933552010
      ],
      "tags": {
        "amenity": "parking"
      }
    },
    {
      "type": "way",
      "id": 183349493,
      "nodes": [
        1937180493,
        1937180492,
        1937180490,
        1937180491,
        1937180493
      ],
      "tags": {
        "amenity": "parking"
      }
    },
    {
      "type": "way",
      "id": 195518500,
      "nodes": [
        2059464500,
        2059464502
      ],
      "tags": {
        "amenity": "bench"
      }
    },
    {
      "type": "way",
      "id": 195518501,
      "nodes": [
        2059464492,
        2059464494
      ],
      "tags": {
        "amenity": "bench"
      }
    },
    {
      "type": "way",
      "id": 195518502,
      "nodes": [
        2059464508,
        2059464509
      ],
      "tags": {
        "amenity": "bench"
      }
    },
    {
      "type": "way",
      "id": 208370074,
      "nodes": [
        2186703793,
        2186703795
      ],
      "tags": {
        "amenity": "bench"
      }
    },
    {
      "type": "way",
      "id": 208370081,
      "nodes": [
        2186703764,
        2186703763
      ],
      "tags": {
        "amenity": "bench"
      }
    },
    {
      "type": "way",
      "id": 208370082,
      "nodes": [
        2186703775,
        2186703777
      ],
      "tags": {
        "amenity": "bench"
      }
    },
    {
      "type": "way",
      "id": 208370090,
      "nodes": [
        2186703786,
        2186703788
      ],
      "tags": {
        "amenity": "bench"
      }
    },
    {
      "type": "way",
      "id": 208370102,
      "nodes": [
        2186703768,
        2186703770
      ],
      "tags": {
        "amenity": "bench"
      }
    },
    {
      "type": "way",
      "id": 208370104,
      "nodes": [
        2186703781,
        2186703783
      ],
      "tags": {
        "amenity": "bench"
      }
    },
    {
      "type": "way",
      "id": 210356508,
      "nodes": [
        2204357076,
        2204357119,
        2204357122,
        2204357128,
        2204357126,
        2204357115,
        2204357111,
        2204357100,
        2204357074,
        2204357064,
        2204357060,
        2204357076
      ],
      "tags": {
        "amenity": "parking",
        "parking": "surface"
      }
    },
    {
      "type": "way",
      "id": 210362725,
      "nodes": [
        2204413493,
        2204413491,
        1285162905,
        1285131524,
        2204413500,
        2204413499,
        2204413493
      ],
      "tags": {
        "amenity": "parking",
        "parking": "surface"
      }
    },
    {
      "type": "way",
      "id": 210448533,
      "nodes": [
        2205132386,
        2205132366,
        2205132327,
        2205132616,
        2205132675,
        2205132758,
        2205132648,
        2205132570,
        2205132509,
        2205132386
      ],
      "tags": {
        "amenity": "parking",
        "parking": "surface"
      }
    },
    {
      "type": "way",
      "id": 210567855,
      "nodes": [
        6987576555,
        6987576554,
        6987576552,
        6987576551,
        6987576550,
        6987576549,
        6987576548,
        6987576547,
        6987576546,
        6987576545,
        6987576541,
        6987576544,
        6987576543,
        6987576555
      ],
      "tags": {
        "addr:city": "Maaseik",
        "addr:country": "BE",
        "addr:housename": "Wurfeldermolen",
        "addr:housenumber": "31",
        "addr:postcode": "3680",
        "addr:street": "Wurfeldermolenweg",
        "alt_name": "Kloostermolen",
        "building": "yes",
        "historic": "yes",
        "man_made": "watermill",
        "name": "Wurfeldermolen",
        "tourism": "yes",
        "wikidata": "Q14520474",
        "wikipedia": "nl:Wurfeldermolen"
      }
    },
    {
      "type": "way",
      "id": 211713459,
      "nodes": [
        1285132842,
        1285159729,
        2357342705,
        2357342708,
        1285146409,
        2216844996,
        6111911358,
        6111911356,
        1285153397,
        2357342704,
        2357342719,
        1285132842
      ],
      "tags": {
        "amenity": "parking",
        "parking": "surface"
      }
    },
    {
      "type": "way",
      "id": 211713460,
      "nodes": [
        8694463794,
        8694463796,
        8694463795,
        2216845004,
        2216845002,
        1285169503,
        8694463794
      ],
      "tags": {
        "access": "yes",
        "amenity": "parking",
        "fee": "no",
        "parking": "surface"
      }
    },
    {
      "type": "way",
      "id": 216509700,
      "nodes": [
        2258458140,
        2258458191,
        2258458154,
        2258458151,
        6638731349,
        6638731348,
        6638731347,
        4961857015,
        2258458188,
        4961857121,
        4961857116,
        4961857018,
        4961857019,
        2258458153,
        4961857221,
        2258458140
      ],
      "tags": {
        "addr:housename": "Bosmolen",
        "addr:housenumber": "36A",
        "addr:postcode": "3680",
        "addr:street": "Weertersteenweg",
        "building": "yes",
        "disused": "yes",
        "man_made": "watermill",
        "name": "Bosmolen",
        "ruins": "no"
      }
    },
    {
      "type": "way",
      "id": 216511038,
      "nodes": [
        2258472737,
        6069319862,
        9315067095,
        9315067096,
        4960302474,
        4960302107,
        9315076082,
        2258472738,
        9315076090,
        9315076081,
        6069319850,
        4960302112,
        9315076080,
        4960302113,
        9315076075,
        2365963050,
        2365963049,
        2365963036,
        9315076093,
        2365963038,
        2365963047,
        2365963040,
        9315076018,
        2365963037,
        7013648595,
        2258472737
      ],
      "tags": {
        "access": "customers",
        "amenity": "parking"
      }
    },
    {
      "type": "way",
      "id": 216942788,
      "nodes": [
        2262625781,
        2262625785,
        9311043889,
        9311043890,
        9311043891,
        2262625816,
        2262625784,
        2262625780,
        9311043892,
        9311043893,
        9311043894,
        2262625781
      ],
      "tags": {
        "access": "private",
        "amenity": "parking",
        "fee": "no",
        "operator": "Mosa-RT",
        "parking": "surface",
        "surface": "asphalt"
      }
    },
    {
      "type": "way",
      "id": 222156718,
      "nodes": [
        2311364164,
        2311364158,
        2311364157,
        2311364165,
        2311364164
      ],
      "tags": {
        "amenity": "parking"
      }
    },
    {
      "type": "way",
      "id": 222156719,
      "nodes": [
        2311364166,
        2311364162,
        2311364153,
        2311364151,
        2311364159,
        2311364154,
        2311364156,
        2311364155,
        2311364160,
        2311364150,
        2311364161,
        2311364166
      ],
      "tags": {
        "amenity": "parking"
      }
    },
    {
      "type": "way",
      "id": 222156927,
      "nodes": [
        2311366580,
        2311366547,
        2311366561,
        2311366578,
        2311366580
      ],
      "tags": {
        "amenity": "parking"
      }
    },
    {
      "type": "way",
      "id": 223917502,
      "nodes": [
        2327610349,
        2327610352,
        2327610348,
        2327610351,
        2327610349
      ],
      "tags": {
        "amenity": "parking"
      }
    },
    {
      "type": "way",
      "id": 227967314,
      "nodes": [
        2365957356,
        2365957274,
        2365957295,
        2365957320,
        2365957356
      ],
      "tags": {
        "access": "customers",
        "amenity": "parking",
        "fee": "no"
      }
    },
    {
      "type": "way",
      "id": 227968230,
      "nodes": [
        2365965744,
        2365965745,
        3433739612,
        2261378710,
        2261378715,
        2261378713,
        2261378712,
        3433739611,
        7001823382,
        3433739610,
        3433739609,
        3433739608,
        2365965746,
        7001823370,
        2365965747,
        2365965744
      ],
      "tags": {
        "amenity": "parking"
      }
    },
    {
      "type": "way",
      "id": 228097434,
      "nodes": [
        2367381569,
        2367381591,
        2367381563,
        2367381595,
        2367381569
      ],
      "tags": {
        "amenity": "parking"
      }
    },
    {
      "type": "way",
      "id": 228097435,
      "nodes": [
        2367381588,
        2367381575,
        2367381586,
        2367381597,
        2367381588
      ],
      "tags": {
        "amenity": "parking"
      }
    },
    {
      "type": "way",
      "id": 228097436,
      "nodes": [
        2367381599,
        2367381564,
        1284988799,
        2367381577,
        2367381584,
        2367381579,
        7020137556,
        7020137557,
        2367381599
      ],
      "tags": {
        "amenity": "parking"
      }
    },
    {
      "type": "way",
      "id": 228097437,
      "nodes": [
        2367381590,
        2367381594,
        2367381573,
        2367381571,
        2367381590
      ],
      "tags": {
        "amenity": "parking"
      }
    },
    {
      "type": "way",
      "id": 228097486,
      "nodes": [
        2367383130,
        2367383138,
        2367383142,
        2367383132,
        2367383130
      ],
      "tags": {
        "amenity": "parking"
      }
    },
    {
      "type": "way",
      "id": 228097487,
      "nodes": [
        2367383134,
        2367383140,
        2367383136,
        2367383144,
        2367383134
      ],
      "tags": {
        "amenity": "parking"
      }
    },
    {
      "type": "way",
      "id": 228097495,
      "nodes": [
        2367384214,
        2367384222,
        2367384208,
        2367384220,
        2367384214
      ],
      "tags": {
        "amenity": "parking"
      }
    },
    {
      "type": "way",
      "id": 228097496,
      "nodes": [
        2367384202,
        2367384205,
        2367384217,
        2367384211,
        2367384202
      ],
      "tags": {
        "amenity": "parking"
      }
    },
    {
      "type": "way",
      "id": 228097843,
      "nodes": [
        2367395543,
        2367395547,
        2367395539,
        2367395548,
        2367395543
      ],
      "tags": {
        "amenity": "parking"
      }
    },
    {
      "type": "way",
      "id": 228097844,
      "nodes": [
        2367395541,
        2367395545,
        2367395550,
        2367395537,
        2367395541
      ],
      "tags": {
        "amenity": "parking"
      }
    },
    {
      "type": "way",
      "id": 228199990,
      "nodes": [
        2368333249,
        2368333251,
        3125833612,
        3125833611,
        3125833609,
        3125833604,
        3125833608,
        3125833605,
        3125833600,
        3125833597,
        3125833594,
        3125833593,
        3125833590,
        3125833586,
        3125833585,
        2368333253,
        2368333254,
        2368333249
      ],
      "tags": {
        "amenity": "parking"
      }
    },
    {
      "type": "way",
      "id": 235125153,
      "nodes": [
        2432165225,
        2432165230,
        2432165232,
        2432165236,
        9120097529,
        2432165238,
        9120097530,
        2432165240,
        9120097524,
        9120097521,
        2432165225
      ],
      "tags": {
        "access": "customers",
        "amenity": "parking",
        "fee": "no",
        "surface": "asphalt",
        "wheelchair": "yes"
      }
    },
    {
      "type": "way",
      "id": 235125158,
      "nodes": [
        2432165265,
        2432165268,
        2432165270,
        2432165273,
        2432165265
      ],
      "tags": {
        "amenity": "parking"
      }
    },
    {
      "type": "way",
      "id": 238101145,
      "nodes": [
        2459639908,
        1284988823,
        1284989903,
        2459639898,
        2459639908
      ],
      "tags": {
        "amenity": "parking",
        "wheelchair": "limited"
      }
    },
    {
      "type": "way",
      "id": 242863343,
      "nodes": [
        2503111599,
        2503111601,
        3125833795,
        2503111603,
        2503111605,
        2503111607,
        2503111609,
        2503111599
      ],
      "tags": {
        "amenity": "parking"
      }
    },
    {
      "type": "way",
      "id": 307439738,
      "nodes": [
        3125834071,
        2258467552,
        2258467553,
        2258467551,
        3125834038,
        3125833821,
        3125833826,
        3125834037,
        3125834041,
        3125834054,
        3125834071
      ],
      "tags": {
        "amenity": "parking",
        "parking": "surface"
      }
    },
    {
      "type": "way",
      "id": 318992219,
      "nodes": [
        2205132815,
        2205132784,
        2205132797,
        2205132809,
        2205132843,
        2205132815
      ],
      "tags": {
        "amenity": "parking",
        "parking": "surface"
      }
    },
    {
      "type": "way",
      "id": 359762211,
      "nodes": [
        3644128358,
        3644128359,
        3644128360,
        6987747548,
        6987747547,
        6987747546,
        6987747545,
        3644128361,
        6987747541,
        6987747544,
        6987747542,
        6987747543,
        3644128358
      ],
      "tags": {
        "amenity": "parking"
      }
    },
    {
      "type": "way",
      "id": 360507748,
      "nodes": [
        3650398827,
        3650398828,
        3650398829,
        3650398830,
        3650398831,
        3650398832,
        3650398827
      ],
      "tags": {
        "amenity": "parking"
      }
    },
    {
      "type": "way",
      "id": 549343381,
      "nodes": [
        5306485869,
        5306485873,
        5306485870,
        5306485871,
        5306485872,
        5306485869
      ],
      "tags": {
        "access": "private",
        "amenity": "parking",
        "capacity": "250",
        "park_ride": "no",
        "parking": "surface",
        "supervised": "no"
      }
    },
    {
      "type": "way",
      "id": 549343382,
      "nodes": [
        5306485874,
        5306485875,
        4803415853,
        6498544754,
        6498544755,
        4803415854,
        5306485874
      ],
      "tags": {
        "access": "yes",
        "amenity": "parking",
        "capacity": "350",
        "fee": "yes",
        "park_ride": "no",
        "parking": "surface",
        "supervised": "no",
        "wheelchair": "yes"
      }
    },
    {
      "type": "way",
      "id": 645748197,
      "nodes": [
        6069319824,
        6069319822,
        6069319821,
        6069319823,
        6069319824
      ],
      "tags": {
        "amenity": "parking"
      }
    },
    {
      "type": "way",
      "id": 645748198,
      "nodes": [
        6069319828,
        6069319826,
        6069319825,
        6069319827,
        6069319828
      ],
      "tags": {
        "amenity": "parking"
      }
    },
    {
      "type": "way",
      "id": 645748199,
      "nodes": [
        2437909283,
        6069319834,
        6069319833,
        9315067090,
        2503110257,
        6069319831,
        2503110262,
        6069319829,
        2437909283
      ],
      "tags": {
        "amenity": "parking"
      }
    },
    {
      "type": "way",
      "id": 645748204,
      "nodes": [
        6069319867,
        6069319865,
        6069319864,
        6069319866,
        6069319867
      ],
      "tags": {
        "access": "customers",
        "amenity": "parking"
      }
    },
    {
      "type": "way",
      "id": 645748206,
      "nodes": [
        6069319874,
        6069319872,
        6069319871,
        6069319873,
        6069319874
      ],
      "tags": {
        "access": "customers",
        "amenity": "parking"
      }
    },
    {
      "type": "way",
      "id": 651921593,
      "nodes": [
        6112696924,
        6112696923,
        9134853546,
        9134853545,
        6112696924
      ],
      "tags": {
        "access": "customers",
        "amenity": "parking"
      }
    },
    {
      "type": "way",
      "id": 658853529,
      "nodes": [
        6168856727,
        6168856728,
        6168856729,
        4962493940,
        4962493926,
        4962493879,
        6168856727
      ],
      "tags": {
        "amenity": "parking"
      }
    },
    {
      "type": "way",
      "id": 692300731,
      "nodes": [
        4803415852,
        4803415838,
        4803415856,
        4803415857,
        6498544756,
        6498544753,
        4803415852
      ],
      "tags": {
        "amenity": "parking"
      }
    },
    {
      "type": "way",
      "id": 692300737,
      "nodes": [
        4803415853,
        6498544754,
        6498544755,
        6498544757,
        4803415855,
        4803415857,
        6498544756,
        6498544753,
        4803415852,
        4803415853
      ],
      "tags": {
        "amenity": "parking",
        "layer": "-1"
      }
    },
    {
      "type": "way",
      "id": 749001353,
      "nodes": [
        7004327582,
        7004327581,
        7004327580,
        7004327579,
        7004327576,
        7004327575,
        7004327584,
        9315076037,
        7004327574,
        7004327573,
        9315076084,
        9315076085,
        7004327571,
        9315076086,
        7004327569,
        9315076088,
        7004327568,
        7004327582
      ],
      "tags": {
        "amenity": "parking",
        "name": "Hubo",
        "parking": "surface"
      }
    },
    {
      "type": "way",
      "id": 750103936,
      "nodes": [
        7014182589,
        7014182587,
        7014182588,
        7014182590,
        7014182589
      ],
      "tags": {
        "amenity": "parking",
        "parking": "surface"
      }
    },
    {
      "type": "way",
      "id": 842084170,
      "nodes": [
        7856079933,
        7856079932,
        7856079931,
        7856079930,
        7856079933
      ],
      "tags": {
        "access": "customers",
        "amenity": "parking",
        "parking": "surface"
      }
    },
    {
      "type": "way",
      "id": 942114952,
      "nodes": [
        8724317199,
        8724317200,
        8724317201,
        8724317202,
        8724317203,
        8724317199
      ],
      "tags": {
        "amenity": "parking"
      }
    },
    {
      "type": "way",
      "id": 988069078,
      "nodes": [
        9132852844,
        9132852843,
        9132852842,
        9132852841,
        9132852840,
        9132852839,
        9132852844
      ],
      "tags": {
        "amenity": "parking",
        "surface": "paving_stones"
      }
    },
    {
      "type": "way",
      "id": 988269388,
      "nodes": [
        9134853523,
        9134853521,
        9134853520,
        9134853522,
        9134853523
      ],
      "tags": {
        "access": "private",
        "amenity": "parking"
      }
    },
    {
      "type": "way",
      "id": 1009568808,
      "nodes": [
        9315067063,
        9315067064
      ],
      "tags": {
        "amenity": "bench"
      }
    },
    {
      "type": "way",
      "id": 1009568809,
      "nodes": [
        9315067066,
        9315067067
      ],
      "tags": {
        "amenity": "bench"
      }
    },
    {
      "type": "way",
      "id": 1009568810,
      "nodes": [
        9315067068,
        9315067069
      ],
      "tags": {
        "amenity": "bench"
      }
    },
    {
      "type": "way",
      "id": 1009568811,
      "nodes": [
        9315067070,
        9315067071
      ],
      "tags": {
        "amenity": "bench"
      }
    },
    {
      "type": "way",
      "id": 1009568813,
      "nodes": [
        9315067075,
        9315067076
      ],
      "tags": {
        "amenity": "bench"
      }
    },
    {
      "type": "way",
      "id": 1009568814,
      "nodes": [
        9315067077,
        9315067078
      ],
      "tags": {
        "amenity": "bench"
      }
    },
    {
      "type": "node",
      "id": 747028591,
      "lat": 51.0912016,
      "lon": 5.7937985,
      "timestamp": "2021-05-05T12:39:15Z",
      "version": 6,
      "changeset": 104185833,
      "user": "IQtje",
      "uid": 13196886,
      "tags": {
        "amenity": "parking",
        "capacity": "373",
        "fee": "yes",
        "layer": "-1",
        "name": "P3 Kloosterbempden",
        "parking": "underground",
        "wheelchair": "yes"
      }
    },
    {
      "type": "node",
      "id": 935184441,
      "lat": 51.0823979,
      "lon": 5.7489373,
      "timestamp": "2010-10-02T15:07:46Z",
      "version": 1,
      "changeset": 5936884,
      "user": "cygeus",
      "uid": 159369,
      "tags": {
        "amenity": "bench"
      }
    },
    {
      "type": "node",
      "id": 935184474,
      "lat": 51.0707746,
      "lon": 5.7922094,
      "timestamp": "2010-10-02T15:07:47Z",
      "version": 1,
      "changeset": 5936884,
      "user": "cygeus",
      "uid": 159369,
      "tags": {
        "amenity": "bench",
        "backrest": "yes"
      }
    },
    {
      "type": "node",
      "id": 935184478,
      "lat": 51.0766102,
      "lon": 5.795393,
      "timestamp": "2010-10-02T15:07:47Z",
      "version": 1,
      "changeset": 5936884,
      "user": "cygeus",
      "uid": 159369,
      "tags": {
        "amenity": "bench"
      }
    },
    {
      "type": "node",
      "id": 935184479,
      "lat": 51.080939,
      "lon": 5.7455745,
      "timestamp": "2010-10-02T15:07:47Z",
      "version": 1,
      "changeset": 5936884,
      "user": "cygeus",
      "uid": 159369,
      "tags": {
        "amenity": "bench"
      }
    },
    {
      "type": "node",
      "id": 935184526,
      "lat": 51.0922884,
      "lon": 5.7960407,
      "timestamp": "2012-12-25T12:39:57Z",
      "version": 2,
      "changeset": 14400626,
      "user": "SDSwijnen",
      "uid": 1099143,
      "tags": {
        "amenity": "bench"
      }
    },
    {
      "type": "node",
      "id": 935184561,
      "lat": 51.0915052,
      "lon": 5.7952048,
      "timestamp": "2016-05-07T21:06:37Z",
      "version": 4,
      "changeset": 39171047,
      "user": "RVP-VS",
      "uid": 157236,
      "tags": {
        "amenity": "bench",
        "backrest": "yes",
        "material": "wood"
      }
    },
    {
      "type": "node",
      "id": 2357289960,
      "lat": 51.0766534,
      "lon": 5.7951305,
      "timestamp": "2021-09-30T09:55:20Z",
      "version": 2,
      "changeset": 111908146,
      "user": "Eebie",
      "uid": 715684,
      "tags": {
        "amenity": "toilets"
      }
    },
    {
      "type": "node",
      "id": 2367373262,
      "lat": 51.1022733,
      "lon": 5.7825979,
      "timestamp": "2013-06-30T14:59:37Z",
      "version": 1,
      "changeset": 16765408,
      "user": "Kattenbakvulling",
      "uid": 669642,
      "tags": {
        "amenity": "bench"
      }
    },
    {
      "type": "node",
      "id": 2412206492,
      "lat": 51.0812345,
      "lon": 5.7454354,
      "timestamp": "2015-01-18T18:23:00Z",
      "version": 3,
      "changeset": 28237012,
      "user": "StijnRR",
      "uid": 911613,
      "tags": {
        "leisure": "picnic_table"
      }
    },
    {
      "type": "node",
      "id": 2425693586,
      "lat": 51.1186816,
      "lon": 5.7474006,
      "timestamp": "2013-08-20T16:16:37Z",
      "version": 1,
      "changeset": 17428781,
      "user": "PaDuke",
      "uid": 1707526,
      "tags": {
        "amenity": "bench"
      }
    },
    {
      "type": "node",
      "id": 2429353568,
      "lat": 51.0726017,
      "lon": 5.7453367,
      "timestamp": "2013-08-23T17:30:37Z",
      "version": 1,
      "changeset": 17472770,
      "user": "PaDuke",
      "uid": 1707526,
      "tags": {
        "amenity": "bench"
      }
    },
    {
      "type": "node",
      "id": 2500979479,
      "lat": 51.08647,
      "lon": 5.7382765,
      "timestamp": "2013-10-18T19:14:44Z",
      "version": 1,
      "changeset": 18424549,
      "user": "taeke63",
      "uid": 567682,
      "tags": {
        "board_type": "board",
        "information": "board",
        "name": "Natuurgebied Tösch-Langeren",
        "tourism": "information"
      }
    },
    {
      "type": "node",
      "id": 2500979480,
      "lat": 51.0938465,
      "lon": 5.7437249,
      "timestamp": "2014-11-15T19:31:08Z",
      "version": 2,
      "changeset": 26806402,
      "user": "StijnRR",
      "uid": 911613,
      "tags": {
        "information": "board",
        "name": "Natuurgebied Tösch-Langeren",
        "tourism": "information"
      }
    },
    {
      "type": "node",
      "id": 2500979505,
      "lat": 51.086545,
      "lon": 5.7383632,
      "timestamp": "2015-01-18T18:23:01Z",
      "version": 2,
      "changeset": 28237012,
      "user": "StijnRR",
      "uid": 911613,
      "tags": {
        "leisure": "picnic_table"
      }
    },
    {
      "type": "node",
      "id": 2500979557,
      "lat": 51.0938215,
      "lon": 5.7437512,
      "timestamp": "2014-11-15T19:31:10Z",
      "version": 2,
      "changeset": 26806402,
      "user": "StijnRR",
      "uid": 911613,
      "tags": {
        "amenity": "bench"
      }
    },
    {
      "type": "node",
      "id": 3151289493,
      "lat": 51.1016313,
      "lon": 5.7995213,
      "timestamp": "2014-10-26T18:08:04Z",
      "version": 1,
      "changeset": 26346590,
      "user": "StijnRR",
      "uid": 911613,
      "tags": {
        "amenity": "bench"
      }
    },
    {
      "type": "node",
      "id": 3151420873,
      "lat": 51.0894342,
      "lon": 5.7942299,
      "timestamp": "2021-09-29T17:29:02Z",
      "version": 3,
      "changeset": 111878587,
      "user": "Eebie",
      "uid": 715684,
      "tags": {
        "amenity": "bench",
        "backrest": "yes",
        "material": "wood"
      }
    },
    {
      "type": "node",
      "id": 3151420874,
      "lat": 51.0930762,
      "lon": 5.7974644,
      "timestamp": "2016-05-07T21:06:37Z",
      "version": 2,
      "changeset": 39171047,
      "user": "RVP-VS",
      "uid": 157236,
      "tags": {
        "amenity": "bench",
        "backrest": "yes"
      }
    },
    {
      "type": "node",
      "id": 3188922319,
      "lat": 51.0965784,
      "lon": 5.7572679,
      "timestamp": "2014-11-15T19:30:47Z",
      "version": 1,
      "changeset": 26806402,
      "user": "StijnRR",
      "uid": 911613,
      "tags": {
        "information": "board",
        "name": "Grenspark KempenBroek - Wandelgebied Tösch-Langeren",
        "tourism": "information"
      }
    },
    {
      "type": "node",
      "id": 3188922320,
      "lat": 51.116442,
      "lon": 5.7307544,
      "timestamp": "2014-11-15T19:30:47Z",
      "version": 1,
      "changeset": 26806402,
      "user": "StijnRR",
      "uid": 911613,
      "tags": {
        "information": "board",
        "name": "Jagersborg",
        "tourism": "information"
      }
    },
    {
      "type": "node",
      "id": 3188922321,
      "lat": 51.1052145,
      "lon": 5.7352528,
      "timestamp": "2014-11-15T19:30:47Z",
      "version": 1,
      "changeset": 26806402,
      "user": "StijnRR",
      "uid": 911613,
      "tags": {
        "information": "board",
        "name": "Welkom in het domeinbos Jagersborg",
        "tourism": "information"
      }
    },
    {
      "type": "node",
      "id": 3188922343,
      "lat": 51.0934145,
      "lon": 5.7279681,
      "timestamp": "2014-11-15T19:30:48Z",
      "version": 1,
      "changeset": 26806402,
      "user": "StijnRR",
      "uid": 911613,
      "tags": {
        "amenity": "bench"
      }
    },
    {
      "type": "node",
      "id": 3188928664,
      "lat": 51.0968549,
      "lon": 5.7588983,
      "timestamp": "2014-11-15T19:30:48Z",
      "version": 1,
      "changeset": 26806402,
      "user": "StijnRR",
      "uid": 911613,
      "tags": {
        "leisure": "picnic_table"
      }
    },
    {
      "type": "node",
      "id": 3254017312,
      "lat": 51.1185134,
      "lon": 5.7345972,
      "timestamp": "2014-12-26T18:19:58Z",
      "version": 1,
      "changeset": 27714784,
      "user": "StijnRR",
      "uid": 911613,
      "tags": {
        "information": "board",
        "name": "Welkom in het domeinbos Jagersborg",
        "tourism": "information"
      }
    },
    {
      "type": "node",
      "id": 3254019480,
      "lat": 51.1185145,
      "lon": 5.7345557,
      "timestamp": "2014-12-26T18:20:00Z",
      "version": 1,
      "changeset": 27714784,
      "user": "StijnRR",
      "uid": 911613,
      "tags": {
        "leisure": "picnic_table"
      }
    },
    {
      "type": "node",
      "id": 3297083609,
      "lat": 51.0811504,
      "lon": 5.7310665,
      "timestamp": "2015-01-18T18:22:35Z",
      "version": 1,
      "changeset": 28237012,
      "user": "StijnRR",
      "uid": 911613,
      "tags": {
        "amenity": "bench"
      }
    },
    {
      "type": "node",
      "id": 3297083618,
      "lat": 51.0830351,
      "lon": 5.7524437,
      "timestamp": "2015-01-18T18:22:36Z",
      "version": 1,
      "changeset": 28237012,
      "user": "StijnRR",
      "uid": 911613,
      "tags": {
        "amenity": "bench"
      }
    },
    {
      "type": "node",
      "id": 3297083631,
      "lat": 51.0860284,
      "lon": 5.7271892,
      "timestamp": "2015-01-18T18:22:36Z",
      "version": 1,
      "changeset": 28237012,
      "user": "StijnRR",
      "uid": 911613,
      "tags": {
        "amenity": "bench"
      }
    },
    {
      "type": "node",
      "id": 3297083659,
      "lat": 51.0910939,
      "lon": 5.7131261,
      "timestamp": "2015-01-18T18:22:37Z",
      "version": 1,
      "changeset": 28237012,
      "user": "StijnRR",
      "uid": 911613,
      "tags": {
        "leisure": "picnic_table"
      }
    },
    {
      "type": "node",
      "id": 3297083660,
      "lat": 51.0911241,
      "lon": 5.7130841,
      "timestamp": "2015-01-18T18:22:37Z",
      "version": 1,
      "changeset": 28237012,
      "user": "StijnRR",
      "uid": 911613,
      "tags": {
        "leisure": "picnic_table"
      }
    },
    {
      "type": "node",
      "id": 4006053488,
      "lat": 51.0708801,
      "lon": 5.7922963,
      "timestamp": "2016-02-14T18:21:06Z",
      "version": 1,
      "changeset": 37209455,
      "user": "StijnRR",
      "uid": 911613,
      "tags": {
        "amenity": "bench"
      }
    },
    {
      "type": "node",
      "id": 4172143700,
      "lat": 51.0943394,
      "lon": 5.7729183,
      "timestamp": "2016-05-07T20:58:53Z",
      "version": 1,
      "changeset": 39171047,
      "user": "RVP-VS",
      "uid": 157236,
      "tags": {
        "amenity": "bench",
        "backrest": "yes"
      }
    },
    {
      "type": "node",
      "id": 4172143701,
      "lat": 51.0943722,
      "lon": 5.7730001,
      "timestamp": "2016-05-07T20:58:53Z",
      "version": 1,
      "changeset": 39171047,
      "user": "RVP-VS",
      "uid": 157236,
      "tags": {
        "amenity": "bench",
        "backrest": "yes"
      }
    },
    {
      "type": "node",
      "id": 4172166499,
      "lat": 51.0947761,
      "lon": 5.7914772,
      "timestamp": "2016-05-07T21:04:36Z",
      "version": 1,
      "changeset": 39171047,
      "user": "RVP-VS",
      "uid": 157236,
      "tags": {
        "amenity": "bench",
        "backrest": "yes",
        "material": "wood"
      }
    },
    {
      "type": "node",
      "id": 4172166500,
      "lat": 51.0950316,
      "lon": 5.7913094,
      "timestamp": "2016-05-07T21:04:36Z",
      "version": 1,
      "changeset": 39171047,
      "user": "RVP-VS",
      "uid": 157236,
      "tags": {
        "amenity": "bench",
        "backrest": "yes"
      }
    },
    {
      "type": "node",
      "id": 5236894453,
      "lat": 51.0876842,
      "lon": 5.794464,
      "timestamp": "2017-11-18T18:44:45Z",
      "version": 1,
      "changeset": 53908516,
      "user": "Kattenbakvulling",
      "uid": 669642,
      "tags": {
        "amenity": "bench"
      }
    },
    {
      "type": "node",
      "id": 5236894454,
      "lat": 51.0876537,
      "lon": 5.7944689,
      "timestamp": "2021-09-30T08:08:32Z",
      "version": 2,
      "changeset": 111903300,
      "user": "Eebie",
      "uid": 715684,
      "tags": {
        "addr:city": "Maaseik",
        "addr:postcode": "3680",
        "addr:street": "Heppersteenweg",
        "board_type": "history",
        "information": "board",
        "name": "Oude Maashaven",
        "tourism": "information"
      }
    },
    {
      "type": "node",
      "id": 8154778544,
      "lat": 51.0927469,
      "lon": 5.7928535,
      "timestamp": "2020-11-23T13:52:40Z",
      "version": 1,
      "changeset": 94642268,
      "user": "kersentaart",
      "uid": 9812520,
      "tags": {
        "access": "yes",
        "amenity": "toilets"
      }
    },
    {
      "type": "node",
      "id": 8154792482,
      "lat": 51.095541,
      "lon": 5.7851141,
      "timestamp": "2021-12-06T10:52:58Z",
      "version": 2,
      "changeset": 114613605,
      "user": "Mich4711",
      "uid": 12764098,
      "tags": {
        "access": "yes",
        "amenity": "parking",
        "fee": "yes",
        "layer": "-1",
        "name": "P1 Bospoort",
        "parking": "underground",
        "payment:cash": "yes",
        "payment:contactless": "yes"
      }
    },
    {
      "type": "node",
      "id": 8724317127,
      "lat": 51.1016997,
      "lon": 5.7683216,
      "timestamp": "2021-05-12T08:18:31Z",
      "version": 1,
      "changeset": 104556704,
      "user": "kersentaart",
      "uid": 9812520,
      "tags": {
        "amenity": "bench"
      }
    },
    {
      "type": "node",
      "id": 8724317128,
      "lat": 51.1017485,
      "lon": 5.7682344,
      "timestamp": "2021-05-12T08:18:31Z",
      "version": 1,
      "changeset": 104556704,
      "user": "kersentaart",
      "uid": 9812520,
      "tags": {
        "amenity": "bench"
      }
    },
    {
      "type": "node",
      "id": 8724317129,
      "lat": 51.1018732,
      "lon": 5.7681445,
      "timestamp": "2021-05-12T08:18:31Z",
      "version": 1,
      "changeset": 104556704,
      "user": "kersentaart",
      "uid": 9812520,
      "tags": {
        "amenity": "bench"
      }
    },
    {
      "type": "node",
      "id": 8724317134,
      "lat": 51.1016892,
      "lon": 5.7686092,
      "timestamp": "2021-05-12T08:18:31Z",
      "version": 1,
      "changeset": 104556704,
      "user": "kersentaart",
      "uid": 9812520,
      "tags": {
        "amenity": "bench"
      }
    },
    {
      "type": "node",
      "id": 8724317135,
      "lat": 51.1017287,
      "lon": 5.768573,
      "timestamp": "2021-05-12T08:18:31Z",
      "version": 1,
      "changeset": 104556704,
      "user": "kersentaart",
      "uid": 9812520,
      "tags": {
        "amenity": "bench"
      }
    },
    {
      "type": "node",
      "id": 8792218239,
      "lat": 51.08853,
      "lon": 5.7671965,
      "timestamp": "2021-06-02T14:30:33Z",
      "version": 1,
      "changeset": 105725810,
      "user": "Mich4711",
      "uid": 12764098,
      "tags": {
        "access": "customers",
        "amenity": "parking",
        "capacity:disabled": "0",
        "fee": "no",
        "operator": "Conings Garden",
        "operator:type": "business",
        "parking": "surface",
        "surface": "paving_stones"
      }
    },
    {
      "type": "node",
      "id": 8869716920,
      "lat": 51.0918412,
      "lon": 5.8002521,
      "timestamp": "2021-06-27T12:49:28Z",
      "version": 1,
      "changeset": 107035364,
      "user": "IQtje",
      "uid": 13196886,
      "tags": {
        "amenity": "bench",
        "material": "wood"
      }
    },
    {
      "type": "node",
      "id": 8919039245,
      "lat": 51.0915429,
      "lon": 5.7985929,
      "timestamp": "2021-07-14T09:28:03Z",
      "version": 1,
      "changeset": 107965696,
      "user": "Lammie49",
      "uid": 9864207,
      "tags": {
        "amenity": "bench"
      }
    },
    {
      "type": "node",
      "id": 9132850209,
      "lat": 51.0906636,
      "lon": 5.7947944,
      "timestamp": "2021-09-29T17:29:02Z",
      "version": 1,
      "changeset": 111878587,
      "user": "Eebie",
      "uid": 715684,
      "tags": {
        "amenity": "bench",
        "material": "wood"
      }
    },
    {
      "type": "node",
      "id": 9132852824,
      "lat": 51.0926765,
      "lon": 5.7963005,
      "timestamp": "2021-09-29T17:29:02Z",
      "version": 1,
      "changeset": 111878587,
      "user": "Eebie",
      "uid": 715684,
      "tags": {
        "board_type": "nature",
        "information": "board",
        "name": "Plukweide Labaerdijk",
        "tourism": "information"
      }
    },
    {
      "type": "node",
      "id": 9132852864,
      "lat": 51.0857342,
      "lon": 5.8005529,
      "timestamp": "2021-09-29T17:29:02Z",
      "version": 1,
      "changeset": 111878587,
      "user": "Eebie",
      "uid": 715684,
      "tags": {
        "amenity": "bench",
        "backrest": "yes"
      }
    },
    {
      "type": "node",
      "id": 9134842299,
      "lat": 51.0775752,
      "lon": 5.7907501,
      "timestamp": "2021-09-30T09:55:20Z",
      "version": 1,
      "changeset": 111908146,
      "user": "Eebie",
      "uid": 715684,
      "tags": {
        "amenity": "bench",
        "backrest": "yes"
      }
    },
    {
      "type": "node",
      "id": 9134842303,
      "lat": 51.0770965,
      "lon": 5.7947436,
      "timestamp": "2021-09-30T09:55:20Z",
      "version": 1,
      "changeset": 111908146,
      "user": "Eebie",
      "uid": 715684,
      "tags": {
        "amenity": "bench",
        "backrest": "yes"
      }
    },
    {
      "type": "node",
      "id": 9134842316,
      "lat": 51.0767654,
      "lon": 5.7945366,
      "timestamp": "2021-09-30T09:55:20Z",
      "version": 1,
      "changeset": 111908146,
      "user": "Eebie",
      "uid": 715684,
      "tags": {
        "amenity": "bench",
        "backrest": "yes"
      }
    },
    {
      "type": "node",
      "id": 9134853535,
      "lat": 51.07649,
      "lon": 5.795236,
      "timestamp": "2021-09-30T09:55:20Z",
      "version": 1,
      "changeset": 111908146,
      "user": "Eebie",
      "uid": 715684,
      "tags": {
        "amenity": "bench",
        "backrest": "yes"
      }
    },
    {
      "type": "node",
      "id": 9134853536,
      "lat": 51.0764429,
      "lon": 5.7952059,
      "timestamp": "2021-09-30T09:55:20Z",
      "version": 1,
      "changeset": 111908146,
      "user": "Eebie",
      "uid": 715684,
      "tags": {
        "amenity": "bench",
        "backrest": "yes"
      }
    },
    {
      "type": "node",
      "id": 9311059464,
      "lat": 51.1087,
      "lon": 5.7808005,
      "timestamp": "2021-12-04T18:51:47Z",
      "version": 1,
      "changeset": 114563414,
      "user": "emilinfrance",
      "uid": 14568184,
      "tags": {
        "access": "private",
        "amenity": "toilets",
        "changing_table": "no",
        "male": "yes"
      }
    },
    {
      "type": "node",
      "id": 9311059465,
      "lat": 51.1087069,
      "lon": 5.7808493,
      "timestamp": "2021-12-04T18:51:47Z",
      "version": 1,
      "changeset": 114563414,
      "user": "emilinfrance",
      "uid": 14568184,
      "tags": {
        "access": "private",
        "amenity": "toilets",
        "changing_table": "no",
        "female": "yes"
      }
    },
    {
      "type": "way",
      "id": 109836037,
      "timestamp": "2021-05-05T12:39:15Z",
      "version": 4,
      "changeset": 104185833,
      "user": "IQtje",
      "uid": 13196886,
      "nodes": [
        1256376198,
        1256376211,
        1256376199,
        1256376239,
        1256376198
      ],
      "tags": {
        "amenity": "parking",
        "fee": "yes"
      }
    },
    {
      "type": "way",
      "id": 109836040,
      "timestamp": "2011-04-23T07:19:06Z",
      "version": 1,
      "changeset": 7940937,
      "user": "Maarten Deen",
      "uid": 9176,
      "nodes": [
        1256376182,
        1256376217,
        1256376252,
        1256376245,
        1256376182
      ],
      "tags": {
        "amenity": "parking"
      }
    },
    {
      "type": "way",
      "id": 109836045,
      "timestamp": "2021-03-01T13:40:04Z",
      "version": 6,
      "changeset": 100193440,
      "user": "wheelmap_visitor",
      "uid": 290680,
      "nodes": [
        1256376196,
        6238317795,
        6238317794,
        3125833564,
        6238317796,
        1256376209,
        6238317239,
        3125833562,
        6238317240,
        3125833560,
        1256376223,
        1256376258,
        3125833559,
        3125833561,
        1256376216,
        3125833563,
        1256376242,
        1256376196
      ],
      "tags": {
        "access": "yes",
        "amenity": "parking",
        "fee": "yes",
        "name": "P2 Hepperpoort",
        "parking": "surface",
        "wheelchair": "yes"
      }
    },
    {
      "type": "way",
      "id": 182989513,
      "timestamp": "2012-09-26T10:57:25Z",
      "version": 1,
      "changeset": 13257715,
      "user": "Kattenbakvulling",
      "uid": 669642,
      "nodes": [
        1933550915,
        1933550913,
        1933550912,
        1933550914,
        1933550915
      ],
      "tags": {
        "amenity": "parking"
      }
    },
    {
      "type": "way",
      "id": 182989514,
      "timestamp": "2012-09-26T10:57:25Z",
      "version": 1,
      "changeset": 13257715,
      "user": "Kattenbakvulling",
      "uid": 669642,
      "nodes": [
        1933550911,
        1933550917,
        1933550916,
        1933550918,
        1933550911
      ],
      "tags": {
        "amenity": "parking"
      }
    },
    {
      "type": "way",
      "id": 182989933,
      "timestamp": "2012-09-26T10:58:25Z",
      "version": 1,
      "changeset": 13257715,
      "user": "Kattenbakvulling",
      "uid": 669642,
      "nodes": [
        1933551635,
        1933551648,
        1933551632,
        1933551621,
        1933551635
      ],
      "tags": {
        "amenity": "parking"
      }
    },
    {
      "type": "way",
      "id": 182989934,
      "timestamp": "2012-09-26T10:58:25Z",
      "version": 1,
      "changeset": 13257715,
      "user": "Kattenbakvulling",
      "uid": 669642,
      "nodes": [
        1933551639,
        1933551641,
        1933551628,
        1933551624,
        1933551637,
        1933551626,
        1933551639
      ],
      "tags": {
        "amenity": "parking"
      }
    },
    {
      "type": "way",
      "id": 182990164,
      "timestamp": "2012-09-26T10:59:03Z",
      "version": 1,
      "changeset": 13257715,
      "user": "Kattenbakvulling",
      "uid": 669642,
      "nodes": [
        1933552008,
        1933552026,
        1933552030,
        1933552029,
        1933552008
      ],
      "tags": {
        "amenity": "parking"
      }
    },
    {
      "type": "way",
      "id": 182990165,
      "timestamp": "2012-09-26T10:59:03Z",
      "version": 1,
      "changeset": 13257715,
      "user": "Kattenbakvulling",
      "uid": 669642,
      "nodes": [
        1933552010,
        1933552014,
        1933552006,
        1933552012,
        1933552010
      ],
      "tags": {
        "amenity": "parking"
      }
    },
    {
      "type": "way",
      "id": 183349493,
      "timestamp": "2012-09-28T18:57:04Z",
      "version": 1,
      "changeset": 13288688,
      "user": "Kattenbakvulling",
      "uid": 669642,
      "nodes": [
        1937180493,
        1937180492,
        1937180490,
        1937180491,
        1937180493
      ],
      "tags": {
        "amenity": "parking"
      }
    },
    {
      "type": "way",
      "id": 195518500,
      "timestamp": "2012-12-10T06:32:02Z",
      "version": 1,
      "changeset": 14222236,
      "user": "Polyglot",
      "uid": 15188,
      "nodes": [
        2059464500,
        2059464502
      ],
      "tags": {
        "amenity": "bench"
      }
    },
    {
      "type": "way",
      "id": 195518501,
      "timestamp": "2012-12-10T06:32:02Z",
      "version": 1,
      "changeset": 14222236,
      "user": "Polyglot",
      "uid": 15188,
      "nodes": [
        2059464492,
        2059464494
      ],
      "tags": {
        "amenity": "bench"
      }
    },
    {
      "type": "way",
      "id": 195518502,
      "timestamp": "2012-12-10T06:32:03Z",
      "version": 1,
      "changeset": 14222236,
      "user": "Polyglot",
      "uid": 15188,
      "nodes": [
        2059464508,
        2059464509
      ],
      "tags": {
        "amenity": "bench"
      }
    },
    {
      "type": "way",
      "id": 208370074,
      "timestamp": "2013-03-05T06:46:48Z",
      "version": 1,
      "changeset": 15254890,
      "user": "Polyglot",
      "uid": 15188,
      "nodes": [
        2186703793,
        2186703795
      ],
      "tags": {
        "amenity": "bench"
      }
    },
    {
      "type": "way",
      "id": 208370081,
      "timestamp": "2014-10-25T16:17:47Z",
      "version": 2,
      "changeset": 26324687,
      "user": "StijnRR",
      "uid": 911613,
      "nodes": [
        2186703764,
        2186703763
      ],
      "tags": {
        "amenity": "bench"
      }
    },
    {
      "type": "way",
      "id": 208370082,
      "timestamp": "2013-03-05T06:46:48Z",
      "version": 1,
      "changeset": 15254890,
      "user": "Polyglot",
      "uid": 15188,
      "nodes": [
        2186703775,
        2186703777
      ],
      "tags": {
        "amenity": "bench"
      }
    },
    {
      "type": "way",
      "id": 208370090,
      "timestamp": "2013-03-05T06:46:49Z",
      "version": 1,
      "changeset": 15254890,
      "user": "Polyglot",
      "uid": 15188,
      "nodes": [
        2186703786,
        2186703788
      ],
      "tags": {
        "amenity": "bench"
      }
    },
    {
      "type": "way",
      "id": 208370102,
      "timestamp": "2013-03-05T06:46:49Z",
      "version": 1,
      "changeset": 15254890,
      "user": "Polyglot",
      "uid": 15188,
      "nodes": [
        2186703768,
        2186703770
      ],
      "tags": {
        "amenity": "bench"
      }
    },
    {
      "type": "way",
      "id": 208370104,
      "timestamp": "2013-03-05T06:46:49Z",
      "version": 1,
      "changeset": 15254890,
      "user": "Polyglot",
      "uid": 15188,
      "nodes": [
        2186703781,
        2186703783
      ],
      "tags": {
        "amenity": "bench"
      }
    },
    {
      "type": "way",
      "id": 210356508,
      "timestamp": "2013-03-16T10:14:24Z",
      "version": 1,
      "changeset": 15381999,
      "user": "lodde1949",
      "uid": 138772,
      "nodes": [
        2204357076,
        2204357119,
        2204357122,
        2204357128,
        2204357126,
        2204357115,
        2204357111,
        2204357100,
        2204357074,
        2204357064,
        2204357060,
        2204357076
      ],
      "tags": {
        "amenity": "parking",
        "parking": "surface"
      }
    },
    {
      "type": "way",
      "id": 210362725,
      "timestamp": "2013-03-16T10:58:31Z",
      "version": 1,
      "changeset": 15382452,
      "user": "lodde1949",
      "uid": 138772,
      "nodes": [
        2204413493,
        2204413491,
        1285162905,
        1285131524,
        2204413500,
        2204413499,
        2204413493
      ],
      "tags": {
        "amenity": "parking",
        "parking": "surface"
      }
    },
    {
      "type": "way",
      "id": 210448533,
      "timestamp": "2014-11-15T19:31:02Z",
      "version": 2,
      "changeset": 26806402,
      "user": "StijnRR",
      "uid": 911613,
      "nodes": [
        2205132386,
        2205132366,
        2205132327,
        2205132616,
        2205132675,
        2205132758,
        2205132648,
        2205132570,
        2205132509,
        2205132386
      ],
      "tags": {
        "amenity": "parking",
        "parking": "surface"
      }
    },
    {
      "type": "way",
      "id": 210567855,
      "timestamp": "2021-03-26T08:32:35Z",
      "version": 7,
      "changeset": 101774599,
      "user": "L'imaginaire",
      "uid": 654234,
      "nodes": [
        6987576555,
        6987576554,
        6987576552,
        6987576551,
        6987576550,
        6987576549,
        6987576548,
        6987576547,
        6987576546,
        6987576545,
        6987576541,
        6987576544,
        6987576543,
        6987576555
      ],
      "tags": {
        "addr:city": "Maaseik",
        "addr:country": "BE",
        "addr:housename": "Wurfeldermolen",
        "addr:housenumber": "31",
        "addr:postcode": "3680",
        "addr:street": "Wurfeldermolenweg",
        "alt_name": "Kloostermolen",
        "building": "yes",
        "historic": "yes",
        "man_made": "watermill",
        "name": "Wurfeldermolen",
        "tourism": "yes",
        "wikidata": "Q14520474",
        "wikipedia": "nl:Wurfeldermolen"
      }
    },
    {
      "type": "way",
      "id": 211713459,
      "timestamp": "2021-09-30T09:55:20Z",
      "version": 5,
      "changeset": 111908146,
      "user": "Eebie",
      "uid": 715684,
      "nodes": [
        1285132842,
        1285159729,
        2357342705,
        2357342708,
        1285146409,
        2216844996,
        6111911358,
        6111911356,
        1285153397,
        2357342704,
        2357342719,
        1285132842
      ],
      "tags": {
        "amenity": "parking",
        "parking": "surface"
      }
    },
    {
      "type": "way",
      "id": 211713460,
      "timestamp": "2021-08-08T16:26:37Z",
      "version": 4,
      "changeset": 109352040,
      "user": "LucGommans",
      "uid": 1967639,
      "nodes": [
        8694463794,
        8694463796,
        8694463795,
        2216845004,
        2216845002,
        1285169503,
        8694463794
      ],
      "tags": {
        "access": "yes",
        "amenity": "parking",
        "fee": "no",
        "parking": "surface"
      }
    },
    {
      "type": "way",
      "id": 216509700,
      "timestamp": "2019-07-22T20:20:34Z",
      "version": 8,
      "changeset": 72530545,
      "user": "noelbov",
      "uid": 8054928,
      "nodes": [
        2258458140,
        2258458191,
        2258458154,
        2258458151,
        6638731349,
        6638731348,
        6638731347,
        4961857015,
        2258458188,
        4961857121,
        4961857116,
        4961857018,
        4961857019,
        2258458153,
        4961857221,
        2258458140
      ],
      "tags": {
        "addr:housename": "Bosmolen",
        "addr:housenumber": "36A",
        "addr:postcode": "3680",
        "addr:street": "Weertersteenweg",
        "building": "yes",
        "disused": "yes",
        "man_made": "watermill",
        "name": "Bosmolen",
        "ruins": "no"
      }
    },
    {
      "type": "way",
      "id": 216511038,
      "timestamp": "2021-12-06T10:52:58Z",
      "version": 4,
      "changeset": 114613605,
      "user": "Mich4711",
      "uid": 12764098,
      "nodes": [
        2258472737,
        6069319862,
        9315067095,
        9315067096,
        4960302474,
        4960302107,
        9315076082,
        2258472738,
        9315076090,
        9315076081,
        6069319850,
        4960302112,
        9315076080,
        4960302113,
        9315076075,
        2365963050,
        2365963049,
        2365963036,
        9315076093,
        2365963038,
        2365963047,
        2365963040,
        9315076018,
        2365963037,
        7013648595,
        2258472737
      ],
      "tags": {
        "access": "customers",
        "amenity": "parking"
      }
    },
    {
      "type": "way",
      "id": 216942788,
      "timestamp": "2021-12-04T18:51:47Z",
      "version": 2,
      "changeset": 114563414,
      "user": "emilinfrance",
      "uid": 14568184,
      "nodes": [
        2262625781,
        2262625785,
        9311043889,
        9311043890,
        9311043891,
        2262625816,
        2262625784,
        2262625780,
        9311043892,
        9311043893,
        9311043894,
        2262625781
      ],
      "tags": {
        "access": "private",
        "amenity": "parking",
        "fee": "no",
        "operator": "Mosa-RT",
        "parking": "surface",
        "surface": "asphalt"
      }
    },
    {
      "type": "way",
      "id": 222156718,
      "timestamp": "2013-05-19T15:04:48Z",
      "version": 1,
      "changeset": 16194578,
      "user": "Kattenbakvulling",
      "uid": 669642,
      "nodes": [
        2311364164,
        2311364158,
        2311364157,
        2311364165,
        2311364164
      ],
      "tags": {
        "amenity": "parking"
      }
    },
    {
      "type": "way",
      "id": 222156719,
      "timestamp": "2013-05-19T15:04:48Z",
      "version": 1,
      "changeset": 16194578,
      "user": "Kattenbakvulling",
      "uid": 669642,
      "nodes": [
        2311364166,
        2311364162,
        2311364153,
        2311364151,
        2311364159,
        2311364154,
        2311364156,
        2311364155,
        2311364160,
        2311364150,
        2311364161,
        2311364166
      ],
      "tags": {
        "amenity": "parking"
      }
    },
    {
      "type": "way",
      "id": 222156927,
      "timestamp": "2013-05-19T15:07:50Z",
      "version": 1,
      "changeset": 16194578,
      "user": "Kattenbakvulling",
      "uid": 669642,
      "nodes": [
        2311366580,
        2311366547,
        2311366561,
        2311366578,
        2311366580
      ],
      "tags": {
        "amenity": "parking"
      }
    },
    {
      "type": "way",
      "id": 223917502,
      "timestamp": "2013-05-31T21:21:00Z",
      "version": 1,
      "changeset": 16370925,
      "user": "Kattenbakvulling",
      "uid": 669642,
      "nodes": [
        2327610349,
        2327610352,
        2327610348,
        2327610351,
        2327610349
      ],
      "tags": {
        "amenity": "parking"
      }
    },
    {
      "type": "way",
      "id": 227967314,
      "timestamp": "2021-06-02T14:30:33Z",
      "version": 2,
      "changeset": 105725810,
      "user": "Mich4711",
      "uid": 12764098,
      "nodes": [
        2365957356,
        2365957274,
        2365957295,
        2365957320,
        2365957356
      ],
      "tags": {
        "access": "customers",
        "amenity": "parking",
        "fee": "no"
      }
    },
    {
      "type": "way",
      "id": 227968230,
      "timestamp": "2019-11-22T15:30:55Z",
      "version": 3,
      "changeset": 77435211,
      "user": "susvhv",
      "uid": 29172,
      "nodes": [
        2365965744,
        2365965745,
        3433739612,
        2261378710,
        2261378715,
        2261378713,
        2261378712,
        3433739611,
        7001823382,
        3433739610,
        3433739609,
        3433739608,
        2365965746,
        7001823370,
        2365965747,
        2365965744
      ],
      "tags": {
        "amenity": "parking"
      }
    },
    {
      "type": "way",
      "id": 228097434,
      "timestamp": "2013-06-30T15:12:27Z",
      "version": 1,
      "changeset": 16765408,
      "user": "Kattenbakvulling",
      "uid": 669642,
      "nodes": [
        2367381569,
        2367381591,
        2367381563,
        2367381595,
        2367381569
      ],
      "tags": {
        "amenity": "parking"
      }
    },
    {
      "type": "way",
      "id": 228097435,
      "timestamp": "2013-06-30T15:12:27Z",
      "version": 1,
      "changeset": 16765408,
      "user": "Kattenbakvulling",
      "uid": 669642,
      "nodes": [
        2367381588,
        2367381575,
        2367381586,
        2367381597,
        2367381588
      ],
      "tags": {
        "amenity": "parking"
      }
    },
    {
      "type": "way",
      "id": 228097436,
      "timestamp": "2019-11-29T16:38:44Z",
      "version": 2,
      "changeset": 77737919,
      "user": "susvhv",
      "uid": 29172,
      "nodes": [
        2367381599,
        2367381564,
        1284988799,
        2367381577,
        2367381584,
        2367381579,
        7020137556,
        7020137557,
        2367381599
      ],
      "tags": {
        "amenity": "parking"
      }
    },
    {
      "type": "way",
      "id": 228097437,
      "timestamp": "2013-06-30T15:12:27Z",
      "version": 1,
      "changeset": 16765408,
      "user": "Kattenbakvulling",
      "uid": 669642,
      "nodes": [
        2367381590,
        2367381594,
        2367381573,
        2367381571,
        2367381590
      ],
      "tags": {
        "amenity": "parking"
      }
    },
    {
      "type": "way",
      "id": 228097486,
      "timestamp": "2013-06-30T15:12:59Z",
      "version": 1,
      "changeset": 16765408,
      "user": "Kattenbakvulling",
      "uid": 669642,
      "nodes": [
        2367383130,
        2367383138,
        2367383142,
        2367383132,
        2367383130
      ],
      "tags": {
        "amenity": "parking"
      }
    },
    {
      "type": "way",
      "id": 228097487,
      "timestamp": "2013-06-30T15:12:59Z",
      "version": 1,
      "changeset": 16765408,
      "user": "Kattenbakvulling",
      "uid": 669642,
      "nodes": [
        2367383134,
        2367383140,
        2367383136,
        2367383144,
        2367383134
      ],
      "tags": {
        "amenity": "parking"
      }
    },
    {
      "type": "way",
      "id": 228097495,
      "timestamp": "2013-06-30T15:13:24Z",
      "version": 1,
      "changeset": 16765408,
      "user": "Kattenbakvulling",
      "uid": 669642,
      "nodes": [
        2367384214,
        2367384222,
        2367384208,
        2367384220,
        2367384214
      ],
      "tags": {
        "amenity": "parking"
      }
    },
    {
      "type": "way",
      "id": 228097496,
      "timestamp": "2013-06-30T15:13:24Z",
      "version": 1,
      "changeset": 16765408,
      "user": "Kattenbakvulling",
      "uid": 669642,
      "nodes": [
        2367384202,
        2367384205,
        2367384217,
        2367384211,
        2367384202
      ],
      "tags": {
        "amenity": "parking"
      }
    },
    {
      "type": "way",
      "id": 228097843,
      "timestamp": "2013-06-30T15:17:20Z",
      "version": 1,
      "changeset": 16765408,
      "user": "Kattenbakvulling",
      "uid": 669642,
      "nodes": [
        2367395543,
        2367395547,
        2367395539,
        2367395548,
        2367395543
      ],
      "tags": {
        "amenity": "parking"
      }
    },
    {
      "type": "way",
      "id": 228097844,
      "timestamp": "2013-06-30T15:17:20Z",
      "version": 1,
      "changeset": 16765408,
      "user": "Kattenbakvulling",
      "uid": 669642,
      "nodes": [
        2367395541,
        2367395545,
        2367395550,
        2367395537,
        2367395541
      ],
      "tags": {
        "amenity": "parking"
      }
    },
    {
      "type": "way",
      "id": 228199990,
      "timestamp": "2014-10-12T13:14:46Z",
      "version": 2,
      "changeset": 26025305,
      "user": "StijnRR",
      "uid": 911613,
      "nodes": [
        2368333249,
        2368333251,
        3125833612,
        3125833611,
        3125833609,
        3125833604,
        3125833608,
        3125833605,
        3125833600,
        3125833597,
        3125833594,
        3125833593,
        3125833590,
        3125833586,
        3125833585,
        2368333253,
        2368333254,
        2368333249
      ],
      "tags": {
        "amenity": "parking"
      }
    },
    {
      "type": "way",
      "id": 235125153,
      "timestamp": "2021-09-24T12:29:22Z",
      "version": 4,
      "changeset": 111645679,
      "user": "Mich4711",
      "uid": 12764098,
      "nodes": [
        2432165225,
        2432165230,
        2432165232,
        2432165236,
        9120097529,
        2432165238,
        9120097530,
        2432165240,
        9120097524,
        9120097521,
        2432165225
      ],
      "tags": {
        "access": "customers",
        "amenity": "parking",
        "fee": "no",
        "surface": "asphalt",
        "wheelchair": "yes"
      }
    },
    {
      "type": "way",
      "id": 235125158,
      "timestamp": "2013-08-26T11:13:27Z",
      "version": 1,
      "changeset": 17514831,
      "user": "Kattenbakvulling",
      "uid": 669642,
      "nodes": [
        2432165265,
        2432165268,
        2432165270,
        2432165273,
        2432165265
      ],
      "tags": {
        "amenity": "parking"
      }
    },
    {
      "type": "way",
      "id": 238101145,
      "timestamp": "2021-03-01T13:42:29Z",
      "version": 4,
      "changeset": 100193440,
      "user": "wheelmap_visitor",
      "uid": 290680,
      "nodes": [
        2459639908,
        1284988823,
        1284989903,
        2459639898,
        2459639908
      ],
      "tags": {
        "amenity": "parking",
        "wheelchair": "limited"
      }
    },
    {
      "type": "way",
      "id": 242863343,
      "timestamp": "2014-10-12T13:14:47Z",
      "version": 2,
      "changeset": 26025305,
      "user": "StijnRR",
      "uid": 911613,
      "nodes": [
        2503111599,
        2503111601,
        3125833795,
        2503111603,
        2503111605,
        2503111607,
        2503111609,
        2503111599
      ],
      "tags": {
        "amenity": "parking"
      }
    },
    {
      "type": "way",
      "id": 307439738,
      "timestamp": "2014-10-12T13:13:02Z",
      "version": 1,
      "changeset": 26025305,
      "user": "StijnRR",
      "uid": 911613,
      "nodes": [
        3125834071,
        2258467552,
        2258467553,
        2258467551,
        3125834038,
        3125833821,
        3125833826,
        3125834037,
        3125834041,
        3125834054,
        3125834071
      ],
      "tags": {
        "amenity": "parking",
        "parking": "surface"
      }
    },
    {
      "type": "way",
      "id": 318992219,
      "timestamp": "2014-12-26T18:20:01Z",
      "version": 1,
      "changeset": 27714784,
      "user": "StijnRR",
      "uid": 911613,
      "nodes": [
        2205132815,
        2205132784,
        2205132797,
        2205132809,
        2205132843,
        2205132815
      ],
      "tags": {
        "amenity": "parking",
        "parking": "surface"
      }
    },
    {
      "type": "way",
      "id": 359762211,
      "timestamp": "2019-11-18T16:45:55Z",
      "version": 2,
      "changeset": 77238822,
      "user": "susvhv",
      "uid": 29172,
      "nodes": [
        3644128358,
        3644128359,
        3644128360,
        6987747548,
        6987747547,
        6987747546,
        6987747545,
        3644128361,
        6987747541,
        6987747544,
        6987747542,
        6987747543,
        3644128358
      ],
      "tags": {
        "amenity": "parking"
      }
    },
    {
      "type": "way",
      "id": 360507748,
      "timestamp": "2015-07-14T10:44:21Z",
      "version": 1,
      "changeset": 32624226,
      "user": "Kattenbakvulling",
      "uid": 669642,
      "nodes": [
        3650398827,
        3650398828,
        3650398829,
        3650398830,
        3650398831,
        3650398832,
        3650398827
      ],
      "tags": {
        "amenity": "parking"
      }
    },
    {
      "type": "way",
      "id": 549343381,
      "timestamp": "2017-12-27T13:58:39Z",
      "version": 1,
      "changeset": 54956493,
      "user": "DidierLmn",
      "uid": 4201907,
      "nodes": [
        5306485869,
        5306485873,
        5306485870,
        5306485871,
        5306485872,
        5306485869
      ],
      "tags": {
        "access": "private",
        "amenity": "parking",
        "capacity": "250",
        "park_ride": "no",
        "parking": "surface",
        "supervised": "no"
      }
    },
    {
      "type": "way",
      "id": 549343382,
      "timestamp": "2021-03-01T13:42:40Z",
      "version": 3,
      "changeset": 100193440,
      "user": "wheelmap_visitor",
      "uid": 290680,
      "nodes": [
        5306485874,
        5306485875,
        4803415853,
        6498544754,
        6498544755,
        4803415854,
        5306485874
      ],
      "tags": {
        "access": "yes",
        "amenity": "parking",
        "capacity": "350",
        "fee": "yes",
        "park_ride": "no",
        "parking": "surface",
        "supervised": "no",
        "wheelchair": "yes"
      }
    },
    {
      "type": "way",
      "id": 645748197,
      "timestamp": "2018-11-17T21:40:45Z",
      "version": 1,
      "changeset": 64607499,
      "user": "Eebie",
      "uid": 715684,
      "nodes": [
        6069319824,
        6069319822,
        6069319821,
        6069319823,
        6069319824
      ],
      "tags": {
        "amenity": "parking"
      }
    },
    {
      "type": "way",
      "id": 645748198,
      "timestamp": "2018-11-17T21:40:45Z",
      "version": 1,
      "changeset": 64607499,
      "user": "Eebie",
      "uid": 715684,
      "nodes": [
        6069319828,
        6069319826,
        6069319825,
        6069319827,
        6069319828
      ],
      "tags": {
        "amenity": "parking"
      }
    },
    {
      "type": "way",
      "id": 645748199,
      "timestamp": "2021-12-06T10:52:58Z",
      "version": 2,
      "changeset": 114613605,
      "user": "Mich4711",
      "uid": 12764098,
      "nodes": [
        2437909283,
        6069319834,
        6069319833,
        9315067090,
        2503110257,
        6069319831,
        2503110262,
        6069319829,
        2437909283
      ],
      "tags": {
        "amenity": "parking"
      }
    },
    {
      "type": "way",
      "id": 645748204,
      "timestamp": "2018-11-17T21:40:46Z",
      "version": 1,
      "changeset": 64607499,
      "user": "Eebie",
      "uid": 715684,
      "nodes": [
        6069319867,
        6069319865,
        6069319864,
        6069319866,
        6069319867
      ],
      "tags": {
        "access": "customers",
        "amenity": "parking"
      }
    },
    {
      "type": "way",
      "id": 645748206,
      "timestamp": "2018-11-17T21:40:46Z",
      "version": 1,
      "changeset": 64607499,
      "user": "Eebie",
      "uid": 715684,
      "nodes": [
        6069319874,
        6069319872,
        6069319871,
        6069319873,
        6069319874
      ],
      "tags": {
        "access": "customers",
        "amenity": "parking"
      }
    },
    {
      "type": "way",
      "id": 651921593,
      "timestamp": "2021-09-30T09:55:20Z",
      "version": 2,
      "changeset": 111908146,
      "user": "Eebie",
      "uid": 715684,
      "nodes": [
        6112696924,
        6112696923,
        9134853546,
        9134853545,
        6112696924
      ],
      "tags": {
        "access": "customers",
        "amenity": "parking"
      }
    },
    {
      "type": "way",
      "id": 658853529,
      "timestamp": "2018-12-28T17:07:02Z",
      "version": 1,
      "changeset": 65847449,
      "user": "takje",
      "uid": 9291395,
      "nodes": [
        6168856727,
        6168856728,
        6168856729,
        4962493940,
        4962493926,
        4962493879,
        6168856727
      ],
      "tags": {
        "amenity": "parking"
      }
    },
    {
      "type": "way",
      "id": 692300731,
      "timestamp": "2019-05-24T19:45:19Z",
      "version": 1,
      "changeset": 70597602,
      "user": "Jakka",
      "uid": 2403313,
      "nodes": [
        4803415852,
        4803415838,
        4803415856,
        4803415857,
        6498544756,
        6498544753,
        4803415852
      ],
      "tags": {
        "amenity": "parking"
      }
    },
    {
      "type": "way",
      "id": 692300737,
      "timestamp": "2019-05-24T19:45:19Z",
      "version": 1,
      "changeset": 70597602,
      "user": "Jakka",
      "uid": 2403313,
      "nodes": [
        4803415853,
        6498544754,
        6498544755,
        6498544757,
        4803415855,
        4803415857,
        6498544756,
        6498544753,
        4803415852,
        4803415853
      ],
      "tags": {
        "amenity": "parking",
        "layer": "-1"
      }
    },
    {
      "type": "way",
      "id": 749001353,
      "timestamp": "2021-12-07T06:44:42Z",
      "version": 3,
      "changeset": 114645432,
      "user": "FvGordon",
      "uid": 161619,
      "nodes": [
        7004327582,
        7004327581,
        7004327580,
        7004327579,
        7004327576,
        7004327575,
        7004327584,
        9315076037,
        7004327574,
        7004327573,
        9315076084,
        9315076085,
        7004327571,
        9315076086,
        7004327569,
        9315076088,
        7004327568,
        7004327582
      ],
      "tags": {
        "amenity": "parking",
        "name": "Hubo",
        "parking": "surface"
      }
    },
    {
      "type": "way",
      "id": 750103936,
      "timestamp": "2019-11-27T13:41:23Z",
      "version": 1,
      "changeset": 77635223,
      "user": "susvhv",
      "uid": 29172,
      "nodes": [
        7014182589,
        7014182587,
        7014182588,
        7014182590,
        7014182589
      ],
      "tags": {
        "amenity": "parking",
        "parking": "surface"
      }
    },
    {
      "type": "way",
      "id": 842084170,
      "timestamp": "2020-08-29T08:08:56Z",
      "version": 1,
      "changeset": 90110459,
      "user": "Martin Borsje",
      "uid": 99810,
      "nodes": [
        7856079933,
        7856079932,
        7856079931,
        7856079930,
        7856079933
      ],
      "tags": {
        "access": "customers",
        "amenity": "parking",
        "parking": "surface"
      }
    },
    {
      "type": "way",
      "id": 942114952,
      "timestamp": "2021-05-12T08:18:31Z",
      "version": 1,
      "changeset": 104556704,
      "user": "kersentaart",
      "uid": 9812520,
      "nodes": [
        8724317199,
        8724317200,
        8724317201,
        8724317202,
        8724317203,
        8724317199
      ],
      "tags": {
        "amenity": "parking"
      }
    },
    {
      "type": "way",
      "id": 988069078,
      "timestamp": "2021-09-29T17:29:02Z",
      "version": 1,
      "changeset": 111878587,
      "user": "Eebie",
      "uid": 715684,
      "nodes": [
        9132852844,
        9132852843,
        9132852842,
        9132852841,
        9132852840,
        9132852839,
        9132852844
      ],
      "tags": {
        "amenity": "parking",
        "surface": "paving_stones"
      }
    },
    {
      "type": "way",
      "id": 988269388,
      "timestamp": "2021-09-30T09:55:20Z",
      "version": 1,
      "changeset": 111908146,
      "user": "Eebie",
      "uid": 715684,
      "nodes": [
        9134853523,
        9134853521,
        9134853520,
        9134853522,
        9134853523
      ],
      "tags": {
        "access": "private",
        "amenity": "parking"
      }
    },
    {
      "type": "way",
      "id": 1009568808,
      "timestamp": "2021-12-06T10:52:58Z",
      "version": 1,
      "changeset": 114613605,
      "user": "Mich4711",
      "uid": 12764098,
      "nodes": [
        9315067063,
        9315067064
      ],
      "tags": {
        "amenity": "bench"
      }
    },
    {
      "type": "way",
      "id": 1009568809,
      "timestamp": "2021-12-06T10:52:58Z",
      "version": 1,
      "changeset": 114613605,
      "user": "Mich4711",
      "uid": 12764098,
      "nodes": [
        9315067066,
        9315067067
      ],
      "tags": {
        "amenity": "bench"
      }
    },
    {
      "type": "way",
      "id": 1009568810,
      "timestamp": "2021-12-06T10:52:58Z",
      "version": 1,
      "changeset": 114613605,
      "user": "Mich4711",
      "uid": 12764098,
      "nodes": [
        9315067068,
        9315067069
      ],
      "tags": {
        "amenity": "bench"
      }
    },
    {
      "type": "way",
      "id": 1009568811,
      "timestamp": "2021-12-06T10:52:58Z",
      "version": 1,
      "changeset": 114613605,
      "user": "Mich4711",
      "uid": 12764098,
      "nodes": [
        9315067070,
        9315067071
      ],
      "tags": {
        "amenity": "bench"
      }
    },
    {
      "type": "way",
      "id": 1009568813,
      "timestamp": "2021-12-06T10:52:58Z",
      "version": 1,
      "changeset": 114613605,
      "user": "Mich4711",
      "uid": 12764098,
      "nodes": [
        9315067075,
        9315067076
      ],
      "tags": {
        "amenity": "bench"
      }
    },
    {
      "type": "way",
      "id": 1009568814,
      "timestamp": "2021-12-06T10:52:58Z",
      "version": 1,
      "changeset": 114613605,
      "user": "Mich4711",
      "uid": 12764098,
      "nodes": [
        9315067077,
        9315067078
      ],
      "tags": {
        "amenity": "bench"
      }
    },
    {
      "type": "node",
      "id": 2204357060,
      "lat": 51.0685373,
      "lon": 5.7467145
    },
    {
      "type": "node",
      "id": 2204357064,
      "lat": 51.0685619,
      "lon": 5.7467099
    },
    {
      "type": "node",
      "id": 2204357074,
      "lat": 51.0686531,
      "lon": 5.7466523
    },
    {
      "type": "node",
      "id": 2204357076,
      "lat": 51.0686681,
      "lon": 5.7461616
    },
    {
      "type": "node",
      "id": 2204357100,
      "lat": 51.0688209,
      "lon": 5.7465372
    },
    {
      "type": "node",
      "id": 2204357111,
      "lat": 51.0688686,
      "lon": 5.7465257
    },
    {
      "type": "node",
      "id": 2204357115,
      "lat": 51.0689091,
      "lon": 5.7464636
    },
    {
      "type": "node",
      "id": 2204357119,
      "lat": 51.068938,
      "lon": 5.7462587
    },
    {
      "type": "node",
      "id": 2204357122,
      "lat": 51.0689612,
      "lon": 5.7461183
    },
    {
      "type": "node",
      "id": 2204357126,
      "lat": 51.06898,
      "lon": 5.7464912
    },
    {
      "type": "node",
      "id": 2204357128,
      "lat": 51.0690306,
      "lon": 5.7461528
    },
    {
      "type": "node",
      "id": 2186703763,
      "lat": 51.0690755,
      "lon": 5.7525658
    },
    {
      "type": "node",
      "id": 2186703764,
      "lat": 51.0690833,
      "lon": 5.752567
    },
    {
      "type": "node",
      "id": 2186703768,
      "lat": 51.0744505,
      "lon": 5.7564312
    },
    {
      "type": "node",
      "id": 2186703770,
      "lat": 51.0744597,
      "lon": 5.7564388
    },
    {
      "type": "node",
      "id": 1285131524,
      "lat": 51.0791513,
      "lon": 5.7576028
    },
    {
      "type": "node",
      "id": 1285162905,
      "lat": 51.0789217,
      "lon": 5.7569804
    },
    {
      "type": "node",
      "id": 2186703775,
      "lat": 51.0757541,
      "lon": 5.7570383
    },
    {
      "type": "node",
      "id": 2186703777,
      "lat": 51.0757634,
      "lon": 5.7570458
    },
    {
      "type": "node",
      "id": 2204413491,
      "lat": 51.0782369,
      "lon": 5.7585624
    },
    {
      "type": "node",
      "id": 2204413493,
      "lat": 51.0783369,
      "lon": 5.7587173
    },
    {
      "type": "node",
      "id": 2204413499,
      "lat": 51.0785946,
      "lon": 5.7580304
    },
    {
      "type": "node",
      "id": 2204413500,
      "lat": 51.078912,
      "lon": 5.7583125
    },
    {
      "type": "node",
      "id": 3650398827,
      "lat": 51.0766593,
      "lon": 5.7585018
    },
    {
      "type": "node",
      "id": 3650398828,
      "lat": 51.0767515,
      "lon": 5.7581831
    },
    {
      "type": "node",
      "id": 3650398829,
      "lat": 51.0764014,
      "lon": 5.7579264
    },
    {
      "type": "node",
      "id": 3650398830,
      "lat": 51.0759746,
      "lon": 5.759401
    },
    {
      "type": "node",
      "id": 3650398831,
      "lat": 51.0761282,
      "lon": 5.7595136
    },
    {
      "type": "node",
      "id": 3650398832,
      "lat": 51.0764628,
      "lon": 5.7583577
    },
    {
      "type": "node",
      "id": 2186703781,
      "lat": 51.0809331,
      "lon": 5.7608916
    },
    {
      "type": "node",
      "id": 2186703783,
      "lat": 51.080943,
      "lon": 5.7609004
    },
    {
      "type": "node",
      "id": 2186703786,
      "lat": 51.0814292,
      "lon": 5.7616282
    },
    {
      "type": "node",
      "id": 2186703788,
      "lat": 51.0814393,
      "lon": 5.7616363
    },
    {
      "type": "node",
      "id": 1285132842,
      "lat": 51.0768982,
      "lon": 5.7933815
    },
    {
      "type": "node",
      "id": 1285159729,
      "lat": 51.0763952,
      "lon": 5.7929765
    },
    {
      "type": "node",
      "id": 6112696923,
      "lat": 51.0751443,
      "lon": 5.794734
    },
    {
      "type": "node",
      "id": 6112696924,
      "lat": 51.0751925,
      "lon": 5.7944275
    },
    {
      "type": "node",
      "id": 9134853545,
      "lat": 51.0753375,
      "lon": 5.7944949
    },
    {
      "type": "node",
      "id": 9134853546,
      "lat": 51.075286,
      "lon": 5.7947909
    },
    {
      "type": "node",
      "id": 1285146409,
      "lat": 51.0764079,
      "lon": 5.7944974
    },
    {
      "type": "node",
      "id": 1285153397,
      "lat": 51.0767145,
      "lon": 5.7946581
    },
    {
      "type": "node",
      "id": 1285169503,
      "lat": 51.0770736,
      "lon": 5.7950437
    },
    {
      "type": "node",
      "id": 2216844996,
      "lat": 51.076494,
      "lon": 5.7945437
    },
    {
      "type": "node",
      "id": 2216845002,
      "lat": 51.0773997,
      "lon": 5.7951575
    },
    {
      "type": "node",
      "id": 2216845004,
      "lat": 51.0774103,
      "lon": 5.7951612
    },
    {
      "type": "node",
      "id": 2357342704,
      "lat": 51.076948,
      "lon": 5.7938823
    },
    {
      "type": "node",
      "id": 2357342705,
      "lat": 51.0761324,
      "lon": 5.7945061
    },
    {
      "type": "node",
      "id": 2357342708,
      "lat": 51.0762953,
      "lon": 5.7946045
    },
    {
      "type": "node",
      "id": 2357342719,
      "lat": 51.0767795,
      "lon": 5.7937133
    },
    {
      "type": "node",
      "id": 6111911356,
      "lat": 51.0766556,
      "lon": 5.7946529
    },
    {
      "type": "node",
      "id": 6111911358,
      "lat": 51.0765441,
      "lon": 5.794588
    },
    {
      "type": "node",
      "id": 8694463794,
      "lat": 51.077154,
      "lon": 5.7945999
    },
    {
      "type": "node",
      "id": 8694463795,
      "lat": 51.077457,
      "lon": 5.7947328
    },
    {
      "type": "node",
      "id": 8694463796,
      "lat": 51.077396,
      "lon": 5.7947061
    },
    {
      "type": "node",
      "id": 9134853520,
      "lat": 51.0764958,
      "lon": 5.7948897
    },
    {
      "type": "node",
      "id": 9134853521,
      "lat": 51.07654,
      "lon": 5.7946952
    },
    {
      "type": "node",
      "id": 9134853522,
      "lat": 51.0765327,
      "lon": 5.7949109
    },
    {
      "type": "node",
      "id": 9134853523,
      "lat": 51.0765769,
      "lon": 5.7947164
    },
    {
      "type": "node",
      "id": 2186703793,
      "lat": 51.085979,
      "lon": 5.7645788
    },
    {
      "type": "node",
      "id": 2186703795,
      "lat": 51.0859884,
      "lon": 5.7645869
    },
    {
      "type": "node",
      "id": 6987576541,
      "lat": 51.0927852,
      "lon": 5.7584587
    },
    {
      "type": "node",
      "id": 6987576543,
      "lat": 51.0927334,
      "lon": 5.7585331
    },
    {
      "type": "node",
      "id": 6987576544,
      "lat": 51.0927519,
      "lon": 5.7584406
    },
    {
      "type": "node",
      "id": 6987576545,
      "lat": 51.0928096,
      "lon": 5.7583293
    },
    {
      "type": "node",
      "id": 6987576546,
      "lat": 51.0927283,
      "lon": 5.7582904
    },
    {
      "type": "node",
      "id": 6987576547,
      "lat": 51.0927237,
      "lon": 5.7582964
    },
    {
      "type": "node",
      "id": 6987576548,
      "lat": 51.092701,
      "lon": 5.7582884
    },
    {
      "type": "node",
      "id": 6987576549,
      "lat": 51.0926925,
      "lon": 5.7583226
    },
    {
      "type": "node",
      "id": 6987576550,
      "lat": 51.0926159,
      "lon": 5.7582877
    },
    {
      "type": "node",
      "id": 6987576551,
      "lat": 51.0926205,
      "lon": 5.7582374
    },
    {
      "type": "node",
      "id": 6987576552,
      "lat": 51.0926432,
      "lon": 5.758112
    },
    {
      "type": "node",
      "id": 6987576554,
      "lat": 51.092599,
      "lon": 5.7580939
    },
    {
      "type": "node",
      "id": 6987576555,
      "lat": 51.0925586,
      "lon": 5.7584647
    },
    {
      "type": "node",
      "id": 7856079930,
      "lat": 51.1065442,
      "lon": 5.7486264
    },
    {
      "type": "node",
      "id": 7856079931,
      "lat": 51.1064083,
      "lon": 5.7488927
    },
    {
      "type": "node",
      "id": 7856079932,
      "lat": 51.1063161,
      "lon": 5.7487734
    },
    {
      "type": "node",
      "id": 7856079933,
      "lat": 51.106452,
      "lon": 5.7485071
    },
    {
      "type": "node",
      "id": 2205132327,
      "lat": 51.0961127,
      "lon": 5.7576154
    },
    {
      "type": "node",
      "id": 2205132366,
      "lat": 51.0961355,
      "lon": 5.7570848
    },
    {
      "type": "node",
      "id": 2205132386,
      "lat": 51.0961731,
      "lon": 5.7570467
    },
    {
      "type": "node",
      "id": 2205132509,
      "lat": 51.0964361,
      "lon": 5.7570805
    },
    {
      "type": "node",
      "id": 2205132570,
      "lat": 51.0964888,
      "lon": 5.7571309
    },
    {
      "type": "node",
      "id": 2205132616,
      "lat": 51.0964411,
      "lon": 5.757645
    },
    {
      "type": "node",
      "id": 2205132648,
      "lat": 51.096526,
      "lon": 5.7572306
    },
    {
      "type": "node",
      "id": 2205132675,
      "lat": 51.0964901,
      "lon": 5.7576466
    },
    {
      "type": "node",
      "id": 2205132758,
      "lat": 51.0965834,
      "lon": 5.757683
    },
    {
      "type": "node",
      "id": 2205132784,
      "lat": 51.0966566,
      "lon": 5.7581407
    },
    {
      "type": "node",
      "id": 2205132797,
      "lat": 51.0966713,
      "lon": 5.7585195
    },
    {
      "type": "node",
      "id": 2205132809,
      "lat": 51.0966703,
      "lon": 5.7586462
    },
    {
      "type": "node",
      "id": 2205132815,
      "lat": 51.0967176,
      "lon": 5.7581207
    },
    {
      "type": "node",
      "id": 2205132843,
      "lat": 51.0967664,
      "lon": 5.7586093
    },
    {
      "type": "node",
      "id": 3644128358,
      "lat": 51.0992993,
      "lon": 5.7600905
    },
    {
      "type": "node",
      "id": 3644128359,
      "lat": 51.0991666,
      "lon": 5.7601081
    },
    {
      "type": "node",
      "id": 3644128360,
      "lat": 51.0991708,
      "lon": 5.7601863
    },
    {
      "type": "node",
      "id": 6987747542,
      "lat": 51.0992742,
      "lon": 5.7602745
    },
    {
      "type": "node",
      "id": 6987747543,
      "lat": 51.0993104,
      "lon": 5.7602732
    },
    {
      "type": "node",
      "id": 6987747544,
      "lat": 51.0992506,
      "lon": 5.7603094
    },
    {
      "type": "node",
      "id": 6987747548,
      "lat": 51.0991319,
      "lon": 5.7601914
    },
    {
      "type": "node",
      "id": 3644128361,
      "lat": 51.0992749,
      "lon": 5.7607923
    },
    {
      "type": "node",
      "id": 6987747541,
      "lat": 51.0992691,
      "lon": 5.7606353
    },
    {
      "type": "node",
      "id": 6987747545,
      "lat": 51.0992152,
      "lon": 5.7608096
    },
    {
      "type": "node",
      "id": 6987747546,
      "lat": 51.0992102,
      "lon": 5.7607238
    },
    {
      "type": "node",
      "id": 6987747547,
      "lat": 51.0991664,
      "lon": 5.7607332
    },
    {
      "type": "node",
      "id": 7014182589,
      "lat": 51.0951069,
      "lon": 5.7717691
    },
    {
      "type": "node",
      "id": 7014182590,
      "lat": 51.0951238,
      "lon": 5.7718429
    },
    {
      "type": "node",
      "id": 6069319864,
      "lat": 51.0939071,
      "lon": 5.778437
    },
    {
      "type": "node",
      "id": 6069319865,
      "lat": 51.093523,
      "lon": 5.7775573
    },
    {
      "type": "node",
      "id": 6069319866,
      "lat": 51.094044,
      "lon": 5.7782856
    },
    {
      "type": "node",
      "id": 6069319867,
      "lat": 51.0936599,
      "lon": 5.7774058
    },
    {
      "type": "node",
      "id": 6069319871,
      "lat": 51.0928653,
      "lon": 5.7771298
    },
    {
      "type": "node",
      "id": 6069319872,
      "lat": 51.0931736,
      "lon": 5.7778111
    },
    {
      "type": "node",
      "id": 6069319873,
      "lat": 51.0933449,
      "lon": 5.7765797
    },
    {
      "type": "node",
      "id": 6069319874,
      "lat": 51.0936532,
      "lon": 5.777261
    },
    {
      "type": "node",
      "id": 1256376196,
      "lat": 51.0936716,
      "lon": 5.7902273
    },
    {
      "type": "node",
      "id": 1256376198,
      "lat": 51.0948572,
      "lon": 5.7913949
    },
    {
      "type": "node",
      "id": 1256376199,
      "lat": 51.0944495,
      "lon": 5.7920071
    },
    {
      "type": "node",
      "id": 1256376209,
      "lat": 51.0934038,
      "lon": 5.7902091
    },
    {
      "type": "node",
      "id": 1256376211,
      "lat": 51.0944696,
      "lon": 5.7913165
    },
    {
      "type": "node",
      "id": 1256376216,
      "lat": 51.093406,
      "lon": 5.791335
    },
    {
      "type": "node",
      "id": 1256376223,
      "lat": 51.0931473,
      "lon": 5.7911459
    },
    {
      "type": "node",
      "id": 1256376239,
      "lat": 51.0947607,
      "lon": 5.7921104
    },
    {
      "type": "node",
      "id": 1256376242,
      "lat": 51.0935586,
      "lon": 5.7908496
    },
    {
      "type": "node",
      "id": 1256376258,
      "lat": 51.093254,
      "lon": 5.7911454
    },
    {
      "type": "node",
      "id": 3125833559,
      "lat": 51.0933174,
      "lon": 5.7912134
    },
    {
      "type": "node",
      "id": 3125833560,
      "lat": 51.0933188,
      "lon": 5.7906604
    },
    {
      "type": "node",
      "id": 3125833561,
      "lat": 51.093337,
      "lon": 5.7913136
    },
    {
      "type": "node",
      "id": 3125833562,
      "lat": 51.0933699,
      "lon": 5.7904534
    },
    {
      "type": "node",
      "id": 3125833563,
      "lat": 51.0934267,
      "lon": 5.791195
    },
    {
      "type": "node",
      "id": 3125833564,
      "lat": 51.0934759,
      "lon": 5.7900805
    },
    {
      "type": "node",
      "id": 4962493879,
      "lat": 51.0930697,
      "lon": 5.788818
    },
    {
      "type": "node",
      "id": 4962493926,
      "lat": 51.0931456,
      "lon": 5.7880252
    },
    {
      "type": "node",
      "id": 4962493940,
      "lat": 51.093225,
      "lon": 5.7871961
    },
    {
      "type": "node",
      "id": 6168856727,
      "lat": 51.0930568,
      "lon": 5.7888521
    },
    {
      "type": "node",
      "id": 6168856728,
      "lat": 51.0930067,
      "lon": 5.7888435
    },
    {
      "type": "node",
      "id": 6168856729,
      "lat": 51.0931386,
      "lon": 5.7871733
    },
    {
      "type": "node",
      "id": 6238317239,
      "lat": 51.0933814,
      "lon": 5.7903702
    },
    {
      "type": "node",
      "id": 6238317240,
      "lat": 51.0933599,
      "lon": 5.7904941
    },
    {
      "type": "node",
      "id": 6238317794,
      "lat": 51.0936383,
      "lon": 5.7901341
    },
    {
      "type": "node",
      "id": 6238317795,
      "lat": 51.0936298,
      "lon": 5.7902112
    },
    {
      "type": "node",
      "id": 6238317796,
      "lat": 51.0934488,
      "lon": 5.7901734
    },
    {
      "type": "node",
      "id": 5306485869,
      "lat": 51.1013861,
      "lon": 5.7690257
    },
    {
      "type": "node",
      "id": 5306485870,
      "lat": 51.1006726,
      "lon": 5.7694476
    },
    {
      "type": "node",
      "id": 5306485871,
      "lat": 51.1011004,
      "lon": 5.7706196
    },
    {
      "type": "node",
      "id": 5306485873,
      "lat": 51.1012217,
      "lon": 5.7689408
    },
    {
      "type": "node",
      "id": 5306485874,
      "lat": 51.1015688,
      "lon": 5.7688492
    },
    {
      "type": "node",
      "id": 7014182587,
      "lat": 51.095512,
      "lon": 5.7716498
    },
    {
      "type": "node",
      "id": 7014182588,
      "lat": 51.0955205,
      "lon": 5.771749
    },
    {
      "type": "node",
      "id": 2503111599,
      "lat": 51.0975309,
      "lon": 5.780222
    },
    {
      "type": "node",
      "id": 2503111601,
      "lat": 51.0974146,
      "lon": 5.779973
    },
    {
      "type": "node",
      "id": 2503111603,
      "lat": 51.09701,
      "lon": 5.7796099
    },
    {
      "type": "node",
      "id": 3125833795,
      "lat": 51.0971286,
      "lon": 5.7794527
    },
    {
      "type": "node",
      "id": 4803415838,
      "lat": 51.1027369,
      "lon": 5.7689196
    },
    {
      "type": "node",
      "id": 4803415852,
      "lat": 51.1026218,
      "lon": 5.7690151
    },
    {
      "type": "node",
      "id": 4803415853,
      "lat": 51.1024677,
      "lon": 5.7691531
    },
    {
      "type": "node",
      "id": 4803415854,
      "lat": 51.1021563,
      "lon": 5.768285
    },
    {
      "type": "node",
      "id": 4803415855,
      "lat": 51.1023122,
      "lon": 5.7681556
    },
    {
      "type": "node",
      "id": 4803415856,
      "lat": 51.1024556,
      "lon": 5.7681444
    },
    {
      "type": "node",
      "id": 4803415857,
      "lat": 51.1023428,
      "lon": 5.7682447
    },
    {
      "type": "node",
      "id": 5306485872,
      "lat": 51.1017454,
      "lon": 5.770046
    },
    {
      "type": "node",
      "id": 5306485875,
      "lat": 51.1018856,
      "lon": 5.7697275
    },
    {
      "type": "node",
      "id": 6498544753,
      "lat": 51.1026103,
      "lon": 5.7689833
    },
    {
      "type": "node",
      "id": 6498544754,
      "lat": 51.1024578,
      "lon": 5.7691256
    },
    {
      "type": "node",
      "id": 6498544755,
      "lat": 51.1021958,
      "lon": 5.7683965
    },
    {
      "type": "node",
      "id": 6498544756,
      "lat": 51.1023465,
      "lon": 5.7682549
    },
    {
      "type": "node",
      "id": 6498544757,
      "lat": 51.1021555,
      "lon": 5.768285
    },
    {
      "type": "node",
      "id": 8724317199,
      "lat": 51.103453,
      "lon": 5.7691001
    },
    {
      "type": "node",
      "id": 8724317200,
      "lat": 51.1031894,
      "lon": 5.7693415
    },
    {
      "type": "node",
      "id": 8724317201,
      "lat": 51.1030614,
      "lon": 5.7689848
    },
    {
      "type": "node",
      "id": 8724317202,
      "lat": 51.1033258,
      "lon": 5.7687407
    },
    {
      "type": "node",
      "id": 8724317203,
      "lat": 51.1034505,
      "lon": 5.7690907
    },
    {
      "type": "node",
      "id": 2258458140,
      "lat": 51.0982189,
      "lon": 5.7828618
    },
    {
      "type": "node",
      "id": 2258458151,
      "lat": 51.0982492,
      "lon": 5.7825061
    },
    {
      "type": "node",
      "id": 2258458153,
      "lat": 51.0982168,
      "lon": 5.7828723
    },
    {
      "type": "node",
      "id": 2258458154,
      "lat": 51.098272,
      "lon": 5.7826215
    },
    {
      "type": "node",
      "id": 2258458188,
      "lat": 51.0981606,
      "lon": 5.7825373
    },
    {
      "type": "node",
      "id": 2258458191,
      "lat": 51.0983104,
      "lon": 5.7828161
    },
    {
      "type": "node",
      "id": 2258467552,
      "lat": 51.0976267,
      "lon": 5.7868125
    },
    {
      "type": "node",
      "id": 2258472737,
      "lat": 51.0954091,
      "lon": 5.7829592
    },
    {
      "type": "node",
      "id": 2258472738,
      "lat": 51.095576,
      "lon": 5.7824889
    },
    {
      "type": "node",
      "id": 2365957274,
      "lat": 51.0954168,
      "lon": 5.780406
    },
    {
      "type": "node",
      "id": 2365957295,
      "lat": 51.0954266,
      "lon": 5.7803476
    },
    {
      "type": "node",
      "id": 2365957320,
      "lat": 51.0953505,
      "lon": 5.780315
    },
    {
      "type": "node",
      "id": 2365957356,
      "lat": 51.0953406,
      "lon": 5.7803734
    },
    {
      "type": "node",
      "id": 2365963036,
      "lat": 51.0957616,
      "lon": 5.7842909
    },
    {
      "type": "node",
      "id": 2365963037,
      "lat": 51.0954394,
      "lon": 5.7831064
    },
    {
      "type": "node",
      "id": 2365963038,
      "lat": 51.0955845,
      "lon": 5.7839991
    },
    {
      "type": "node",
      "id": 2365963040,
      "lat": 51.0956019,
      "lon": 5.7837452
    },
    {
      "type": "node",
      "id": 2365963047,
      "lat": 51.0956276,
      "lon": 5.783924
    },
    {
      "type": "node",
      "id": 2365963049,
      "lat": 51.0958888,
      "lon": 5.7842597
    },
    {
      "type": "node",
      "id": 2365963050,
      "lat": 51.0958132,
      "lon": 5.7834996
    },
    {
      "type": "node",
      "id": 2437909283,
      "lat": 51.0957931,
      "lon": 5.7847266
    },
    {
      "type": "node",
      "id": 2503110257,
      "lat": 51.096,
      "lon": 5.7850857
    },
    {
      "type": "node",
      "id": 2503110262,
      "lat": 51.0958462,
      "lon": 5.7845785
    },
    {
      "type": "node",
      "id": 2503111605,
      "lat": 51.0973705,
      "lon": 5.7803008
    },
    {
      "type": "node",
      "id": 2503111607,
      "lat": 51.0974075,
      "lon": 5.7803272
    },
    {
      "type": "node",
      "id": 2503111609,
      "lat": 51.0974425,
      "lon": 5.7803262
    },
    {
      "type": "node",
      "id": 4960302107,
      "lat": 51.0955055,
      "lon": 5.7824595
    },
    {
      "type": "node",
      "id": 4960302112,
      "lat": 51.0956956,
      "lon": 5.782511
    },
    {
      "type": "node",
      "id": 4960302113,
      "lat": 51.0957529,
      "lon": 5.7829005
    },
    {
      "type": "node",
      "id": 4960302474,
      "lat": 51.0954943,
      "lon": 5.7825731
    },
    {
      "type": "node",
      "id": 4961857015,
      "lat": 51.0981822,
      "lon": 5.7825265
    },
    {
      "type": "node",
      "id": 4961857018,
      "lat": 51.0981901,
      "lon": 5.782737
    },
    {
      "type": "node",
      "id": 4961857019,
      "lat": 51.0981922,
      "lon": 5.782748
    },
    {
      "type": "node",
      "id": 4961857116,
      "lat": 51.0981992,
      "lon": 5.7827325
    },
    {
      "type": "node",
      "id": 4961857121,
      "lat": 51.0981931,
      "lon": 5.7827017
    },
    {
      "type": "node",
      "id": 4961857221,
      "lat": 51.0982206,
      "lon": 5.7828704
    },
    {
      "type": "node",
      "id": 6069319829,
      "lat": 51.0958003,
      "lon": 5.7845742
    },
    {
      "type": "node",
      "id": 6069319831,
      "lat": 51.0959747,
      "lon": 5.7848217
    },
    {
      "type": "node",
      "id": 6069319833,
      "lat": 51.0957293,
      "lon": 5.7850809
    },
    {
      "type": "node",
      "id": 6069319834,
      "lat": 51.0957453,
      "lon": 5.7847223
    },
    {
      "type": "node",
      "id": 6069319850,
      "lat": 51.0956527,
      "lon": 5.7825261
    },
    {
      "type": "node",
      "id": 6069319862,
      "lat": 51.0954565,
      "lon": 5.7829432
    },
    {
      "type": "node",
      "id": 6638731347,
      "lat": 51.0981735,
      "lon": 5.7824828
    },
    {
      "type": "node",
      "id": 6638731348,
      "lat": 51.0982478,
      "lon": 5.7824457
    },
    {
      "type": "node",
      "id": 6638731349,
      "lat": 51.0982588,
      "lon": 5.7825013
    },
    {
      "type": "node",
      "id": 7004327568,
      "lat": 51.0956729,
      "lon": 5.7823236
    },
    {
      "type": "node",
      "id": 7004327569,
      "lat": 51.0956906,
      "lon": 5.782443
    },
    {
      "type": "node",
      "id": 7004327571,
      "lat": 51.0956106,
      "lon": 5.7823987
    },
    {
      "type": "node",
      "id": 7004327573,
      "lat": 51.0953116,
      "lon": 5.7823665
    },
    {
      "type": "node",
      "id": 7004327574,
      "lat": 51.0953261,
      "lon": 5.7822538
    },
    {
      "type": "node",
      "id": 7004327575,
      "lat": 51.0953655,
      "lon": 5.7818435
    },
    {
      "type": "node",
      "id": 7004327576,
      "lat": 51.0953703,
      "lon": 5.7817709
    },
    {
      "type": "node",
      "id": 7004327579,
      "lat": 51.0955283,
      "lon": 5.7817805
    },
    {
      "type": "node",
      "id": 7004327580,
      "lat": 51.0955276,
      "lon": 5.7818584
    },
    {
      "type": "node",
      "id": 7004327581,
      "lat": 51.0955696,
      "lon": 5.7818338
    },
    {
      "type": "node",
      "id": 7004327582,
      "lat": 51.0956603,
      "lon": 5.7822552
    },
    {
      "type": "node",
      "id": 7004327584,
      "lat": 51.095331,
      "lon": 5.7818435
    },
    {
      "type": "node",
      "id": 7013648595,
      "lat": 51.0954094,
      "lon": 5.7829607
    },
    {
      "type": "node",
      "id": 9315067063,
      "lat": 51.0953798,
      "lon": 5.7865475
    },
    {
      "type": "node",
      "id": 9315067064,
      "lat": 51.0954134,
      "lon": 5.7865517
    },
    {
      "type": "node",
      "id": 9315067066,
      "lat": 51.0955183,
      "lon": 5.7865629
    },
    {
      "type": "node",
      "id": 9315067067,
      "lat": 51.0955519,
      "lon": 5.786567
    },
    {
      "type": "node",
      "id": 9315067068,
      "lat": 51.0955906,
      "lon": 5.7865721
    },
    {
      "type": "node",
      "id": 9315067069,
      "lat": 51.0956241,
      "lon": 5.7865763
    },
    {
      "type": "node",
      "id": 9315067070,
      "lat": 51.0956692,
      "lon": 5.7865815
    },
    {
      "type": "node",
      "id": 9315067071,
      "lat": 51.0957028,
      "lon": 5.7865857
    },
    {
      "type": "node",
      "id": 9315067075,
      "lat": 51.0959656,
      "lon": 5.786174
    },
    {
      "type": "node",
      "id": 9315067076,
      "lat": 51.0959635,
      "lon": 5.7862375
    },
    {
      "type": "node",
      "id": 9315067077,
      "lat": 51.095959,
      "lon": 5.7861632
    },
    {
      "type": "node",
      "id": 9315067078,
      "lat": 51.0959234,
      "lon": 5.7861604
    },
    {
      "type": "node",
      "id": 9315067090,
      "lat": 51.0958502,
      "lon": 5.785105
    },
    {
      "type": "node",
      "id": 9315067095,
      "lat": 51.0954823,
      "lon": 5.7827074
    },
    {
      "type": "node",
      "id": 9315067096,
      "lat": 51.0954868,
      "lon": 5.7826645
    },
    {
      "type": "node",
      "id": 9315076018,
      "lat": 51.0955666,
      "lon": 5.7836825
    },
    {
      "type": "node",
      "id": 9315076037,
      "lat": 51.0953286,
      "lon": 5.7821159
    },
    {
      "type": "node",
      "id": 9315076075,
      "lat": 51.0957597,
      "lon": 5.7829683
    },
    {
      "type": "node",
      "id": 9315076080,
      "lat": 51.0957456,
      "lon": 5.7828512
    },
    {
      "type": "node",
      "id": 9315076081,
      "lat": 51.0956526,
      "lon": 5.7825261
    },
    {
      "type": "node",
      "id": 9315076082,
      "lat": 51.0955056,
      "lon": 5.7824595
    },
    {
      "type": "node",
      "id": 9315076084,
      "lat": 51.095312,
      "lon": 5.7823666
    },
    {
      "type": "node",
      "id": 9315076085,
      "lat": 51.0955398,
      "lon": 5.7824296
    },
    {
      "type": "node",
      "id": 9315076086,
      "lat": 51.0956237,
      "lon": 5.782475
    },
    {
      "type": "node",
      "id": 9315076088,
      "lat": 51.0956808,
      "lon": 5.7823766
    },
    {
      "type": "node",
      "id": 9315076090,
      "lat": 51.0955767,
      "lon": 5.7824892
    },
    {
      "type": "node",
      "id": 9315076093,
      "lat": 51.0956172,
      "lon": 5.784053
    },
    {
      "type": "node",
      "id": 1933550911,
      "lat": 51.1011107,
      "lon": 5.7892851
    },
    {
      "type": "node",
      "id": 1933550912,
      "lat": 51.1011472,
      "lon": 5.7893388
    },
    {
      "type": "node",
      "id": 1933550913,
      "lat": 51.1013869,
      "lon": 5.7896661
    },
    {
      "type": "node",
      "id": 1933550914,
      "lat": 51.1010731,
      "lon": 5.7893415
    },
    {
      "type": "node",
      "id": 1933550915,
      "lat": 51.1013157,
      "lon": 5.7896768
    },
    {
      "type": "node",
      "id": 1933550916,
      "lat": 51.101379,
      "lon": 5.7895267
    },
    {
      "type": "node",
      "id": 1933550917,
      "lat": 51.1011471,
      "lon": 5.7892162
    },
    {
      "type": "node",
      "id": 1933550918,
      "lat": 51.1013426,
      "lon": 5.7895957
    },
    {
      "type": "node",
      "id": 1933551621,
      "lat": 51.1011843,
      "lon": 5.7899128
    },
    {
      "type": "node",
      "id": 1933551624,
      "lat": 51.1011944,
      "lon": 5.7898506
    },
    {
      "type": "node",
      "id": 1933551626,
      "lat": 51.1013106,
      "lon": 5.7897787
    },
    {
      "type": "node",
      "id": 1933551628,
      "lat": 51.1008525,
      "lon": 5.7893791
    },
    {
      "type": "node",
      "id": 1933551632,
      "lat": 51.1011708,
      "lon": 5.7900201
    },
    {
      "type": "node",
      "id": 1933551635,
      "lat": 51.1007565,
      "lon": 5.7893254
    },
    {
      "type": "node",
      "id": 1933551637,
      "lat": 51.1012533,
      "lon": 5.7898056
    },
    {
      "type": "node",
      "id": 1933551639,
      "lat": 51.1009401,
      "lon": 5.7892503
    },
    {
      "type": "node",
      "id": 1933551641,
      "lat": 51.1009569,
      "lon": 5.7893812
    },
    {
      "type": "node",
      "id": 1933551648,
      "lat": 51.1007447,
      "lon": 5.7894408
    },
    {
      "type": "node",
      "id": 1933552006,
      "lat": 51.1013847,
      "lon": 5.7900604
    },
    {
      "type": "node",
      "id": 1933552014,
      "lat": 51.101346,
      "lon": 5.7901301
    },
    {
      "type": "node",
      "id": 1933552026,
      "lat": 51.1014961,
      "lon": 5.7901057
    },
    {
      "type": "node",
      "id": 1933552030,
      "lat": 51.1015314,
      "lon": 5.7900389
    },
    {
      "type": "node",
      "id": 1937180490,
      "lat": 51.0995962,
      "lon": 5.7886821
    },
    {
      "type": "node",
      "id": 1937180491,
      "lat": 51.0996719,
      "lon": 5.7895726
    },
    {
      "type": "node",
      "id": 1937180492,
      "lat": 51.0998336,
      "lon": 5.7886324
    },
    {
      "type": "node",
      "id": 1937180493,
      "lat": 51.0999187,
      "lon": 5.7895229
    },
    {
      "type": "node",
      "id": 2059464492,
      "lat": 51.0991664,
      "lon": 5.7868871
    },
    {
      "type": "node",
      "id": 2059464494,
      "lat": 51.0991679,
      "lon": 5.7868999
    },
    {
      "type": "node",
      "id": 2059464500,
      "lat": 51.0992094,
      "lon": 5.7872178
    },
    {
      "type": "node",
      "id": 2059464502,
      "lat": 51.0992108,
      "lon": 5.7872306
    },
    {
      "type": "node",
      "id": 2059464508,
      "lat": 51.0992497,
      "lon": 5.787514
    },
    {
      "type": "node",
      "id": 2059464509,
      "lat": 51.0992511,
      "lon": 5.7875268
    },
    {
      "type": "node",
      "id": 2258467551,
      "lat": 51.0973618,
      "lon": 5.7871225
    },
    {
      "type": "node",
      "id": 2258467553,
      "lat": 51.0975635,
      "lon": 5.7872033
    },
    {
      "type": "node",
      "id": 2311364150,
      "lat": 51.099926,
      "lon": 5.788159
    },
    {
      "type": "node",
      "id": 2311364151,
      "lat": 51.1009181,
      "lon": 5.788505
    },
    {
      "type": "node",
      "id": 2311364153,
      "lat": 51.1003791,
      "lon": 5.7886284
    },
    {
      "type": "node",
      "id": 2311364154,
      "lat": 51.1008473,
      "lon": 5.7879256
    },
    {
      "type": "node",
      "id": 2311364155,
      "lat": 51.1007968,
      "lon": 5.7878907
    },
    {
      "type": "node",
      "id": 2311364156,
      "lat": 51.1008137,
      "lon": 5.7878907
    },
    {
      "type": "node",
      "id": 2311364159,
      "lat": 51.1008659,
      "lon": 5.7879712
    },
    {
      "type": "node",
      "id": 2311364160,
      "lat": 51.099921,
      "lon": 5.7881026
    },
    {
      "type": "node",
      "id": 2311364161,
      "lat": 51.0998401,
      "lon": 5.7881777
    },
    {
      "type": "node",
      "id": 2311364162,
      "lat": 51.1003437,
      "lon": 5.7882394
    },
    {
      "type": "node",
      "id": 2311364166,
      "lat": 51.0998502,
      "lon": 5.7883601
    },
    {
      "type": "node",
      "id": 2311366547,
      "lat": 51.1009885,
      "lon": 5.7882229
    },
    {
      "type": "node",
      "id": 2311366561,
      "lat": 51.1009615,
      "lon": 5.7878922
    },
    {
      "type": "node",
      "id": 2311366578,
      "lat": 51.1016152,
      "lon": 5.7877568
    },
    {
      "type": "node",
      "id": 2311366580,
      "lat": 51.1016422,
      "lon": 5.7880876
    },
    {
      "type": "node",
      "id": 2432165225,
      "lat": 51.0977413,
      "lon": 5.7877881
    },
    {
      "type": "node",
      "id": 2432165230,
      "lat": 51.0973529,
      "lon": 5.7877645
    },
    {
      "type": "node",
      "id": 2432165232,
      "lat": 51.0973389,
      "lon": 5.7884655
    },
    {
      "type": "node",
      "id": 2432165236,
      "lat": 51.0974105,
      "lon": 5.7884708
    },
    {
      "type": "node",
      "id": 2432165238,
      "lat": 51.0974073,
      "lon": 5.7890086
    },
    {
      "type": "node",
      "id": 2432165240,
      "lat": 51.0977268,
      "lon": 5.7890204
    },
    {
      "type": "node",
      "id": 2432165265,
      "lat": 51.0977775,
      "lon": 5.7893131
    },
    {
      "type": "node",
      "id": 2432165268,
      "lat": 51.0973772,
      "lon": 5.7892858
    },
    {
      "type": "node",
      "id": 2432165270,
      "lat": 51.097379,
      "lon": 5.7892183
    },
    {
      "type": "node",
      "id": 2432165273,
      "lat": 51.0977793,
      "lon": 5.7892455
    },
    {
      "type": "node",
      "id": 3125833821,
      "lat": 51.0972526,
      "lon": 5.7872739
    },
    {
      "type": "node",
      "id": 3125833826,
      "lat": 51.097284,
      "lon": 5.7873531
    },
    {
      "type": "node",
      "id": 3125834037,
      "lat": 51.0973378,
      "lon": 5.7872997
    },
    {
      "type": "node",
      "id": 3125834038,
      "lat": 51.0973419,
      "lon": 5.787206
    },
    {
      "type": "node",
      "id": 3125834041,
      "lat": 51.0974281,
      "lon": 5.7873062
    },
    {
      "type": "node",
      "id": 3125834054,
      "lat": 51.0976006,
      "lon": 5.7874258
    },
    {
      "type": "node",
      "id": 3125834071,
      "lat": 51.0977629,
      "lon": 5.786912
    },
    {
      "type": "node",
      "id": 6069319821,
      "lat": 51.0973303,
      "lon": 5.7905355
    },
    {
      "type": "node",
      "id": 6069319822,
      "lat": 51.0976554,
      "lon": 5.7905556
    },
    {
      "type": "node",
      "id": 6069319823,
      "lat": 51.0973388,
      "lon": 5.7901865
    },
    {
      "type": "node",
      "id": 6069319824,
      "lat": 51.0976639,
      "lon": 5.7902066
    },
    {
      "type": "node",
      "id": 6069319825,
      "lat": 51.0973372,
      "lon": 5.7923251
    },
    {
      "type": "node",
      "id": 6069319826,
      "lat": 51.0973583,
      "lon": 5.7914681
    },
    {
      "type": "node",
      "id": 6069319827,
      "lat": 51.0977111,
      "lon": 5.7923484
    },
    {
      "type": "node",
      "id": 6069319828,
      "lat": 51.0977321,
      "lon": 5.7914914
    },
    {
      "type": "node",
      "id": 9120097521,
      "lat": 51.0977384,
      "lon": 5.7880361
    },
    {
      "type": "node",
      "id": 9120097524,
      "lat": 51.0977358,
      "lon": 5.7882571
    },
    {
      "type": "node",
      "id": 9120097529,
      "lat": 51.0974081,
      "lon": 5.7889277
    },
    {
      "type": "node",
      "id": 9120097530,
      "lat": 51.097448,
      "lon": 5.7890096
    },
    {
      "type": "node",
      "id": 2262625780,
      "lat": 51.1068715,
      "lon": 5.7809865
    },
    {
      "type": "node",
      "id": 2262625781,
      "lat": 51.1075682,
      "lon": 5.7816553
    },
    {
      "type": "node",
      "id": 2262625784,
      "lat": 51.106983,
      "lon": 5.7819987
    },
    {
      "type": "node",
      "id": 2262625785,
      "lat": 51.1075334,
      "lon": 5.7817151
    },
    {
      "type": "node",
      "id": 2262625816,
      "lat": 51.107461,
      "lon": 5.7819635
    },
    {
      "type": "node",
      "id": 9311043889,
      "lat": 51.1075455,
      "lon": 5.7817939
    },
    {
      "type": "node",
      "id": 9311043890,
      "lat": 51.1075309,
      "lon": 5.7818737
    },
    {
      "type": "node",
      "id": 9311043891,
      "lat": 51.1074999,
      "lon": 5.7819312
    },
    {
      "type": "node",
      "id": 9311043892,
      "lat": 51.1072955,
      "lon": 5.780783
    },
    {
      "type": "node",
      "id": 9311043893,
      "lat": 51.10734,
      "lon": 5.7810098
    },
    {
      "type": "node",
      "id": 9311043894,
      "lat": 51.1074322,
      "lon": 5.7809636
    },
    {
      "type": "node",
      "id": 1284988799,
      "lat": 51.1039787,
      "lon": 5.7883668
    },
    {
      "type": "node",
      "id": 1933552008,
      "lat": 51.1018358,
      "lon": 5.7905602
    },
    {
      "type": "node",
      "id": 1933552010,
      "lat": 51.1018412,
      "lon": 5.7907738
    },
    {
      "type": "node",
      "id": 1933552012,
      "lat": 51.1018732,
      "lon": 5.7907175
    },
    {
      "type": "node",
      "id": 1933552029,
      "lat": 51.1018711,
      "lon": 5.7904934
    },
    {
      "type": "node",
      "id": 2311364157,
      "lat": 51.1022287,
      "lon": 5.7897546
    },
    {
      "type": "node",
      "id": 2311364158,
      "lat": 51.1024452,
      "lon": 5.7893456
    },
    {
      "type": "node",
      "id": 2311364164,
      "lat": 51.1025858,
      "lon": 5.7895344
    },
    {
      "type": "node",
      "id": 2311364165,
      "lat": 51.1023692,
      "lon": 5.7899434
    },
    {
      "type": "node",
      "id": 2367381563,
      "lat": 51.1049073,
      "lon": 5.7908067
    },
    {
      "type": "node",
      "id": 2367381564,
      "lat": 51.104808,
      "lon": 5.7895013
    },
    {
      "type": "node",
      "id": 2367381569,
      "lat": 51.104983,
      "lon": 5.7910082
    },
    {
      "type": "node",
      "id": 2367381571,
      "lat": 51.1047988,
      "lon": 5.7906474
    },
    {
      "type": "node",
      "id": 2367381573,
      "lat": 51.104471,
      "lon": 5.7901862
    },
    {
      "type": "node",
      "id": 2367381575,
      "lat": 51.1044071,
      "lon": 5.7894859
    },
    {
      "type": "node",
      "id": 2367381577,
      "lat": 51.1038968,
      "lon": 5.7882789
    },
    {
      "type": "node",
      "id": 2367381579,
      "lat": 51.1046984,
      "lon": 5.7897541
    },
    {
      "type": "node",
      "id": 2367381584,
      "lat": 51.1037604,
      "lon": 5.7885203
    },
    {
      "type": "node",
      "id": 2367381586,
      "lat": 51.1038749,
      "lon": 5.7888019
    },
    {
      "type": "node",
      "id": 2367381588,
      "lat": 51.104402,
      "lon": 5.7895691
    },
    {
      "type": "node",
      "id": 2367381590,
      "lat": 51.1047692,
      "lon": 5.7907007
    },
    {
      "type": "node",
      "id": 2367381591,
      "lat": 51.1050107,
      "lon": 5.7909611
    },
    {
      "type": "node",
      "id": 2367381594,
      "lat": 51.1044414,
      "lon": 5.7902396
    },
    {
      "type": "node",
      "id": 2367381595,
      "lat": 51.1048796,
      "lon": 5.7908538
    },
    {
      "type": "node",
      "id": 2367381597,
      "lat": 51.1038782,
      "lon": 5.7888717
    },
    {
      "type": "node",
      "id": 2367381599,
      "lat": 51.1048214,
      "lon": 5.7896227
    },
    {
      "type": "node",
      "id": 2367383130,
      "lat": 51.1051556,
      "lon": 5.7910817
    },
    {
      "type": "node",
      "id": 2367383132,
      "lat": 51.1051973,
      "lon": 5.7910726
    },
    {
      "type": "node",
      "id": 2367383134,
      "lat": 51.1051255,
      "lon": 5.791388
    },
    {
      "type": "node",
      "id": 2367383136,
      "lat": 51.1052054,
      "lon": 5.7912874
    },
    {
      "type": "node",
      "id": 2367383138,
      "lat": 51.1051675,
      "lon": 5.7912203
    },
    {
      "type": "node",
      "id": 2367383140,
      "lat": 51.1051667,
      "lon": 5.7912566
    },
    {
      "type": "node",
      "id": 2367383142,
      "lat": 51.1052092,
      "lon": 5.7912112
    },
    {
      "type": "node",
      "id": 2367383144,
      "lat": 51.1051642,
      "lon": 5.7914188
    },
    {
      "type": "node",
      "id": 2367384202,
      "lat": 51.1048701,
      "lon": 5.7919855
    },
    {
      "type": "node",
      "id": 2367384205,
      "lat": 51.1048379,
      "lon": 5.7919425
    },
    {
      "type": "node",
      "id": 2367384208,
      "lat": 51.1048742,
      "lon": 5.7918833
    },
    {
      "type": "node",
      "id": 2367384211,
      "lat": 51.1047843,
      "lon": 5.7921487
    },
    {
      "type": "node",
      "id": 2367384214,
      "lat": 51.1049926,
      "lon": 5.7917498
    },
    {
      "type": "node",
      "id": 2367384217,
      "lat": 51.1047521,
      "lon": 5.7921057
    },
    {
      "type": "node",
      "id": 2367384220,
      "lat": 51.104961,
      "lon": 5.7917097
    },
    {
      "type": "node",
      "id": 2367384222,
      "lat": 51.1049058,
      "lon": 5.7919234
    },
    {
      "type": "node",
      "id": 2367395537,
      "lat": 51.1043387,
      "lon": 5.7928709
    },
    {
      "type": "node",
      "id": 2367395539,
      "lat": 51.1042185,
      "lon": 5.7929701
    },
    {
      "type": "node",
      "id": 2367395541,
      "lat": 51.1046157,
      "lon": 5.7923238
    },
    {
      "type": "node",
      "id": 2367395545,
      "lat": 51.1045803,
      "lon": 5.7922768
    },
    {
      "type": "node",
      "id": 2367395548,
      "lat": 51.1042488,
      "lon": 5.793013
    },
    {
      "type": "node",
      "id": 2367395550,
      "lat": 51.1042999,
      "lon": 5.7928265
    },
    {
      "type": "node",
      "id": 7020137556,
      "lat": 51.1047682,
      "lon": 5.7898432
    },
    {
      "type": "node",
      "id": 7020137557,
      "lat": 51.1048272,
      "lon": 5.789752
    },
    {
      "type": "node",
      "id": 1256376182,
      "lat": 51.0949567,
      "lon": 5.7939369
    },
    {
      "type": "node",
      "id": 1256376217,
      "lat": 51.0948203,
      "lon": 5.7939049
    },
    {
      "type": "node",
      "id": 1256376245,
      "lat": 51.0948932,
      "lon": 5.7947039
    },
    {
      "type": "node",
      "id": 1256376252,
      "lat": 51.0947617,
      "lon": 5.794675
    },
    {
      "type": "node",
      "id": 9132852839,
      "lat": 51.0919936,
      "lon": 5.799363
    },
    {
      "type": "node",
      "id": 9132852840,
      "lat": 51.0918819,
      "lon": 5.7994816
    },
    {
      "type": "node",
      "id": 9132852841,
      "lat": 51.0919625,
      "lon": 5.7996803
    },
    {
      "type": "node",
      "id": 9132852842,
      "lat": 51.0920105,
      "lon": 5.7995668
    },
    {
      "type": "node",
      "id": 9132852843,
      "lat": 51.0920224,
      "lon": 5.7995
    },
    {
      "type": "node",
      "id": 9132852844,
      "lat": 51.0920233,
      "lon": 5.7994299
    },
    {
      "type": "node",
      "id": 1284988823,
      "lat": 51.0918132,
      "lon": 5.8002632
    },
    {
      "type": "node",
      "id": 1284989903,
      "lat": 51.0918985,
      "lon": 5.8005242
    },
    {
      "type": "node",
      "id": 2459639898,
      "lat": 51.0920179,
      "lon": 5.8003736
    },
    {
      "type": "node",
      "id": 2459639908,
      "lat": 51.0919359,
      "lon": 5.8001109
    },
    {
      "type": "node",
      "id": 2368333249,
      "lat": 51.0961421,
      "lon": 5.7952245
    },
    {
      "type": "node",
      "id": 2368333251,
      "lat": 51.0962085,
      "lon": 5.7952779
    },
    {
      "type": "node",
      "id": 2368333253,
      "lat": 51.0952354,
      "lon": 5.7954312
    },
    {
      "type": "node",
      "id": 2368333254,
      "lat": 51.0952938,
      "lon": 5.7949706
    },
    {
      "type": "node",
      "id": 3125833585,
      "lat": 51.0955776,
      "lon": 5.7955441
    },
    {
      "type": "node",
      "id": 3125833586,
      "lat": 51.0956222,
      "lon": 5.7954956
    },
    {
      "type": "node",
      "id": 3125833590,
      "lat": 51.0956648,
      "lon": 5.7954827
    },
    {
      "type": "node",
      "id": 3125833593,
      "lat": 51.095747,
      "lon": 5.7954859
    },
    {
      "type": "node",
      "id": 3125833594,
      "lat": 51.095748,
      "lon": 5.7956071
    },
    {
      "type": "node",
      "id": 3125833597,
      "lat": 51.0957977,
      "lon": 5.7956636
    },
    {
      "type": "node",
      "id": 3125833600,
      "lat": 51.0958688,
      "lon": 5.7957008
    },
    {
      "type": "node",
      "id": 3125833604,
      "lat": 51.096026,
      "lon": 5.7962517
    },
    {
      "type": "node",
      "id": 3125833605,
      "lat": 51.0960565,
      "lon": 5.7956701
    },
    {
      "type": "node",
      "id": 3125833608,
      "lat": 51.096096,
      "lon": 5.7959948
    },
    {
      "type": "node",
      "id": 3125833609,
      "lat": 51.0961285,
      "lon": 5.7963891
    },
    {
      "type": "node",
      "id": 3125833611,
      "lat": 51.0962269,
      "lon": 5.7960449
    },
    {
      "type": "node",
      "id": 3125833612,
      "lat": 51.096229,
      "lon": 5.795599
    },
    {
      "type": "node",
      "id": 2367395543,
      "lat": 51.1038252,
      "lon": 5.7938445
    },
    {
      "type": "node",
      "id": 2367395547,
      "lat": 51.1037932,
      "lon": 5.7937949
    },
    {
      "type": "node",
      "id": 2261378713,
      "lat": 51.1129068,
      "lon": 5.773664
    },
    {
      "type": "node",
      "id": 2261378715,
      "lat": 51.1130426,
      "lon": 5.7735799
    },
    {
      "type": "node",
      "id": 2365965744,
      "lat": 51.113129,
      "lon": 5.7730427
    },
    {
      "type": "node",
      "id": 2365965747,
      "lat": 51.1127383,
      "lon": 5.7732888
    },
    {
      "type": "node",
      "id": 2261378710,
      "lat": 51.113119,
      "lon": 5.7738409
    },
    {
      "type": "node",
      "id": 2261378712,
      "lat": 51.1129945,
      "lon": 5.7739667
    },
    {
      "type": "node",
      "id": 2365965745,
      "lat": 51.1132823,
      "lon": 5.773783
    },
    {
      "type": "node",
      "id": 2365965746,
      "lat": 51.1129535,
      "lon": 5.7741214
    },
    {
      "type": "node",
      "id": 3433739608,
      "lat": 51.1125994,
      "lon": 5.7743324
    },
    {
      "type": "node",
      "id": 3433739609,
      "lat": 51.1126509,
      "lon": 5.7746426
    },
    {
      "type": "node",
      "id": 3433739610,
      "lat": 51.1130302,
      "lon": 5.7743825
    },
    {
      "type": "node",
      "id": 3433739611,
      "lat": 51.1130284,
      "lon": 5.7739498
    },
    {
      "type": "node",
      "id": 3433739612,
      "lat": 51.1131339,
      "lon": 5.7738903
    },
    {
      "type": "node",
      "id": 7001823370,
      "lat": 51.1128965,
      "lon": 5.7738827
    },
    {
      "type": "node",
      "id": 7001823382,
      "lat": 51.113123,
      "lon": 5.7743058
    },
    {
      "type": "node",
      "id": 2327610348,
      "lat": 51.1217537,
      "lon": 5.8009945
    },
    {
      "type": "node",
      "id": 2327610349,
      "lat": 51.1223966,
      "lon": 5.8007924
    },
    {
      "type": "node",
      "id": 2327610351,
      "lat": 51.1218057,
      "lon": 5.8005966
    },
    {
      "type": "node",
      "id": 2327610352,
      "lat": 51.1223492,
      "lon": 5.8011332
    }
  ]
}