{
  "version": 0.6,
  "generator": "Overpass API 0.7.57 93a4d346",
  "osm3s": {
    "timestamp_osm_base": "2021-12-11T04:51:26Z",
    "copyright": "The data included in this document is from www.openstreetmap.org. The data is made available under ODbL."
  },
  "elements": [
    {
      "type": "node",
      "id": 34045512,
      "lat": 51.42009,
      "lon": 5.2895333,
      "tags": {
        "amenity": "parking",
        "description": "[Vessem] Kuilenhurk"
      }
    },
    {
      "type": "node",
      "id": 319529667,
      "lat": 51.4188744,
      "lon": 5.2893202,
      "tags": {
        "amenity": "parking",
        "created_by": "Potlatch 0.10f"
      }
    },
    {
      "type": "node",
      "id": 319529972,
      "lat": 51.4176112,
      "lon": 5.2894661,
      "tags": {
        "amenity": "parking",
        "created_by": "Potlatch 0.10f"
      }
    },
    {
      "type": "node",
      "id": 319530053,
      "lat": 51.4171669,
      "lon": 5.2900068,
      "tags": {
        "amenity": "parking",
        "created_by": "Potlatch 0.10f"
      }
    },
    {
      "type": "node",
      "id": 319606665,
      "lat": 51.4187941,
      "lon": 5.2871744,
      "tags": {
        "amenity": "parking",
        "created_by": "Potlatch 0.10f"
      }
    },
    {
      "type": "node",
      "id": 319606815,
      "lat": 51.419062,
      "lon": 5.2877684,
      "tags": {
        "amenity": "parking",
        "created_by": "Potlatch 0.10f"
      }
    },
    {
      "type": "node",
      "id": 319606954,
      "lat": 51.4174027,
      "lon": 5.2933302,
      "tags": {
        "amenity": "parking",
        "created_by": "Potlatch 0.10f"
      }
    },
    {
      "type": "node",
      "id": 1741143331,
      "lat": 51.4275494,
      "lon": 5.3507689,
      "tags": {
        "amenity": "toilets",
        "wheelchair": "yes"
      }
    },
    {
      "type": "node",
      "id": 1741181910,
      "lat": 51.4260885,
      "lon": 5.353113,
      "tags": {
        "amenity": "toilets"
      }
    },
    {
      "type": "node",
      "id": 2455947864,
      "lat": 51.4046623,
      "lon": 5.2837626,
      "tags": {
        "amenity": "bench",
        "backrest": "yes",
        "material": "wood",
        "seats": "4"
      }
    },
    {
      "type": "node",
      "id": 2455947871,
      "lat": 51.412778,
      "lon": 5.2863279,
      "tags": {
        "leisure": "picnic_table",
        "material": "wood"
      }
    },
    {
      "type": "node",
      "id": 3132094419,
      "lat": 51.4266167,
      "lon": 5.3529035,
      "tags": {
        "amenity": "toilets"
      }
    },
    {
      "type": "node",
      "id": 3132099330,
      "lat": 51.4251834,
      "lon": 5.3540093,
      "tags": {
        "amenity": "toilets"
      }
    },
    {
      "type": "node",
      "id": 4016444346,
      "lat": 51.4252258,
      "lon": 5.3403506,
      "tags": {
        "amenity": "bench"
      }
    },
    {
      "type": "node",
      "id": 4016444347,
      "lat": 51.4331414,
      "lon": 5.3433546,
      "tags": {
        "amenity": "bench"
      }
    },
    {
      "type": "node",
      "id": 4016444348,
      "lat": 51.4370981,
      "lon": 5.3433019,
      "tags": {
        "amenity": "bench"
      }
    },
    {
      "type": "node",
      "id": 4016444349,
      "lat": 51.4435498,
      "lon": 5.340933,
      "tags": {
        "amenity": "bench"
      }
    },
    {
      "type": "node",
      "id": 4016444350,
      "lat": 51.4438084,
      "lon": 5.3410129,
      "tags": {
        "amenity": "bench"
      }
    },
    {
      "type": "node",
      "id": 4016444351,
      "lat": 51.4438726,
      "lon": 5.3409871,
      "tags": {
        "amenity": "bench"
      }
    },
    {
      "type": "node",
      "id": 4195623506,
      "lat": 51.4191511,
      "lon": 5.2881354,
      "tags": {
        "amenity": "bench",
        "backrest": "yes"
      }
    },
    {
      "type": "node",
      "id": 4195623507,
      "lat": 51.4192234,
      "lon": 5.2880744,
      "tags": {
        "amenity": "bench",
        "backrest": "yes"
      }
    },
    {
      "type": "node",
      "id": 4195623508,
      "lat": 51.4191038,
      "lon": 5.2881743,
      "tags": {
        "amenity": "bench",
        "backrest": "yes"
      }
    },
    {
      "type": "node",
      "id": 4195623509,
      "lat": 51.418919,
      "lon": 5.2883332,
      "tags": {
        "amenity": "bench",
        "backrest": "yes"
      }
    },
    {
      "type": "node",
      "id": 4195623510,
      "lat": 51.4192431,
      "lon": 5.2882373,
      "tags": {
        "leisure": "picnic_table"
      }
    },
    {
      "type": "node",
      "id": 4195623511,
      "lat": 51.419236,
      "lon": 5.2886651,
      "tags": {
        "amenity": "bench",
        "backrest": "yes"
      }
    },
    {
      "type": "node",
      "id": 4441064839,
      "lat": 51.4449787,
      "lon": 5.3613033,
      "tags": {
        "amenity": "bench"
      }
    },
    {
      "type": "node",
      "id": 4441064840,
      "lat": 51.4523286,
      "lon": 5.3583177,
      "tags": {
        "amenity": "bench"
      }
    },
    {
      "type": "node",
      "id": 4441064841,
      "lat": 51.4531342,
      "lon": 5.3582096,
      "tags": {
        "amenity": "bench"
      }
    },
    {
      "type": "node",
      "id": 4441064843,
      "lat": 51.4532308,
      "lon": 5.3576853,
      "tags": {
        "amenity": "bench"
      }
    },
    {
      "type": "node",
      "id": 4447942452,
      "lat": 51.4130362,
      "lon": 5.3610998,
      "tags": {
        "amenity": "bench"
      }
    },
    {
      "type": "node",
      "id": 4447942453,
      "lat": 51.413713,
      "lon": 5.3589151,
      "tags": {
        "amenity": "bench",
        "backrest": "yes"
      }
    },
    {
      "type": "node",
      "id": 4447942458,
      "lat": 51.4221344,
      "lon": 5.3136536,
      "tags": {
        "amenity": "bench"
      }
    },
    {
      "type": "node",
      "id": 5398035121,
      "lat": 51.4053951,
      "lon": 5.3037221,
      "tags": {
        "amenity": "parking"
      }
    },
    {
      "type": "node",
      "id": 5427549312,
      "lat": 51.4009493,
      "lon": 5.3505296,
      "tags": {
        "amenity": "parking"
      }
    },
    {
      "type": "node",
      "id": 5548489007,
      "lat": 51.423446,
      "lon": 5.2868633,
      "tags": {
        "amenity": "parking"
      }
    },
    {
      "type": "node",
      "id": 5601320339,
      "lat": 51.4253586,
      "lon": 5.3534262,
      "tags": {
        "amenity": "bench"
      }
    },
    {
      "type": "node",
      "id": 5602950701,
      "lat": 51.4264343,
      "lon": 5.3516266,
      "tags": {
        "amenity": "bench"
      }
    },
    {
      "type": "node",
      "id": 5602950708,
      "lat": 51.4262127,
      "lon": 5.3503331,
      "tags": {
        "amenity": "bench"
      }
    },
    {
      "type": "node",
      "id": 5602950711,
      "lat": 51.4270196,
      "lon": 5.3499294,
      "tags": {
        "amenity": "bench"
      }
    },
    {
      "type": "node",
      "id": 5602950712,
      "lat": 51.4269051,
      "lon": 5.3500347,
      "tags": {
        "amenity": "bench"
      }
    },
    {
      "type": "node",
      "id": 5602950718,
      "lat": 51.4274407,
      "lon": 5.3501044,
      "tags": {
        "amenity": "bench"
      }
    },
    {
      "type": "node",
      "id": 5602954734,
      "lat": 51.4276447,
      "lon": 5.3513798,
      "tags": {
        "amenity": "bench"
      }
    },
    {
      "type": "node",
      "id": 5602954735,
      "lat": 51.4275239,
      "lon": 5.3519987,
      "tags": {
        "leisure": "picnic_table"
      }
    },
    {
      "type": "node",
      "id": 5602954745,
      "lat": 51.4273621,
      "lon": 5.3525137,
      "tags": {
        "amenity": "bench"
      }
    },
    {
      "type": "node",
      "id": 5602954748,
      "lat": 51.4270435,
      "lon": 5.3524426,
      "tags": {
        "amenity": "bench"
      }
    },
    {
      "type": "node",
      "id": 5602954750,
      "lat": 51.4271877,
      "lon": 5.3523293,
      "tags": {
        "amenity": "bench"
      }
    },
    {
      "type": "node",
      "id": 5602954751,
      "lat": 51.4271434,
      "lon": 5.3525674,
      "tags": {
        "amenity": "bench"
      }
    },
    {
      "type": "node",
      "id": 5602954754,
      "lat": 51.4272567,
      "lon": 5.3527705,
      "tags": {
        "information": "board",
        "tourism": "information"
      }
    },
    {
      "type": "node",
      "id": 5602954767,
      "lat": 51.4268068,
      "lon": 5.3531621,
      "tags": {
        "leisure": "picnic_table"
      }
    },
    {
      "type": "node",
      "id": 5602954769,
      "lat": 51.4264485,
      "lon": 5.3533841,
      "tags": {
        "amenity": "bench"
      }
    },
    {
      "type": "node",
      "id": 5602954786,
      "lat": 51.4261316,
      "lon": 5.3534934,
      "tags": {
        "amenity": "bench"
      }
    },
    {
      "type": "node",
      "id": 6159214146,
      "lat": 51.4325677,
      "lon": 5.3133942,
      "tags": {
        "leisure": "picnic_table"
      }
    },
    {
      "type": "node",
      "id": 6159214341,
      "lat": 51.4322188,
      "lon": 5.3542254,
      "tags": {
        "leisure": "picnic_table",
        "name": "Koepeltje"
      }
    },
    {
      "type": "node",
      "id": 6190538887,
      "lat": 51.4051007,
      "lon": 5.2826499,
      "tags": {
        "amenity": "bench"
      }
    },
    {
      "type": "node",
      "id": 6190538888,
      "lat": 51.4030161,
      "lon": 5.2820741,
      "tags": {
        "amenity": "bench",
        "backrest": "yes",
        "material": "wood",
        "seats": "4"
      }
    },
    {
      "type": "node",
      "id": 6190538889,
      "lat": 51.405685,
      "lon": 5.2815748,
      "tags": {
        "amenity": "bench"
      }
    },
    {
      "type": "node",
      "id": 6544624895,
      "lat": 51.4080083,
      "lon": 5.3435545,
      "tags": {
        "inscription": "Slecht",
        "leisure": "picnic_table"
      }
    },
    {
      "type": "node",
      "id": 6544660829,
      "lat": 51.4145497,
      "lon": 5.3586239,
      "tags": {
        "amenity": "bench",
        "backrest": "yes"
      }
    },
    {
      "type": "node",
      "id": 6544662996,
      "lat": 51.4088391,
      "lon": 5.3541502,
      "tags": {
        "leisure": "picnic_table"
      }
    },
    {
      "type": "node",
      "id": 6544755907,
      "lat": 51.4213979,
      "lon": 5.3424808,
      "tags": {
        "amenity": "bench"
      }
    },
    {
      "type": "node",
      "id": 6590563211,
      "lat": 51.4082061,
      "lon": 5.3129499,
      "tags": {
        "leisure": "picnic_table"
      }
    },
    {
      "type": "node",
      "id": 6624794659,
      "lat": 51.4166652,
      "lon": 5.3305927,
      "tags": {
        "amenity": "bench"
      }
    },
    {
      "type": "node",
      "id": 6624807253,
      "lat": 51.4178909,
      "lon": 5.3431262,
      "tags": {
        "leisure": "picnic_table"
      }
    },
    {
      "type": "node",
      "id": 6624825138,
      "lat": 51.4183394,
      "lon": 5.3279233,
      "tags": {
        "leisure": "picnic_table"
      }
    },
    {
      "type": "node",
      "id": 6629047153,
      "lat": 51.4286679,
      "lon": 5.3301704,
      "tags": {
        "amenity": "bench"
      }
    },
    {
      "type": "node",
      "id": 6629052961,
      "lat": 51.4398137,
      "lon": 5.3483205,
      "tags": {
        "leisure": "picnic_table"
      }
    },
    {
      "type": "node",
      "id": 6629068338,
      "lat": 51.4312603,
      "lon": 5.3581575,
      "tags": {
        "leisure": "picnic_table"
      }
    },
    {
      "type": "node",
      "id": 6629072433,
      "lat": 51.4335841,
      "lon": 5.3234135,
      "tags": {
        "amenity": "bench",
        "backrest": "yes"
      }
    },
    {
      "type": "node",
      "id": 6629073636,
      "lat": 51.4214038,
      "lon": 5.332573,
      "tags": {
        "amenity": "bench"
      }
    },
    {
      "type": "node",
      "id": 6700753445,
      "lat": 51.4092375,
      "lon": 5.3258373,
      "tags": {
        "leisure": "picnic_table"
      }
    },
    {
      "type": "node",
      "id": 6700792726,
      "lat": 51.4024997,
      "lon": 5.2762897,
      "tags": {
        "amenity": "bench",
        "backrest": "yes",
        "material": "wood",
        "seats": "4"
      }
    },
    {
      "type": "node",
      "id": 7333621917,
      "lat": 51.442696,
      "lon": 5.3394051,
      "tags": {
        "bin": "yes",
        "leisure": "picnic_table"
      }
    },
    {
      "type": "node",
      "id": 7695280436,
      "lat": 51.4169937,
      "lon": 5.3360861,
      "tags": {
        "amenity": "bench"
      }
    },
    {
      "type": "node",
      "id": 7734283451,
      "lat": 51.4057101,
      "lon": 5.2815392,
      "tags": {
        "board:title": "Via Monastica",
        "information": "board",
        "tourism": "information"
      }
    },
    {
      "type": "node",
      "id": 7743158749,
      "lat": 51.3996393,
      "lon": 5.2781672,
      "tags": {
        "amenity": "bench",
        "material": "wood",
        "seats": "4"
      }
    },
    {
      "type": "node",
      "id": 7752725708,
      "lat": 51.4150607,
      "lon": 5.3292442,
      "tags": {
        "leisure": "picnic_table"
      }
    },
    {
      "type": "node",
      "id": 7887998303,
      "lat": 51.4140239,
      "lon": 5.3588963,
      "tags": {
        "leisure": "picnic_table"
      }
    },
    {
      "type": "node",
      "id": 8223784326,
      "lat": 51.4052356,
      "lon": 5.3523883,
      "tags": {
        "amenity": "bench",
        "backrest": "yes"
      }
    },
    {
      "type": "node",
      "id": 8223818637,
      "lat": 51.4094141,
      "lon": 5.3484257,
      "tags": {
        "amenity": "bench",
        "backrest": "yes"
      }
    },
    {
      "type": "node",
      "id": 8223823951,
      "lat": 51.4093455,
      "lon": 5.3480869,
      "tags": {
        "leisure": "picnic_table"
      }
    },
    {
      "type": "node",
      "id": 8224027076,
      "lat": 51.4309026,
      "lon": 5.3490237,
      "tags": {
        "leisure": "picnic_table"
      }
    },
    {
      "type": "node",
      "id": 8340050425,
      "lat": 51.4255195,
      "lon": 5.3474299,
      "tags": {
        "leisure": "picnic_table"
      }
    },
    {
      "type": "node",
      "id": 8365718063,
      "lat": 51.444305,
      "lon": 5.3409095,
      "tags": {
        "amenity": "bench"
      }
    },
    {
      "type": "node",
      "id": 8442857532,
      "lat": 51.4367665,
      "lon": 5.3215999,
      "tags": {
        "information": "board",
        "tourism": "information"
      }
    },
    {
      "type": "node",
      "id": 8461785989,
      "lat": 51.4327849,
      "lon": 5.3584346,
      "tags": {
        "leisure": "picnic_table"
      }
    },
    {
      "type": "node",
      "id": 8480944803,
      "lat": 51.4164031,
      "lon": 5.3018707,
      "tags": {
        "amenity": "bench"
      }
    },
    {
      "type": "node",
      "id": 8497285702,
      "lat": 51.4163815,
      "lon": 5.2925018,
      "tags": {
        "amenity": "bench"
      }
    },
    {
      "type": "node",
      "id": 8660234739,
      "lat": 51.4166611,
      "lon": 5.2876554,
      "tags": {
        "amenity": "bench"
      }
    },
    {
      "type": "node",
      "id": 8677247361,
      "lat": 51.445889,
      "lon": 5.3405458,
      "tags": {
        "leisure": "picnic_table"
      }
    },
    {
      "type": "node",
      "id": 8677283417,
      "lat": 51.4276932,
      "lon": 5.3566673,
      "tags": {
        "amenity": "bench"
      }
    },
    {
      "type": "node",
      "id": 8677719977,
      "lat": 51.4065392,
      "lon": 5.3428291,
      "tags": {
        "amenity": "bench"
      }
    },
    {
      "type": "node",
      "id": 8736303731,
      "lat": 51.4070223,
      "lon": 5.3472912,
      "tags": {
        "amenity": "bench",
        "backrest": "yes",
        "material": "wood",
        "seats": "2"
      }
    },
    {
      "type": "node",
      "id": 8781449933,
      "lat": 51.4040562,
      "lon": 5.3612582,
      "tags": {
        "amenity": "bench"
      }
    },
    {
      "type": "node",
      "id": 8987796679,
      "lat": 51.4229161,
      "lon": 5.2800144,
      "tags": {
        "amenity": "bench"
      }
    },
    {
      "type": "node",
      "id": 8987796680,
      "lat": 51.4232807,
      "lon": 5.2815849,
      "tags": {
        "amenity": "bench"
      }
    },
    {
      "type": "node",
      "id": 8987998803,
      "lat": 51.4174384,
      "lon": 5.2900176,
      "tags": {
        "amenity": "bench"
      }
    },
    {
      "type": "node",
      "id": 9039945983,
      "lat": 51.4151233,
      "lon": 5.3291655,
      "tags": {
        "leisure": "picnic_table"
      }
    },
    {
      "type": "node",
      "id": 9039967252,
      "lat": 51.4151233,
      "lon": 5.3291655,
      "tags": {
        "leisure": "picnic_table"
      }
    },
    {
      "type": "node",
      "id": 9106183702,
      "lat": 51.4212927,
      "lon": 5.3368563,
      "tags": {
        "amenity": "bench"
      }
    },
    {
      "type": "node",
      "id": 9161325229,
      "lat": 51.4370044,
      "lon": 5.3194027,
      "tags": {
        "access": "yes",
        "amenity": "drinking_water",
        "bottle": "yes",
        "fee": "no",
        "man_made": "water_tap"
      }
    },
    {
      "type": "way",
      "id": 134111018,
      "nodes": [
        1474947171,
        1474947175,
        1474947170,
        1474947176,
        2357497553,
        1474947171
      ],
      "tags": {
        "access": "yes",
        "amenity": "parking",
        "fee": "no",
        "parking": "surface"
      }
    },
    {
      "type": "way",
      "id": 158566156,
      "nodes": [
        1707440831,
        1707440827,
        1707440824,
        1707440828,
        8441690862,
        8441690837,
        1707440831
      ],
      "tags": {
        "amenity": "parking"
      }
    },
    {
      "type": "way",
      "id": 162143808,
      "nodes": [
        996390864,
        1740755435,
        996390242,
        5600009919,
        996360448,
        996390864
      ],
      "tags": {
        "amenity": "parking",
        "surface": "grass"
      }
    },
    {
      "type": "way",
      "id": 203084052,
      "nodes": [
        2130522405,
        2130522394,
        2130522401,
        2130522409,
        2130522405
      ],
      "tags": {
        "amenity": "parking",
        "name": "Coop Wintelre"
      }
    },
    {
      "type": "way",
      "id": 204046858,
      "nodes": [
        2140588618,
        2140588615,
        2140588628,
        2140588633,
        2140588618
      ],
      "tags": {
        "amenity": "parking"
      }
    },
    {
      "type": "way",
      "id": 232813480,
      "nodes": [
        997481903,
        2411304053,
        997461290,
        997478904,
        997455340,
        2411304028,
        997464015,
        997481903
      ],
      "tags": {
        "amenity": "parking"
      }
    },
    {
      "type": "way",
      "id": 570383805,
      "nodes": [
        5483642090,
        5483642089,
        5483642088,
        5483642087,
        5483642090
      ],
      "tags": {
        "amenity": "parking"
      }
    },
    {
      "type": "way",
      "id": 900177124,
      "nodes": [
        8362852795,
        8362852794,
        8362852793,
        8362852792,
        8362852791,
        8362852790,
        8362852789,
        8362852788,
        8362852787,
        8362852772,
        8362852786,
        8362852785,
        8362852784,
        8362852783,
        8362852777,
        8362852782,
        8362852781,
        8362852780,
        8362852779,
        8362852795
      ],
      "tags": {
        "amenity": "parking"
      }
    },
    {
      "type": "way",
      "id": 900177125,
      "nodes": [
        8362852807,
        8362852806,
        8362852805,
        8362852804,
        8362852803,
        8362852802,
        8362852801,
        8362852800,
        8362852775,
        8362876919,
        8362876918,
        8362852799,
        8362852798,
        8362852797,
        8362852796,
        8362852807
      ],
      "tags": {
        "amenity": "parking"
      }
    },
    {
      "type": "way",
      "id": 979577087,
      "nodes": [
        9062374602,
        9062374603,
        9062374604,
        9062374605,
        9062374606,
        9062374607,
        9062374602
      ],
      "tags": {
        "amenity": "parking"
      }
    },
    {
      "type": "node",
      "id": 34045512,
      "lat": 51.42009,
      "lon": 5.2895333,
      "timestamp": "2020-09-23T17:14:32Z",
      "version": 10,
      "changeset": 91382707,
      "user": "HJ Stoevenbelt",
      "uid": 1256852,
      "tags": {
        "amenity": "parking",
        "description": "[Vessem] Kuilenhurk"
      }
    },
    {
      "type": "node",
      "id": 319529667,
      "lat": 51.4188744,
      "lon": 5.2893202,
      "timestamp": "2008-12-18T13:32:14Z",
      "version": 2,
      "changeset": 468060,
      "user": "Hans Maas",
      "uid": 85758,
      "tags": {
        "amenity": "parking",
        "created_by": "Potlatch 0.10f"
      }
    },
    {
      "type": "node",
      "id": 319529972,
      "lat": 51.4176112,
      "lon": 5.2894661,
      "timestamp": "2008-12-18T12:48:55Z",
      "version": 2,
      "changeset": 468060,
      "user": "Hans Maas",
      "uid": 85758,
      "tags": {
        "amenity": "parking",
        "created_by": "Potlatch 0.10f"
      }
    },
    {
      "type": "node",
      "id": 319530053,
      "lat": 51.4171669,
      "lon": 5.2900068,
      "timestamp": "2008-12-18T13:32:23Z",
      "version": 4,
      "changeset": 468060,
      "user": "Hans Maas",
      "uid": 85758,
      "tags": {
        "amenity": "parking",
        "created_by": "Potlatch 0.10f"
      }
    },
    {
      "type": "node",
      "id": 319606665,
      "lat": 51.4187941,
      "lon": 5.2871744,
      "timestamp": "2008-12-18T13:19:22Z",
      "version": 2,
      "changeset": 468060,
      "user": "Hans Maas",
      "uid": 85758,
      "tags": {
        "amenity": "parking",
        "created_by": "Potlatch 0.10f"
      }
    },
    {
      "type": "node",
      "id": 319606815,
      "lat": 51.419062,
      "lon": 5.2877684,
      "timestamp": "2008-12-17T21:49:41Z",
      "version": 1,
      "changeset": 450528,
      "user": "Hans Maas",
      "uid": 85758,
      "tags": {
        "amenity": "parking",
        "created_by": "Potlatch 0.10f"
      }
    },
    {
      "type": "node",
      "id": 319606954,
      "lat": 51.4174027,
      "lon": 5.2933302,
      "timestamp": "2008-12-17T21:50:15Z",
      "version": 1,
      "changeset": 450528,
      "user": "Hans Maas",
      "uid": 85758,
      "tags": {
        "amenity": "parking",
        "created_by": "Potlatch 0.10f"
      }
    },
    {
      "type": "node",
      "id": 1741143331,
      "lat": 51.4275494,
      "lon": 5.3507689,
      "timestamp": "2018-05-06T18:24:57Z",
      "version": 2,
      "changeset": 58737095,
      "user": "Peter Bremer",
      "uid": 366321,
      "tags": {
        "amenity": "toilets",
        "wheelchair": "yes"
      }
    },
    {
      "type": "node",
      "id": 1741181910,
      "lat": 51.4260885,
      "lon": 5.353113,
      "timestamp": "2018-05-06T11:56:44Z",
      "version": 2,
      "changeset": 58728165,
      "user": "Peter Bremer",
      "uid": 366321,
      "tags": {
        "amenity": "toilets"
      }
    },
    {
      "type": "node",
      "id": 2455947864,
      "lat": 51.4046623,
      "lon": 5.2837626,
      "timestamp": "2020-07-25T13:26:35Z",
      "version": 2,
      "changeset": 88495674,
      "user": "Marco Nell",
      "uid": 10957833,
      "tags": {
        "amenity": "bench",
        "backrest": "yes",
        "material": "wood",
        "seats": "4"
      }
    },
    {
      "type": "node",
      "id": 2455947871,
      "lat": 51.412778,
      "lon": 5.2863279,
      "timestamp": "2019-01-07T18:54:38Z",
      "version": 2,
      "changeset": 66105449,
      "user": "Wim van der Ven",
      "uid": 1817282,
      "tags": {
        "leisure": "picnic_table",
        "material": "wood"
      }
    },
    {
      "type": "node",
      "id": 3132094419,
      "lat": 51.4266167,
      "lon": 5.3529035,
      "timestamp": "2014-10-15T20:58:40Z",
      "version": 1,
      "changeset": 26105057,
      "user": "Peter Bremer",
      "uid": 366321,
      "tags": {
        "amenity": "toilets"
      }
    },
    {
      "type": "node",
      "id": 3132099330,
      "lat": 51.4251834,
      "lon": 5.3540093,
      "timestamp": "2014-10-15T20:58:47Z",
      "version": 1,
      "changeset": 26105057,
      "user": "Peter Bremer",
      "uid": 366321,
      "tags": {
        "amenity": "toilets"
      }
    },
    {
      "type": "node",
      "id": 4016444346,
      "lat": 51.4252258,
      "lon": 5.3403506,
      "timestamp": "2016-02-20T13:58:29Z",
      "version": 1,
      "changeset": 37328985,
      "user": "Wim van der Ven",
      "uid": 1817282,
      "tags": {
        "amenity": "bench"
      }
    },
    {
      "type": "node",
      "id": 4016444347,
      "lat": 51.4331414,
      "lon": 5.3433546,
      "timestamp": "2016-02-20T13:58:29Z",
      "version": 1,
      "changeset": 37328985,
      "user": "Wim van der Ven",
      "uid": 1817282,
      "tags": {
        "amenity": "bench"
      }
    },
    {
      "type": "node",
      "id": 4016444348,
      "lat": 51.4370981,
      "lon": 5.3433019,
      "timestamp": "2016-02-20T13:58:29Z",
      "version": 1,
      "changeset": 37328985,
      "user": "Wim van der Ven",
      "uid": 1817282,
      "tags": {
        "amenity": "bench"
      }
    },
    {
      "type": "node",
      "id": 4016444349,
      "lat": 51.4435498,
      "lon": 5.340933,
      "timestamp": "2016-02-20T13:58:29Z",
      "version": 1,
      "changeset": 37328985,
      "user": "Wim van der Ven",
      "uid": 1817282,
      "tags": {
        "amenity": "bench"
      }
    },
    {
      "type": "node",
      "id": 4016444350,
      "lat": 51.4438084,
      "lon": 5.3410129,
      "timestamp": "2016-02-20T13:58:29Z",
      "version": 1,
      "changeset": 37328985,
      "user": "Wim van der Ven",
      "uid": 1817282,
      "tags": {
        "amenity": "bench"
      }
    },
    {
      "type": "node",
      "id": 4016444351,
      "lat": 51.4438726,
      "lon": 5.3409871,
      "timestamp": "2016-02-20T13:58:29Z",
      "version": 1,
      "changeset": 37328985,
      "user": "Wim van der Ven",
      "uid": 1817282,
      "tags": {
        "amenity": "bench"
      }
    },
    {
      "type": "node",
      "id": 4195623506,
      "lat": 51.4191511,
      "lon": 5.2881354,
      "timestamp": "2016-05-19T16:58:21Z",
      "version": 1,
      "changeset": 39429473,
      "user": "Peer55",
      "uid": 3826290,
      "tags": {
        "amenity": "bench",
        "backrest": "yes"
      }
    },
    {
      "type": "node",
      "id": 4195623507,
      "lat": 51.4192234,
      "lon": 5.2880744,
      "timestamp": "2016-05-19T16:58:21Z",
      "version": 1,
      "changeset": 39429473,
      "user": "Peer55",
      "uid": 3826290,
      "tags": {
        "amenity": "bench",
        "backrest": "yes"
      }
    },
    {
      "type": "node",
      "id": 4195623508,
      "lat": 51.4191038,
      "lon": 5.2881743,
      "timestamp": "2016-05-19T16:58:21Z",
      "version": 1,
      "changeset": 39429473,
      "user": "Peer55",
      "uid": 3826290,
      "tags": {
        "amenity": "bench",
        "backrest": "yes"
      }
    },
    {
      "type": "node",
      "id": 4195623509,
      "lat": 51.418919,
      "lon": 5.2883332,
      "timestamp": "2016-05-19T16:58:21Z",
      "version": 1,
      "changeset": 39429473,
      "user": "Peer55",
      "uid": 3826290,
      "tags": {
        "amenity": "bench",
        "backrest": "yes"
      }
    },
    {
      "type": "node",
      "id": 4195623510,
      "lat": 51.4192431,
      "lon": 5.2882373,
      "timestamp": "2016-05-19T16:58:21Z",
      "version": 1,
      "changeset": 39429473,
      "user": "Peer55",
      "uid": 3826290,
      "tags": {
        "leisure": "picnic_table"
      }
    },
    {
      "type": "node",
      "id": 4195623511,
      "lat": 51.419236,
      "lon": 5.2886651,
      "timestamp": "2016-05-19T16:58:21Z",
      "version": 1,
      "changeset": 39429473,
      "user": "Peer55",
      "uid": 3826290,
      "tags": {
        "amenity": "bench",
        "backrest": "yes"
      }
    },
    {
      "type": "node",
      "id": 4441064839,
      "lat": 51.4449787,
      "lon": 5.3613033,
      "timestamp": "2016-10-10T18:31:56Z",
      "version": 1,
      "changeset": 42783963,
      "user": "Wim van der Ven",
      "uid": 1817282,
      "tags": {
        "amenity": "bench"
      }
    },
    {
      "type": "node",
      "id": 4441064840,
      "lat": 51.4523286,
      "lon": 5.3583177,
      "timestamp": "2016-10-10T18:31:56Z",
      "version": 1,
      "changeset": 42783963,
      "user": "Wim van der Ven",
      "uid": 1817282,
      "tags": {
        "amenity": "bench"
      }
    },
    {
      "type": "node",
      "id": 4441064841,
      "lat": 51.4531342,
      "lon": 5.3582096,
      "timestamp": "2016-10-10T18:31:56Z",
      "version": 1,
      "changeset": 42783963,
      "user": "Wim van der Ven",
      "uid": 1817282,
      "tags": {
        "amenity": "bench"
      }
    },
    {
      "type": "node",
      "id": 4441064843,
      "lat": 51.4532308,
      "lon": 5.3576853,
      "timestamp": "2016-10-10T18:31:56Z",
      "version": 1,
      "changeset": 42783963,
      "user": "Wim van der Ven",
      "uid": 1817282,
      "tags": {
        "amenity": "bench"
      }
    },
    {
      "type": "node",
      "id": 4447942452,
      "lat": 51.4130362,
      "lon": 5.3610998,
      "timestamp": "2016-10-14T16:59:21Z",
      "version": 1,
      "changeset": 42901405,
      "user": "Wim van der Ven",
      "uid": 1817282,
      "tags": {
        "amenity": "bench"
      }
    },
    {
      "type": "node",
      "id": 4447942453,
      "lat": 51.413713,
      "lon": 5.3589151,
      "timestamp": "2020-12-13T10:00:38Z",
      "version": 2,
      "changeset": 95748983,
      "user": "staf",
      "uid": 377797,
      "tags": {
        "amenity": "bench",
        "backrest": "yes"
      }
    },
    {
      "type": "node",
      "id": 4447942458,
      "lat": 51.4221344,
      "lon": 5.3136536,
      "timestamp": "2016-10-14T16:59:21Z",
      "version": 1,
      "changeset": 42901405,
      "user": "Wim van der Ven",
      "uid": 1817282,
      "tags": {
        "amenity": "bench"
      }
    },
    {
      "type": "node",
      "id": 5398035121,
      "lat": 51.4053951,
      "lon": 5.3037221,
      "timestamp": "2018-02-08T09:58:53Z",
      "version": 1,
      "changeset": 56177678,
      "user": "Mariusz Staniszewski",
      "uid": 2044927,
      "tags": {
        "amenity": "parking"
      }
    },
    {
      "type": "node",
      "id": 5427549312,
      "lat": 51.4009493,
      "lon": 5.3505296,
      "timestamp": "2018-02-21T21:24:06Z",
      "version": 1,
      "changeset": 56562387,
      "user": "FrankOverman",
      "uid": 1987570,
      "tags": {
        "amenity": "parking"
      }
    },
    {
      "type": "node",
      "id": 5548489007,
      "lat": 51.423446,
      "lon": 5.2868633,
      "timestamp": "2018-04-12T17:06:56Z",
      "version": 1,
      "changeset": 58041587,
      "user": "FrankOverman",
      "uid": 1987570,
      "tags": {
        "amenity": "parking"
      }
    },
    {
      "type": "node",
      "id": 5601320339,
      "lat": 51.4253586,
      "lon": 5.3534262,
      "timestamp": "2018-05-07T06:30:31Z",
      "version": 1,
      "changeset": 58747109,
      "user": "Peter Bremer",
      "uid": 366321,
      "tags": {
        "amenity": "bench"
      }
    },
    {
      "type": "node",
      "id": 5602950701,
      "lat": 51.4264343,
      "lon": 5.3516266,
      "timestamp": "2018-05-07T20:16:54Z",
      "version": 1,
      "changeset": 58769702,
      "user": "Peter Bremer",
      "uid": 366321,
      "tags": {
        "amenity": "bench"
      }
    },
    {
      "type": "node",
      "id": 5602950708,
      "lat": 51.4262127,
      "lon": 5.3503331,
      "timestamp": "2018-05-07T20:16:55Z",
      "version": 1,
      "changeset": 58769702,
      "user": "Peter Bremer",
      "uid": 366321,
      "tags": {
        "amenity": "bench"
      }
    },
    {
      "type": "node",
      "id": 5602950711,
      "lat": 51.4270196,
      "lon": 5.3499294,
      "timestamp": "2018-05-07T20:16:55Z",
      "version": 1,
      "changeset": 58769702,
      "user": "Peter Bremer",
      "uid": 366321,
      "tags": {
        "amenity": "bench"
      }
    },
    {
      "type": "node",
      "id": 5602950712,
      "lat": 51.4269051,
      "lon": 5.3500347,
      "timestamp": "2018-05-07T20:16:55Z",
      "version": 1,
      "changeset": 58769702,
      "user": "Peter Bremer",
      "uid": 366321,
      "tags": {
        "amenity": "bench"
      }
    },
    {
      "type": "node",
      "id": 5602950718,
      "lat": 51.4274407,
      "lon": 5.3501044,
      "timestamp": "2018-05-07T20:16:55Z",
      "version": 1,
      "changeset": 58769702,
      "user": "Peter Bremer",
      "uid": 366321,
      "tags": {
        "amenity": "bench"
      }
    },
    {
      "type": "node",
      "id": 5602954734,
      "lat": 51.4276447,
      "lon": 5.3513798,
      "timestamp": "2018-05-07T20:16:55Z",
      "version": 1,
      "changeset": 58769702,
      "user": "Peter Bremer",
      "uid": 366321,
      "tags": {
        "amenity": "bench"
      }
    },
    {
      "type": "node",
      "id": 5602954735,
      "lat": 51.4275239,
      "lon": 5.3519987,
      "timestamp": "2018-05-07T20:16:55Z",
      "version": 1,
      "changeset": 58769702,
      "user": "Peter Bremer",
      "uid": 366321,
      "tags": {
        "leisure": "picnic_table"
      }
    },
    {
      "type": "node",
      "id": 5602954745,
      "lat": 51.4273621,
      "lon": 5.3525137,
      "timestamp": "2018-05-07T20:16:55Z",
      "version": 1,
      "changeset": 58769702,
      "user": "Peter Bremer",
      "uid": 366321,
      "tags": {
        "amenity": "bench"
      }
    },
    {
      "type": "node",
      "id": 5602954748,
      "lat": 51.4270435,
      "lon": 5.3524426,
      "timestamp": "2018-05-07T20:16:55Z",
      "version": 1,
      "changeset": 58769702,
      "user": "Peter Bremer",
      "uid": 366321,
      "tags": {
        "amenity": "bench"
      }
    },
    {
      "type": "node",
      "id": 5602954750,
      "lat": 51.4271877,
      "lon": 5.3523293,
      "timestamp": "2018-05-07T20:16:55Z",
      "version": 1,
      "changeset": 58769702,
      "user": "Peter Bremer",
      "uid": 366321,
      "tags": {
        "amenity": "bench"
      }
    },
    {
      "type": "node",
      "id": 5602954751,
      "lat": 51.4271434,
      "lon": 5.3525674,
      "timestamp": "2018-05-07T20:16:56Z",
      "version": 1,
      "changeset": 58769702,
      "user": "Peter Bremer",
      "uid": 366321,
      "tags": {
        "amenity": "bench"
      }
    },
    {
      "type": "node",
      "id": 5602954754,
      "lat": 51.4272567,
      "lon": 5.3527705,
      "timestamp": "2018-05-07T20:16:56Z",
      "version": 1,
      "changeset": 58769702,
      "user": "Peter Bremer",
      "uid": 366321,
      "tags": {
        "information": "board",
        "tourism": "information"
      }
    },
    {
      "type": "node",
      "id": 5602954767,
      "lat": 51.4268068,
      "lon": 5.3531621,
      "timestamp": "2018-05-07T20:16:56Z",
      "version": 1,
      "changeset": 58769702,
      "user": "Peter Bremer",
      "uid": 366321,
      "tags": {
        "leisure": "picnic_table"
      }
    },
    {
      "type": "node",
      "id": 5602954769,
      "lat": 51.4264485,
      "lon": 5.3533841,
      "timestamp": "2018-05-07T20:16:56Z",
      "version": 1,
      "changeset": 58769702,
      "user": "Peter Bremer",
      "uid": 366321,
      "tags": {
        "amenity": "bench"
      }
    },
    {
      "type": "node",
      "id": 5602954786,
      "lat": 51.4261316,
      "lon": 5.3534934,
      "timestamp": "2018-05-07T20:16:56Z",
      "version": 1,
      "changeset": 58769702,
      "user": "Peter Bremer",
      "uid": 366321,
      "tags": {
        "amenity": "bench"
      }
    },
    {
      "type": "node",
      "id": 6159214146,
      "lat": 51.4325677,
      "lon": 5.3133942,
      "timestamp": "2018-12-24T15:36:03Z",
      "version": 1,
      "changeset": 65744067,
      "user": "Wim van der Ven",
      "uid": 1817282,
      "tags": {
        "leisure": "picnic_table"
      }
    },
    {
      "type": "node",
      "id": 6159214341,
      "lat": 51.4322188,
      "lon": 5.3542254,
      "timestamp": "2018-12-24T15:36:03Z",
      "version": 1,
      "changeset": 65744067,
      "user": "Wim van der Ven",
      "uid": 1817282,
      "tags": {
        "leisure": "picnic_table",
        "name": "Koepeltje"
      }
    },
    {
      "type": "node",
      "id": 6190538887,
      "lat": 51.4051007,
      "lon": 5.2826499,
      "timestamp": "2019-01-07T18:54:38Z",
      "version": 1,
      "changeset": 66105449,
      "user": "Wim van der Ven",
      "uid": 1817282,
      "tags": {
        "amenity": "bench"
      }
    },
    {
      "type": "node",
      "id": 6190538888,
      "lat": 51.4030161,
      "lon": 5.2820741,
      "timestamp": "2020-07-21T15:30:54Z",
      "version": 2,
      "changeset": 88301684,
      "user": "Marco Nell",
      "uid": 10957833,
      "tags": {
        "amenity": "bench",
        "backrest": "yes",
        "material": "wood",
        "seats": "4"
      }
    },
    {
      "type": "node",
      "id": 6190538889,
      "lat": 51.405685,
      "lon": 5.2815748,
      "timestamp": "2020-07-21T15:30:54Z",
      "version": 2,
      "changeset": 88301684,
      "user": "Marco Nell",
      "uid": 10957833,
      "tags": {
        "amenity": "bench"
      }
    },
    {
      "type": "node",
      "id": 6544624895,
      "lat": 51.4080083,
      "lon": 5.3435545,
      "timestamp": "2019-06-13T10:46:57Z",
      "version": 1,
      "changeset": 71213142,
      "user": "Wim van der Ven",
      "uid": 1817282,
      "tags": {
        "inscription": "Slecht",
        "leisure": "picnic_table"
      }
    },
    {
      "type": "node",
      "id": 6544660829,
      "lat": 51.4145497,
      "lon": 5.3586239,
      "timestamp": "2020-12-13T10:04:13Z",
      "version": 2,
      "changeset": 95748983,
      "user": "staf",
      "uid": 377797,
      "tags": {
        "amenity": "bench",
        "backrest": "yes"
      }
    },
    {
      "type": "node",
      "id": 6544662996,
      "lat": 51.4088391,
      "lon": 5.3541502,
      "timestamp": "2019-06-13T11:04:33Z",
      "version": 1,
      "changeset": 71213142,
      "user": "Wim van der Ven",
      "uid": 1817282,
      "tags": {
        "leisure": "picnic_table"
      }
    },
    {
      "type": "node",
      "id": 6544755907,
      "lat": 51.4213979,
      "lon": 5.3424808,
      "timestamp": "2019-06-13T11:40:13Z",
      "version": 1,
      "changeset": 71213142,
      "user": "Wim van der Ven",
      "uid": 1817282,
      "tags": {
        "amenity": "bench"
      }
    },
    {
      "type": "node",
      "id": 6590563211,
      "lat": 51.4082061,
      "lon": 5.3129499,
      "timestamp": "2019-07-05T08:12:09Z",
      "version": 1,
      "changeset": 71921988,
      "user": "Wim van der Ven",
      "uid": 1817282,
      "tags": {
        "leisure": "picnic_table"
      }
    },
    {
      "type": "node",
      "id": 6624794659,
      "lat": 51.4166652,
      "lon": 5.3305927,
      "timestamp": "2019-07-17T19:11:01Z",
      "version": 1,
      "changeset": 72362090,
      "user": "Wim van der Ven",
      "uid": 1817282,
      "tags": {
        "amenity": "bench"
      }
    },
    {
      "type": "node",
      "id": 6624807253,
      "lat": 51.4178909,
      "lon": 5.3431262,
      "timestamp": "2019-07-17T19:11:01Z",
      "version": 1,
      "changeset": 72362090,
      "user": "Wim van der Ven",
      "uid": 1817282,
      "tags": {
        "leisure": "picnic_table"
      }
    },
    {
      "type": "node",
      "id": 6624825138,
      "lat": 51.4183394,
      "lon": 5.3279233,
      "timestamp": "2019-07-17T19:11:02Z",
      "version": 1,
      "changeset": 72362090,
      "user": "Wim van der Ven",
      "uid": 1817282,
      "tags": {
        "leisure": "picnic_table"
      }
    },
    {
      "type": "node",
      "id": 6629047153,
      "lat": 51.4286679,
      "lon": 5.3301704,
      "timestamp": "2019-07-18T16:32:04Z",
      "version": 1,
      "changeset": 72398898,
      "user": "Wim van der Ven",
      "uid": 1817282,
      "tags": {
        "amenity": "bench"
      }
    },
    {
      "type": "node",
      "id": 6629052961,
      "lat": 51.4398137,
      "lon": 5.3483205,
      "timestamp": "2019-07-18T16:32:06Z",
      "version": 1,
      "changeset": 72398898,
      "user": "Wim van der Ven",
      "uid": 1817282,
      "tags": {
        "leisure": "picnic_table"
      }
    },
    {
      "type": "node",
      "id": 6629068338,
      "lat": 51.4312603,
      "lon": 5.3581575,
      "timestamp": "2019-07-18T16:32:07Z",
      "version": 1,
      "changeset": 72398898,
      "user": "Wim van der Ven",
      "uid": 1817282,
      "tags": {
        "leisure": "picnic_table"
      }
    },
    {
      "type": "node",
      "id": 6629072433,
      "lat": 51.4335841,
      "lon": 5.3234135,
      "timestamp": "2020-12-13T11:46:50Z",
      "version": 2,
      "changeset": 95751829,
      "user": "staf",
      "uid": 377797,
      "tags": {
        "amenity": "bench",
        "backrest": "yes"
      }
    },
    {
      "type": "node",
      "id": 6629073636,
      "lat": 51.4214038,
      "lon": 5.332573,
      "timestamp": "2019-07-18T16:32:03Z",
      "version": 1,
      "changeset": 72398898,
      "user": "Wim van der Ven",
      "uid": 1817282,
      "tags": {
        "amenity": "bench"
      }
    },
    {
      "type": "node",
      "id": 6700753445,
      "lat": 51.4092375,
      "lon": 5.3258373,
      "timestamp": "2019-08-11T18:56:45Z",
      "version": 1,
      "changeset": 73248457,
      "user": "Wim van der Ven",
      "uid": 1817282,
      "tags": {
        "leisure": "picnic_table"
      }
    },
    {
      "type": "node",
      "id": 6700792726,
      "lat": 51.4024997,
      "lon": 5.2762897,
      "timestamp": "2020-07-24T08:51:32Z",
      "version": 2,
      "changeset": 88446571,
      "user": "Marco Nell",
      "uid": 10957833,
      "tags": {
        "amenity": "bench",
        "backrest": "yes",
        "material": "wood",
        "seats": "4"
      }
    },
    {
      "type": "node",
      "id": 7333621917,
      "lat": 51.442696,
      "lon": 5.3394051,
      "timestamp": "2020-03-27T00:34:03Z",
      "version": 1,
      "changeset": 82686653,
      "user": "ilikepostboxesandicannotlie",
      "uid": 10727780,
      "tags": {
        "bin": "yes",
        "leisure": "picnic_table"
      }
    },
    {
      "type": "node",
      "id": 7695280436,
      "lat": 51.4169937,
      "lon": 5.3360861,
      "timestamp": "2020-07-08T13:25:32Z",
      "version": 1,
      "changeset": 87713619,
      "user": "Wim van der Ven",
      "uid": 1817282,
      "tags": {
        "amenity": "bench"
      }
    },
    {
      "type": "node",
      "id": 7734283451,
      "lat": 51.4057101,
      "lon": 5.2815392,
      "timestamp": "2020-07-21T15:45:50Z",
      "version": 1,
      "changeset": 88302186,
      "user": "Marco Nell",
      "uid": 10957833,
      "tags": {
        "board:title": "Via Monastica",
        "information": "board",
        "tourism": "information"
      }
    },
    {
      "type": "node",
      "id": 7743158749,
      "lat": 51.3996393,
      "lon": 5.2781672,
      "timestamp": "2020-07-24T08:51:32Z",
      "version": 1,
      "changeset": 88446571,
      "user": "Marco Nell",
      "uid": 10957833,
      "tags": {
        "amenity": "bench",
        "material": "wood",
        "seats": "4"
      }
    },
    {
      "type": "node",
      "id": 7752725708,
      "lat": 51.4150607,
      "lon": 5.3292442,
      "timestamp": "2020-07-26T20:15:03Z",
      "version": 1,
      "changeset": 88531519,
      "user": "Ezzie",
      "uid": 10214622,
      "tags": {
        "leisure": "picnic_table"
      }
    },
    {
      "type": "node",
      "id": 7887998303,
      "lat": 51.4140239,
      "lon": 5.3588963,
      "timestamp": "2020-09-24T16:45:50Z",
      "version": 3,
      "changeset": 91453461,
      "user": "dgitto",
      "uid": 554973,
      "tags": {
        "leisure": "picnic_table"
      }
    },
    {
      "type": "node",
      "id": 8223784326,
      "lat": 51.4052356,
      "lon": 5.3523883,
      "timestamp": "2020-12-13T08:59:59Z",
      "version": 1,
      "changeset": 95747447,
      "user": "staf",
      "uid": 377797,
      "tags": {
        "amenity": "bench",
        "backrest": "yes"
      }
    },
    {
      "type": "node",
      "id": 8223818637,
      "lat": 51.4094141,
      "lon": 5.3484257,
      "timestamp": "2020-12-13T09:39:26Z",
      "version": 1,
      "changeset": 95748383,
      "user": "staf",
      "uid": 377797,
      "tags": {
        "amenity": "bench",
        "backrest": "yes"
      }
    },
    {
      "type": "node",
      "id": 8223823951,
      "lat": 51.4093455,
      "lon": 5.3480869,
      "timestamp": "2020-12-13T09:38:29Z",
      "version": 1,
      "changeset": 95748366,
      "user": "staf",
      "uid": 377797,
      "tags": {
        "leisure": "picnic_table"
      }
    },
    {
      "type": "node",
      "id": 8224027076,
      "lat": 51.4309026,
      "lon": 5.3490237,
      "timestamp": "2020-12-13T12:19:37Z",
      "version": 1,
      "changeset": 95752841,
      "user": "staf",
      "uid": 377797,
      "tags": {
        "leisure": "picnic_table"
      }
    },
    {
      "type": "node",
      "id": 8340050425,
      "lat": 51.4255195,
      "lon": 5.3474299,
      "timestamp": "2021-01-19T21:26:42Z",
      "version": 1,
      "changeset": 97793325,
      "user": "Wim van der Ven",
      "uid": 1817282,
      "tags": {
        "leisure": "picnic_table"
      }
    },
    {
      "type": "node",
      "id": 8365718063,
      "lat": 51.444305,
      "lon": 5.3409095,
      "timestamp": "2021-01-26T23:34:26Z",
      "version": 1,
      "changeset": 98187758,
      "user": "Leo Slager",
      "uid": 6686188,
      "tags": {
        "amenity": "bench"
      }
    },
    {
      "type": "node",
      "id": 8442857532,
      "lat": 51.4367665,
      "lon": 5.3215999,
      "timestamp": "2021-02-21T15:03:14Z",
      "version": 1,
      "changeset": 99684144,
      "user": "EnumMapper",
      "uid": 2188716,
      "tags": {
        "information": "board",
        "tourism": "information"
      }
    },
    {
      "type": "node",
      "id": 8461785989,
      "lat": 51.4327849,
      "lon": 5.3584346,
      "timestamp": "2021-02-26T17:48:52Z",
      "version": 1,
      "changeset": 100067140,
      "user": "Wim van der Ven",
      "uid": 1817282,
      "tags": {
        "leisure": "picnic_table"
      }
    },
    {
      "type": "node",
      "id": 8480944803,
      "lat": 51.4164031,
      "lon": 5.3018707,
      "timestamp": "2021-03-02T21:00:05Z",
      "version": 1,
      "changeset": 100304481,
      "user": "Wim van der Ven",
      "uid": 1817282,
      "tags": {
        "amenity": "bench"
      }
    },
    {
      "type": "node",
      "id": 8497285702,
      "lat": 51.4163815,
      "lon": 5.2925018,
      "timestamp": "2021-03-08T15:04:34Z",
      "version": 1,
      "changeset": 100646358,
      "user": "Wim van der Ven",
      "uid": 1817282,
      "tags": {
        "amenity": "bench"
      }
    },
    {
      "type": "node",
      "id": 8660234739,
      "lat": 51.4166611,
      "lon": 5.2876554,
      "timestamp": "2021-04-23T19:43:53Z",
      "version": 1,
      "changeset": 103503279,
      "user": "Wim van der Ven",
      "uid": 1817282,
      "tags": {
        "amenity": "bench"
      }
    },
    {
      "type": "node",
      "id": 8677247361,
      "lat": 51.445889,
      "lon": 5.3405458,
      "timestamp": "2021-04-28T18:36:48Z",
      "version": 1,
      "changeset": 103796071,
      "user": "Wim van der Ven",
      "uid": 1817282,
      "tags": {
        "leisure": "picnic_table"
      }
    },
    {
      "type": "node",
      "id": 8677283417,
      "lat": 51.4276932,
      "lon": 5.3566673,
      "timestamp": "2021-04-28T18:36:48Z",
      "version": 1,
      "changeset": 103796071,
      "user": "Wim van der Ven",
      "uid": 1817282,
      "tags": {
        "amenity": "bench"
      }
    },
    {
      "type": "node",
      "id": 8677719977,
      "lat": 51.4065392,
      "lon": 5.3428291,
      "timestamp": "2021-04-28T21:42:29Z",
      "version": 1,
      "changeset": 103802568,
      "user": "EnumMapper",
      "uid": 2188716,
      "tags": {
        "amenity": "bench"
      }
    },
    {
      "type": "node",
      "id": 8736303731,
      "lat": 51.4070223,
      "lon": 5.3472912,
      "timestamp": "2021-05-16T18:26:23Z",
      "version": 2,
      "changeset": 104780522,
      "user": "tomvanhemert",
      "uid": 13340591,
      "tags": {
        "amenity": "bench",
        "backrest": "yes",
        "material": "wood",
        "seats": "2"
      }
    },
    {
      "type": "node",
      "id": 8781449933,
      "lat": 51.4040562,
      "lon": 5.3612582,
      "timestamp": "2021-05-30T17:01:06Z",
      "version": 1,
      "changeset": 105576195,
      "user": "Wim van der Ven",
      "uid": 1817282,
      "tags": {
        "amenity": "bench"
      }
    },
    {
      "type": "node",
      "id": 8987796679,
      "lat": 51.4229161,
      "lon": 5.2800144,
      "timestamp": "2021-08-07T14:18:30Z",
      "version": 2,
      "changeset": 109312685,
      "user": "eggie",
      "uid": 334075,
      "tags": {
        "amenity": "bench"
      }
    },
    {
      "type": "node",
      "id": 8987796680,
      "lat": 51.4232807,
      "lon": 5.2815849,
      "timestamp": "2021-08-07T14:18:30Z",
      "version": 2,
      "changeset": 109312685,
      "user": "eggie",
      "uid": 334075,
      "tags": {
        "amenity": "bench"
      }
    },
    {
      "type": "node",
      "id": 8987998803,
      "lat": 51.4174384,
      "lon": 5.2900176,
      "timestamp": "2021-08-07T14:46:06Z",
      "version": 1,
      "changeset": 109313630,
      "user": "Erwin van Rijsewijk",
      "uid": 6793,
      "tags": {
        "amenity": "bench"
      }
    },
    {
      "type": "node",
      "id": 9039945983,
      "lat": 51.4151233,
      "lon": 5.3291655,
      "timestamp": "2021-08-27T08:33:44Z",
      "version": 1,
      "changeset": 110326758,
      "user": "Ezzie",
      "uid": 10214622,
      "tags": {
        "leisure": "picnic_table"
      }
    },
    {
      "type": "node",
      "id": 9039967252,
      "lat": 51.4151233,
      "lon": 5.3291655,
      "timestamp": "2021-08-27T08:33:58Z",
      "version": 1,
      "changeset": 110326774,
      "user": "Ezzie",
      "uid": 10214622,
      "tags": {
        "leisure": "picnic_table"
      }
    },
    {
      "type": "node",
      "id": 9106183702,
      "lat": 51.4212927,
      "lon": 5.3368563,
      "timestamp": "2021-09-19T20:50:59Z",
      "version": 1,
      "changeset": 111424226,
      "user": "Wim van der Ven",
      "uid": 1817282,
      "tags": {
        "amenity": "bench"
      }
    },
    {
      "type": "node",
      "id": 9161325229,
      "lat": 51.4370044,
      "lon": 5.3194027,
      "timestamp": "2021-10-12T11:57:56Z",
      "version": 2,
      "changeset": 112415185,
      "user": "Dolar",
      "uid": 330501,
      "tags": {
        "access": "yes",
        "amenity": "drinking_water",
        "bottle": "yes",
        "fee": "no",
        "man_made": "water_tap"
      }
    },
    {
      "type": "way",
      "id": 134111018,
      "timestamp": "2020-12-13T08:44:20Z",
      "version": 5,
      "changeset": 95747118,
      "user": "staf",
      "uid": 377797,
      "nodes": [
        1474947171,
        1474947175,
        1474947170,
        1474947176,
        2357497553,
        1474947171
      ],
      "tags": {
        "access": "yes",
        "amenity": "parking",
        "fee": "no",
        "parking": "surface"
      }
    },
    {
      "type": "way",
      "id": 158566156,
      "timestamp": "2021-02-20T22:22:35Z",
      "version": 4,
      "changeset": 99662251,
      "user": "Geim",
      "uid": 2530858,
      "nodes": [
        1707440831,
        1707440827,
        1707440824,
        1707440828,
        8441690862,
        8441690837,
        1707440831
      ],
      "tags": {
        "amenity": "parking"
      }
    },
    {
      "type": "way",
      "id": 162143808,
      "timestamp": "2018-05-06T11:56:48Z",
      "version": 3,
      "changeset": 58728165,
      "user": "Peter Bremer",
      "uid": 366321,
      "nodes": [
        996390864,
        1740755435,
        996390242,
        5600009919,
        996360448,
        996390864
      ],
      "tags": {
        "amenity": "parking",
        "surface": "grass"
      }
    },
    {
      "type": "way",
      "id": 203084052,
      "timestamp": "2013-01-27T11:09:14Z",
      "version": 1,
      "changeset": 14805702,
      "user": "RutgerNijlunsing",
      "uid": 346345,
      "nodes": [
        2130522405,
        2130522394,
        2130522401,
        2130522409,
        2130522405
      ],
      "tags": {
        "amenity": "parking",
        "name": "Coop Wintelre"
      }
    },
    {
      "type": "way",
      "id": 204046858,
      "timestamp": "2013-02-03T20:32:27Z",
      "version": 1,
      "changeset": 14902170,
      "user": "RutgerNijlunsing",
      "uid": 346345,
      "nodes": [
        2140588618,
        2140588615,
        2140588628,
        2140588633,
        2140588618
      ],
      "tags": {
        "amenity": "parking"
      }
    },
    {
      "type": "way",
      "id": 232813480,
      "timestamp": "2013-08-08T16:54:32Z",
      "version": 1,
      "changeset": 17269345,
      "user": "Maarten Deen",
      "uid": 9176,
      "nodes": [
        997481903,
        2411304053,
        997461290,
        997478904,
        997455340,
        2411304028,
        997464015,
        997481903
      ],
      "tags": {
        "amenity": "parking"
      }
    },
    {
      "type": "way",
      "id": 570383805,
      "timestamp": "2018-03-16T22:48:24Z",
      "version": 1,
      "changeset": 57255377,
      "user": "friedel_hn",
      "uid": 5079,
      "nodes": [
        5483642090,
        5483642089,
        5483642088,
        5483642087,
        5483642090
      ],
      "tags": {
        "amenity": "parking"
      }
    },
    {
      "type": "way",
      "id": 900177124,
      "timestamp": "2021-01-26T00:34:16Z",
      "version": 1,
      "changeset": 98148919,
      "user": "44627822",
      "uid": 7452908,
      "nodes": [
        8362852795,
        8362852794,
        8362852793,
        8362852792,
        8362852791,
        8362852790,
        8362852789,
        8362852788,
        8362852787,
        8362852772,
        8362852786,
        8362852785,
        8362852784,
        8362852783,
        8362852777,
        8362852782,
        8362852781,
        8362852780,
        8362852779,
        8362852795
      ],
      "tags": {
        "amenity": "parking"
      }
    },
    {
      "type": "way",
      "id": 900177125,
      "timestamp": "2021-01-26T00:34:16Z",
      "version": 1,
      "changeset": 98148919,
      "user": "44627822",
      "uid": 7452908,
      "nodes": [
        8362852807,
        8362852806,
        8362852805,
        8362852804,
        8362852803,
        8362852802,
        8362852801,
        8362852800,
        8362852775,
        8362876919,
        8362876918,
        8362852799,
        8362852798,
        8362852797,
        8362852796,
        8362852807
      ],
      "tags": {
        "amenity": "parking"
      }
    },
    {
      "type": "way",
      "id": 979577087,
      "timestamp": "2021-09-04T14:50:31Z",
      "version": 1,
      "changeset": 110719930,
      "user": "pointseven",
      "uid": 4355310,
      "nodes": [
        9062374602,
        9062374603,
        9062374604,
        9062374605,
        9062374606,
        9062374607,
        9062374602
      ],
      "tags": {
        "amenity": "parking"
      }
    },
    {
      "type": "node",
      "id": 997455340,
      "lat": 51.4054173,
      "lon": 5.3044387
    },
    {
      "type": "node",
      "id": 997461290,
      "lat": 51.4063977,
      "lon": 5.3040639
    },
    {
      "type": "node",
      "id": 997464015,
      "lat": 51.4053488,
      "lon": 5.3044855
    },
    {
      "type": "node",
      "id": 997478904,
      "lat": 51.4063292,
      "lon": 5.3038141
    },
    {
      "type": "node",
      "id": 997481903,
      "lat": 51.4054939,
      "lon": 5.3049572
    },
    {
      "type": "node",
      "id": 2411304028,
      "lat": 51.4053751,
      "lon": 5.3044675
    },
    {
      "type": "node",
      "id": 2411304053,
      "lat": 51.4064579,
      "lon": 5.3043105
    },
    {
      "type": "node",
      "id": 1474947170,
      "lat": 51.3993867,
      "lon": 5.3477071
    },
    {
      "type": "node",
      "id": 1474947171,
      "lat": 51.3991661,
      "lon": 5.3475076
    },
    {
      "type": "node",
      "id": 1474947175,
      "lat": 51.3991407,
      "lon": 5.3475891
    },
    {
      "type": "node",
      "id": 1474947176,
      "lat": 51.3994185,
      "lon": 5.347522
    },
    {
      "type": "node",
      "id": 2357497553,
      "lat": 51.3992077,
      "lon": 5.3473869
    },
    {
      "type": "node",
      "id": 2140588615,
      "lat": 51.4273256,
      "lon": 5.3038922
    },
    {
      "type": "node",
      "id": 2140588618,
      "lat": 51.4274776,
      "lon": 5.3036726
    },
    {
      "type": "node",
      "id": 2140588628,
      "lat": 51.4278042,
      "lon": 5.3047781
    },
    {
      "type": "node",
      "id": 2140588633,
      "lat": 51.4279788,
      "lon": 5.3045174
    },
    {
      "type": "node",
      "id": 1707440828,
      "lat": 51.4369091,
      "lon": 5.3210932
    },
    {
      "type": "node",
      "id": 1707440831,
      "lat": 51.4370335,
      "lon": 5.3211586
    },
    {
      "type": "node",
      "id": 5483642090,
      "lat": 51.4390153,
      "lon": 5.3213266
    },
    {
      "type": "node",
      "id": 8441690837,
      "lat": 51.4369817,
      "lon": 5.321132
    },
    {
      "type": "node",
      "id": 8441690862,
      "lat": 51.4369511,
      "lon": 5.3211163
    },
    {
      "type": "node",
      "id": 1707440824,
      "lat": 51.4368072,
      "lon": 5.3216222
    },
    {
      "type": "node",
      "id": 1707440827,
      "lat": 51.4369308,
      "lon": 5.3216794
    },
    {
      "type": "node",
      "id": 5483642087,
      "lat": 51.4391461,
      "lon": 5.3218345
    },
    {
      "type": "node",
      "id": 5483642088,
      "lat": 51.4386658,
      "lon": 5.3221952
    },
    {
      "type": "node",
      "id": 5483642089,
      "lat": 51.4385236,
      "lon": 5.321675
    },
    {
      "type": "node",
      "id": 2130522394,
      "lat": 51.4423061,
      "lon": 5.3394171
    },
    {
      "type": "node",
      "id": 2130522401,
      "lat": 51.4423678,
      "lon": 5.3396179
    },
    {
      "type": "node",
      "id": 2130522405,
      "lat": 51.4424581,
      "lon": 5.3392856
    },
    {
      "type": "node",
      "id": 2130522409,
      "lat": 51.4425317,
      "lon": 5.3394909
    },
    {
      "type": "node",
      "id": 8362852787,
      "lat": 51.444579,
      "lon": 5.34086
    },
    {
      "type": "node",
      "id": 8362852788,
      "lat": 51.4445777,
      "lon": 5.340849
    },
    {
      "type": "node",
      "id": 8362852789,
      "lat": 51.4445761,
      "lon": 5.3408448
    },
    {
      "type": "node",
      "id": 8362852790,
      "lat": 51.4445731,
      "lon": 5.3408433
    },
    {
      "type": "node",
      "id": 8362852791,
      "lat": 51.4444532,
      "lon": 5.3408787
    },
    {
      "type": "node",
      "id": 8362852792,
      "lat": 51.4444455,
      "lon": 5.3408808
    },
    {
      "type": "node",
      "id": 8362852793,
      "lat": 51.4444431,
      "lon": 5.3408833
    },
    {
      "type": "node",
      "id": 8362852794,
      "lat": 51.4444418,
      "lon": 5.3408857
    },
    {
      "type": "node",
      "id": 8362852795,
      "lat": 51.444442,
      "lon": 5.3408909
    },
    {
      "type": "node",
      "id": 8362852772,
      "lat": 51.4446209,
      "lon": 5.3412194
    },
    {
      "type": "node",
      "id": 8362852775,
      "lat": 51.4443354,
      "lon": 5.3417857
    },
    {
      "type": "node",
      "id": 8362852777,
      "lat": 51.4445811,
      "lon": 5.3414337
    },
    {
      "type": "node",
      "id": 8362852779,
      "lat": 51.444505,
      "lon": 5.341428
    },
    {
      "type": "node",
      "id": 8362852780,
      "lat": 51.4445077,
      "lon": 5.3414503
    },
    {
      "type": "node",
      "id": 8362852781,
      "lat": 51.4445091,
      "lon": 5.3414536
    },
    {
      "type": "node",
      "id": 8362852782,
      "lat": 51.444511,
      "lon": 5.3414553
    },
    {
      "type": "node",
      "id": 8362852783,
      "lat": 51.4446325,
      "lon": 5.3414179
    },
    {
      "type": "node",
      "id": 8362852784,
      "lat": 51.4446393,
      "lon": 5.3414162
    },
    {
      "type": "node",
      "id": 8362852785,
      "lat": 51.4446419,
      "lon": 5.3414134
    },
    {
      "type": "node",
      "id": 8362852786,
      "lat": 51.4446431,
      "lon": 5.3414097
    },
    {
      "type": "node",
      "id": 8362852796,
      "lat": 51.4440688,
      "lon": 5.3419723
    },
    {
      "type": "node",
      "id": 8362852797,
      "lat": 51.4440738,
      "lon": 5.3420057
    },
    {
      "type": "node",
      "id": 8362852798,
      "lat": 51.4440762,
      "lon": 5.3420124
    },
    {
      "type": "node",
      "id": 8362852799,
      "lat": 51.4440794,
      "lon": 5.3420137
    },
    {
      "type": "node",
      "id": 8362852800,
      "lat": 51.4443225,
      "lon": 5.3417091
    },
    {
      "type": "node",
      "id": 8362852801,
      "lat": 51.4443211,
      "lon": 5.3416987
    },
    {
      "type": "node",
      "id": 8362852802,
      "lat": 51.4443194,
      "lon": 5.3416952
    },
    {
      "type": "node",
      "id": 8362852803,
      "lat": 51.4443157,
      "lon": 5.3416939
    },
    {
      "type": "node",
      "id": 8362852804,
      "lat": 51.4440454,
      "lon": 5.341805
    },
    {
      "type": "node",
      "id": 8362852805,
      "lat": 51.4440437,
      "lon": 5.3418083
    },
    {
      "type": "node",
      "id": 8362852806,
      "lat": 51.4440434,
      "lon": 5.3418135
    },
    {
      "type": "node",
      "id": 8362852807,
      "lat": 51.4440444,
      "lon": 5.3418202
    },
    {
      "type": "node",
      "id": 8362876918,
      "lat": 51.4443331,
      "lon": 5.3419083
    },
    {
      "type": "node",
      "id": 8362876919,
      "lat": 51.4443547,
      "lon": 5.3419002
    },
    {
      "type": "node",
      "id": 9062374602,
      "lat": 51.4092532,
      "lon": 5.3570304
    },
    {
      "type": "node",
      "id": 9062374603,
      "lat": 51.4086439,
      "lon": 5.3568499
    },
    {
      "type": "node",
      "id": 9062374604,
      "lat": 51.4084861,
      "lon": 5.3572144
    },
    {
      "type": "node",
      "id": 9062374605,
      "lat": 51.4087134,
      "lon": 5.3574233
    },
    {
      "type": "node",
      "id": 9062374606,
      "lat": 51.4088073,
      "lon": 5.3571967
    },
    {
      "type": "node",
      "id": 9062374607,
      "lat": 51.409177,
      "lon": 5.3572994
    },
    {
      "type": "node",
      "id": 996360448,
      "lat": 51.4263095,
      "lon": 5.3542596
    },
    {
      "type": "node",
      "id": 996390242,
      "lat": 51.4264565,
      "lon": 5.3563331
    },
    {
      "type": "node",
      "id": 996390864,
      "lat": 51.4256463,
      "lon": 5.3546762
    },
    {
      "type": "node",
      "id": 1740755435,
      "lat": 51.4261671,
      "lon": 5.3564379
    },
    {
      "type": "node",
      "id": 5600009919,
      "lat": 51.4263128,
      "lon": 5.354306
    }
  ]
}