{
  "version": 0.6,
  "generator": "Overpass API 0.7.56.8 7d656e78",
  "osm3s": {
    "timestamp_osm_base": "2021-12-11T05:04:34Z",
    "copyright": "The data included in this document is from www.openstreetmap.org. The data is made available under ODbL."
  },
  "elements": [
    {
      "type": "node",
      "id": 880915233,
      "lat": 50.5096335,
      "lon": 5.8518881,
      "tags": {
        "amenity": "bench"
      }
    },
    {
      "type": "node",
      "id": 880917983,
      "lat": 50.5116114,
      "lon": 5.871904,
      "tags": {
        "amenity": "bench"
      }
    },
    {
      "type": "node",
      "id": 889052691,
      "lat": 50.5076973,
      "lon": 5.8524619,
      "tags": {
        "amenity": "bench"
      }
    },
    {
      "type": "node",
      "id": 907158213,
      "lat": 50.5033767,
      "lon": 5.8674717,
      "tags": {
        "leisure": "picnic_table"
      }
    },
    {
      "type": "node",
      "id": 1876048961,
      "lat": 50.4921618,
      "lon": 5.8561941,
      "tags": {
        "amenity": "parking",
        "name": "Parking 1"
      }
    },
    {
      "type": "node",
      "id": 2366411853,
      "lat": 50.4660243,
      "lon": 5.8713554,
      "tags": {
        "board_type": "board",
        "information": "board",
        "name": "Source de la Géronstère",
        "tourism": "information"
      }
    },
    {
      "type": "node",
      "id": 2367837784,
      "lat": 50.4744732,
      "lon": 5.8627302,
      "tags": {
        "addr:housenumber": "295",
        "addr:street": "Rue de Barisart",
        "amenity": "drinking_water",
        "name": "Source Barisart",
        "natural": "spring"
      }
    },
    {
      "type": "node",
      "id": 2462981279,
      "lat": 50.4600433,
      "lon": 5.8830999,
      "tags": {
        "amenity": "bench",
        "backrest": "yes",
        "material": "wood"
      }
    },
    {
      "type": "node",
      "id": 2462981286,
      "lat": 50.460777,
      "lon": 5.8830958,
      "tags": {
        "leisure": "picnic_table"
      }
    },
    {
      "type": "node",
      "id": 2462981291,
      "lat": 50.4670394,
      "lon": 5.8697472,
      "tags": {
        "amenity": "bench"
      }
    },
    {
      "type": "node",
      "id": 2816673875,
      "lat": 50.4929911,
      "lon": 5.8628477,
      "tags": {
        "amenity": "drinking_water",
        "fee": "no",
        "image": "https://images.mapillary.com/EHB9lyBI4xpGKr2z5qwTzR/thumb-2048.jpg",
        "indoor": "no",
        "mapillary": "https://www.mapillary.com/map/im/EHB9lyBI4xpGKr2z5qwTzR",
        "name": "Pouhon aux Armes d'Autriche",
        "natural": "spring",
        "note": "this was placed here in 2014 (http://www.lavenir.net/cnt/DMF20140625_00495806)",
        "water_characteristic": "mineral"
      }
    },
    {
      "type": "node",
      "id": 2818805166,
      "lat": 50.4709288,
      "lon": 5.8770828,
      "tags": {
        "amenity": "drinking_water",
        "name": "Pouhon Pia",
        "natural": "spring"
      }
    },
    {
      "type": "node",
      "id": 2928058107,
      "lat": 50.4785153,
      "lon": 5.8140867,
      "tags": {
        "amenity": "bench"
      }
    },
    {
      "type": "node",
      "id": 2928058127,
      "lat": 50.4814084,
      "lon": 5.8097299,
      "tags": {
        "amenity": "bench"
      }
    },
    {
      "type": "node",
      "id": 2928058194,
      "lat": 50.4887093,
      "lon": 5.8168349,
      "tags": {
        "amenity": "bench"
      }
    },
    {
      "type": "node",
      "id": 3065855880,
      "lat": 50.503139,
      "lon": 5.8738982,
      "tags": {
        "amenity": "bench"
      }
    },
    {
      "type": "node",
      "id": 3065855907,
      "lat": 50.507419,
      "lon": 5.8779277,
      "tags": {
        "amenity": "bench"
      }
    },
    {
      "type": "node",
      "id": 3370804113,
      "lat": 50.4746502,
      "lon": 5.8439809,
      "tags": {
        "amenity": "bench"
      }
    },
    {
      "type": "node",
      "id": 3370804186,
      "lat": 50.4891325,
      "lon": 5.8413012,
      "tags": {
        "amenity": "shelter",
        "leisure": "picnic_table"
      }
    },
    {
      "type": "node",
      "id": 3370804198,
      "lat": 50.4921074,
      "lon": 5.8510053,
      "tags": {
        "amenity": "bench"
      }
    },
    {
      "type": "node",
      "id": 3370804236,
      "lat": 50.4928254,
      "lon": 5.8544773,
      "tags": {
        "amenity": "bench",
        "note": "shelter is (temporarily?) removed"
      }
    },
    {
      "type": "node",
      "id": 3370804357,
      "lat": 50.4951594,
      "lon": 5.86926,
      "tags": {
        "amenity": "bench"
      }
    },
    {
      "type": "node",
      "id": 3441571874,
      "lat": 50.4623165,
      "lon": 5.813279,
      "tags": {
        "amenity": "bench"
      }
    },
    {
      "type": "node",
      "id": 3441572041,
      "lat": 50.4678893,
      "lon": 5.8150728,
      "tags": {
        "amenity": "bench"
      }
    },
    {
      "type": "node",
      "id": 3441572050,
      "lat": 50.4689132,
      "lon": 5.8177796,
      "tags": {
        "amenity": "bench"
      }
    },
    {
      "type": "node",
      "id": 3441572244,
      "lat": 50.4798073,
      "lon": 5.8190282,
      "tags": {
        "amenity": "bench"
      }
    },
    {
      "type": "node",
      "id": 3470072543,
      "lat": 50.4793121,
      "lon": 5.8823085,
      "tags": {
        "amenity": "bench"
      }
    },
    {
      "type": "node",
      "id": 3470072582,
      "lat": 50.4822021,
      "lon": 5.8806381,
      "tags": {
        "amenity": "bench"
      }
    },
    {
      "type": "node",
      "id": 3470072627,
      "lat": 50.4851767,
      "lon": 5.8689512,
      "tags": {
        "amenity": "bench"
      }
    },
    {
      "type": "node",
      "id": 3471670668,
      "lat": 50.4793494,
      "lon": 5.8742252,
      "tags": {
        "amenity": "bench"
      }
    },
    {
      "type": "node",
      "id": 3473618766,
      "lat": 50.4978852,
      "lon": 5.8585579,
      "tags": {
        "amenity": "bench"
      }
    },
    {
      "type": "node",
      "id": 3473618771,
      "lat": 50.4983789,
      "lon": 5.8617952,
      "tags": {
        "leisure": "picnic_table"
      }
    },
    {
      "type": "node",
      "id": 3473618776,
      "lat": 50.5031481,
      "lon": 5.8601936,
      "tags": {
        "amenity": "bench"
      }
    },
    {
      "type": "node",
      "id": 3479554465,
      "lat": 50.4576512,
      "lon": 5.8880725,
      "tags": {
        "amenity": "bench"
      }
    },
    {
      "type": "node",
      "id": 3479554600,
      "lat": 50.4592319,
      "lon": 5.8825859,
      "tags": {
        "leisure": "picnic_table"
      }
    },
    {
      "type": "node",
      "id": 3479554602,
      "lat": 50.4592923,
      "lon": 5.8825303,
      "tags": {
        "leisure": "picnic_table"
      }
    },
    {
      "type": "node",
      "id": 3479554605,
      "lat": 50.4594485,
      "lon": 5.8828057,
      "tags": {
        "leisure": "picnic_table"
      }
    },
    {
      "type": "node",
      "id": 3479554606,
      "lat": 50.4594986,
      "lon": 5.8826877,
      "tags": {
        "leisure": "picnic_table"
      }
    },
    {
      "type": "node",
      "id": 3479554607,
      "lat": 50.4595163,
      "lon": 5.8824632,
      "tags": {
        "leisure": "picnic_table"
      }
    },
    {
      "type": "node",
      "id": 3479554608,
      "lat": 50.459584,
      "lon": 5.8823892,
      "tags": {
        "leisure": "picnic_table"
      }
    },
    {
      "type": "node",
      "id": 3479554618,
      "lat": 50.4598917,
      "lon": 5.8827666,
      "tags": {
        "amenity": "bench",
        "backrest": "yes",
        "material": "wood"
      }
    },
    {
      "type": "node",
      "id": 3479554620,
      "lat": 50.4599344,
      "lon": 5.882843,
      "tags": {
        "amenity": "bench",
        "backrest": "yes",
        "material": "wood"
      }
    },
    {
      "type": "node",
      "id": 3479554623,
      "lat": 50.460126,
      "lon": 5.8830883,
      "tags": {
        "amenity": "bench",
        "backrest": "yes",
        "material": "wood"
      }
    },
    {
      "type": "node",
      "id": 3479554658,
      "lat": 50.4622928,
      "lon": 5.8764231,
      "tags": {
        "amenity": "bench"
      }
    },
    {
      "type": "node",
      "id": 3479554713,
      "lat": 50.4665853,
      "lon": 5.862676,
      "tags": {
        "amenity": "bench"
      }
    },
    {
      "type": "node",
      "id": 3479554845,
      "lat": 50.4937834,
      "lon": 5.8461236,
      "tags": {
        "amenity": "bench"
      }
    },
    {
      "type": "node",
      "id": 3479554854,
      "lat": 50.4939375,
      "lon": 5.8473704,
      "tags": {
        "amenity": "bench",
        "backrest": "yes",
        "material": "wood"
      }
    },
    {
      "type": "node",
      "id": 3493669390,
      "lat": 50.4894126,
      "lon": 5.8090806,
      "tags": {
        "amenity": "bench"
      }
    },
    {
      "type": "node",
      "id": 3493669391,
      "lat": 50.4894532,
      "lon": 5.8087816,
      "tags": {
        "amenity": "bench"
      }
    },
    {
      "type": "node",
      "id": 3539135192,
      "lat": 50.5077377,
      "lon": 5.8270217,
      "tags": {
        "amenity": "bench"
      }
    },
    {
      "type": "node",
      "id": 3623843821,
      "lat": 50.457949,
      "lon": 5.8810822,
      "tags": {
        "amenity": "bench"
      }
    },
    {
      "type": "node",
      "id": 3623843829,
      "lat": 50.4581753,
      "lon": 5.8811095,
      "tags": {
        "amenity": "bench"
      }
    },
    {
      "type": "node",
      "id": 3623843847,
      "lat": 50.4659528,
      "lon": 5.8824054,
      "tags": {
        "amenity": "bench"
      }
    },
    {
      "type": "node",
      "id": 3740563286,
      "lat": 50.4940184,
      "lon": 5.8731821,
      "tags": {
        "amenity": "bench"
      }
    },
    {
      "type": "node",
      "id": 3740563326,
      "lat": 50.4965497,
      "lon": 5.87437,
      "tags": {
        "leisure": "picnic_table"
      }
    },
    {
      "type": "node",
      "id": 3791546472,
      "lat": 50.5019252,
      "lon": 5.866992,
      "tags": {
        "information": "board",
        "tourism": "information"
      }
    },
    {
      "type": "node",
      "id": 3936304273,
      "lat": 50.4606786,
      "lon": 5.8829654,
      "tags": {
        "leisure": "picnic_table"
      }
    },
    {
      "type": "node",
      "id": 3978447210,
      "lat": 50.4919102,
      "lon": 5.8475874,
      "tags": {
        "amenity": "bench"
      }
    },
    {
      "type": "node",
      "id": 3978447224,
      "lat": 50.4926599,
      "lon": 5.8434673,
      "tags": {
        "amenity": "bench"
      }
    },
    {
      "type": "node",
      "id": 3978447239,
      "lat": 50.4934216,
      "lon": 5.8516439,
      "tags": {
        "amenity": "bench"
      }
    },
    {
      "type": "node",
      "id": 3978447383,
      "lat": 50.4949257,
      "lon": 5.8587134,
      "tags": {
        "leisure": "picnic_table"
      }
    },
    {
      "type": "node",
      "id": 4340074116,
      "lat": 50.4757685,
      "lon": 5.8174905,
      "tags": {
        "amenity": "bench"
      }
    },
    {
      "type": "node",
      "id": 4348951577,
      "lat": 50.5103709,
      "lon": 5.8546015,
      "tags": {
        "information": "board",
        "tourism": "information"
      }
    },
    {
      "type": "node",
      "id": 4743722220,
      "lat": 50.4575642,
      "lon": 5.8685599,
      "tags": {
        "leisure": "picnic_table"
      }
    },
    {
      "type": "node",
      "id": 4743724722,
      "lat": 50.4591093,
      "lon": 5.8663424,
      "tags": {
        "amenity": "bench"
      }
    },
    {
      "type": "node",
      "id": 6783719685,
      "lat": 50.5065308,
      "lon": 5.8368953,
      "tags": {
        "amenity": "bench"
      }
    },
    {
      "type": "node",
      "id": 6791325866,
      "lat": 50.4938519,
      "lon": 5.8581995,
      "tags": {
        "amenity": "bench"
      }
    },
    {
      "type": "node",
      "id": 6791330364,
      "lat": 50.4943641,
      "lon": 5.8608529,
      "tags": {
        "amenity": "bench",
        "backrest": "yes"
      }
    },
    {
      "type": "node",
      "id": 6791333664,
      "lat": 50.47483,
      "lon": 5.8626365,
      "tags": {
        "amenity": "parking"
      }
    },
    {
      "type": "node",
      "id": 6791335092,
      "lat": 50.4943147,
      "lon": 5.8607021,
      "tags": {
        "amenity": "bench"
      }
    },
    {
      "type": "node",
      "id": 6791341625,
      "lat": 50.49364,
      "lon": 5.8646277,
      "tags": {
        "amenity": "bench"
      }
    },
    {
      "type": "node",
      "id": 7003980077,
      "lat": 50.4938882,
      "lon": 5.8592771,
      "tags": {
        "access": "yes",
        "amenity": "drinking_water",
        "description": "Pouhon du Parc de 7-Heures 1758",
        "historic": "yes",
        "image": "https://images.mapillary.com/e3GxHrJahuaIXLelVIqsAr/thumb-2048.jpg",
        "mapillary": "https://www.mapillary.com/map/im/e3GxHrJahuaIXLelVIqsAr",
        "name": "Aux Createurs",
        "operator": "City of Spa",
        "tourism": "attraction",
        "wheelchair": "yes"
      }
    },
    {
      "type": "node",
      "id": 7004104876,
      "lat": 50.4587962,
      "lon": 5.8837921,
      "tags": {
        "information": "board",
        "name": "LIFE Tourbières de Wallonie",
        "tourism": "information"
      }
    },
    {
      "type": "node",
      "id": 7253288757,
      "lat": 50.4934125,
      "lon": 5.8671753,
      "tags": {
        "amenity": "bench",
        "source": "survey"
      }
    },
    {
      "type": "node",
      "id": 7253288759,
      "lat": 50.4933381,
      "lon": 5.8671884,
      "tags": {
        "amenity": "bench",
        "source": "survey"
      }
    },
    {
      "type": "node",
      "id": 7253288761,
      "lat": 50.4920001,
      "lon": 5.8652374,
      "tags": {
        "amenity": "bench",
        "source": "survey"
      }
    },
    {
      "type": "node",
      "id": 7253288762,
      "lat": 50.4920009,
      "lon": 5.8650564,
      "tags": {
        "amenity": "bench",
        "source": "survey"
      }
    },
    {
      "type": "node",
      "id": 7253288763,
      "lat": 50.4921182,
      "lon": 5.8652354,
      "tags": {
        "amenity": "bench",
        "source": "survey"
      }
    },
    {
      "type": "node",
      "id": 7253288764,
      "lat": 50.4921195,
      "lon": 5.8650523,
      "tags": {
        "amenity": "bench",
        "source": "survey"
      }
    },
    {
      "type": "node",
      "id": 8010822115,
      "lat": 50.4882504,
      "lon": 5.8457501,
      "tags": {
        "amenity": "bench",
        "image": "https://images.mapillary.com/UVmaUkd2JSBBiYTRyNzrho/thumb-2048.jpg",
        "mapillary": "https://www.mapillary.com/map/im/UVmaUkd2JSBBiYTRyNzrho"
      }
    },
    {
      "type": "node",
      "id": 8010981299,
      "lat": 50.4938268,
      "lon": 5.859253,
      "tags": {
        "image": "https://images.mapillary.com/oKjohiMcTBY88IC5hyRS3N/thumb-2048.jpg",
        "information": "board",
        "mapillary": "https://www.mapillary.com/map/im/oKjohiMcTBY88IC5hyRS3N",
        "name": "Monument des créateurs de promenades",
        "tourism": "information"
      }
    },
    {
      "type": "node",
      "id": 8011255049,
      "lat": 50.4933882,
      "lon": 5.8617163,
      "tags": {
        "image": "https://images.mapillary.com/3SKZH1VTdnPpt7xzY2pDzV/thumb-2048.jpg",
        "information": "board",
        "mapillary": "https://www.mapillary.com/map/im/3SKZH1VTdnPpt7xzY2pDzV",
        "name": "Mini-Golf",
        "tourism": "information"
      }
    },
    {
      "type": "node",
      "id": 8011255051,
      "lat": 50.4933093,
      "lon": 5.8624981,
      "tags": {
        "image": "https://images.mapillary.com/C6dA6PZ7Zqg3kFIhsXuHa8/thumb-2048.jpg",
        "information": "board",
        "mapillary": "https://www.mapillary.com/map/im/C6dA6PZ7Zqg3kFIhsXuHa8",
        "name": "Glacière du Chalet du Parc",
        "tourism": "information"
      }
    },
    {
      "type": "node",
      "id": 8011255072,
      "lat": 50.4930392,
      "lon": 5.8625796,
      "tags": {
        "amenity": "drinking_water",
        "image": "https://images.mapillary.com/42dXK42Dsr9LI9ixlDHWos/thumb-2048.jpg",
        "mapillary": "https://www.mapillary.com/map/im/42dXK42Dsr9LI9ixlDHWos"
      }
    },
    {
      "type": "node",
      "id": 8011255073,
      "lat": 50.4930199,
      "lon": 5.8627783,
      "tags": {
        "image": "https://images.mapillary.com/QmbKjJjDYMex1Epznr0NZa/thumb-2048.jpg",
        "information": "board",
        "mapillary": "https://www.mapillary.com/map/im/QmbKjJjDYMex1Epznr0NZa",
        "tourism": "information"
      }
    },
    {
      "type": "node",
      "id": 8011255074,
      "lat": 50.4928583,
      "lon": 5.8625587,
      "tags": {
        "image": "https://images.mapillary.com/0Fmc9HsPQlvjdEoEhANIAg/thumb-2048.jpg",
        "information": "board",
        "mapillary": "https://www.mapillary.com/map/im/0Fmc9HsPQlvjdEoEhANIAg",
        "name": "Parc de Sept-Heures",
        "tourism": "information"
      }
    },
    {
      "type": "node",
      "id": 8012563007,
      "lat": 50.4924698,
      "lon": 5.8639913,
      "tags": {
        "image": "https://images.mapillary.com/qa60G8xmpBMrkYEmnBTfay/thumb-2048.jpg",
        "information": "board",
        "mapillary": "https://www.mapillary.com/map/im/qa60G8xmpBMrkYEmnBTfay",
        "name": "Station Météo",
        "tourism": "information"
      }
    },
    {
      "type": "node",
      "id": 8012563902,
      "lat": 50.4921636,
      "lon": 5.8651194,
      "tags": {
        "image": "https://images.mapillary.com/w2ZyNgZXp4NUfIDi8E1Q5A/thumb-2048.jpg",
        "information": "board",
        "mapillary": "https://www.mapillary.com/map/im/w2ZyNgZXp4NUfIDi8E1Q5A",
        "name": "Fontaine du Casino",
        "tourism": "information"
      }
    },
    {
      "type": "node",
      "id": 8013524585,
      "lat": 50.4933769,
      "lon": 5.8671161,
      "tags": {
        "artwork_type": "vase",
        "image": "https://images.mapillary.com/OgDZXhCf8k9kcW65r0QfSM/thumb-2048.jpg",
        "information": "board",
        "mapillary": "https://www.mapillary.com/map/im/OgDZXhCf8k9kcW65r0QfSM",
        "name": "Perron",
        "tourism": "information"
      }
    },
    {
      "type": "node",
      "id": 8014012433,
      "lat": 50.4923253,
      "lon": 5.8673661,
      "tags": {
        "artwork_type": "vase",
        "image": "https://images.mapillary.com/QIeGaQLadADRyCxE6ngZSi/thumb-2048.jpg",
        "information": "board",
        "mapillary": "https://www.mapillary.com/map/im/QIeGaQLadADRyCxE6ngZSi",
        "name": "Spa Authenti City",
        "tourism": "information"
      }
    },
    {
      "type": "node",
      "id": 8014154727,
      "lat": 50.4910603,
      "lon": 5.8667516,
      "tags": {
        "image": "https://images.mapillary.com/VkJQNEHI73n3HcywMCynSs/thumb-2048.jpg",
        "information": "board",
        "mapillary": "https://www.mapillary.com/map/im/VkJQNEHI73n3HcywMCynSs",
        "name": "Spa",
        "tourism": "information"
      }
    },
    {
      "type": "node",
      "id": 8014154728,
      "lat": 50.4911269,
      "lon": 5.8715406,
      "tags": {
        "image": "https://images.mapillary.com/tOS34T0iTAT3LBQ6oo3PDR/thumb-2048.jpg",
        "information": "board",
        "mapillary": "https://www.mapillary.com/map/im/tOS34T0iTAT3LBQ6oo3PDR",
        "name": "Spa Authnyi City",
        "tourism": "information"
      }
    },
    {
      "type": "node",
      "id": 8014154739,
      "lat": 50.4908063,
      "lon": 5.8720453,
      "tags": {
        "image": "https://images.mapillary.com/X7IykAsvFk2UprJrj3tM4i/thumb-2048.jpg",
        "information": "board",
        "mapillary": "https://www.mapillary.com/map/im/X7IykAsvFk2UprJrj3tM4i",
        "name": "Parc de I'Ancien Temple Anglican",
        "tourism": "information"
      }
    },
    {
      "type": "node",
      "id": 8377815620,
      "lat": 50.4902804,
      "lon": 5.8629708,
      "tags": {
        "amenity": "bench",
        "survey:date": "2020-11-10"
      }
    },
    {
      "type": "node",
      "id": 8512345992,
      "lat": 50.4983087,
      "lon": 5.8616342,
      "tags": {
        "information": "board",
        "tourism": "information"
      }
    },
    {
      "type": "node",
      "id": 8512394915,
      "lat": 50.4936365,
      "lon": 5.8646526,
      "tags": {
        "leisure": "picnic_table"
      }
    },
    {
      "type": "node",
      "id": 8836444232,
      "lat": 50.4893209,
      "lon": 5.8414001,
      "tags": {
        "information": "board",
        "tourism": "information"
      }
    },
    {
      "type": "node",
      "id": 8958135383,
      "lat": 50.4927186,
      "lon": 5.862132,
      "tags": {
        "access": "yes",
        "amenity": "toilets",
        "toilets:disposal": "flush"
      }
    },
    {
      "type": "way",
      "id": 28429156,
      "nodes": [
        3473618752,
        1036000277,
        9129721231,
        1036000224,
        9129721233,
        9129721232,
        3466581135,
        1036000253,
        1036000244,
        1036000171,
        312353459,
        1036000208,
        1036000178,
        1036000407,
        1036000369,
        1036000289,
        9129721234,
        1036000183,
        1036000399,
        1036000202,
        1036000272,
        1036000234,
        1036000349,
        3473618752
      ],
      "tags": {
        "amenity": "parking"
      }
    },
    {
      "type": "way",
      "id": 48709699,
      "nodes": [
        618374716,
        618374789,
        618374805,
        618374799,
        618374742,
        618374737,
        618374733,
        633480960,
        1036070513,
        618374716
      ],
      "tags": {
        "access": "yes",
        "amenity": "parking"
      }
    },
    {
      "type": "way",
      "id": 48709711,
      "nodes": [
        1036107002,
        8014012461,
        618375104,
        618375113,
        618375124,
        619884279,
        540134731,
        1036107002
      ],
      "tags": {
        "amenity": "parking"
      }
    },
    {
      "type": "way",
      "id": 48859273,
      "nodes": [
        619884254,
        7871849090,
        619884260,
        619884259,
        619884257,
        619884256,
        619884255,
        619884254
      ],
      "tags": {
        "amenity": "parking"
      }
    },
    {
      "type": "way",
      "id": 48859289,
      "nodes": [
        1036211514,
        1036211465,
        1036211586,
        1036211637,
        1036211514
      ],
      "tags": {
        "amenity": "parking"
      }
    },
    {
      "type": "way",
      "id": 49051852,
      "nodes": [
        622410188,
        622410192,
        622410196,
        622410199,
        1036269697,
        1036269733,
        622410188
      ],
      "tags": {
        "amenity": "parking"
      }
    },
    {
      "type": "way",
      "id": 89313032,
      "nodes": [
        1036238603,
        9129721280,
        9129721286,
        9129721285,
        1036238612,
        1036238500,
        1036238458,
        1036238528,
        1036238568,
        1036238478,
        3792388887,
        1036238575,
        3792388886,
        1036238492,
        9129721284,
        1036238603
      ],
      "tags": {
        "amenity": "parking",
        "parking": "surface"
      }
    },
    {
      "type": "way",
      "id": 89313038,
      "nodes": [
        1036238594,
        1036238536,
        1036238472,
        1036238493,
        1036238594
      ],
      "tags": {
        "amenity": "parking",
        "parking": "surface"
      }
    },
    {
      "type": "way",
      "id": 89320533,
      "nodes": [
        1036269772,
        1036269766,
        1036269704,
        1036269725,
        1036269772
      ],
      "tags": {
        "amenity": "parking",
        "parking": "surface"
      }
    },
    {
      "type": "way",
      "id": 89340633,
      "nodes": [
        1036369446,
        1036369353,
        1036369323,
        1036369298,
        1036369452,
        1036369424,
        1036369404,
        1036369446
      ],
      "tags": {
        "amenity": "parking",
        "parking": "surface"
      }
    },
    {
      "type": "way",
      "id": 89340635,
      "nodes": [
        1036369347,
        1036369371,
        1036369357,
        1036369339,
        3967870248,
        3967870249,
        1036369347
      ],
      "tags": {
        "access": "yes",
        "amenity": "parking",
        "parking": "surface"
      }
    },
    {
      "type": "way",
      "id": 89340638,
      "nodes": [
        1036369367,
        1036369435,
        1036369414,
        1036369390,
        1036369329,
        1036369303,
        1036369490,
        1036369482,
        1036369380,
        1036369363,
        1036369367
      ],
      "tags": {
        "access": "yes",
        "amenity": "parking",
        "parking": "surface"
      }
    },
    {
      "type": "way",
      "id": 96358872,
      "nodes": [
        4741703079,
        4741703067,
        1116724339,
        1116724281,
        1116724313,
        1116724308,
        1116724249,
        4741703102,
        4741703126,
        4741703134,
        4741703144,
        4741703106,
        1116724246,
        4741703085,
        4741703082,
        4741703079
      ],
      "tags": {
        "amenity": "parking"
      }
    },
    {
      "type": "way",
      "id": 107101165,
      "nodes": [
        1231337761,
        1231338053,
        1231337757,
        1231337917,
        1231337915,
        1231337893,
        1231338058,
        1231337974,
        1231337844,
        1231337814,
        1231337761
      ],
      "tags": {
        "amenity": "parking"
      }
    },
    {
      "type": "way",
      "id": 107683714,
      "nodes": [
        1237101777,
        1237103076,
        1237101682,
        1237101721,
        1237101764,
        1237101786,
        1237101772,
        1237101663,
        1237101699,
        1237101740,
        1237101672,
        1237101619,
        1237101777
      ],
      "tags": {
        "amenity": "parking"
      }
    },
    {
      "type": "way",
      "id": 107683800,
      "nodes": [
        1237103076,
        1237103055,
        1237101777,
        1237103059,
        1237089495,
        1237089530,
        1237089541,
        1237089544,
        1237089533,
        1237103056,
        1237103071,
        1237103062,
        1237103076
      ],
      "tags": {
        "amenity": "parking"
      }
    },
    {
      "type": "way",
      "id": 107824670,
      "nodes": [
        1238497007,
        1238497016,
        1238496972,
        1238496985,
        1238497007
      ],
      "tags": {
        "amenity": "parking"
      }
    },
    {
      "type": "way",
      "id": 107855220,
      "nodes": [
        1238722061,
        8012563018,
        1238473826,
        8012563027,
        1238722092,
        1238722061
      ],
      "tags": {
        "amenity": "parking"
      }
    },
    {
      "type": "way",
      "id": 133395568,
      "nodes": [
        1468399031,
        1468399033,
        1468399039,
        6578688322,
        1468399041,
        1468399040,
        1468399038,
        1468399036,
        1468399037,
        1468399032,
        6578688306,
        6833084559,
        1479132948,
        1479132937,
        1468399031
      ],
      "tags": {
        "amenity": "parking",
        "capacity:disabled": "yes",
        "fee": "no",
        "park_ride": "no",
        "parking": "surface"
      }
    },
    {
      "type": "way",
      "id": 139881430,
      "nodes": [
        1532859700,
        1944458226,
        1532859682,
        4081125398,
        1532859692,
        4081125391,
        1532859700
      ],
      "tags": {
        "amenity": "parking"
      }
    },
    {
      "type": "way",
      "id": 206826915,
      "nodes": [
        1036258655,
        2168743493,
        5351629065,
        2168743494,
        2168741861,
        2168741864,
        269317909,
        312353468,
        1036258646,
        1036258655
      ],
      "tags": {
        "amenity": "parking",
        "parking": "surface"
      }
    },
    {
      "type": "way",
      "id": 228013703,
      "nodes": [
        2366411889,
        2366411885,
        2366411887,
        6833085152,
        2366411891,
        2366411889
      ],
      "tags": {
        "amenity": "parking",
        "name": "Géronstère",
        "parking": "surface"
      }
    },
    {
      "type": "way",
      "id": 261847496,
      "nodes": [
        2674710505,
        2674710508,
        2674710510,
        2674710506,
        2674710509,
        2674710511,
        7467224776,
        2674710507,
        2674710503,
        3944212829,
        2674710500,
        2674710496,
        2674710472,
        2674710465,
        7467224775,
        7467224774,
        2674710499,
        3944212816,
        3944212815,
        2990978084,
        4223399751,
        4223399752,
        4223399753,
        2990978083,
        2674710505
      ],
      "tags": {
        "amenity": "parking"
      }
    },
    {
      "type": "way",
      "id": 348391492,
      "nodes": [
        2689915749,
        2689915756,
        3545199406,
        2689915763,
        2689915761,
        3545199400,
        2689915749
      ],
      "tags": {
        "amenity": "parking"
      }
    },
    {
      "type": "way",
      "id": 367465147,
      "nodes": [
        3713851619,
        3713851613,
        3713851614,
        3713851618,
        3713851621,
        3713851619
      ],
      "tags": {
        "amenity": "parking",
        "name": "L'Eaudyssée de Spa"
      }
    },
    {
      "type": "way",
      "id": 390134728,
      "nodes": [
        3932963354,
        3932963355,
        3932963356,
        3932963357,
        3932963354
      ],
      "tags": {
        "amenity": "parking"
      }
    },
    {
      "type": "way",
      "id": 390134729,
      "nodes": [
        3932963358,
        3932963359,
        3932963360,
        3932963361,
        7871849092,
        7871849091,
        7871849095,
        7871849093,
        7871849094,
        3932963358
      ],
      "tags": {
        "amenity": "parking"
      }
    },
    {
      "type": "way",
      "id": 390391864,
      "nodes": [
        3935564282,
        7886498288,
        7886498287,
        7886498285,
        7886498286,
        3935564283,
        7886498290,
        7886498289,
        3935564284,
        3935564285,
        3935564282
      ],
      "tags": {
        "amenity": "parking"
      }
    },
    {
      "type": "way",
      "id": 392928928,
      "nodes": [
        3961199823,
        3961199824,
        3961199825,
        3961199826,
        3961199823
      ],
      "tags": {
        "amenity": "parking"
      }
    },
    {
      "type": "way",
      "id": 394311251,
      "nodes": [
        3973271801,
        3973271802,
        3973271803,
        3973271804,
        3973271801
      ],
      "tags": {
        "access": "customers",
        "amenity": "parking"
      }
    },
    {
      "type": "way",
      "id": 419170291,
      "nodes": [
        4193015507,
        4193015508,
        4193015509,
        4193015510,
        4193015511,
        4193015507
      ],
      "tags": {
        "amenity": "parking"
      }
    },
    {
      "type": "way",
      "id": 422593624,
      "nodes": [
        4223399720,
        4223399721,
        4223399722,
        7467239626,
        7467239625,
        4223399723,
        4223399724,
        4223399725,
        4223399720
      ],
      "tags": {
        "amenity": "parking"
      }
    },
    {
      "type": "way",
      "id": 662079769,
      "nodes": [
        6198498269,
        6198498268,
        6198498267,
        6198498266,
        6198498269
      ],
      "tags": {
        "access": "permissive",
        "amenity": "parking",
        "capacity": "3",
        "capacity:disabled": "3",
        "name": "Parking for disabled",
        "parking": "surface",
        "source": "20cm-near PICC http://geoportail.wallonie.be 2018"
      }
    },
    {
      "type": "way",
      "id": 697924613,
      "nodes": [
        6554534003,
        6567754206,
        9120658322,
        6554534004,
        6554534005,
        6567754204,
        6554534007,
        6554534003
      ],
      "tags": {
        "amenity": "parking",
        "parking": "surface"
      }
    },
    {
      "type": "way",
      "id": 697924615,
      "nodes": [
        6554534028,
        6554534020,
        6554534021,
        6554534022,
        6554534023,
        6554534024,
        6554534025,
        6567754208,
        6554534026,
        6554534028
      ],
      "tags": {
        "amenity": "parking"
      }
    },
    {
      "type": "way",
      "id": 697924616,
      "nodes": [
        6554534035,
        9120658337,
        331915522,
        6567754201,
        6554534006,
        6554534034,
        9120658356,
        331915523,
        6554534037,
        6554534036,
        6554534035
      ],
      "tags": {
        "amenity": "parking"
      }
    },
    {
      "type": "way",
      "id": 697924617,
      "nodes": [
        6554534039,
        6554534040,
        6554534042,
        6554534044,
        6554534045,
        2686983303,
        1771719025,
        1771718918,
        6554534039
      ],
      "tags": {
        "amenity": "parking"
      }
    },
    {
      "type": "way",
      "id": 798373455,
      "nodes": [
        7467239586,
        7467239585,
        7467224784,
        7467224783,
        7467239586
      ],
      "tags": {
        "amenity": "parking"
      }
    },
    {
      "type": "way",
      "id": 798373456,
      "nodes": [
        7467239590,
        7467239589,
        7467239588,
        7467239587,
        7467239590
      ],
      "tags": {
        "amenity": "parking"
      }
    },
    {
      "type": "way",
      "id": 798373457,
      "nodes": [
        7467239597,
        7467239596,
        7467239595,
        7467239594,
        7467239593,
        7467239592,
        7467239591,
        7467239597
      ],
      "tags": {
        "amenity": "parking"
      }
    },
    {
      "type": "way",
      "id": 808029257,
      "nodes": [
        7556050976,
        7556050977,
        7556050978,
        7556050979,
        7556050976
      ],
      "tags": {
        "amenity": "parking"
      }
    },
    {
      "type": "way",
      "id": 843959252,
      "nodes": [
        7872704720,
        7872704719,
        7872704718,
        7872704717,
        7872704720
      ],
      "tags": {
        "amenity": "parking"
      }
    },
    {
      "type": "way",
      "id": 844168451,
      "nodes": [
        7874696683,
        7874696682,
        7874696681,
        7874696680,
        7874696683
      ],
      "tags": {
        "amenity": "parking"
      }
    },
    {
      "type": "way",
      "id": 844168453,
      "nodes": [
        7874707194,
        7874707193,
        7874707192,
        7874707191,
        7874707190,
        7874707189,
        7874707188,
        7874707194
      ],
      "tags": {
        "amenity": "parking"
      }
    },
    {
      "type": "way",
      "id": 844549182,
      "nodes": [
        7878396606,
        7878396605,
        7878396604,
        7878396603,
        7878396606
      ],
      "tags": {
        "amenity": "parking"
      }
    },
    {
      "type": "way",
      "id": 845305054,
      "nodes": [
        7886479579,
        7886479578,
        7886479577,
        7886479576,
        7886479575,
        7886479574,
        7886479573,
        7886479572,
        7886479571,
        7886479570,
        7886479579
      ],
      "tags": {
        "amenity": "parking"
      }
    },
    {
      "type": "way",
      "id": 845305055,
      "nodes": [
        7886479584,
        7886479583,
        7886479582,
        7886479581,
        7886479580,
        7886479584
      ],
      "tags": {
        "amenity": "parking"
      }
    },
    {
      "type": "way",
      "id": 845305059,
      "nodes": [
        7886498309,
        7886498308,
        7886498307,
        7886498306,
        7886498305,
        7886498304,
        7886498303,
        7886498309
      ],
      "tags": {
        "amenity": "parking"
      }
    },
    {
      "type": "way",
      "id": 845345365,
      "nodes": [
        7886856696,
        7886856695,
        7886856694,
        7886856693,
        7886856696
      ],
      "tags": {
        "amenity": "parking"
      }
    },
    {
      "type": "way",
      "id": 845345369,
      "nodes": [
        7886856709,
        7886856708,
        7886856707,
        7886856706,
        7886856709
      ],
      "tags": {
        "amenity": "parking"
      }
    },
    {
      "type": "way",
      "id": 845345370,
      "nodes": [
        7886856713,
        7886856712,
        7886856711,
        7886856710,
        7886856713
      ],
      "tags": {
        "amenity": "parking"
      }
    },
    {
      "type": "way",
      "id": 845345371,
      "nodes": [
        7886856720,
        7886856719,
        7886856718,
        7886856717,
        7886856716,
        7886856715,
        7886856714,
        7886856720
      ],
      "tags": {
        "amenity": "parking"
      }
    },
    {
      "type": "way",
      "id": 845376066,
      "nodes": [
        7887141283,
        7887141282,
        7887141281,
        7887141280,
        7887141283
      ],
      "tags": {
        "amenity": "parking"
      }
    },
    {
      "type": "way",
      "id": 845376067,
      "nodes": [
        7887158987,
        7887158986,
        7887158985,
        7887141284,
        7887158987
      ],
      "tags": {
        "amenity": "parking"
      }
    },
    {
      "type": "way",
      "id": 845376068,
      "nodes": [
        7887158994,
        7887158993,
        7887158992,
        7887158991,
        7887158990,
        7887158989,
        7887158988,
        7887158994
      ],
      "tags": {
        "amenity": "parking"
      }
    },
    {
      "type": "way",
      "id": 845619608,
      "nodes": [
        7889425415,
        7889425414,
        7889425413,
        7889425412,
        7889425415
      ],
      "tags": {
        "amenity": "parking"
      }
    },
    {
      "type": "way",
      "id": 845619611,
      "nodes": [
        7889425430,
        7889425429,
        7889425428,
        7889425427,
        7889425430
      ],
      "tags": {
        "amenity": "parking"
      }
    },
    {
      "type": "way",
      "id": 845785362,
      "nodes": [
        7890817824,
        7890817823,
        7890817822,
        7890817821,
        7890817820,
        7890817819,
        7890817818,
        7890817817,
        7890817816,
        7890817815,
        7890817824
      ],
      "tags": {
        "amenity": "parking"
      }
    },
    {
      "type": "way",
      "id": 845785363,
      "nodes": [
        7890817829,
        7890817828,
        7890817827,
        7890817826,
        7890817829
      ],
      "tags": {
        "amenity": "parking"
      }
    },
    {
      "type": "way",
      "id": 845954747,
      "nodes": [
        7892404162,
        7892404161,
        7892404160,
        7892404159,
        7892404135,
        7892404134,
        7892404158,
        7892404157,
        7892404156,
        7892404155,
        7892404154,
        7892404153,
        7892404152,
        7892404151,
        7892404150,
        7892404162
      ],
      "tags": {
        "amenity": "parking"
      }
    },
    {
      "type": "way",
      "id": 845954749,
      "nodes": [
        7892404183,
        7892404182,
        1244656512,
        7892404181,
        7892404180,
        7892404179,
        7892404183
      ],
      "tags": {
        "amenity": "parking"
      }
    },
    {
      "type": "way",
      "id": 845954750,
      "nodes": [
        7892404193,
        7892404192,
        7892404191,
        7892404190,
        7892404189,
        7892404188,
        7892404187,
        7892404186,
        7892404185,
        7892404184,
        7892404193
      ],
      "tags": {
        "amenity": "parking"
      }
    },
    {
      "type": "way",
      "id": 883274297,
      "nodes": [
        8214138213,
        8214138212,
        8214138211,
        8214138210,
        8214138209,
        8214138208,
        8214138207,
        8214138206,
        8214138205,
        8214138204,
        8214138213
      ],
      "tags": {
        "amenity": "parking"
      }
    },
    {
      "type": "way",
      "id": 894687305,
      "nodes": [
        6880937979,
        6880937978,
        6880937977,
        6880937976,
        6880937975,
        6880937970,
        6880937979
      ],
      "tags": {
        "amenity": "parking",
        "capacity": "15",
        "fee": "no",
        "surface": "asphalt"
      }
    },
    {
      "type": "way",
      "id": 914021981,
      "nodes": [
        8490535159,
        8490535160,
        8490535161,
        8490535162,
        8490535163,
        8490535164,
        8490535159
      ],
      "tags": {
        "amenity": "parking",
        "capacity": "20",
        "fee": "no",
        "parking": "surface"
      }
    },
    {
      "type": "way",
      "id": 986721708,
      "nodes": [
        9120658339,
        9120658340,
        9120658345,
        9120658344,
        9120658343,
        9120658342,
        9120658339
      ],
      "tags": {
        "amenity": "parking"
      }
    },
    {
      "type": "way",
      "id": 987718046,
      "nodes": [
        1036000272,
        312353456,
        3370804350,
        312353457,
        1036000261,
        3473618752,
        1036000349,
        1036000234,
        1036000272
      ],
      "tags": {
        "amenity": "parking",
        "psv": "yes"
      }
    },
    {
      "type": "way",
      "id": 987718054,
      "nodes": [
        9129721290,
        269317945,
        9129721314,
        3466580983,
        3539404495,
        269317944,
        3539404493,
        9129721295,
        9129721294,
        9129721293,
        9129721292,
        9129721291,
        9129721302,
        9129721301,
        9129721300,
        9129721288,
        9129721287,
        9129721290
      ],
      "tags": {
        "amenity": "parking"
      }
    },
    {
      "type": "node",
      "id": 880915233,
      "lat": 50.5096335,
      "lon": 5.8518881,
      "timestamp": "2014-09-05T20:01:42Z",
      "version": 2,
      "changeset": 25255819,
      "user": "StijnRR",
      "uid": 911613,
      "tags": {
        "amenity": "bench"
      }
    },
    {
      "type": "node",
      "id": 880917983,
      "lat": 50.5116114,
      "lon": 5.871904,
      "timestamp": "2014-09-07T20:32:43Z",
      "version": 2,
      "changeset": 25295024,
      "user": "StijnRR",
      "uid": 911613,
      "tags": {
        "amenity": "bench"
      }
    },
    {
      "type": "node",
      "id": 889052691,
      "lat": 50.5076973,
      "lon": 5.8524619,
      "timestamp": "2010-08-30T17:21:28Z",
      "version": 1,
      "changeset": 5638262,
      "user": "boskoyevsky",
      "uid": 117792,
      "tags": {
        "amenity": "bench"
      }
    },
    {
      "type": "node",
      "id": 907158213,
      "lat": 50.5033767,
      "lon": 5.8674717,
      "timestamp": "2015-04-23T17:44:07Z",
      "version": 3,
      "changeset": 30435499,
      "user": "StijnRR",
      "uid": 911613,
      "tags": {
        "leisure": "picnic_table"
      }
    },
    {
      "type": "node",
      "id": 1876048961,
      "lat": 50.4921618,
      "lon": 5.8561941,
      "timestamp": "2012-08-21T13:51:00Z",
      "version": 1,
      "changeset": 12808835,
      "user": "IMUSTBE",
      "uid": 821788,
      "tags": {
        "amenity": "parking",
        "name": "Parking 1"
      }
    },
    {
      "type": "node",
      "id": 2366411853,
      "lat": 50.4660243,
      "lon": 5.8713554,
      "timestamp": "2013-06-30T21:16:40Z",
      "version": 2,
      "changeset": 16770514,
      "user": "Eebie",
      "uid": 715684,
      "tags": {
        "board_type": "board",
        "information": "board",
        "name": "Source de la Géronstère",
        "tourism": "information"
      }
    },
    {
      "type": "node",
      "id": 2367837784,
      "lat": 50.4744732,
      "lon": 5.8627302,
      "timestamp": "2016-05-04T07:41:00Z",
      "version": 4,
      "changeset": 39089593,
      "user": "hesdrib",
      "uid": 2175149,
      "tags": {
        "addr:housenumber": "295",
        "addr:street": "Rue de Barisart",
        "amenity": "drinking_water",
        "name": "Source Barisart",
        "natural": "spring"
      }
    },
    {
      "type": "node",
      "id": 2462981279,
      "lat": 50.4600433,
      "lon": 5.8830999,
      "timestamp": "2015-04-26T18:57:33Z",
      "version": 2,
      "changeset": 30513870,
      "user": "StijnRR",
      "uid": 911613,
      "tags": {
        "amenity": "bench",
        "backrest": "yes",
        "material": "wood"
      }
    },
    {
      "type": "node",
      "id": 2462981286,
      "lat": 50.460777,
      "lon": 5.8830958,
      "timestamp": "2016-01-09T18:44:36Z",
      "version": 4,
      "changeset": 36468889,
      "user": "StijnRR",
      "uid": 911613,
      "tags": {
        "leisure": "picnic_table"
      }
    },
    {
      "type": "node",
      "id": 2462981291,
      "lat": 50.4670394,
      "lon": 5.8697472,
      "timestamp": "2021-09-01T13:37:37Z",
      "version": 2,
      "changeset": 110568641,
      "user": "SHARCRASH",
      "uid": 1808015,
      "tags": {
        "amenity": "bench"
      }
    },
    {
      "type": "node",
      "id": 2816673875,
      "lat": 50.4929911,
      "lon": 5.8628477,
      "timestamp": "2020-10-15T21:52:20Z",
      "version": 5,
      "changeset": 92545001,
      "user": "km2bp",
      "uid": 3610826,
      "tags": {
        "amenity": "drinking_water",
        "fee": "no",
        "image": "https://images.mapillary.com/EHB9lyBI4xpGKr2z5qwTzR/thumb-2048.jpg",
        "indoor": "no",
        "mapillary": "https://www.mapillary.com/map/im/EHB9lyBI4xpGKr2z5qwTzR",
        "name": "Pouhon aux Armes d'Autriche",
        "natural": "spring",
        "note": "this was placed here in 2014 (http://www.lavenir.net/cnt/DMF20140625_00495806)",
        "water_characteristic": "mineral"
      }
    },
    {
      "type": "node",
      "id": 2818805166,
      "lat": 50.4709288,
      "lon": 5.8770828,
      "timestamp": "2014-11-13T09:39:00Z",
      "version": 3,
      "changeset": 26752192,
      "user": "FrViPofm",
      "uid": 107257,
      "tags": {
        "amenity": "drinking_water",
        "name": "Pouhon Pia",
        "natural": "spring"
      }
    },
    {
      "type": "node",
      "id": 2928058107,
      "lat": 50.4785153,
      "lon": 5.8140867,
      "timestamp": "2014-06-22T19:49:59Z",
      "version": 1,
      "changeset": 23087849,
      "user": "StijnRR",
      "uid": 911613,
      "tags": {
        "amenity": "bench"
      }
    },
    {
      "type": "node",
      "id": 2928058127,
      "lat": 50.4814084,
      "lon": 5.8097299,
      "timestamp": "2014-06-22T19:50:00Z",
      "version": 1,
      "changeset": 23087849,
      "user": "StijnRR",
      "uid": 911613,
      "tags": {
        "amenity": "bench"
      }
    },
    {
      "type": "node",
      "id": 2928058194,
      "lat": 50.4887093,
      "lon": 5.8168349,
      "timestamp": "2014-06-22T19:50:01Z",
      "version": 1,
      "changeset": 23087849,
      "user": "StijnRR",
      "uid": 911613,
      "tags": {
        "amenity": "bench"
      }
    },
    {
      "type": "node",
      "id": 3065855880,
      "lat": 50.503139,
      "lon": 5.8738982,
      "timestamp": "2014-09-07T20:32:03Z",
      "version": 1,
      "changeset": 25295024,
      "user": "StijnRR",
      "uid": 911613,
      "tags": {
        "amenity": "bench"
      }
    },
    {
      "type": "node",
      "id": 3065855907,
      "lat": 50.507419,
      "lon": 5.8779277,
      "timestamp": "2014-09-07T20:32:04Z",
      "version": 1,
      "changeset": 25295024,
      "user": "StijnRR",
      "uid": 911613,
      "tags": {
        "amenity": "bench"
      }
    },
    {
      "type": "node",
      "id": 3370804113,
      "lat": 50.4746502,
      "lon": 5.8439809,
      "timestamp": "2015-02-24T20:19:51Z",
      "version": 1,
      "changeset": 29077434,
      "user": "StijnRR",
      "uid": 911613,
      "tags": {
        "amenity": "bench"
      }
    },
    {
      "type": "node",
      "id": 3370804186,
      "lat": 50.4891325,
      "lon": 5.8413012,
      "timestamp": "2015-02-24T20:19:52Z",
      "version": 1,
      "changeset": 29077434,
      "user": "StijnRR",
      "uid": 911613,
      "tags": {
        "amenity": "shelter",
        "leisure": "picnic_table"
      }
    },
    {
      "type": "node",
      "id": 3370804198,
      "lat": 50.4921074,
      "lon": 5.8510053,
      "timestamp": "2015-02-24T20:19:53Z",
      "version": 1,
      "changeset": 29077434,
      "user": "StijnRR",
      "uid": 911613,
      "tags": {
        "amenity": "bench"
      }
    },
    {
      "type": "node",
      "id": 3370804236,
      "lat": 50.4928254,
      "lon": 5.8544773,
      "timestamp": "2016-01-30T19:34:20Z",
      "version": 2,
      "changeset": 36904432,
      "user": "StijnRR",
      "uid": 911613,
      "tags": {
        "amenity": "bench",
        "note": "shelter is (temporarily?) removed"
      }
    },
    {
      "type": "node",
      "id": 3370804357,
      "lat": 50.4951594,
      "lon": 5.86926,
      "timestamp": "2015-02-24T20:19:55Z",
      "version": 1,
      "changeset": 29077434,
      "user": "StijnRR",
      "uid": 911613,
      "tags": {
        "amenity": "bench"
      }
    },
    {
      "type": "node",
      "id": 3441571874,
      "lat": 50.4623165,
      "lon": 5.813279,
      "timestamp": "2015-04-06T19:32:43Z",
      "version": 1,
      "changeset": 30024403,
      "user": "StijnRR",
      "uid": 911613,
      "tags": {
        "amenity": "bench"
      }
    },
    {
      "type": "node",
      "id": 3441572041,
      "lat": 50.4678893,
      "lon": 5.8150728,
      "timestamp": "2015-04-06T19:32:44Z",
      "version": 1,
      "changeset": 30024403,
      "user": "StijnRR",
      "uid": 911613,
      "tags": {
        "amenity": "bench"
      }
    },
    {
      "type": "node",
      "id": 3441572050,
      "lat": 50.4689132,
      "lon": 5.8177796,
      "timestamp": "2015-04-06T19:32:44Z",
      "version": 1,
      "changeset": 30024403,
      "user": "StijnRR",
      "uid": 911613,
      "tags": {
        "amenity": "bench"
      }
    },
    {
      "type": "node",
      "id": 3441572244,
      "lat": 50.4798073,
      "lon": 5.8190282,
      "timestamp": "2015-04-06T19:32:46Z",
      "version": 1,
      "changeset": 30024403,
      "user": "StijnRR",
      "uid": 911613,
      "tags": {
        "amenity": "bench"
      }
    },
    {
      "type": "node",
      "id": 3470072543,
      "lat": 50.4793121,
      "lon": 5.8823085,
      "timestamp": "2015-04-21T18:51:37Z",
      "version": 1,
      "changeset": 30387241,
      "user": "StijnRR",
      "uid": 911613,
      "tags": {
        "amenity": "bench"
      }
    },
    {
      "type": "node",
      "id": 3470072582,
      "lat": 50.4822021,
      "lon": 5.8806381,
      "timestamp": "2015-04-21T18:51:38Z",
      "version": 1,
      "changeset": 30387241,
      "user": "StijnRR",
      "uid": 911613,
      "tags": {
        "amenity": "bench"
      }
    },
    {
      "type": "node",
      "id": 3470072627,
      "lat": 50.4851767,
      "lon": 5.8689512,
      "timestamp": "2015-04-21T18:51:38Z",
      "version": 1,
      "changeset": 30387241,
      "user": "StijnRR",
      "uid": 911613,
      "tags": {
        "amenity": "bench"
      }
    },
    {
      "type": "node",
      "id": 3471670668,
      "lat": 50.4793494,
      "lon": 5.8742252,
      "timestamp": "2015-04-22T17:36:42Z",
      "version": 1,
      "changeset": 30410365,
      "user": "StijnRR",
      "uid": 911613,
      "tags": {
        "amenity": "bench"
      }
    },
    {
      "type": "node",
      "id": 3473618766,
      "lat": 50.4978852,
      "lon": 5.8585579,
      "timestamp": "2015-04-23T17:43:35Z",
      "version": 1,
      "changeset": 30435499,
      "user": "StijnRR",
      "uid": 911613,
      "tags": {
        "amenity": "bench"
      }
    },
    {
      "type": "node",
      "id": 3473618771,
      "lat": 50.4983789,
      "lon": 5.8617952,
      "timestamp": "2016-01-30T19:34:21Z",
      "version": 2,
      "changeset": 36904432,
      "user": "StijnRR",
      "uid": 911613,
      "tags": {
        "leisure": "picnic_table"
      }
    },
    {
      "type": "node",
      "id": 3473618776,
      "lat": 50.5031481,
      "lon": 5.8601936,
      "timestamp": "2015-04-23T17:43:35Z",
      "version": 1,
      "changeset": 30435499,
      "user": "StijnRR",
      "uid": 911613,
      "tags": {
        "amenity": "bench"
      }
    },
    {
      "type": "node",
      "id": 3479554465,
      "lat": 50.4576512,
      "lon": 5.8880725,
      "timestamp": "2015-04-26T18:56:19Z",
      "version": 1,
      "changeset": 30513870,
      "user": "StijnRR",
      "uid": 911613,
      "tags": {
        "amenity": "bench"
      }
    },
    {
      "type": "node",
      "id": 3479554600,
      "lat": 50.4592319,
      "lon": 5.8825859,
      "timestamp": "2015-04-26T18:56:22Z",
      "version": 1,
      "changeset": 30513870,
      "user": "StijnRR",
      "uid": 911613,
      "tags": {
        "leisure": "picnic_table"
      }
    },
    {
      "type": "node",
      "id": 3479554602,
      "lat": 50.4592923,
      "lon": 5.8825303,
      "timestamp": "2015-04-26T18:56:22Z",
      "version": 1,
      "changeset": 30513870,
      "user": "StijnRR",
      "uid": 911613,
      "tags": {
        "leisure": "picnic_table"
      }
    },
    {
      "type": "node",
      "id": 3479554605,
      "lat": 50.4594485,
      "lon": 5.8828057,
      "timestamp": "2015-04-26T18:56:22Z",
      "version": 1,
      "changeset": 30513870,
      "user": "StijnRR",
      "uid": 911613,
      "tags": {
        "leisure": "picnic_table"
      }
    },
    {
      "type": "node",
      "id": 3479554606,
      "lat": 50.4594986,
      "lon": 5.8826877,
      "timestamp": "2015-04-26T18:56:22Z",
      "version": 1,
      "changeset": 30513870,
      "user": "StijnRR",
      "uid": 911613,
      "tags": {
        "leisure": "picnic_table"
      }
    },
    {
      "type": "node",
      "id": 3479554607,
      "lat": 50.4595163,
      "lon": 5.8824632,
      "timestamp": "2015-04-26T18:56:22Z",
      "version": 1,
      "changeset": 30513870,
      "user": "StijnRR",
      "uid": 911613,
      "tags": {
        "leisure": "picnic_table"
      }
    },
    {
      "type": "node",
      "id": 3479554608,
      "lat": 50.459584,
      "lon": 5.8823892,
      "timestamp": "2015-04-26T18:56:22Z",
      "version": 1,
      "changeset": 30513870,
      "user": "StijnRR",
      "uid": 911613,
      "tags": {
        "leisure": "picnic_table"
      }
    },
    {
      "type": "node",
      "id": 3479554618,
      "lat": 50.4598917,
      "lon": 5.8827666,
      "timestamp": "2015-04-26T18:56:22Z",
      "version": 1,
      "changeset": 30513870,
      "user": "StijnRR",
      "uid": 911613,
      "tags": {
        "amenity": "bench",
        "backrest": "yes",
        "material": "wood"
      }
    },
    {
      "type": "node",
      "id": 3479554620,
      "lat": 50.4599344,
      "lon": 5.882843,
      "timestamp": "2015-04-26T18:56:22Z",
      "version": 1,
      "changeset": 30513870,
      "user": "StijnRR",
      "uid": 911613,
      "tags": {
        "amenity": "bench",
        "backrest": "yes",
        "material": "wood"
      }
    },
    {
      "type": "node",
      "id": 3479554623,
      "lat": 50.460126,
      "lon": 5.8830883,
      "timestamp": "2015-04-26T18:56:22Z",
      "version": 1,
      "changeset": 30513870,
      "user": "StijnRR",
      "uid": 911613,
      "tags": {
        "amenity": "bench",
        "backrest": "yes",
        "material": "wood"
      }
    },
    {
      "type": "node",
      "id": 3479554658,
      "lat": 50.4622928,
      "lon": 5.8764231,
      "timestamp": "2015-04-26T18:56:23Z",
      "version": 1,
      "changeset": 30513870,
      "user": "StijnRR",
      "uid": 911613,
      "tags": {
        "amenity": "bench"
      }
    },
    {
      "type": "node",
      "id": 3479554713,
      "lat": 50.4665853,
      "lon": 5.862676,
      "timestamp": "2015-04-26T18:56:24Z",
      "version": 1,
      "changeset": 30513870,
      "user": "StijnRR",
      "uid": 911613,
      "tags": {
        "amenity": "bench"
      }
    },
    {
      "type": "node",
      "id": 3479554845,
      "lat": 50.4937834,
      "lon": 5.8461236,
      "timestamp": "2015-04-26T18:56:26Z",
      "version": 1,
      "changeset": 30513870,
      "user": "StijnRR",
      "uid": 911613,
      "tags": {
        "amenity": "bench"
      }
    },
    {
      "type": "node",
      "id": 3479554854,
      "lat": 50.4939375,
      "lon": 5.8473704,
      "timestamp": "2021-03-13T02:01:52Z",
      "version": 2,
      "changeset": 100939380,
      "user": "Doc Géofan",
      "uid": 12793685,
      "tags": {
        "amenity": "bench",
        "backrest": "yes",
        "material": "wood"
      }
    },
    {
      "type": "node",
      "id": 3493669390,
      "lat": 50.4894126,
      "lon": 5.8090806,
      "timestamp": "2015-05-02T19:13:57Z",
      "version": 1,
      "changeset": 30729720,
      "user": "StijnRR",
      "uid": 911613,
      "tags": {
        "amenity": "bench"
      }
    },
    {
      "type": "node",
      "id": 3493669391,
      "lat": 50.4894532,
      "lon": 5.8087816,
      "timestamp": "2015-05-02T19:13:57Z",
      "version": 1,
      "changeset": 30729720,
      "user": "StijnRR",
      "uid": 911613,
      "tags": {
        "amenity": "bench"
      }
    },
    {
      "type": "node",
      "id": 3539135192,
      "lat": 50.5077377,
      "lon": 5.8270217,
      "timestamp": "2015-05-23T16:35:36Z",
      "version": 1,
      "changeset": 31401863,
      "user": "jeroenrozema74",
      "uid": 183483,
      "tags": {
        "amenity": "bench"
      }
    },
    {
      "type": "node",
      "id": 3623843821,
      "lat": 50.457949,
      "lon": 5.8810822,
      "timestamp": "2015-06-28T19:27:10Z",
      "version": 1,
      "changeset": 32269637,
      "user": "StijnRR",
      "uid": 911613,
      "tags": {
        "amenity": "bench"
      }
    },
    {
      "type": "node",
      "id": 3623843829,
      "lat": 50.4581753,
      "lon": 5.8811095,
      "timestamp": "2015-06-28T19:27:10Z",
      "version": 1,
      "changeset": 32269637,
      "user": "StijnRR",
      "uid": 911613,
      "tags": {
        "amenity": "bench"
      }
    },
    {
      "type": "node",
      "id": 3623843847,
      "lat": 50.4659528,
      "lon": 5.8824054,
      "timestamp": "2015-06-28T19:27:10Z",
      "version": 1,
      "changeset": 32269637,
      "user": "StijnRR",
      "uid": 911613,
      "tags": {
        "amenity": "bench"
      }
    },
    {
      "type": "node",
      "id": 3740563286,
      "lat": 50.4940184,
      "lon": 5.8731821,
      "timestamp": "2015-09-12T20:00:01Z",
      "version": 1,
      "changeset": 33987461,
      "user": "StijnRR",
      "uid": 911613,
      "tags": {
        "amenity": "bench"
      }
    },
    {
      "type": "node",
      "id": 3740563326,
      "lat": 50.4965497,
      "lon": 5.87437,
      "timestamp": "2015-09-12T20:00:02Z",
      "version": 1,
      "changeset": 33987461,
      "user": "StijnRR",
      "uid": 911613,
      "tags": {
        "leisure": "picnic_table"
      }
    },
    {
      "type": "node",
      "id": 3791546472,
      "lat": 50.5019252,
      "lon": 5.866992,
      "timestamp": "2015-10-18T16:19:58Z",
      "version": 1,
      "changeset": 34714634,
      "user": "boskoyevsky",
      "uid": 117792,
      "tags": {
        "information": "board",
        "tourism": "information"
      }
    },
    {
      "type": "node",
      "id": 3936304273,
      "lat": 50.4606786,
      "lon": 5.8829654,
      "timestamp": "2019-09-28T17:29:01Z",
      "version": 2,
      "changeset": 75045301,
      "user": "Frédéric Gutkin",
      "uid": 3221083,
      "tags": {
        "leisure": "picnic_table"
      }
    },
    {
      "type": "node",
      "id": 3978447210,
      "lat": 50.4919102,
      "lon": 5.8475874,
      "timestamp": "2016-01-30T19:33:51Z",
      "version": 1,
      "changeset": 36904432,
      "user": "StijnRR",
      "uid": 911613,
      "tags": {
        "amenity": "bench"
      }
    },
    {
      "type": "node",
      "id": 3978447224,
      "lat": 50.4926599,
      "lon": 5.8434673,
      "timestamp": "2016-01-30T19:33:52Z",
      "version": 1,
      "changeset": 36904432,
      "user": "StijnRR",
      "uid": 911613,
      "tags": {
        "amenity": "bench"
      }
    },
    {
      "type": "node",
      "id": 3978447239,
      "lat": 50.4934216,
      "lon": 5.8516439,
      "timestamp": "2016-01-30T19:33:52Z",
      "version": 1,
      "changeset": 36904432,
      "user": "StijnRR",
      "uid": 911613,
      "tags": {
        "amenity": "bench"
      }
    },
    {
      "type": "node",
      "id": 3978447383,
      "lat": 50.4949257,
      "lon": 5.8587134,
      "timestamp": "2016-01-30T19:33:53Z",
      "version": 1,
      "changeset": 36904432,
      "user": "StijnRR",
      "uid": 911613,
      "tags": {
        "leisure": "picnic_table"
      }
    },
    {
      "type": "node",
      "id": 4340074116,
      "lat": 50.4757685,
      "lon": 5.8174905,
      "timestamp": "2016-08-07T15:19:01Z",
      "version": 1,
      "changeset": 41306525,
      "user": "jeroenrozema74",
      "uid": 183483,
      "tags": {
        "amenity": "bench"
      }
    },
    {
      "type": "node",
      "id": 4348951577,
      "lat": 50.5103709,
      "lon": 5.8546015,
      "timestamp": "2016-08-13T19:16:53Z",
      "version": 1,
      "changeset": 41435025,
      "user": "StijnRR",
      "uid": 911613,
      "tags": {
        "information": "board",
        "tourism": "information"
      }
    },
    {
      "type": "node",
      "id": 4743722220,
      "lat": 50.4575642,
      "lon": 5.8685599,
      "timestamp": "2017-03-19T19:31:49Z",
      "version": 1,
      "changeset": 46991566,
      "user": "StijnRR",
      "uid": 911613,
      "tags": {
        "leisure": "picnic_table"
      }
    },
    {
      "type": "node",
      "id": 4743724722,
      "lat": 50.4591093,
      "lon": 5.8663424,
      "timestamp": "2017-03-19T19:31:49Z",
      "version": 1,
      "changeset": 46991566,
      "user": "StijnRR",
      "uid": 911613,
      "tags": {
        "amenity": "bench"
      }
    },
    {
      "type": "node",
      "id": 6783719685,
      "lat": 50.5065308,
      "lon": 5.8368953,
      "timestamp": "2019-09-09T20:00:03Z",
      "version": 1,
      "changeset": 74279776,
      "user": "sepro1985",
      "uid": 3247849,
      "tags": {
        "amenity": "bench"
      }
    },
    {
      "type": "node",
      "id": 6791325866,
      "lat": 50.4938519,
      "lon": 5.8581995,
      "timestamp": "2019-09-12T19:52:20Z",
      "version": 1,
      "changeset": 74407383,
      "user": "calli3756",
      "uid": 546812,
      "tags": {
        "amenity": "bench"
      }
    },
    {
      "type": "node",
      "id": 6791330364,
      "lat": 50.4943641,
      "lon": 5.8608529,
      "timestamp": "2019-09-12T19:52:19Z",
      "version": 1,
      "changeset": 74407383,
      "user": "calli3756",
      "uid": 546812,
      "tags": {
        "amenity": "bench",
        "backrest": "yes"
      }
    },
    {
      "type": "node",
      "id": 6791333664,
      "lat": 50.47483,
      "lon": 5.8626365,
      "timestamp": "2019-09-12T19:52:21Z",
      "version": 1,
      "changeset": 74407383,
      "user": "calli3756",
      "uid": 546812,
      "tags": {
        "amenity": "parking"
      }
    },
    {
      "type": "node",
      "id": 6791335092,
      "lat": 50.4943147,
      "lon": 5.8607021,
      "timestamp": "2019-09-12T19:52:19Z",
      "version": 1,
      "changeset": 74407383,
      "user": "calli3756",
      "uid": 546812,
      "tags": {
        "amenity": "bench"
      }
    },
    {
      "type": "node",
      "id": 6791341625,
      "lat": 50.49364,
      "lon": 5.8646277,
      "timestamp": "2019-09-12T19:52:20Z",
      "version": 1,
      "changeset": 74407383,
      "user": "calli3756",
      "uid": 546812,
      "tags": {
        "amenity": "bench"
      }
    },
    {
      "type": "node",
      "id": 7003980077,
      "lat": 50.4938882,
      "lon": 5.8592771,
      "timestamp": "2020-10-15T19:40:37Z",
      "version": 2,
      "changeset": 92541129,
      "user": "km2bp",
      "uid": 3610826,
      "tags": {
        "access": "yes",
        "amenity": "drinking_water",
        "description": "Pouhon du Parc de 7-Heures 1758",
        "historic": "yes",
        "image": "https://images.mapillary.com/e3GxHrJahuaIXLelVIqsAr/thumb-2048.jpg",
        "mapillary": "https://www.mapillary.com/map/im/e3GxHrJahuaIXLelVIqsAr",
        "name": "Aux Createurs",
        "operator": "City of Spa",
        "tourism": "attraction",
        "wheelchair": "yes"
      }
    },
    {
      "type": "node",
      "id": 7004104876,
      "lat": 50.4587962,
      "lon": 5.8837921,
      "timestamp": "2019-11-23T13:15:53Z",
      "version": 1,
      "changeset": 77458814,
      "user": "Lucas Lambert",
      "uid": 7714751,
      "tags": {
        "information": "board",
        "name": "LIFE Tourbières de Wallonie",
        "tourism": "information"
      }
    },
    {
      "type": "node",
      "id": 7253288757,
      "lat": 50.4934125,
      "lon": 5.8671753,
      "timestamp": "2020-02-29T18:12:38Z",
      "version": 1,
      "changeset": 81626555,
      "user": "Simon Candelaresi",
      "uid": 3481954,
      "tags": {
        "amenity": "bench",
        "source": "survey"
      }
    },
    {
      "type": "node",
      "id": 7253288759,
      "lat": 50.4933381,
      "lon": 5.8671884,
      "timestamp": "2020-02-29T18:12:38Z",
      "version": 1,
      "changeset": 81626555,
      "user": "Simon Candelaresi",
      "uid": 3481954,
      "tags": {
        "amenity": "bench",
        "source": "survey"
      }
    },
    {
      "type": "node",
      "id": 7253288761,
      "lat": 50.4920001,
      "lon": 5.8652374,
      "timestamp": "2020-02-29T18:12:38Z",
      "version": 1,
      "changeset": 81626555,
      "user": "Simon Candelaresi",
      "uid": 3481954,
      "tags": {
        "amenity": "bench",
        "source": "survey"
      }
    },
    {
      "type": "node",
      "id": 7253288762,
      "lat": 50.4920009,
      "lon": 5.8650564,
      "timestamp": "2020-02-29T18:12:38Z",
      "version": 1,
      "changeset": 81626555,
      "user": "Simon Candelaresi",
      "uid": 3481954,
      "tags": {
        "amenity": "bench",
        "source": "survey"
      }
    },
    {
      "type": "node",
      "id": 7253288763,
      "lat": 50.4921182,
      "lon": 5.8652354,
      "timestamp": "2020-02-29T18:12:38Z",
      "version": 1,
      "changeset": 81626555,
      "user": "Simon Candelaresi",
      "uid": 3481954,
      "tags": {
        "amenity": "bench",
        "source": "survey"
      }
    },
    {
      "type": "node",
      "id": 7253288764,
      "lat": 50.4921195,
      "lon": 5.8650523,
      "timestamp": "2020-02-29T18:12:38Z",
      "version": 1,
      "changeset": 81626555,
      "user": "Simon Candelaresi",
      "uid": 3481954,
      "tags": {
        "amenity": "bench",
        "source": "survey"
      }
    },
    {
      "type": "node",
      "id": 8010822115,
      "lat": 50.4882504,
      "lon": 5.8457501,
      "timestamp": "2020-10-15T18:38:42Z",
      "version": 1,
      "changeset": 92539011,
      "user": "km2bp",
      "uid": 3610826,
      "tags": {
        "amenity": "bench",
        "image": "https://images.mapillary.com/UVmaUkd2JSBBiYTRyNzrho/thumb-2048.jpg",
        "mapillary": "https://www.mapillary.com/map/im/UVmaUkd2JSBBiYTRyNzrho"
      }
    },
    {
      "type": "node",
      "id": 8010981299,
      "lat": 50.4938268,
      "lon": 5.859253,
      "timestamp": "2020-10-15T19:40:37Z",
      "version": 1,
      "changeset": 92541129,
      "user": "km2bp",
      "uid": 3610826,
      "tags": {
        "image": "https://images.mapillary.com/oKjohiMcTBY88IC5hyRS3N/thumb-2048.jpg",
        "information": "board",
        "mapillary": "https://www.mapillary.com/map/im/oKjohiMcTBY88IC5hyRS3N",
        "name": "Monument des créateurs de promenades",
        "tourism": "information"
      }
    },
    {
      "type": "node",
      "id": 8011255049,
      "lat": 50.4933882,
      "lon": 5.8617163,
      "timestamp": "2020-10-15T21:52:20Z",
      "version": 1,
      "changeset": 92545001,
      "user": "km2bp",
      "uid": 3610826,
      "tags": {
        "image": "https://images.mapillary.com/3SKZH1VTdnPpt7xzY2pDzV/thumb-2048.jpg",
        "information": "board",
        "mapillary": "https://www.mapillary.com/map/im/3SKZH1VTdnPpt7xzY2pDzV",
        "name": "Mini-Golf",
        "tourism": "information"
      }
    },
    {
      "type": "node",
      "id": 8011255051,
      "lat": 50.4933093,
      "lon": 5.8624981,
      "timestamp": "2020-10-15T21:52:20Z",
      "version": 1,
      "changeset": 92545001,
      "user": "km2bp",
      "uid": 3610826,
      "tags": {
        "image": "https://images.mapillary.com/C6dA6PZ7Zqg3kFIhsXuHa8/thumb-2048.jpg",
        "information": "board",
        "mapillary": "https://www.mapillary.com/map/im/C6dA6PZ7Zqg3kFIhsXuHa8",
        "name": "Glacière du Chalet du Parc",
        "tourism": "information"
      }
    },
    {
      "type": "node",
      "id": 8011255072,
      "lat": 50.4930392,
      "lon": 5.8625796,
      "timestamp": "2020-10-15T21:52:20Z",
      "version": 1,
      "changeset": 92545001,
      "user": "km2bp",
      "uid": 3610826,
      "tags": {
        "amenity": "drinking_water",
        "image": "https://images.mapillary.com/42dXK42Dsr9LI9ixlDHWos/thumb-2048.jpg",
        "mapillary": "https://www.mapillary.com/map/im/42dXK42Dsr9LI9ixlDHWos"
      }
    },
    {
      "type": "node",
      "id": 8011255073,
      "lat": 50.4930199,
      "lon": 5.8627783,
      "timestamp": "2020-10-15T21:52:20Z",
      "version": 1,
      "changeset": 92545001,
      "user": "km2bp",
      "uid": 3610826,
      "tags": {
        "image": "https://images.mapillary.com/QmbKjJjDYMex1Epznr0NZa/thumb-2048.jpg",
        "information": "board",
        "mapillary": "https://www.mapillary.com/map/im/QmbKjJjDYMex1Epznr0NZa",
        "tourism": "information"
      }
    },
    {
      "type": "node",
      "id": 8011255074,
      "lat": 50.4928583,
      "lon": 5.8625587,
      "timestamp": "2020-10-15T21:52:20Z",
      "version": 1,
      "changeset": 92545001,
      "user": "km2bp",
      "uid": 3610826,
      "tags": {
        "image": "https://images.mapillary.com/0Fmc9HsPQlvjdEoEhANIAg/thumb-2048.jpg",
        "information": "board",
        "mapillary": "https://www.mapillary.com/map/im/0Fmc9HsPQlvjdEoEhANIAg",
        "name": "Parc de Sept-Heures",
        "tourism": "information"
      }
    },
    {
      "type": "node",
      "id": 8012563007,
      "lat": 50.4924698,
      "lon": 5.8639913,
      "timestamp": "2020-10-16T08:46:11Z",
      "version": 1,
      "changeset": 92569732,
      "user": "km2bp",
      "uid": 3610826,
      "tags": {
        "image": "https://images.mapillary.com/qa60G8xmpBMrkYEmnBTfay/thumb-2048.jpg",
        "information": "board",
        "mapillary": "https://www.mapillary.com/map/im/qa60G8xmpBMrkYEmnBTfay",
        "name": "Station Météo",
        "tourism": "information"
      }
    },
    {
      "type": "node",
      "id": 8012563902,
      "lat": 50.4921636,
      "lon": 5.8651194,
      "timestamp": "2020-10-16T08:46:11Z",
      "version": 1,
      "changeset": 92569732,
      "user": "km2bp",
      "uid": 3610826,
      "tags": {
        "image": "https://images.mapillary.com/w2ZyNgZXp4NUfIDi8E1Q5A/thumb-2048.jpg",
        "information": "board",
        "mapillary": "https://www.mapillary.com/map/im/w2ZyNgZXp4NUfIDi8E1Q5A",
        "name": "Fontaine du Casino",
        "tourism": "information"
      }
    },
    {
      "type": "node",
      "id": 8013524585,
      "lat": 50.4933769,
      "lon": 5.8671161,
      "timestamp": "2020-10-16T13:27:03Z",
      "version": 1,
      "changeset": 92587871,
      "user": "km2bp",
      "uid": 3610826,
      "tags": {
        "artwork_type": "vase",
        "image": "https://images.mapillary.com/OgDZXhCf8k9kcW65r0QfSM/thumb-2048.jpg",
        "information": "board",
        "mapillary": "https://www.mapillary.com/map/im/OgDZXhCf8k9kcW65r0QfSM",
        "name": "Perron",
        "tourism": "information"
      }
    },
    {
      "type": "node",
      "id": 8014012433,
      "lat": 50.4923253,
      "lon": 5.8673661,
      "timestamp": "2020-10-16T16:51:59Z",
      "version": 1,
      "changeset": 92595818,
      "user": "km2bp",
      "uid": 3610826,
      "tags": {
        "artwork_type": "vase",
        "image": "https://images.mapillary.com/QIeGaQLadADRyCxE6ngZSi/thumb-2048.jpg",
        "information": "board",
        "mapillary": "https://www.mapillary.com/map/im/QIeGaQLadADRyCxE6ngZSi",
        "name": "Spa Authenti City",
        "tourism": "information"
      }
    },
    {
      "type": "node",
      "id": 8014154727,
      "lat": 50.4910603,
      "lon": 5.8667516,
      "timestamp": "2020-10-16T18:04:37Z",
      "version": 1,
      "changeset": 92598234,
      "user": "km2bp",
      "uid": 3610826,
      "tags": {
        "image": "https://images.mapillary.com/VkJQNEHI73n3HcywMCynSs/thumb-2048.jpg",
        "information": "board",
        "mapillary": "https://www.mapillary.com/map/im/VkJQNEHI73n3HcywMCynSs",
        "name": "Spa",
        "tourism": "information"
      }
    },
    {
      "type": "node",
      "id": 8014154728,
      "lat": 50.4911269,
      "lon": 5.8715406,
      "timestamp": "2020-10-16T18:04:37Z",
      "version": 1,
      "changeset": 92598234,
      "user": "km2bp",
      "uid": 3610826,
      "tags": {
        "image": "https://images.mapillary.com/tOS34T0iTAT3LBQ6oo3PDR/thumb-2048.jpg",
        "information": "board",
        "mapillary": "https://www.mapillary.com/map/im/tOS34T0iTAT3LBQ6oo3PDR",
        "name": "Spa Authnyi City",
        "tourism": "information"
      }
    },
    {
      "type": "node",
      "id": 8014154739,
      "lat": 50.4908063,
      "lon": 5.8720453,
      "timestamp": "2020-10-16T18:04:37Z",
      "version": 1,
      "changeset": 92598234,
      "user": "km2bp",
      "uid": 3610826,
      "tags": {
        "image": "https://images.mapillary.com/X7IykAsvFk2UprJrj3tM4i/thumb-2048.jpg",
        "information": "board",
        "mapillary": "https://www.mapillary.com/map/im/X7IykAsvFk2UprJrj3tM4i",
        "name": "Parc de I'Ancien Temple Anglican",
        "tourism": "information"
      }
    },
    {
      "type": "node",
      "id": 8377815620,
      "lat": 50.4902804,
      "lon": 5.8629708,
      "timestamp": "2021-01-30T10:10:15Z",
      "version": 1,
      "changeset": 98407321,
      "user": "Nip",
      "uid": 150380,
      "tags": {
        "amenity": "bench",
        "survey:date": "2020-11-10"
      }
    },
    {
      "type": "node",
      "id": 8512345992,
      "lat": 50.4983087,
      "lon": 5.8616342,
      "timestamp": "2021-03-13T02:01:52Z",
      "version": 1,
      "changeset": 100939380,
      "user": "Doc Géofan",
      "uid": 12793685,
      "tags": {
        "information": "board",
        "tourism": "information"
      }
    },
    {
      "type": "node",
      "id": 8512394915,
      "lat": 50.4936365,
      "lon": 5.8646526,
      "timestamp": "2021-03-13T02:48:27Z",
      "version": 1,
      "changeset": 100939843,
      "user": "Doc Géofan",
      "uid": 12793685,
      "tags": {
        "leisure": "picnic_table"
      }
    },
    {
      "type": "node",
      "id": 8836444232,
      "lat": 50.4893209,
      "lon": 5.8414001,
      "timestamp": "2021-06-15T16:42:40Z",
      "version": 1,
      "changeset": 106414164,
      "user": "vinisa",
      "uid": 646406,
      "tags": {
        "information": "board",
        "tourism": "information"
      }
    },
    {
      "type": "node",
      "id": 8958135383,
      "lat": 50.4927186,
      "lon": 5.862132,
      "timestamp": "2021-07-28T20:36:45Z",
      "version": 1,
      "changeset": 108779364,
      "user": "Martin Ledant",
      "uid": 11038683,
      "tags": {
        "access": "yes",
        "amenity": "toilets",
        "toilets:disposal": "flush"
      }
    },
    {
      "type": "way",
      "id": 28429156,
      "timestamp": "2021-09-28T13:55:15Z",
      "version": 6,
      "changeset": 111820700,
      "user": "SHARCRASH",
      "uid": 1808015,
      "nodes": [
        3473618752,
        1036000277,
        9129721231,
        1036000224,
        9129721233,
        9129721232,
        3466581135,
        1036000253,
        1036000244,
        1036000171,
        312353459,
        1036000208,
        1036000178,
        1036000407,
        1036000369,
        1036000289,
        9129721234,
        1036000183,
        1036000399,
        1036000202,
        1036000272,
        1036000234,
        1036000349,
        3473618752
      ],
      "tags": {
        "amenity": "parking"
      }
    },
    {
      "type": "way",
      "id": 48709699,
      "timestamp": "2020-11-10T14:10:19Z",
      "version": 5,
      "changeset": 93867273,
      "user": "Nip",
      "uid": 150380,
      "nodes": [
        618374716,
        618374789,
        618374805,
        618374799,
        618374742,
        618374737,
        618374733,
        633480960,
        1036070513,
        618374716
      ],
      "tags": {
        "access": "yes",
        "amenity": "parking"
      }
    },
    {
      "type": "way",
      "id": 48709711,
      "timestamp": "2020-10-16T16:51:59Z",
      "version": 5,
      "changeset": 92595818,
      "user": "km2bp",
      "uid": 3610826,
      "nodes": [
        1036107002,
        8014012461,
        618375104,
        618375113,
        618375124,
        619884279,
        540134731,
        1036107002
      ],
      "tags": {
        "amenity": "parking"
      }
    },
    {
      "type": "way",
      "id": 48859273,
      "timestamp": "2020-09-03T09:19:30Z",
      "version": 3,
      "changeset": 90350921,
      "user": "hesdrib",
      "uid": 2175149,
      "nodes": [
        619884254,
        7871849090,
        619884260,
        619884259,
        619884257,
        619884256,
        619884255,
        619884254
      ],
      "tags": {
        "amenity": "parking"
      }
    },
    {
      "type": "way",
      "id": 48859289,
      "timestamp": "2010-12-12T18:34:35Z",
      "version": 2,
      "changeset": 6639926,
      "user": "Toi",
      "uid": 8323,
      "nodes": [
        1036211514,
        1036211465,
        1036211586,
        1036211637,
        1036211514
      ],
      "tags": {
        "amenity": "parking"
      }
    },
    {
      "type": "way",
      "id": 49051852,
      "timestamp": "2010-12-12T19:02:56Z",
      "version": 2,
      "changeset": 6640308,
      "user": "Toi",
      "uid": 8323,
      "nodes": [
        622410188,
        622410192,
        622410196,
        622410199,
        1036269697,
        1036269733,
        622410188
      ],
      "tags": {
        "amenity": "parking"
      }
    },
    {
      "type": "way",
      "id": 89313032,
      "timestamp": "2021-09-28T13:55:15Z",
      "version": 3,
      "changeset": 111820700,
      "user": "SHARCRASH",
      "uid": 1808015,
      "nodes": [
        1036238603,
        9129721280,
        9129721286,
        9129721285,
        1036238612,
        1036238500,
        1036238458,
        1036238528,
        1036238568,
        1036238478,
        3792388887,
        1036238575,
        3792388886,
        1036238492,
        9129721284,
        1036238603
      ],
      "tags": {
        "amenity": "parking",
        "parking": "surface"
      }
    },
    {
      "type": "way",
      "id": 89313038,
      "timestamp": "2010-12-12T18:42:57Z",
      "version": 1,
      "changeset": 6640041,
      "user": "Toi",
      "uid": 8323,
      "nodes": [
        1036238594,
        1036238536,
        1036238472,
        1036238493,
        1036238594
      ],
      "tags": {
        "amenity": "parking",
        "parking": "surface"
      }
    },
    {
      "type": "way",
      "id": 89320533,
      "timestamp": "2010-12-12T19:02:48Z",
      "version": 1,
      "changeset": 6640308,
      "user": "Toi",
      "uid": 8323,
      "nodes": [
        1036269772,
        1036269766,
        1036269704,
        1036269725,
        1036269772
      ],
      "tags": {
        "amenity": "parking",
        "parking": "surface"
      }
    },
    {
      "type": "way",
      "id": 89340633,
      "timestamp": "2010-12-12T20:06:56Z",
      "version": 1,
      "changeset": 6641066,
      "user": "Toi",
      "uid": 8323,
      "nodes": [
        1036369446,
        1036369353,
        1036369323,
        1036369298,
        1036369452,
        1036369424,
        1036369404,
        1036369446
      ],
      "tags": {
        "amenity": "parking",
        "parking": "surface"
      }
    },
    {
      "type": "way",
      "id": 89340635,
      "timestamp": "2019-09-12T19:52:57Z",
      "version": 3,
      "changeset": 74407413,
      "user": "calli3756",
      "uid": 546812,
      "nodes": [
        1036369347,
        1036369371,
        1036369357,
        1036369339,
        3967870248,
        3967870249,
        1036369347
      ],
      "tags": {
        "access": "yes",
        "amenity": "parking",
        "parking": "surface"
      }
    },
    {
      "type": "way",
      "id": 89340638,
      "timestamp": "2019-09-12T19:53:11Z",
      "version": 4,
      "changeset": 74407439,
      "user": "calli3756",
      "uid": 546812,
      "nodes": [
        1036369367,
        1036369435,
        1036369414,
        1036369390,
        1036369329,
        1036369303,
        1036369490,
        1036369482,
        1036369380,
        1036369363,
        1036369367
      ],
      "tags": {
        "access": "yes",
        "amenity": "parking",
        "parking": "surface"
      }
    },
    {
      "type": "way",
      "id": 96358872,
      "timestamp": "2017-03-18T16:18:37Z",
      "version": 2,
      "changeset": 46960396,
      "user": "Frédéric Gutkin",
      "uid": 3221083,
      "nodes": [
        4741703079,
        4741703067,
        1116724339,
        1116724281,
        1116724313,
        1116724308,
        1116724249,
        4741703102,
        4741703126,
        4741703134,
        4741703144,
        4741703106,
        1116724246,
        4741703085,
        4741703082,
        4741703079
      ],
      "tags": {
        "amenity": "parking"
      }
    },
    {
      "type": "way",
      "id": 107101165,
      "timestamp": "2011-04-03T19:20:51Z",
      "version": 1,
      "changeset": 7758090,
      "user": "Patrick Bous",
      "uid": 223763,
      "nodes": [
        1231337761,
        1231338053,
        1231337757,
        1231337917,
        1231337915,
        1231337893,
        1231338058,
        1231337974,
        1231337844,
        1231337814,
        1231337761
      ],
      "tags": {
        "amenity": "parking"
      }
    },
    {
      "type": "way",
      "id": 107683714,
      "timestamp": "2011-04-08T11:05:56Z",
      "version": 2,
      "changeset": 7802750,
      "user": "boskoyevsky",
      "uid": 117792,
      "nodes": [
        1237101777,
        1237103076,
        1237101682,
        1237101721,
        1237101764,
        1237101786,
        1237101772,
        1237101663,
        1237101699,
        1237101740,
        1237101672,
        1237101619,
        1237101777
      ],
      "tags": {
        "amenity": "parking"
      }
    },
    {
      "type": "way",
      "id": 107683800,
      "timestamp": "2011-04-08T11:05:55Z",
      "version": 1,
      "changeset": 7802750,
      "user": "boskoyevsky",
      "uid": 117792,
      "nodes": [
        1237103076,
        1237103055,
        1237101777,
        1237103059,
        1237089495,
        1237089530,
        1237089541,
        1237089544,
        1237089533,
        1237103056,
        1237103071,
        1237103062,
        1237103076
      ],
      "tags": {
        "amenity": "parking"
      }
    },
    {
      "type": "way",
      "id": 107824670,
      "timestamp": "2011-04-09T12:08:48Z",
      "version": 1,
      "changeset": 7812667,
      "user": "boskoyevsky",
      "uid": 117792,
      "nodes": [
        1238497007,
        1238497016,
        1238496972,
        1238496985,
        1238497007
      ],
      "tags": {
        "amenity": "parking"
      }
    },
    {
      "type": "way",
      "id": 107855220,
      "timestamp": "2020-10-16T08:46:11Z",
      "version": 3,
      "changeset": 92569732,
      "user": "km2bp",
      "uid": 3610826,
      "nodes": [
        1238722061,
        8012563018,
        1238473826,
        8012563027,
        1238722092,
        1238722061
      ],
      "tags": {
        "amenity": "parking"
      }
    },
    {
      "type": "way",
      "id": 133395568,
      "timestamp": "2019-09-28T17:29:01Z",
      "version": 5,
      "changeset": 75045301,
      "user": "Frédéric Gutkin",
      "uid": 3221083,
      "nodes": [
        1468399031,
        1468399033,
        1468399039,
        6578688322,
        1468399041,
        1468399040,
        1468399038,
        1468399036,
        1468399037,
        1468399032,
        6578688306,
        6833084559,
        1479132948,
        1479132937,
        1468399031
      ],
      "tags": {
        "amenity": "parking",
        "capacity:disabled": "yes",
        "fee": "no",
        "park_ride": "no",
        "parking": "surface"
      }
    },
    {
      "type": "way",
      "id": 139881430,
      "timestamp": "2016-03-27T11:16:10Z",
      "version": 3,
      "changeset": 38098036,
      "user": "Patrick Bous",
      "uid": 223763,
      "nodes": [
        1532859700,
        1944458226,
        1532859682,
        4081125398,
        1532859692,
        4081125391,
        1532859700
      ],
      "tags": {
        "amenity": "parking"
      }
    },
    {
      "type": "way",
      "id": 206826915,
      "timestamp": "2018-01-20T20:41:55Z",
      "version": 2,
      "changeset": 55612894,
      "user": "StijnRR",
      "uid": 911613,
      "nodes": [
        1036258655,
        2168743493,
        5351629065,
        2168743494,
        2168741861,
        2168741864,
        269317909,
        312353468,
        1036258646,
        1036258655
      ],
      "tags": {
        "amenity": "parking",
        "parking": "surface"
      }
    },
    {
      "type": "way",
      "id": 228013703,
      "timestamp": "2019-09-28T17:29:01Z",
      "version": 2,
      "changeset": 75045301,
      "user": "Frédéric Gutkin",
      "uid": 3221083,
      "nodes": [
        2366411889,
        2366411885,
        2366411887,
        6833085152,
        2366411891,
        2366411889
      ],
      "tags": {
        "amenity": "parking",
        "name": "Géronstère",
        "parking": "surface"
      }
    },
    {
      "type": "way",
      "id": 261847496,
      "timestamp": "2020-07-28T17:48:19Z",
      "version": 6,
      "changeset": 88634753,
      "user": "Maarten Deen",
      "uid": 9176,
      "nodes": [
        2674710505,
        2674710508,
        2674710510,
        2674710506,
        2674710509,
        2674710511,
        7467224776,
        2674710507,
        2674710503,
        3944212829,
        2674710500,
        2674710496,
        2674710472,
        2674710465,
        7467224775,
        7467224774,
        2674710499,
        3944212816,
        3944212815,
        2990978084,
        4223399751,
        4223399752,
        4223399753,
        2990978083,
        2674710505
      ],
      "tags": {
        "amenity": "parking"
      }
    },
    {
      "type": "way",
      "id": 348391492,
      "timestamp": "2015-05-25T19:11:30Z",
      "version": 1,
      "changeset": 31454728,
      "user": "StijnRR",
      "uid": 911613,
      "nodes": [
        2689915749,
        2689915756,
        3545199406,
        2689915763,
        2689915761,
        3545199400,
        2689915749
      ],
      "tags": {
        "amenity": "parking"
      }
    },
    {
      "type": "way",
      "id": 367465147,
      "timestamp": "2015-08-25T16:20:41Z",
      "version": 1,
      "changeset": 33575687,
      "user": "It's so funny",
      "uid": 191979,
      "nodes": [
        3713851619,
        3713851613,
        3713851614,
        3713851618,
        3713851621,
        3713851619
      ],
      "tags": {
        "amenity": "parking",
        "name": "L'Eaudyssée de Spa"
      }
    },
    {
      "type": "way",
      "id": 390134728,
      "timestamp": "2016-01-07T21:15:09Z",
      "version": 1,
      "changeset": 36433848,
      "user": "hesdrib",
      "uid": 2175149,
      "nodes": [
        3932963354,
        3932963355,
        3932963356,
        3932963357,
        3932963354
      ],
      "tags": {
        "amenity": "parking"
      }
    },
    {
      "type": "way",
      "id": 390134729,
      "timestamp": "2020-09-03T09:19:30Z",
      "version": 2,
      "changeset": 90350921,
      "user": "hesdrib",
      "uid": 2175149,
      "nodes": [
        3932963358,
        3932963359,
        3932963360,
        3932963361,
        7871849092,
        7871849091,
        7871849095,
        7871849093,
        7871849094,
        3932963358
      ],
      "tags": {
        "amenity": "parking"
      }
    },
    {
      "type": "way",
      "id": 390391864,
      "timestamp": "2020-09-08T08:14:36Z",
      "version": 2,
      "changeset": 90571363,
      "user": "hesdrib",
      "uid": 2175149,
      "nodes": [
        3935564282,
        7886498288,
        7886498287,
        7886498285,
        7886498286,
        3935564283,
        7886498290,
        7886498289,
        3935564284,
        3935564285,
        3935564282
      ],
      "tags": {
        "amenity": "parking"
      }
    },
    {
      "type": "way",
      "id": 392928928,
      "timestamp": "2016-01-23T09:37:25Z",
      "version": 1,
      "changeset": 36754858,
      "user": "hesdrib",
      "uid": 2175149,
      "nodes": [
        3961199823,
        3961199824,
        3961199825,
        3961199826,
        3961199823
      ],
      "tags": {
        "amenity": "parking"
      }
    },
    {
      "type": "way",
      "id": 394311251,
      "timestamp": "2016-01-30T11:49:24Z",
      "version": 2,
      "changeset": 36896814,
      "user": "hesdrib",
      "uid": 2175149,
      "nodes": [
        3973271801,
        3973271802,
        3973271803,
        3973271804,
        3973271801
      ],
      "tags": {
        "access": "customers",
        "amenity": "parking"
      }
    },
    {
      "type": "way",
      "id": 419170291,
      "timestamp": "2016-05-18T07:08:40Z",
      "version": 1,
      "changeset": 39393004,
      "user": "hesdrib",
      "uid": 2175149,
      "nodes": [
        4193015507,
        4193015508,
        4193015509,
        4193015510,
        4193015511,
        4193015507
      ],
      "tags": {
        "amenity": "parking"
      }
    },
    {
      "type": "way",
      "id": 422593624,
      "timestamp": "2020-04-30T13:08:50Z",
      "version": 2,
      "changeset": 84415379,
      "user": "hesdrib",
      "uid": 2175149,
      "nodes": [
        4223399720,
        4223399721,
        4223399722,
        7467239626,
        7467239625,
        4223399723,
        4223399724,
        4223399725,
        4223399720
      ],
      "tags": {
        "amenity": "parking"
      }
    },
    {
      "type": "way",
      "id": 662079769,
      "timestamp": "2019-01-10T14:14:05Z",
      "version": 1,
      "changeset": 66197306,
      "user": "Papou",
      "uid": 332704,
      "nodes": [
        6198498269,
        6198498268,
        6198498267,
        6198498266,
        6198498269
      ],
      "tags": {
        "access": "permissive",
        "amenity": "parking",
        "capacity": "3",
        "capacity:disabled": "3",
        "name": "Parking for disabled",
        "parking": "surface",
        "source": "20cm-near PICC http://geoportail.wallonie.be 2018"
      }
    },
    {
      "type": "way",
      "id": 697924613,
      "timestamp": "2021-09-26T17:31:17Z",
      "version": 4,
      "changeset": 111733227,
      "user": "bazgal",
      "uid": 332493,
      "nodes": [
        6554534003,
        6567754206,
        9120658322,
        6554534004,
        6554534005,
        6567754204,
        6554534007,
        6554534003
      ],
      "tags": {
        "amenity": "parking",
        "parking": "surface"
      }
    },
    {
      "type": "way",
      "id": 697924615,
      "timestamp": "2019-06-24T12:43:17Z",
      "version": 2,
      "changeset": 71560080,
      "user": "Lucas Lambert",
      "uid": 7714751,
      "nodes": [
        6554534028,
        6554534020,
        6554534021,
        6554534022,
        6554534023,
        6554534024,
        6554534025,
        6567754208,
        6554534026,
        6554534028
      ],
      "tags": {
        "amenity": "parking"
      }
    },
    {
      "type": "way",
      "id": 697924616,
      "timestamp": "2021-09-24T16:37:47Z",
      "version": 2,
      "changeset": 111656713,
      "user": "SHARCRASH",
      "uid": 1808015,
      "nodes": [
        6554534035,
        9120658337,
        331915522,
        6567754201,
        6554534006,
        6554534034,
        9120658356,
        331915523,
        6554534037,
        6554534036,
        6554534035
      ],
      "tags": {
        "amenity": "parking"
      }
    },
    {
      "type": "way",
      "id": 697924617,
      "timestamp": "2021-09-24T16:37:47Z",
      "version": 2,
      "changeset": 111656713,
      "user": "SHARCRASH",
      "uid": 1808015,
      "nodes": [
        6554534039,
        6554534040,
        6554534042,
        6554534044,
        6554534045,
        2686983303,
        1771719025,
        1771718918,
        6554534039
      ],
      "tags": {
        "amenity": "parking"
      }
    },
    {
      "type": "way",
      "id": 798373455,
      "timestamp": "2020-04-30T13:08:50Z",
      "version": 1,
      "changeset": 84415379,
      "user": "hesdrib",
      "uid": 2175149,
      "nodes": [
        7467239586,
        7467239585,
        7467224784,
        7467224783,
        7467239586
      ],
      "tags": {
        "amenity": "parking"
      }
    },
    {
      "type": "way",
      "id": 798373456,
      "timestamp": "2020-04-30T13:08:50Z",
      "version": 1,
      "changeset": 84415379,
      "user": "hesdrib",
      "uid": 2175149,
      "nodes": [
        7467239590,
        7467239589,
        7467239588,
        7467239587,
        7467239590
      ],
      "tags": {
        "amenity": "parking"
      }
    },
    {
      "type": "way",
      "id": 798373457,
      "timestamp": "2020-04-30T13:08:50Z",
      "version": 1,
      "changeset": 84415379,
      "user": "hesdrib",
      "uid": 2175149,
      "nodes": [
        7467239597,
        7467239596,
        7467239595,
        7467239594,
        7467239593,
        7467239592,
        7467239591,
        7467239597
      ],
      "tags": {
        "amenity": "parking"
      }
    },
    {
      "type": "way",
      "id": 808029257,
      "timestamp": "2020-05-25T12:06:48Z",
      "version": 1,
      "changeset": 85716613,
      "user": "hesdrib",
      "uid": 2175149,
      "nodes": [
        7556050976,
        7556050977,
        7556050978,
        7556050979,
        7556050976
      ],
      "tags": {
        "amenity": "parking"
      }
    },
    {
      "type": "way",
      "id": 843959252,
      "timestamp": "2020-09-03T13:58:49Z",
      "version": 1,
      "changeset": 90366679,
      "user": "hesdrib",
      "uid": 2175149,
      "nodes": [
        7872704720,
        7872704719,
        7872704718,
        7872704717,
        7872704720
      ],
      "tags": {
        "amenity": "parking"
      }
    },
    {
      "type": "way",
      "id": 844168451,
      "timestamp": "2020-09-04T07:04:19Z",
      "version": 1,
      "changeset": 90397941,
      "user": "hesdrib",
      "uid": 2175149,
      "nodes": [
        7874696683,
        7874696682,
        7874696681,
        7874696680,
        7874696683
      ],
      "tags": {
        "amenity": "parking"
      }
    },
    {
      "type": "way",
      "id": 844168453,
      "timestamp": "2020-09-04T07:04:19Z",
      "version": 1,
      "changeset": 90397941,
      "user": "hesdrib",
      "uid": 2175149,
      "nodes": [
        7874707194,
        7874707193,
        7874707192,
        7874707191,
        7874707190,
        7874707189,
        7874707188,
        7874707194
      ],
      "tags": {
        "amenity": "parking"
      }
    },
    {
      "type": "way",
      "id": 844549182,
      "timestamp": "2020-09-05T13:02:57Z",
      "version": 1,
      "changeset": 90452697,
      "user": "hesdrib",
      "uid": 2175149,
      "nodes": [
        7878396606,
        7878396605,
        7878396604,
        7878396603,
        7878396606
      ],
      "tags": {
        "amenity": "parking"
      }
    },
    {
      "type": "way",
      "id": 845305054,
      "timestamp": "2020-09-08T08:14:36Z",
      "version": 1,
      "changeset": 90571363,
      "user": "hesdrib",
      "uid": 2175149,
      "nodes": [
        7886479579,
        7886479578,
        7886479577,
        7886479576,
        7886479575,
        7886479574,
        7886479573,
        7886479572,
        7886479571,
        7886479570,
        7886479579
      ],
      "tags": {
        "amenity": "parking"
      }
    },
    {
      "type": "way",
      "id": 845305055,
      "timestamp": "2020-09-08T08:14:36Z",
      "version": 1,
      "changeset": 90571363,
      "user": "hesdrib",
      "uid": 2175149,
      "nodes": [
        7886479584,
        7886479583,
        7886479582,
        7886479581,
        7886479580,
        7886479584
      ],
      "tags": {
        "amenity": "parking"
      }
    },
    {
      "type": "way",
      "id": 845305059,
      "timestamp": "2020-09-08T08:14:36Z",
      "version": 1,
      "changeset": 90571363,
      "user": "hesdrib",
      "uid": 2175149,
      "nodes": [
        7886498309,
        7886498308,
        7886498307,
        7886498306,
        7886498305,
        7886498304,
        7886498303,
        7886498309
      ],
      "tags": {
        "amenity": "parking"
      }
    },
    {
      "type": "way",
      "id": 845345365,
      "timestamp": "2020-09-08T10:22:58Z",
      "version": 1,
      "changeset": 90580012,
      "user": "hesdrib",
      "uid": 2175149,
      "nodes": [
        7886856696,
        7886856695,
        7886856694,
        7886856693,
        7886856696
      ],
      "tags": {
        "amenity": "parking"
      }
    },
    {
      "type": "way",
      "id": 845345369,
      "timestamp": "2020-09-08T10:22:58Z",
      "version": 1,
      "changeset": 90580012,
      "user": "hesdrib",
      "uid": 2175149,
      "nodes": [
        7886856709,
        7886856708,
        7886856707,
        7886856706,
        7886856709
      ],
      "tags": {
        "amenity": "parking"
      }
    },
    {
      "type": "way",
      "id": 845345370,
      "timestamp": "2020-09-08T10:22:58Z",
      "version": 1,
      "changeset": 90580012,
      "user": "hesdrib",
      "uid": 2175149,
      "nodes": [
        7886856713,
        7886856712,
        7886856711,
        7886856710,
        7886856713
      ],
      "tags": {
        "amenity": "parking"
      }
    },
    {
      "type": "way",
      "id": 845345371,
      "timestamp": "2020-09-08T10:22:58Z",
      "version": 1,
      "changeset": 90580012,
      "user": "hesdrib",
      "uid": 2175149,
      "nodes": [
        7886856720,
        7886856719,
        7886856718,
        7886856717,
        7886856716,
        7886856715,
        7886856714,
        7886856720
      ],
      "tags": {
        "amenity": "parking"
      }
    },
    {
      "type": "way",
      "id": 845376066,
      "timestamp": "2020-09-08T12:07:31Z",
      "version": 1,
      "changeset": 90586550,
      "user": "hesdrib",
      "uid": 2175149,
      "nodes": [
        7887141283,
        7887141282,
        7887141281,
        7887141280,
        7887141283
      ],
      "tags": {
        "amenity": "parking"
      }
    },
    {
      "type": "way",
      "id": 845376067,
      "timestamp": "2020-09-08T12:07:31Z",
      "version": 1,
      "changeset": 90586550,
      "user": "hesdrib",
      "uid": 2175149,
      "nodes": [
        7887158987,
        7887158986,
        7887158985,
        7887141284,
        7887158987
      ],
      "tags": {
        "amenity": "parking"
      }
    },
    {
      "type": "way",
      "id": 845376068,
      "timestamp": "2020-09-08T12:07:31Z",
      "version": 1,
      "changeset": 90586550,
      "user": "hesdrib",
      "uid": 2175149,
      "nodes": [
        7887158994,
        7887158993,
        7887158992,
        7887158991,
        7887158990,
        7887158989,
        7887158988,
        7887158994
      ],
      "tags": {
        "amenity": "parking"
      }
    },
    {
      "type": "way",
      "id": 845619608,
      "timestamp": "2020-09-09T08:13:05Z",
      "version": 1,
      "changeset": 90629568,
      "user": "hesdrib",
      "uid": 2175149,
      "nodes": [
        7889425415,
        7889425414,
        7889425413,
        7889425412,
        7889425415
      ],
      "tags": {
        "amenity": "parking"
      }
    },
    {
      "type": "way",
      "id": 845619611,
      "timestamp": "2020-09-09T08:13:05Z",
      "version": 1,
      "changeset": 90629568,
      "user": "hesdrib",
      "uid": 2175149,
      "nodes": [
        7889425430,
        7889425429,
        7889425428,
        7889425427,
        7889425430
      ],
      "tags": {
        "amenity": "parking"
      }
    },
    {
      "type": "way",
      "id": 845785362,
      "timestamp": "2020-09-09T16:10:59Z",
      "version": 1,
      "changeset": 90656378,
      "user": "hesdrib",
      "uid": 2175149,
      "nodes": [
        7890817824,
        7890817823,
        7890817822,
        7890817821,
        7890817820,
        7890817819,
        7890817818,
        7890817817,
        7890817816,
        7890817815,
        7890817824
      ],
      "tags": {
        "amenity": "parking"
      }
    },
    {
      "type": "way",
      "id": 845785363,
      "timestamp": "2020-09-09T16:10:59Z",
      "version": 1,
      "changeset": 90656378,
      "user": "hesdrib",
      "uid": 2175149,
      "nodes": [
        7890817829,
        7890817828,
        7890817827,
        7890817826,
        7890817829
      ],
      "tags": {
        "amenity": "parking"
      }
    },
    {
      "type": "way",
      "id": 845954747,
      "timestamp": "2020-09-10T07:36:11Z",
      "version": 1,
      "changeset": 90684305,
      "user": "hesdrib",
      "uid": 2175149,
      "nodes": [
        7892404162,
        7892404161,
        7892404160,
        7892404159,
        7892404135,
        7892404134,
        7892404158,
        7892404157,
        7892404156,
        7892404155,
        7892404154,
        7892404153,
        7892404152,
        7892404151,
        7892404150,
        7892404162
      ],
      "tags": {
        "amenity": "parking"
      }
    },
    {
      "type": "way",
      "id": 845954749,
      "timestamp": "2020-09-10T07:36:11Z",
      "version": 1,
      "changeset": 90684305,
      "user": "hesdrib",
      "uid": 2175149,
      "nodes": [
        7892404183,
        7892404182,
        1244656512,
        7892404181,
        7892404180,
        7892404179,
        7892404183
      ],
      "tags": {
        "amenity": "parking"
      }
    },
    {
      "type": "way",
      "id": 845954750,
      "timestamp": "2020-09-10T07:36:11Z",
      "version": 1,
      "changeset": 90684305,
      "user": "hesdrib",
      "uid": 2175149,
      "nodes": [
        7892404193,
        7892404192,
        7892404191,
        7892404190,
        7892404189,
        7892404188,
        7892404187,
        7892404186,
        7892404185,
        7892404184,
        7892404193
      ],
      "tags": {
        "amenity": "parking"
      }
    },
    {
      "type": "way",
      "id": 883274297,
      "timestamp": "2020-12-10T15:39:43Z",
      "version": 1,
      "changeset": 95626831,
      "user": "hesdrib",
      "uid": 2175149,
      "nodes": [
        8214138213,
        8214138212,
        8214138211,
        8214138210,
        8214138209,
        8214138208,
        8214138207,
        8214138206,
        8214138205,
        8214138204,
        8214138213
      ],
      "tags": {
        "amenity": "parking"
      }
    },
    {
      "type": "way",
      "id": 894687305,
      "timestamp": "2021-01-12T19:19:02Z",
      "version": 1,
      "changeset": 97393344,
      "user": "OsmAnd_Pieter",
      "uid": 1671145,
      "nodes": [
        6880937979,
        6880937978,
        6880937977,
        6880937976,
        6880937975,
        6880937970,
        6880937979
      ],
      "tags": {
        "amenity": "parking",
        "capacity": "15",
        "fee": "no",
        "surface": "asphalt"
      }
    },
    {
      "type": "way",
      "id": 914021981,
      "timestamp": "2021-03-05T23:53:21Z",
      "version": 1,
      "changeset": 100518690,
      "user": "Doc Géofan",
      "uid": 12793685,
      "nodes": [
        8490535159,
        8490535160,
        8490535161,
        8490535162,
        8490535163,
        8490535164,
        8490535159
      ],
      "tags": {
        "amenity": "parking",
        "capacity": "20",
        "fee": "no",
        "parking": "surface"
      }
    },
    {
      "type": "way",
      "id": 986721708,
      "timestamp": "2021-09-24T16:37:47Z",
      "version": 1,
      "changeset": 111656713,
      "user": "SHARCRASH",
      "uid": 1808015,
      "nodes": [
        9120658339,
        9120658340,
        9120658345,
        9120658344,
        9120658343,
        9120658342,
        9120658339
      ],
      "tags": {
        "amenity": "parking"
      }
    },
    {
      "type": "way",
      "id": 987718046,
      "timestamp": "2021-09-28T13:55:15Z",
      "version": 1,
      "changeset": 111820700,
      "user": "SHARCRASH",
      "uid": 1808015,
      "nodes": [
        1036000272,
        312353456,
        3370804350,
        312353457,
        1036000261,
        3473618752,
        1036000349,
        1036000234,
        1036000272
      ],
      "tags": {
        "amenity": "parking",
        "psv": "yes"
      }
    },
    {
      "type": "way",
      "id": 987718054,
      "timestamp": "2021-09-28T13:55:15Z",
      "version": 1,
      "changeset": 111820700,
      "user": "SHARCRASH",
      "uid": 1808015,
      "nodes": [
        9129721290,
        269317945,
        9129721314,
        3466580983,
        3539404495,
        269317944,
        3539404493,
        9129721295,
        9129721294,
        9129721293,
        9129721292,
        9129721291,
        9129721302,
        9129721301,
        9129721300,
        9129721288,
        9129721287,
        9129721290
      ],
      "tags": {
        "amenity": "parking"
      }
    },
    {
      "type": "node",
      "id": 2689915749,
      "lat": 50.4654553,
      "lon": 5.8134639
    },
    {
      "type": "node",
      "id": 2689915756,
      "lat": 50.465533,
      "lon": 5.8135503
    },
    {
      "type": "node",
      "id": 2689915761,
      "lat": 50.4655899,
      "lon": 5.8141457
    },
    {
      "type": "node",
      "id": 2689915763,
      "lat": 50.4656477,
      "lon": 5.8140008
    },
    {
      "type": "node",
      "id": 3545199400,
      "lat": 50.4654393,
      "lon": 5.8135685
    },
    {
      "type": "node",
      "id": 3545199406,
      "lat": 50.4655254,
      "lon": 5.8136023
    },
    {
      "type": "node",
      "id": 1231337757,
      "lat": 50.4824529,
      "lon": 5.8024924
    },
    {
      "type": "node",
      "id": 1231337761,
      "lat": 50.4828113,
      "lon": 5.8024656
    },
    {
      "type": "node",
      "id": 1231337814,
      "lat": 50.4827123,
      "lon": 5.8027124
    },
    {
      "type": "node",
      "id": 1231337844,
      "lat": 50.4825553,
      "lon": 5.8028518
    },
    {
      "type": "node",
      "id": 1231337893,
      "lat": 50.4822481,
      "lon": 5.8028196
    },
    {
      "type": "node",
      "id": 1231337915,
      "lat": 50.4821491,
      "lon": 5.8027445
    },
    {
      "type": "node",
      "id": 1231337917,
      "lat": 50.4823539,
      "lon": 5.8024495
    },
    {
      "type": "node",
      "id": 1231337974,
      "lat": 50.4824119,
      "lon": 5.8030825
    },
    {
      "type": "node",
      "id": 1231338053,
      "lat": 50.4826372,
      "lon": 5.8023154
    },
    {
      "type": "node",
      "id": 1231338058,
      "lat": 50.482347,
      "lon": 5.8029484
    },
    {
      "type": "node",
      "id": 8214138204,
      "lat": 50.4827114,
      "lon": 5.8025008
    },
    {
      "type": "node",
      "id": 8214138205,
      "lat": 50.4825681,
      "lon": 5.8025536
    },
    {
      "type": "node",
      "id": 8214138206,
      "lat": 50.4825754,
      "lon": 5.8024456
    },
    {
      "type": "node",
      "id": 8214138207,
      "lat": 50.4825096,
      "lon": 5.8024778
    },
    {
      "type": "node",
      "id": 8214138208,
      "lat": 50.4824759,
      "lon": 5.8025352
    },
    {
      "type": "node",
      "id": 8214138209,
      "lat": 50.4823545,
      "lon": 5.8025536
    },
    {
      "type": "node",
      "id": 8214138210,
      "lat": 50.4821453,
      "lon": 5.8028042
    },
    {
      "type": "node",
      "id": 8214138211,
      "lat": 50.4822287,
      "lon": 5.8029629
    },
    {
      "type": "node",
      "id": 8214138212,
      "lat": 50.4824247,
      "lon": 5.8026985
    },
    {
      "type": "node",
      "id": 8214138213,
      "lat": 50.4826749,
      "lon": 5.8026364
    },
    {
      "type": "node",
      "id": 331915523,
      "lat": 50.4855755,
      "lon": 5.8083598
    },
    {
      "type": "node",
      "id": 1771718918,
      "lat": 50.4853191,
      "lon": 5.808447
    },
    {
      "type": "node",
      "id": 1771719025,
      "lat": 50.4851544,
      "lon": 5.8085288
    },
    {
      "type": "node",
      "id": 2686983303,
      "lat": 50.4849616,
      "lon": 5.8086508
    },
    {
      "type": "node",
      "id": 6554534037,
      "lat": 50.4855357,
      "lon": 5.808218
    },
    {
      "type": "node",
      "id": 6554534039,
      "lat": 50.4855,
      "lon": 5.8083822
    },
    {
      "type": "node",
      "id": 6554534040,
      "lat": 50.4854682,
      "lon": 5.8082675
    },
    {
      "type": "node",
      "id": 6554534042,
      "lat": 50.485288,
      "lon": 5.8083373
    },
    {
      "type": "node",
      "id": 6554534044,
      "lat": 50.4851194,
      "lon": 5.8084282
    },
    {
      "type": "node",
      "id": 6554534045,
      "lat": 50.4849146,
      "lon": 5.8085583
    },
    {
      "type": "node",
      "id": 9120658339,
      "lat": 50.4848319,
      "lon": 5.80839
    },
    {
      "type": "node",
      "id": 9120658340,
      "lat": 50.4848267,
      "lon": 5.808441
    },
    {
      "type": "node",
      "id": 9120658342,
      "lat": 50.4845834,
      "lon": 5.8078874
    },
    {
      "type": "node",
      "id": 9120658343,
      "lat": 50.4845767,
      "lon": 5.807936
    },
    {
      "type": "node",
      "id": 9120658344,
      "lat": 50.4845699,
      "lon": 5.8080527
    },
    {
      "type": "node",
      "id": 9120658345,
      "lat": 50.4848178,
      "lon": 5.8085214
    },
    {
      "type": "node",
      "id": 331915522,
      "lat": 50.4861843,
      "lon": 5.8083075
    },
    {
      "type": "node",
      "id": 6554534003,
      "lat": 50.4870933,
      "lon": 5.8085223
    },
    {
      "type": "node",
      "id": 6554534004,
      "lat": 50.4870841,
      "lon": 5.8087753
    },
    {
      "type": "node",
      "id": 6554534005,
      "lat": 50.4862724,
      "lon": 5.8087029
    },
    {
      "type": "node",
      "id": 6554534006,
      "lat": 50.4861579,
      "lon": 5.8083545
    },
    {
      "type": "node",
      "id": 6554534007,
      "lat": 50.4862815,
      "lon": 5.8084499
    },
    {
      "type": "node",
      "id": 6554534020,
      "lat": 50.4859576,
      "lon": 5.8080721
    },
    {
      "type": "node",
      "id": 6554534021,
      "lat": 50.4859609,
      "lon": 5.8078656
    },
    {
      "type": "node",
      "id": 6554534022,
      "lat": 50.4859728,
      "lon": 5.8078049
    },
    {
      "type": "node",
      "id": 6554534023,
      "lat": 50.4859936,
      "lon": 5.8077676
    },
    {
      "type": "node",
      "id": 6554534024,
      "lat": 50.4860188,
      "lon": 5.8077536
    },
    {
      "type": "node",
      "id": 6554534025,
      "lat": 50.4861644,
      "lon": 5.8077465
    },
    {
      "type": "node",
      "id": 6554534026,
      "lat": 50.4861614,
      "lon": 5.8080688
    },
    {
      "type": "node",
      "id": 6554534028,
      "lat": 50.4861224,
      "lon": 5.8080747
    },
    {
      "type": "node",
      "id": 6554534034,
      "lat": 50.4859983,
      "lon": 5.8083451
    },
    {
      "type": "node",
      "id": 6554534035,
      "lat": 50.4859417,
      "lon": 5.8081978
    },
    {
      "type": "node",
      "id": 6554534036,
      "lat": 50.4857696,
      "lon": 5.8081989
    },
    {
      "type": "node",
      "id": 6567754201,
      "lat": 50.4862048,
      "lon": 5.8083585
    },
    {
      "type": "node",
      "id": 6567754204,
      "lat": 50.4862769,
      "lon": 5.8085784
    },
    {
      "type": "node",
      "id": 6567754206,
      "lat": 50.487089,
      "lon": 5.8086394
    },
    {
      "type": "node",
      "id": 6567754208,
      "lat": 50.4861619,
      "lon": 5.8080118
    },
    {
      "type": "node",
      "id": 9120658322,
      "lat": 50.4870871,
      "lon": 5.808693
    },
    {
      "type": "node",
      "id": 9120658337,
      "lat": 50.4861566,
      "lon": 5.8082224
    },
    {
      "type": "node",
      "id": 9120658356,
      "lat": 50.4857509,
      "lon": 5.8083411
    },
    {
      "type": "node",
      "id": 1532859682,
      "lat": 50.468577,
      "lon": 5.8376945
    },
    {
      "type": "node",
      "id": 1532859692,
      "lat": 50.4692853,
      "lon": 5.8372054
    },
    {
      "type": "node",
      "id": 1532859700,
      "lat": 50.4691931,
      "lon": 5.8370069
    },
    {
      "type": "node",
      "id": 1944458226,
      "lat": 50.4685864,
      "lon": 5.837684
    },
    {
      "type": "node",
      "id": 4081125391,
      "lat": 50.4692314,
      "lon": 5.8370893
    },
    {
      "type": "node",
      "id": 4081125398,
      "lat": 50.4687519,
      "lon": 5.8378239
    },
    {
      "type": "node",
      "id": 6880937970,
      "lat": 50.4628401,
      "lon": 5.8654332
    },
    {
      "type": "node",
      "id": 6880937975,
      "lat": 50.4627794,
      "lon": 5.8652964
    },
    {
      "type": "node",
      "id": 6880937976,
      "lat": 50.4625524,
      "lon": 5.8648807
    },
    {
      "type": "node",
      "id": 6880937977,
      "lat": 50.4626002,
      "lon": 5.8648083
    },
    {
      "type": "node",
      "id": 6880937978,
      "lat": 50.4627129,
      "lon": 5.8648203
    },
    {
      "type": "node",
      "id": 6880937979,
      "lat": 50.4628102,
      "lon": 5.8648109
    },
    {
      "type": "node",
      "id": 2366411889,
      "lat": 50.4663968,
      "lon": 5.871648
    },
    {
      "type": "node",
      "id": 2674710465,
      "lat": 50.4886439,
      "lon": 5.8442648
    },
    {
      "type": "node",
      "id": 2674710472,
      "lat": 50.4887354,
      "lon": 5.8448164
    },
    {
      "type": "node",
      "id": 2674710496,
      "lat": 50.489079,
      "lon": 5.8446875
    },
    {
      "type": "node",
      "id": 2674710499,
      "lat": 50.4891139,
      "lon": 5.8441485
    },
    {
      "type": "node",
      "id": 2674710500,
      "lat": 50.4891391,
      "lon": 5.845104
    },
    {
      "type": "node",
      "id": 2674710503,
      "lat": 50.4891986,
      "lon": 5.8457482
    },
    {
      "type": "node",
      "id": 2674710505,
      "lat": 50.4891439,
      "lon": 5.8428755
    },
    {
      "type": "node",
      "id": 2674710506,
      "lat": 50.4893203,
      "lon": 5.8442305
    },
    {
      "type": "node",
      "id": 2674710507,
      "lat": 50.4893412,
      "lon": 5.8456962
    },
    {
      "type": "node",
      "id": 2674710508,
      "lat": 50.4893426,
      "lon": 5.8440326
    },
    {
      "type": "node",
      "id": 2674710509,
      "lat": 50.4893358,
      "lon": 5.8445645
    },
    {
      "type": "node",
      "id": 2674710510,
      "lat": 50.489345,
      "lon": 5.8442195
    },
    {
      "type": "node",
      "id": 2674710511,
      "lat": 50.4893598,
      "lon": 5.8450149
    },
    {
      "type": "node",
      "id": 2990978083,
      "lat": 50.4888965,
      "lon": 5.8429984
    },
    {
      "type": "node",
      "id": 2990978084,
      "lat": 50.4889989,
      "lon": 5.8434632
    },
    {
      "type": "node",
      "id": 3944212815,
      "lat": 50.4890532,
      "lon": 5.8437706
    },
    {
      "type": "node",
      "id": 3944212816,
      "lat": 50.4890693,
      "lon": 5.8438821
    },
    {
      "type": "node",
      "id": 3944212829,
      "lat": 50.4891039,
      "lon": 5.8451162
    },
    {
      "type": "node",
      "id": 4223399751,
      "lat": 50.4886191,
      "lon": 5.8436114
    },
    {
      "type": "node",
      "id": 4223399752,
      "lat": 50.4885934,
      "lon": 5.8434628
    },
    {
      "type": "node",
      "id": 4223399753,
      "lat": 50.4889405,
      "lon": 5.843302
    },
    {
      "type": "node",
      "id": 7467224774,
      "lat": 50.4889549,
      "lon": 5.8442154
    },
    {
      "type": "node",
      "id": 7467224775,
      "lat": 50.4889494,
      "lon": 5.8441655
    },
    {
      "type": "node",
      "id": 7467224776,
      "lat": 50.4893489,
      "lon": 5.8454044
    },
    {
      "type": "node",
      "id": 7467224783,
      "lat": 50.4896392,
      "lon": 5.8447522
    },
    {
      "type": "node",
      "id": 7467224784,
      "lat": 50.4897072,
      "lon": 5.8451689
    },
    {
      "type": "node",
      "id": 7467239585,
      "lat": 50.4897493,
      "lon": 5.8451519
    },
    {
      "type": "node",
      "id": 7467239586,
      "lat": 50.4896813,
      "lon": 5.8447353
    },
    {
      "type": "node",
      "id": 7467239587,
      "lat": 50.4896972,
      "lon": 5.8452859
    },
    {
      "type": "node",
      "id": 7467239588,
      "lat": 50.4897492,
      "lon": 5.8456502
    },
    {
      "type": "node",
      "id": 7467239589,
      "lat": 50.4897952,
      "lon": 5.845634
    },
    {
      "type": "node",
      "id": 7467239590,
      "lat": 50.4897431,
      "lon": 5.8452697
    },
    {
      "type": "node",
      "id": 1237089495,
      "lat": 50.4869942,
      "lon": 5.846942
    },
    {
      "type": "node",
      "id": 1237089530,
      "lat": 50.4869124,
      "lon": 5.846499
    },
    {
      "type": "node",
      "id": 1237089533,
      "lat": 50.4867194,
      "lon": 5.8460247
    },
    {
      "type": "node",
      "id": 1237089541,
      "lat": 50.4868918,
      "lon": 5.846427
    },
    {
      "type": "node",
      "id": 1237089544,
      "lat": 50.4867894,
      "lon": 5.8461668
    },
    {
      "type": "node",
      "id": 1237101619,
      "lat": 50.4870386,
      "lon": 5.8475857
    },
    {
      "type": "node",
      "id": 1237101663,
      "lat": 50.4867518,
      "lon": 5.847988
    },
    {
      "type": "node",
      "id": 1237101672,
      "lat": 50.486774,
      "lon": 5.8477574
    },
    {
      "type": "node",
      "id": 1237101682,
      "lat": 50.4865966,
      "lon": 5.8473282
    },
    {
      "type": "node",
      "id": 1237101699,
      "lat": 50.4867995,
      "lon": 5.8479897
    },
    {
      "type": "node",
      "id": 1237101721,
      "lat": 50.4865727,
      "lon": 5.8473685
    },
    {
      "type": "node",
      "id": 1237101740,
      "lat": 50.486765,
      "lon": 5.8478531
    },
    {
      "type": "node",
      "id": 1237101764,
      "lat": 50.486559,
      "lon": 5.8474114
    },
    {
      "type": "node",
      "id": 1237101772,
      "lat": 50.4866853,
      "lon": 5.8478915
    },
    {
      "type": "node",
      "id": 1237101777,
      "lat": 50.4869498,
      "lon": 5.8471056
    },
    {
      "type": "node",
      "id": 1237101786,
      "lat": 50.4866546,
      "lon": 5.8478191
    },
    {
      "type": "node",
      "id": 1237103055,
      "lat": 50.4868004,
      "lon": 5.8471998
    },
    {
      "type": "node",
      "id": 1237103056,
      "lat": 50.486588,
      "lon": 5.8460971
    },
    {
      "type": "node",
      "id": 1237103059,
      "lat": 50.4870112,
      "lon": 5.847074
    },
    {
      "type": "node",
      "id": 1237103062,
      "lat": 50.4865539,
      "lon": 5.8462205
    },
    {
      "type": "node",
      "id": 1237103071,
      "lat": 50.4866119,
      "lon": 5.8461829
    },
    {
      "type": "node",
      "id": 1237103076,
      "lat": 50.4867983,
      "lon": 5.8472011
    },
    {
      "type": "node",
      "id": 4223399720,
      "lat": 50.4899567,
      "lon": 5.8470925
    },
    {
      "type": "node",
      "id": 4223399721,
      "lat": 50.4898842,
      "lon": 5.8471202
    },
    {
      "type": "node",
      "id": 4223399722,
      "lat": 50.4899592,
      "lon": 5.8476062
    },
    {
      "type": "node",
      "id": 4223399723,
      "lat": 50.4894146,
      "lon": 5.8477676
    },
    {
      "type": "node",
      "id": 4223399724,
      "lat": 50.4894716,
      "lon": 5.8481369
    },
    {
      "type": "node",
      "id": 4223399725,
      "lat": 50.4900821,
      "lon": 5.8479039
    },
    {
      "type": "node",
      "id": 7467239591,
      "lat": 50.4894761,
      "lon": 5.8460019
    },
    {
      "type": "node",
      "id": 7467239592,
      "lat": 50.4894498,
      "lon": 5.8462938
    },
    {
      "type": "node",
      "id": 7467239593,
      "lat": 50.4893986,
      "lon": 5.8466086
    },
    {
      "type": "node",
      "id": 7467239594,
      "lat": 50.489476,
      "lon": 5.8465801
    },
    {
      "type": "node",
      "id": 7467239595,
      "lat": 50.4895658,
      "lon": 5.8465275
    },
    {
      "type": "node",
      "id": 7467239596,
      "lat": 50.4895409,
      "lon": 5.8462768
    },
    {
      "type": "node",
      "id": 7467239597,
      "lat": 50.4895591,
      "lon": 5.845999
    },
    {
      "type": "node",
      "id": 7467239625,
      "lat": 50.4897626,
      "lon": 5.8476348
    },
    {
      "type": "node",
      "id": 7467239626,
      "lat": 50.4897694,
      "lon": 5.8476787
    },
    {
      "type": "node",
      "id": 7556050976,
      "lat": 50.4901321,
      "lon": 5.8480153
    },
    {
      "type": "node",
      "id": 7556050977,
      "lat": 50.4901848,
      "lon": 5.8483688
    },
    {
      "type": "node",
      "id": 7556050978,
      "lat": 50.4899818,
      "lon": 5.8484318
    },
    {
      "type": "node",
      "id": 7556050979,
      "lat": 50.4899302,
      "lon": 5.8480964
    },
    {
      "type": "node",
      "id": 7889425412,
      "lat": 50.491444,
      "lon": 5.8511948
    },
    {
      "type": "node",
      "id": 7889425413,
      "lat": 50.4915242,
      "lon": 5.8517611
    },
    {
      "type": "node",
      "id": 7889425414,
      "lat": 50.491568,
      "lon": 5.8517458
    },
    {
      "type": "node",
      "id": 7889425415,
      "lat": 50.4914878,
      "lon": 5.8511795
    },
    {
      "type": "node",
      "id": 269317909,
      "lat": 50.4904754,
      "lon": 5.8550047
    },
    {
      "type": "node",
      "id": 312353468,
      "lat": 50.490345,
      "lon": 5.8549451
    },
    {
      "type": "node",
      "id": 1036211465,
      "lat": 50.490363,
      "lon": 5.8549842
    },
    {
      "type": "node",
      "id": 1036211514,
      "lat": 50.4904688,
      "lon": 5.8550369
    },
    {
      "type": "node",
      "id": 1036211586,
      "lat": 50.4905063,
      "lon": 5.8558744
    },
    {
      "type": "node",
      "id": 1036211637,
      "lat": 50.4906076,
      "lon": 5.8559613
    },
    {
      "type": "node",
      "id": 1036258646,
      "lat": 50.4902564,
      "lon": 5.8549486
    },
    {
      "type": "node",
      "id": 1036258655,
      "lat": 50.4901567,
      "lon": 5.8549883
    },
    {
      "type": "node",
      "id": 1244656512,
      "lat": 50.4897966,
      "lon": 5.85722
    },
    {
      "type": "node",
      "id": 2168741861,
      "lat": 50.4901996,
      "lon": 5.8535512
    },
    {
      "type": "node",
      "id": 2168741864,
      "lat": 50.4904575,
      "lon": 5.8548409
    },
    {
      "type": "node",
      "id": 2168743493,
      "lat": 50.4898507,
      "lon": 5.8530228
    },
    {
      "type": "node",
      "id": 2168743494,
      "lat": 50.4900227,
      "lon": 5.8526322
    },
    {
      "type": "node",
      "id": 3713851613,
      "lat": 50.4899578,
      "lon": 5.8569335
    },
    {
      "type": "node",
      "id": 3713851614,
      "lat": 50.4899661,
      "lon": 5.8569912
    },
    {
      "type": "node",
      "id": 3713851618,
      "lat": 50.4900426,
      "lon": 5.8575218
    },
    {
      "type": "node",
      "id": 3713851619,
      "lat": 50.4900661,
      "lon": 5.8568877
    },
    {
      "type": "node",
      "id": 3713851621,
      "lat": 50.4901511,
      "lon": 5.8574797
    },
    {
      "type": "node",
      "id": 3973271801,
      "lat": 50.4913467,
      "lon": 5.8584766
    },
    {
      "type": "node",
      "id": 3973271802,
      "lat": 50.4913586,
      "lon": 5.8585466
    },
    {
      "type": "node",
      "id": 3973271803,
      "lat": 50.4911789,
      "lon": 5.8586751
    },
    {
      "type": "node",
      "id": 3973271804,
      "lat": 50.4911699,
      "lon": 5.8586097
    },
    {
      "type": "node",
      "id": 5351629065,
      "lat": 50.4898016,
      "lon": 5.852718
    },
    {
      "type": "node",
      "id": 7878396603,
      "lat": 50.4883911,
      "lon": 5.8538524
    },
    {
      "type": "node",
      "id": 7878396604,
      "lat": 50.4884569,
      "lon": 5.854137
    },
    {
      "type": "node",
      "id": 7878396605,
      "lat": 50.4885153,
      "lon": 5.8541037
    },
    {
      "type": "node",
      "id": 7878396606,
      "lat": 50.4884495,
      "lon": 5.853819
    },
    {
      "type": "node",
      "id": 7889425427,
      "lat": 50.4915386,
      "lon": 5.8534513
    },
    {
      "type": "node",
      "id": 7889425428,
      "lat": 50.491574,
      "lon": 5.8537349
    },
    {
      "type": "node",
      "id": 7889425429,
      "lat": 50.4917024,
      "lon": 5.8536954
    },
    {
      "type": "node",
      "id": 7889425430,
      "lat": 50.491667,
      "lon": 5.8534117
    },
    {
      "type": "node",
      "id": 7892404134,
      "lat": 50.4890026,
      "lon": 5.856428
    },
    {
      "type": "node",
      "id": 7892404135,
      "lat": 50.489072,
      "lon": 5.8563896
    },
    {
      "type": "node",
      "id": 7892404150,
      "lat": 50.488884,
      "lon": 5.8552292
    },
    {
      "type": "node",
      "id": 7892404151,
      "lat": 50.4888912,
      "lon": 5.8552992
    },
    {
      "type": "node",
      "id": 7892404152,
      "lat": 50.4887293,
      "lon": 5.8553088
    },
    {
      "type": "node",
      "id": 7892404153,
      "lat": 50.4887772,
      "lon": 5.8558801
    },
    {
      "type": "node",
      "id": 7892404154,
      "lat": 50.4888875,
      "lon": 5.8558339
    },
    {
      "type": "node",
      "id": 7892404155,
      "lat": 50.4889219,
      "lon": 5.8560758
    },
    {
      "type": "node",
      "id": 7892404156,
      "lat": 50.4887965,
      "lon": 5.8561485
    },
    {
      "type": "node",
      "id": 7892404157,
      "lat": 50.4888262,
      "lon": 5.8563402
    },
    {
      "type": "node",
      "id": 7892404158,
      "lat": 50.4889725,
      "lon": 5.8562902
    },
    {
      "type": "node",
      "id": 7892404159,
      "lat": 50.4890536,
      "lon": 5.8562915
    },
    {
      "type": "node",
      "id": 7892404160,
      "lat": 50.4892044,
      "lon": 5.8562291
    },
    {
      "type": "node",
      "id": 7892404161,
      "lat": 50.4890954,
      "lon": 5.8556522
    },
    {
      "type": "node",
      "id": 7892404162,
      "lat": 50.4890839,
      "lon": 5.8551994
    },
    {
      "type": "node",
      "id": 7892404179,
      "lat": 50.4895527,
      "lon": 5.8570806
    },
    {
      "type": "node",
      "id": 7892404180,
      "lat": 50.4894974,
      "lon": 5.857177
    },
    {
      "type": "node",
      "id": 7892404181,
      "lat": 50.4895066,
      "lon": 5.8573361
    },
    {
      "type": "node",
      "id": 7892404182,
      "lat": 50.4898119,
      "lon": 5.857177
    },
    {
      "type": "node",
      "id": 7892404183,
      "lat": 50.4897858,
      "lon": 5.8569962
    },
    {
      "type": "node",
      "id": 7892404184,
      "lat": 50.4895711,
      "lon": 5.8555209
    },
    {
      "type": "node",
      "id": 7892404185,
      "lat": 50.4896799,
      "lon": 5.8561043
    },
    {
      "type": "node",
      "id": 7892404186,
      "lat": 50.4893502,
      "lon": 5.8562562
    },
    {
      "type": "node",
      "id": 7892404187,
      "lat": 50.4893747,
      "lon": 5.8564032
    },
    {
      "type": "node",
      "id": 7892404188,
      "lat": 50.4895665,
      "lon": 5.8566394
    },
    {
      "type": "node",
      "id": 7892404189,
      "lat": 50.4897306,
      "lon": 5.8566587
    },
    {
      "type": "node",
      "id": 7892404190,
      "lat": 50.4898717,
      "lon": 5.856801
    },
    {
      "type": "node",
      "id": 7892404191,
      "lat": 50.4899621,
      "lon": 5.8567479
    },
    {
      "type": "node",
      "id": 7892404192,
      "lat": 50.4900097,
      "lon": 5.8565985
    },
    {
      "type": "node",
      "id": 7892404193,
      "lat": 50.4897965,
      "lon": 5.8554004
    },
    {
      "type": "node",
      "id": 618374716,
      "lat": 50.4894496,
      "lon": 5.862061
    },
    {
      "type": "node",
      "id": 618374733,
      "lat": 50.4890916,
      "lon": 5.8617763
    },
    {
      "type": "node",
      "id": 618374737,
      "lat": 50.4889203,
      "lon": 5.8616689
    },
    {
      "type": "node",
      "id": 618374742,
      "lat": 50.4888456,
      "lon": 5.861747
    },
    {
      "type": "node",
      "id": 618374789,
      "lat": 50.4894436,
      "lon": 5.8621266
    },
    {
      "type": "node",
      "id": 618374799,
      "lat": 50.4889662,
      "lon": 5.8618151
    },
    {
      "type": "node",
      "id": 618374805,
      "lat": 50.4892429,
      "lon": 5.8620209
    },
    {
      "type": "node",
      "id": 633480960,
      "lat": 50.4892702,
      "lon": 5.8618839
    },
    {
      "type": "node",
      "id": 1036070513,
      "lat": 50.4893541,
      "lon": 5.8620043
    },
    {
      "type": "node",
      "id": 1238496972,
      "lat": 50.4920943,
      "lon": 5.8639009
    },
    {
      "type": "node",
      "id": 1238496985,
      "lat": 50.4912823,
      "lon": 5.8639739
    },
    {
      "type": "node",
      "id": 1238497007,
      "lat": 50.4912871,
      "lon": 5.8640827
    },
    {
      "type": "node",
      "id": 1238497016,
      "lat": 50.4920991,
      "lon": 5.8639943
    },
    {
      "type": "node",
      "id": 1238722061,
      "lat": 50.4918532,
      "lon": 5.8647022
    },
    {
      "type": "node",
      "id": 1238722092,
      "lat": 50.4918581,
      "lon": 5.8648068
    },
    {
      "type": "node",
      "id": 4193015507,
      "lat": 50.4898421,
      "lon": 5.8631612
    },
    {
      "type": "node",
      "id": 4193015508,
      "lat": 50.4898302,
      "lon": 5.8632359
    },
    {
      "type": "node",
      "id": 4193015509,
      "lat": 50.4895197,
      "lon": 5.8632896
    },
    {
      "type": "node",
      "id": 4193015510,
      "lat": 50.4894722,
      "lon": 5.8632849
    },
    {
      "type": "node",
      "id": 4193015511,
      "lat": 50.4895183,
      "lon": 5.8629954
    },
    {
      "type": "node",
      "id": 8012563027,
      "lat": 50.492168,
      "lon": 5.8647831
    },
    {
      "type": "node",
      "id": 8490535159,
      "lat": 50.4903799,
      "lon": 5.8591978
    },
    {
      "type": "node",
      "id": 8490535160,
      "lat": 50.4903169,
      "lon": 5.8592002
    },
    {
      "type": "node",
      "id": 8490535161,
      "lat": 50.4902094,
      "lon": 5.8600117
    },
    {
      "type": "node",
      "id": 8490535162,
      "lat": 50.4902708,
      "lon": 5.8599731
    },
    {
      "type": "node",
      "id": 8490535163,
      "lat": 50.4903177,
      "lon": 5.8597207
    },
    {
      "type": "node",
      "id": 8490535164,
      "lat": 50.4903653,
      "lon": 5.8594297
    },
    {
      "type": "node",
      "id": 540134731,
      "lat": 50.4909771,
      "lon": 5.8667116
    },
    {
      "type": "node",
      "id": 618375104,
      "lat": 50.4911393,
      "lon": 5.8670495
    },
    {
      "type": "node",
      "id": 618375113,
      "lat": 50.4908378,
      "lon": 5.8671335
    },
    {
      "type": "node",
      "id": 618375124,
      "lat": 50.490793,
      "lon": 5.866823
    },
    {
      "type": "node",
      "id": 619884279,
      "lat": 50.4908392,
      "lon": 5.8667402
    },
    {
      "type": "node",
      "id": 1036107002,
      "lat": 50.4911022,
      "lon": 5.8666925
    },
    {
      "type": "node",
      "id": 1036369303,
      "lat": 50.491432,
      "lon": 5.8696633
    },
    {
      "type": "node",
      "id": 1036369329,
      "lat": 50.4916839,
      "lon": 5.8694101
    },
    {
      "type": "node",
      "id": 1036369339,
      "lat": 50.4914846,
      "lon": 5.8699792
    },
    {
      "type": "node",
      "id": 1036369347,
      "lat": 50.4919062,
      "lon": 5.8695319
    },
    {
      "type": "node",
      "id": 1036369357,
      "lat": 50.4914561,
      "lon": 5.8699194
    },
    {
      "type": "node",
      "id": 1036369363,
      "lat": 50.4918664,
      "lon": 5.8692328
    },
    {
      "type": "node",
      "id": 1036369367,
      "lat": 50.4919811,
      "lon": 5.8689172
    },
    {
      "type": "node",
      "id": 1036369371,
      "lat": 50.4918794,
      "lon": 5.8694703
    },
    {
      "type": "node",
      "id": 1036369380,
      "lat": 50.4918194,
      "lon": 5.8693258
    },
    {
      "type": "node",
      "id": 1036369390,
      "lat": 50.4917972,
      "lon": 5.8692774
    },
    {
      "type": "node",
      "id": 1036369414,
      "lat": 50.4918332,
      "lon": 5.8692033
    },
    {
      "type": "node",
      "id": 1036369435,
      "lat": 50.4919511,
      "lon": 5.8688932
    },
    {
      "type": "node",
      "id": 1036369482,
      "lat": 50.4917076,
      "lon": 5.8694579
    },
    {
      "type": "node",
      "id": 1036369490,
      "lat": 50.4914535,
      "lon": 5.8697216
    },
    {
      "type": "node",
      "id": 3967870248,
      "lat": 50.4915675,
      "lon": 5.8699157
    },
    {
      "type": "node",
      "id": 3967870249,
      "lat": 50.4916391,
      "lon": 5.8698397
    },
    {
      "type": "node",
      "id": 7872704717,
      "lat": 50.4903765,
      "lon": 5.8695798
    },
    {
      "type": "node",
      "id": 7872704718,
      "lat": 50.4904502,
      "lon": 5.8697783
    },
    {
      "type": "node",
      "id": 7872704719,
      "lat": 50.4905155,
      "lon": 5.8697192
    },
    {
      "type": "node",
      "id": 7872704720,
      "lat": 50.490446,
      "lon": 5.8695207
    },
    {
      "type": "node",
      "id": 8014012461,
      "lat": 50.4911097,
      "lon": 5.866765
    },
    {
      "type": "node",
      "id": 3961199823,
      "lat": 50.4931159,
      "lon": 5.8565885
    },
    {
      "type": "node",
      "id": 3961199824,
      "lat": 50.4931798,
      "lon": 5.8573124
    },
    {
      "type": "node",
      "id": 3961199825,
      "lat": 50.4930936,
      "lon": 5.8573264
    },
    {
      "type": "node",
      "id": 3961199826,
      "lat": 50.4930357,
      "lon": 5.8566025
    },
    {
      "type": "node",
      "id": 7890817815,
      "lat": 50.4924934,
      "lon": 5.8582324
    },
    {
      "type": "node",
      "id": 7890817816,
      "lat": 50.4924694,
      "lon": 5.8580721
    },
    {
      "type": "node",
      "id": 7890817817,
      "lat": 50.4924333,
      "lon": 5.8580855
    },
    {
      "type": "node",
      "id": 7890817818,
      "lat": 50.4924156,
      "lon": 5.8579672
    },
    {
      "type": "node",
      "id": 7890817819,
      "lat": 50.4923518,
      "lon": 5.8579909
    },
    {
      "type": "node",
      "id": 7890817820,
      "lat": 50.4923704,
      "lon": 5.8581155
    },
    {
      "type": "node",
      "id": 7890817821,
      "lat": 50.4923127,
      "lon": 5.8581369
    },
    {
      "type": "node",
      "id": 7890817822,
      "lat": 50.4923892,
      "lon": 5.8586478
    },
    {
      "type": "node",
      "id": 7890817823,
      "lat": 50.4925999,
      "lon": 5.8585698
    },
    {
      "type": "node",
      "id": 7890817824,
      "lat": 50.4925465,
      "lon": 5.8582128
    },
    {
      "type": "node",
      "id": 7890817826,
      "lat": 50.4926768,
      "lon": 5.856757
    },
    {
      "type": "node",
      "id": 7890817827,
      "lat": 50.4927369,
      "lon": 5.8576275
    },
    {
      "type": "node",
      "id": 7890817828,
      "lat": 50.4927868,
      "lon": 5.8576369
    },
    {
      "type": "node",
      "id": 7890817829,
      "lat": 50.4927191,
      "lon": 5.8567304
    },
    {
      "type": "node",
      "id": 269317944,
      "lat": 50.4978517,
      "lon": 5.8639406
    },
    {
      "type": "node",
      "id": 269317945,
      "lat": 50.4977379,
      "lon": 5.8630554
    },
    {
      "type": "node",
      "id": 312353456,
      "lat": 50.4947588,
      "lon": 5.863215
    },
    {
      "type": "node",
      "id": 312353457,
      "lat": 50.4945092,
      "lon": 5.8634175
    },
    {
      "type": "node",
      "id": 312353459,
      "lat": 50.4952404,
      "lon": 5.8645387
    },
    {
      "type": "node",
      "id": 1036000171,
      "lat": 50.4948561,
      "lon": 5.8642537
    },
    {
      "type": "node",
      "id": 1036000178,
      "lat": 50.4953794,
      "lon": 5.8642483
    },
    {
      "type": "node",
      "id": 1036000183,
      "lat": 50.4952732,
      "lon": 5.8635476
    },
    {
      "type": "node",
      "id": 1036000202,
      "lat": 50.4950819,
      "lon": 5.8634009
    },
    {
      "type": "node",
      "id": 1036000208,
      "lat": 50.4954049,
      "lon": 5.8644311
    },
    {
      "type": "node",
      "id": 1036000224,
      "lat": 50.4947081,
      "lon": 5.8639364
    },
    {
      "type": "node",
      "id": 1036000234,
      "lat": 50.4946204,
      "lon": 5.8635157
    },
    {
      "type": "node",
      "id": 1036000244,
      "lat": 50.4947436,
      "lon": 5.8641569
    },
    {
      "type": "node",
      "id": 1036000253,
      "lat": 50.4947571,
      "lon": 5.8640988
    },
    {
      "type": "node",
      "id": 1036000261,
      "lat": 50.494505,
      "lon": 5.8636046
    },
    {
      "type": "node",
      "id": 1036000272,
      "lat": 50.4949199,
      "lon": 5.8633162
    },
    {
      "type": "node",
      "id": 1036000277,
      "lat": 50.4945988,
      "lon": 5.8637488
    },
    {
      "type": "node",
      "id": 1036000289,
      "lat": 50.4953097,
      "lon": 5.863748
    },
    {
      "type": "node",
      "id": 1036000349,
      "lat": 50.4945911,
      "lon": 5.8635769
    },
    {
      "type": "node",
      "id": 1036000369,
      "lat": 50.4953367,
      "lon": 5.8639412
    },
    {
      "type": "node",
      "id": 1036000399,
      "lat": 50.4952417,
      "lon": 5.863496
    },
    {
      "type": "node",
      "id": 1036000407,
      "lat": 50.4953644,
      "lon": 5.8641401
    },
    {
      "type": "node",
      "id": 1036238458,
      "lat": 50.4963789,
      "lon": 5.8644389
    },
    {
      "type": "node",
      "id": 1036238472,
      "lat": 50.4969364,
      "lon": 5.8646661
    },
    {
      "type": "node",
      "id": 1036238478,
      "lat": 50.4966833,
      "lon": 5.8645077
    },
    {
      "type": "node",
      "id": 1036238492,
      "lat": 50.496885,
      "lon": 5.8645837
    },
    {
      "type": "node",
      "id": 1036238493,
      "lat": 50.4969611,
      "lon": 5.864713
    },
    {
      "type": "node",
      "id": 1036238500,
      "lat": 50.4967875,
      "lon": 5.8641459
    },
    {
      "type": "node",
      "id": 1036238528,
      "lat": 50.4965747,
      "lon": 5.8646865
    },
    {
      "type": "node",
      "id": 1036238536,
      "lat": 50.4974111,
      "lon": 5.8644549
    },
    {
      "type": "node",
      "id": 1036238568,
      "lat": 50.4967014,
      "lon": 5.8646391
    },
    {
      "type": "node",
      "id": 1036238575,
      "lat": 50.4967905,
      "lon": 5.864522
    },
    {
      "type": "node",
      "id": 1036238594,
      "lat": 50.4974444,
      "lon": 5.8644991
    },
    {
      "type": "node",
      "id": 1036238603,
      "lat": 50.4976487,
      "lon": 5.8642242
    },
    {
      "type": "node",
      "id": 1036238612,
      "lat": 50.496909,
      "lon": 5.8643301
    },
    {
      "type": "node",
      "id": 1238473826,
      "lat": 50.4922868,
      "lon": 5.8647687
    },
    {
      "type": "node",
      "id": 3370804350,
      "lat": 50.4945459,
      "lon": 5.8633558
    },
    {
      "type": "node",
      "id": 3466580983,
      "lat": 50.4978637,
      "lon": 5.8634698
    },
    {
      "type": "node",
      "id": 3466581135,
      "lat": 50.4947262,
      "lon": 5.8640788
    },
    {
      "type": "node",
      "id": 3473618752,
      "lat": 50.4945865,
      "lon": 5.8636433
    },
    {
      "type": "node",
      "id": 3539404493,
      "lat": 50.4977979,
      "lon": 5.8641299
    },
    {
      "type": "node",
      "id": 3539404495,
      "lat": 50.4978756,
      "lon": 5.8636925
    },
    {
      "type": "node",
      "id": 3792388886,
      "lat": 50.4968735,
      "lon": 5.8644953
    },
    {
      "type": "node",
      "id": 3792388887,
      "lat": 50.4967846,
      "lon": 5.8644766
    },
    {
      "type": "node",
      "id": 6198498266,
      "lat": 50.4974559,
      "lon": 5.8653186
    },
    {
      "type": "node",
      "id": 6198498269,
      "lat": 50.497383,
      "lon": 5.8653226
    },
    {
      "type": "node",
      "id": 8012563018,
      "lat": 50.492286,
      "lon": 5.8646417
    },
    {
      "type": "node",
      "id": 9129721231,
      "lat": 50.4946939,
      "lon": 5.8638252
    },
    {
      "type": "node",
      "id": 9129721232,
      "lat": 50.494705,
      "lon": 5.8640383
    },
    {
      "type": "node",
      "id": 9129721233,
      "lat": 50.4946984,
      "lon": 5.8639867
    },
    {
      "type": "node",
      "id": 9129721234,
      "lat": 50.495292,
      "lon": 5.8636207
    },
    {
      "type": "node",
      "id": 9129721280,
      "lat": 50.4976412,
      "lon": 5.864119
    },
    {
      "type": "node",
      "id": 9129721284,
      "lat": 50.4969275,
      "lon": 5.8645637
    },
    {
      "type": "node",
      "id": 9129721285,
      "lat": 50.4976126,
      "lon": 5.8640092
    },
    {
      "type": "node",
      "id": 9129721286,
      "lat": 50.4976363,
      "lon": 5.8640519
    },
    {
      "type": "node",
      "id": 9129721287,
      "lat": 50.4974774,
      "lon": 5.8629463
    },
    {
      "type": "node",
      "id": 9129721288,
      "lat": 50.4974956,
      "lon": 5.862984
    },
    {
      "type": "node",
      "id": 9129721290,
      "lat": 50.4976078,
      "lon": 5.8627892
    },
    {
      "type": "node",
      "id": 9129721291,
      "lat": 50.4977349,
      "lon": 5.8636147
    },
    {
      "type": "node",
      "id": 9129721292,
      "lat": 50.4977562,
      "lon": 5.8637542
    },
    {
      "type": "node",
      "id": 9129721293,
      "lat": 50.4977408,
      "lon": 5.8639446
    },
    {
      "type": "node",
      "id": 9129721294,
      "lat": 50.4977016,
      "lon": 5.8640438
    },
    {
      "type": "node",
      "id": 9129721295,
      "lat": 50.4977716,
      "lon": 5.86418
    },
    {
      "type": "node",
      "id": 9129721300,
      "lat": 50.4975284,
      "lon": 5.8630521
    },
    {
      "type": "node",
      "id": 9129721301,
      "lat": 50.497548,
      "lon": 5.8631775
    },
    {
      "type": "node",
      "id": 9129721302,
      "lat": 50.4976965,
      "lon": 5.8635329
    },
    {
      "type": "node",
      "id": 9129721314,
      "lat": 50.4978185,
      "lon": 5.8632646
    },
    {
      "type": "node",
      "id": 622410188,
      "lat": 50.4939668,
      "lon": 5.8661227
    },
    {
      "type": "node",
      "id": 622410192,
      "lat": 50.493616,
      "lon": 5.8660484
    },
    {
      "type": "node",
      "id": 622410196,
      "lat": 50.4935921,
      "lon": 5.8663223
    },
    {
      "type": "node",
      "id": 622410199,
      "lat": 50.4938925,
      "lon": 5.8663864
    },
    {
      "type": "node",
      "id": 1036269697,
      "lat": 50.4938981,
      "lon": 5.8662654
    },
    {
      "type": "node",
      "id": 1036269704,
      "lat": 50.4941204,
      "lon": 5.8665085
    },
    {
      "type": "node",
      "id": 1036269725,
      "lat": 50.4944593,
      "lon": 5.8667817
    },
    {
      "type": "node",
      "id": 1036269733,
      "lat": 50.4939584,
      "lon": 5.8662449
    },
    {
      "type": "node",
      "id": 1036269766,
      "lat": 50.4941484,
      "lon": 5.8664227
    },
    {
      "type": "node",
      "id": 1036269772,
      "lat": 50.4944873,
      "lon": 5.8666958
    },
    {
      "type": "node",
      "id": 1036369298,
      "lat": 50.4932355,
      "lon": 5.8669207
    },
    {
      "type": "node",
      "id": 1036369323,
      "lat": 50.4932616,
      "lon": 5.8670115
    },
    {
      "type": "node",
      "id": 1036369353,
      "lat": 50.4932709,
      "lon": 5.8673204
    },
    {
      "type": "node",
      "id": 1036369404,
      "lat": 50.4928955,
      "lon": 5.8674669
    },
    {
      "type": "node",
      "id": 1036369424,
      "lat": 50.4928592,
      "lon": 5.8669412
    },
    {
      "type": "node",
      "id": 1036369446,
      "lat": 50.4932216,
      "lon": 5.867398
    },
    {
      "type": "node",
      "id": 1036369452,
      "lat": 50.4930781,
      "lon": 5.8668855
    },
    {
      "type": "node",
      "id": 6198498267,
      "lat": 50.4975105,
      "lon": 5.8654761
    },
    {
      "type": "node",
      "id": 6198498268,
      "lat": 50.497406,
      "lon": 5.8655452
    },
    {
      "type": "node",
      "id": 1468399031,
      "lat": 50.4586452,
      "lon": 5.8826198
    },
    {
      "type": "node",
      "id": 1468399032,
      "lat": 50.4588413,
      "lon": 5.8821539
    },
    {
      "type": "node",
      "id": 1468399033,
      "lat": 50.459067,
      "lon": 5.8826673
    },
    {
      "type": "node",
      "id": 1468399036,
      "lat": 50.4590817,
      "lon": 5.8820337
    },
    {
      "type": "node",
      "id": 1468399037,
      "lat": 50.4590772,
      "lon": 5.8821794
    },
    {
      "type": "node",
      "id": 1468399038,
      "lat": 50.4591087,
      "lon": 5.8820337
    },
    {
      "type": "node",
      "id": 1468399039,
      "lat": 50.459133,
      "lon": 5.8826297
    },
    {
      "type": "node",
      "id": 1468399040,
      "lat": 50.4592167,
      "lon": 5.8820992
    },
    {
      "type": "node",
      "id": 1468399041,
      "lat": 50.4593026,
      "lon": 5.882211
    },
    {
      "type": "node",
      "id": 1479132937,
      "lat": 50.4586587,
      "lon": 5.8823964
    },
    {
      "type": "node",
      "id": 1479132948,
      "lat": 50.4588302,
      "lon": 5.8824149
    },
    {
      "type": "node",
      "id": 6578688306,
      "lat": 50.4588385,
      "lon": 5.8822186
    },
    {
      "type": "node",
      "id": 6578688322,
      "lat": 50.4591636,
      "lon": 5.8825542
    },
    {
      "type": "node",
      "id": 6833084559,
      "lat": 50.458835,
      "lon": 5.8823009
    },
    {
      "type": "node",
      "id": 2366411885,
      "lat": 50.4661715,
      "lon": 5.8721658
    },
    {
      "type": "node",
      "id": 2366411887,
      "lat": 50.466286,
      "lon": 5.8723852
    },
    {
      "type": "node",
      "id": 2366411891,
      "lat": 50.4665338,
      "lon": 5.8720735
    },
    {
      "type": "node",
      "id": 6833085152,
      "lat": 50.4664102,
      "lon": 5.8721629
    },
    {
      "type": "node",
      "id": 619884254,
      "lat": 50.4911163,
      "lon": 5.8723654
    },
    {
      "type": "node",
      "id": 619884255,
      "lat": 50.4906779,
      "lon": 5.8728676
    },
    {
      "type": "node",
      "id": 619884256,
      "lat": 50.4908712,
      "lon": 5.8732715
    },
    {
      "type": "node",
      "id": 619884257,
      "lat": 50.4909755,
      "lon": 5.8734895
    },
    {
      "type": "node",
      "id": 619884259,
      "lat": 50.4910269,
      "lon": 5.8734004
    },
    {
      "type": "node",
      "id": 619884260,
      "lat": 50.4913493,
      "lon": 5.8729842
    },
    {
      "type": "node",
      "id": 3932963356,
      "lat": 50.4921676,
      "lon": 5.8749059
    },
    {
      "type": "node",
      "id": 3932963358,
      "lat": 50.4921284,
      "lon": 5.8742967
    },
    {
      "type": "node",
      "id": 3932963359,
      "lat": 50.4920188,
      "lon": 5.8745321
    },
    {
      "type": "node",
      "id": 3932963360,
      "lat": 50.4918978,
      "lon": 5.8744228
    },
    {
      "type": "node",
      "id": 3932963361,
      "lat": 50.4921481,
      "lon": 5.8738886
    },
    {
      "type": "node",
      "id": 7871849090,
      "lat": 50.4913407,
      "lon": 5.8728463
    },
    {
      "type": "node",
      "id": 7871849091,
      "lat": 50.4921817,
      "lon": 5.8741285
    },
    {
      "type": "node",
      "id": 7871849092,
      "lat": 50.4921994,
      "lon": 5.8739657
    },
    {
      "type": "node",
      "id": 7874696680,
      "lat": 50.487946,
      "lon": 5.8725264
    },
    {
      "type": "node",
      "id": 7874696681,
      "lat": 50.4878596,
      "lon": 5.8728343
    },
    {
      "type": "node",
      "id": 7874696682,
      "lat": 50.4879104,
      "lon": 5.8728695
    },
    {
      "type": "node",
      "id": 7874696683,
      "lat": 50.4879967,
      "lon": 5.8725615
    },
    {
      "type": "node",
      "id": 7874707188,
      "lat": 50.4878201,
      "lon": 5.8731312
    },
    {
      "type": "node",
      "id": 7874707189,
      "lat": 50.4876879,
      "lon": 5.8731688
    },
    {
      "type": "node",
      "id": 7874707190,
      "lat": 50.4876862,
      "lon": 5.8732195
    },
    {
      "type": "node",
      "id": 7874707191,
      "lat": 50.4877871,
      "lon": 5.8732377
    },
    {
      "type": "node",
      "id": 7874707192,
      "lat": 50.4877681,
      "lon": 5.8736313
    },
    {
      "type": "node",
      "id": 7874707193,
      "lat": 50.4878391,
      "lon": 5.8736469
    },
    {
      "type": "node",
      "id": 7874707194,
      "lat": 50.4878614,
      "lon": 5.8732767
    },
    {
      "type": "node",
      "id": 3932963354,
      "lat": 50.4924875,
      "lon": 5.8746425
    },
    {
      "type": "node",
      "id": 3932963355,
      "lat": 50.4923915,
      "lon": 5.8750369
    },
    {
      "type": "node",
      "id": 3932963357,
      "lat": 50.4923484,
      "lon": 5.8745219
    },
    {
      "type": "node",
      "id": 7871849093,
      "lat": 50.4922941,
      "lon": 5.874323
    },
    {
      "type": "node",
      "id": 7871849094,
      "lat": 50.4922853,
      "lon": 5.8744342
    },
    {
      "type": "node",
      "id": 7871849095,
      "lat": 50.4922524,
      "lon": 5.87419
    },
    {
      "type": "node",
      "id": 7886498303,
      "lat": 50.4971746,
      "lon": 5.876856
    },
    {
      "type": "node",
      "id": 7886498304,
      "lat": 50.4970429,
      "lon": 5.87693
    },
    {
      "type": "node",
      "id": 7886498305,
      "lat": 50.4971511,
      "lon": 5.8774059
    },
    {
      "type": "node",
      "id": 7886498306,
      "lat": 50.4972226,
      "lon": 5.8773657
    },
    {
      "type": "node",
      "id": 7886498307,
      "lat": 50.4973195,
      "lon": 5.8777913
    },
    {
      "type": "node",
      "id": 7886498308,
      "lat": 50.4973797,
      "lon": 5.8777574
    },
    {
      "type": "node",
      "id": 7886498309,
      "lat": 50.4972033,
      "lon": 5.876982
    },
    {
      "type": "node",
      "id": 3935564282,
      "lat": 50.49779,
      "lon": 5.8839967
    },
    {
      "type": "node",
      "id": 3935564283,
      "lat": 50.4975498,
      "lon": 5.8846939
    },
    {
      "type": "node",
      "id": 3935564284,
      "lat": 50.4973855,
      "lon": 5.8843145
    },
    {
      "type": "node",
      "id": 3935564285,
      "lat": 50.497605,
      "lon": 5.8838092
    },
    {
      "type": "node",
      "id": 7886498285,
      "lat": 50.4975647,
      "lon": 5.8845144
    },
    {
      "type": "node",
      "id": 7886498286,
      "lat": 50.4975773,
      "lon": 5.884623
    },
    {
      "type": "node",
      "id": 7886498287,
      "lat": 50.4976017,
      "lon": 5.8843729
    },
    {
      "type": "node",
      "id": 7886498288,
      "lat": 50.4976603,
      "lon": 5.8842193
    },
    {
      "type": "node",
      "id": 7886498289,
      "lat": 50.497227,
      "lon": 5.8841458
    },
    {
      "type": "node",
      "id": 7886498290,
      "lat": 50.497169,
      "lon": 5.8842632
    },
    {
      "type": "node",
      "id": 7887141280,
      "lat": 50.5031212,
      "lon": 5.8823692
    },
    {
      "type": "node",
      "id": 7887141281,
      "lat": 50.5032787,
      "lon": 5.8826724
    },
    {
      "type": "node",
      "id": 7887141282,
      "lat": 50.5031563,
      "lon": 5.8828295
    },
    {
      "type": "node",
      "id": 7887141283,
      "lat": 50.5029988,
      "lon": 5.8825263
    },
    {
      "type": "node",
      "id": 7887141284,
      "lat": 50.5033051,
      "lon": 5.884085
    },
    {
      "type": "node",
      "id": 7887158985,
      "lat": 50.5030917,
      "lon": 5.8838974
    },
    {
      "type": "node",
      "id": 7887158986,
      "lat": 50.5031205,
      "lon": 5.8838046
    },
    {
      "type": "node",
      "id": 7887158987,
      "lat": 50.5033302,
      "lon": 5.884008
    },
    {
      "type": "node",
      "id": 7887158988,
      "lat": 50.5026446,
      "lon": 5.8827346
    },
    {
      "type": "node",
      "id": 7887158989,
      "lat": 50.5025203,
      "lon": 5.8828432
    },
    {
      "type": "node",
      "id": 7887158990,
      "lat": 50.5024839,
      "lon": 5.8828313
    },
    {
      "type": "node",
      "id": 7887158991,
      "lat": 50.5023684,
      "lon": 5.8825905
    },
    {
      "type": "node",
      "id": 7887158992,
      "lat": 50.5026145,
      "lon": 5.8823418
    },
    {
      "type": "node",
      "id": 7887158993,
      "lat": 50.5027878,
      "lon": 5.8826418
    },
    {
      "type": "node",
      "id": 7887158994,
      "lat": 50.5027137,
      "lon": 5.8827583
    },
    {
      "type": "node",
      "id": 7886479580,
      "lat": 50.4974237,
      "lon": 5.8855456
    },
    {
      "type": "node",
      "id": 7886479581,
      "lat": 50.4971223,
      "lon": 5.8859888
    },
    {
      "type": "node",
      "id": 7886479582,
      "lat": 50.4975242,
      "lon": 5.8866492
    },
    {
      "type": "node",
      "id": 7886479583,
      "lat": 50.4978187,
      "lon": 5.8862433
    },
    {
      "type": "node",
      "id": 7886479584,
      "lat": 50.4974475,
      "lon": 5.8855895
    },
    {
      "type": "node",
      "id": 7886479570,
      "lat": 50.5013704,
      "lon": 5.8885689
    },
    {
      "type": "node",
      "id": 7886479571,
      "lat": 50.5011701,
      "lon": 5.888431
    },
    {
      "type": "node",
      "id": 7886479572,
      "lat": 50.5006545,
      "lon": 5.8883539
    },
    {
      "type": "node",
      "id": 7886479573,
      "lat": 50.5003322,
      "lon": 5.8882135
    },
    {
      "type": "node",
      "id": 7886479574,
      "lat": 50.5003111,
      "lon": 5.8882587
    },
    {
      "type": "node",
      "id": 7886479575,
      "lat": 50.5006294,
      "lon": 5.8884241
    },
    {
      "type": "node",
      "id": 7886479576,
      "lat": 50.5011513,
      "lon": 5.8885075
    },
    {
      "type": "node",
      "id": 7886479577,
      "lat": 50.5013369,
      "lon": 5.8886128
    },
    {
      "type": "node",
      "id": 7886479578,
      "lat": 50.5015951,
      "lon": 5.8890253
    },
    {
      "type": "node",
      "id": 7886479579,
      "lat": 50.5016621,
      "lon": 5.8888432
    },
    {
      "type": "node",
      "id": 7886856693,
      "lat": 50.5051538,
      "lon": 5.8871503
    },
    {
      "type": "node",
      "id": 7886856694,
      "lat": 50.5050117,
      "lon": 5.8873419
    },
    {
      "type": "node",
      "id": 7886856695,
      "lat": 50.5050528,
      "lon": 5.8874171
    },
    {
      "type": "node",
      "id": 7886856696,
      "lat": 50.5051948,
      "lon": 5.8872256
    },
    {
      "type": "node",
      "id": 7886856706,
      "lat": 50.5048554,
      "lon": 5.8865264
    },
    {
      "type": "node",
      "id": 7886856707,
      "lat": 50.5047643,
      "lon": 5.8863748
    },
    {
      "type": "node",
      "id": 7886856708,
      "lat": 50.504799,
      "lon": 5.8863233
    },
    {
      "type": "node",
      "id": 7886856709,
      "lat": 50.5048901,
      "lon": 5.8864748
    },
    {
      "type": "node",
      "id": 7886856710,
      "lat": 50.504961,
      "lon": 5.8866027
    },
    {
      "type": "node",
      "id": 7886856711,
      "lat": 50.504921,
      "lon": 5.8866615
    },
    {
      "type": "node",
      "id": 7886856712,
      "lat": 50.5051782,
      "lon": 5.8870949
    },
    {
      "type": "node",
      "id": 7886856713,
      "lat": 50.5052182,
      "lon": 5.8870361
    },
    {
      "type": "node",
      "id": 7886856714,
      "lat": 50.5047541,
      "lon": 5.8863861
    },
    {
      "type": "node",
      "id": 7886856715,
      "lat": 50.504649,
      "lon": 5.8865312
    },
    {
      "type": "node",
      "id": 7886856716,
      "lat": 50.5048462,
      "lon": 5.8868844
    },
    {
      "type": "node",
      "id": 7886856717,
      "lat": 50.5047784,
      "lon": 5.886978
    },
    {
      "type": "node",
      "id": 7886856718,
      "lat": 50.5049853,
      "lon": 5.8873454
    },
    {
      "type": "node",
      "id": 7886856719,
      "lat": 50.5051552,
      "lon": 5.8871119
    },
    {
      "type": "node",
      "id": 7886856720,
      "lat": 50.5049114,
      "lon": 5.8866677
    },
    {
      "type": "node",
      "id": 1116724249,
      "lat": 50.5103534,
      "lon": 5.8777322
    },
    {
      "type": "node",
      "id": 1116724281,
      "lat": 50.5102621,
      "lon": 5.8782245
    },
    {
      "type": "node",
      "id": 1116724308,
      "lat": 50.5104367,
      "lon": 5.8780142
    },
    {
      "type": "node",
      "id": 1116724313,
      "lat": 50.5102833,
      "lon": 5.8781175
    },
    {
      "type": "node",
      "id": 4741703102,
      "lat": 50.5104278,
      "lon": 5.8777389
    },
    {
      "type": "node",
      "id": 4741703106,
      "lat": 50.510461,
      "lon": 5.8784381
    },
    {
      "type": "node",
      "id": 4741703126,
      "lat": 50.5105473,
      "lon": 5.8777542
    },
    {
      "type": "node",
      "id": 4741703134,
      "lat": 50.5105882,
      "lon": 5.8778267
    },
    {
      "type": "node",
      "id": 4741703144,
      "lat": 50.5106172,
      "lon": 5.8778495
    },
    {
      "type": "node",
      "id": 1116724246,
      "lat": 50.510403,
      "lon": 5.8786644
    },
    {
      "type": "node",
      "id": 1116724339,
      "lat": 50.5101679,
      "lon": 5.8786815
    },
    {
      "type": "node",
      "id": 4741703067,
      "lat": 50.5102539,
      "lon": 5.8790323
    },
    {
      "type": "node",
      "id": 4741703079,
      "lat": 50.5102927,
      "lon": 5.8790618
    },
    {
      "type": "node",
      "id": 4741703082,
      "lat": 50.5103132,
      "lon": 5.8790243
    },
    {
      "type": "node",
      "id": 4741703085,
      "lat": 50.51034,
      "lon": 5.878923
    }
  ]
}