{
  "version": 0.6,
  "generator": "Overpass API 0.7.57 93a4d346",
  "osm3s": {
    "timestamp_osm_base": "2021-12-11T04:26:13Z",
    "copyright": "The data included in this document is from www.openstreetmap.org. The data is made available under ODbL."
  },
  "elements": [
    {
      "type": "node",
      "id": 1463070700,
      "lat": 51.3562688,
      "lon": 4.3933421,
      "tags": {
        "amenity": "parking",
        "capacity": "90",
        "name": "Albert Heijn",
        "parking": "surface"
      }
    },
    {
      "type": "node",
      "id": 3308538927,
      "lat": 51.393811,
      "lon": 4.3223749,
      "tags": {
        "amenity": "parking"
      }
    },
    {
      "type": "node",
      "id": 3350505042,
      "lat": 51.3645133,
      "lon": 4.3390191,
      "tags": {
        "access": "permissive",
        "amenity": "parking",
        "parking": "surface"
      }
    },
    {
      "type": "node",
      "id": 3517559056,
      "lat": 51.3696582,
      "lon": 4.3310457,
      "tags": {
        "information": "board",
        "name": "Brabantse Wal",
        "tourism": "information"
      }
    },
    {
      "type": "node",
      "id": 3673481037,
      "lat": 51.3597591,
      "lon": 4.3067824,
      "tags": {
        "amenity": "bench"
      }
    },
    {
      "type": "node",
      "id": 3673481042,
      "lat": 51.3603086,
      "lon": 4.3066725,
      "tags": {
        "amenity": "bench"
      }
    },
    {
      "type": "node",
      "id": 4036458489,
      "lat": 51.3576958,
      "lon": 4.3361054,
      "tags": {
        "board_type": "nature",
        "check_date": "2021-07-17",
        "information": "board",
        "name": "Ruige Heide",
        "tourism": "information"
      }
    },
    {
      "type": "node",
      "id": 4731986972,
      "lat": 51.3473326,
      "lon": 4.3311536,
      "tags": {
        "amenity": "drinking_water",
        "mapillary": "https://www.mapillary.com/app/?pKey=wz2QSHszFx71Wo3FDTo7yQ&lat=51.34737274289364&lng=4.331065478260598&z=17&focus=photo&mapStyle=osm&menu=false&x=0.4886026991423532&y=0.4439512387296862&zoom=0"
      }
    },
    {
      "type": "node",
      "id": 4731986973,
      "lat": 51.3567622,
      "lon": 4.3176482,
      "tags": {
        "amenity": "drinking_water",
        "mapillary": "https://www.mapillary.com/app/?pKey=a_owqJ--9LCKyuQSXrojxw&lat=51.356905269149024&lng=4.317425515914238&z=17&focus=photo&mapStyle=osm&menu=false&x=0.508193040037377&y=0.4923422762344477&zoom=0"
      }
    },
    {
      "type": "node",
      "id": 6653377287,
      "lat": 51.3908799,
      "lon": 4.3603413,
      "tags": {
        "access": "yes",
        "amenity": "parking",
        "capacity": "15",
        "description": "Kleine parking voor max 10 auto´s",
        "fee": "no",
        "surface": "ground"
      }
    },
    {
      "type": "node",
      "id": 8309548915,
      "lat": 51.3462628,
      "lon": 4.3304848,
      "tags": {
        "amenity": "bench"
      }
    },
    {
      "type": "node",
      "id": 8450388538,
      "lat": 51.3919144,
      "lon": 4.3372065,
      "tags": {
        "amenity": "bench"
      }
    },
    {
      "type": "node",
      "id": 8450388542,
      "lat": 51.3919168,
      "lon": 4.3369337,
      "tags": {
        "amenity": "bench"
      }
    },
    {
      "type": "node",
      "id": 8450388543,
      "lat": 51.3919851,
      "lon": 4.3367198,
      "tags": {
        "amenity": "bench"
      }
    },
    {
      "type": "node",
      "id": 8471966748,
      "lat": 51.3487096,
      "lon": 4.3694955,
      "tags": {
        "amenity": "bench"
      }
    },
    {
      "type": "node",
      "id": 8521549724,
      "lat": 51.3459608,
      "lon": 4.3234718,
      "tags": {
        "amenity": "drinking_water",
        "mapillary": "https://www.mapillary.com/map/im/iWk9wYEF5sRCNinkEBU42k"
      }
    },
    {
      "type": "node",
      "id": 8545174469,
      "lat": 51.3575047,
      "lon": 4.3258426,
      "tags": {
        "amenity": "bench"
      }
    },
    {
      "type": "node",
      "id": 8545174470,
      "lat": 51.3579464,
      "lon": 4.3255609,
      "tags": {
        "amenity": "bench"
      }
    },
    {
      "type": "node",
      "id": 8626699795,
      "lat": 51.3454406,
      "lon": 4.3265973,
      "tags": {
        "amenity": "bench"
      }
    },
    {
      "type": "node",
      "id": 8626699796,
      "lat": 51.3455579,
      "lon": 4.3263146,
      "tags": {
        "amenity": "bench"
      }
    },
    {
      "type": "node",
      "id": 8626699797,
      "lat": 51.345578,
      "lon": 4.3261477,
      "tags": {
        "leisure": "picnic_table"
      }
    },
    {
      "type": "node",
      "id": 8626699798,
      "lat": 51.3455244,
      "lon": 4.3263307,
      "tags": {
        "amenity": "bench"
      }
    },
    {
      "type": "node",
      "id": 8626699800,
      "lat": 51.3455307,
      "lon": 4.3262161,
      "tags": {
        "amenity": "bench"
      }
    },
    {
      "type": "node",
      "id": 8640516300,
      "lat": 51.3515659,
      "lon": 4.32172,
      "tags": {
        "amenity": "bench"
      }
    },
    {
      "type": "node",
      "id": 8640516301,
      "lat": 51.3515666,
      "lon": 4.3216695,
      "tags": {
        "amenity": "bench"
      }
    },
    {
      "type": "node",
      "id": 8640516302,
      "lat": 51.3516189,
      "lon": 4.3215941,
      "tags": {
        "leisure": "picnic_table"
      }
    },
    {
      "type": "node",
      "id": 8640516303,
      "lat": 51.3516192,
      "lon": 4.321526,
      "tags": {
        "leisure": "picnic_table"
      }
    },
    {
      "type": "node",
      "id": 8640516305,
      "lat": 51.3529992,
      "lon": 4.3244349,
      "tags": {
        "leisure": "picnic_table"
      }
    },
    {
      "type": "node",
      "id": 8662439329,
      "lat": 51.3528213,
      "lon": 4.3860649,
      "tags": {
        "amenity": "bench"
      }
    },
    {
      "type": "node",
      "id": 8662439330,
      "lat": 51.352947,
      "lon": 4.386485,
      "tags": {
        "amenity": "bench",
        "backrest": "yes"
      }
    },
    {
      "type": "node",
      "id": 8662439332,
      "lat": 51.3528414,
      "lon": 4.3846346,
      "tags": {
        "leisure": "picnic_table"
      }
    },
    {
      "type": "node",
      "id": 8662439340,
      "lat": 51.3529038,
      "lon": 4.3845363,
      "tags": {
        "leisure": "picnic_table"
      }
    },
    {
      "type": "node",
      "id": 8662439341,
      "lat": 51.3530361,
      "lon": 4.3844731,
      "tags": {
        "leisure": "picnic_table"
      }
    },
    {
      "type": "node",
      "id": 8662439345,
      "lat": 51.3545167,
      "lon": 4.3857564,
      "tags": {
        "amenity": "bench"
      }
    },
    {
      "type": "node",
      "id": 8662439346,
      "lat": 51.3544731,
      "lon": 4.3855561,
      "tags": {
        "amenity": "bench"
      }
    },
    {
      "type": "node",
      "id": 8662439347,
      "lat": 51.3546823,
      "lon": 4.3856702,
      "tags": {
        "amenity": "bench",
        "backrest": "yes"
      }
    },
    {
      "type": "node",
      "id": 8662439348,
      "lat": 51.3546427,
      "lon": 4.385467,
      "tags": {
        "amenity": "bench",
        "backrest": "yes"
      }
    },
    {
      "type": "node",
      "id": 8664217486,
      "lat": 51.3531145,
      "lon": 4.3845628,
      "tags": {
        "information": "board",
        "tourism": "information"
      }
    },
    {
      "type": "node",
      "id": 8664217487,
      "lat": 51.3543548,
      "lon": 4.3846346,
      "tags": {
        "board_type": "nature",
        "information": "board",
        "tourism": "information"
      }
    },
    {
      "type": "node",
      "id": 8664583441,
      "lat": 51.3544633,
      "lon": 4.3856042,
      "tags": {
        "information": "board",
        "tourism": "information"
      }
    },
    {
      "type": "node",
      "id": 8664593292,
      "lat": 51.3524949,
      "lon": 4.3840063,
      "tags": {
        "amenity": "bench"
      }
    },
    {
      "type": "node",
      "id": 8664593293,
      "lat": 51.3527062,
      "lon": 4.3831211,
      "tags": {
        "amenity": "bench"
      }
    },
    {
      "type": "node",
      "id": 8664593297,
      "lat": 51.3540542,
      "lon": 4.3833826,
      "tags": {
        "information": "board",
        "tourism": "information"
      }
    },
    {
      "type": "node",
      "id": 8664602690,
      "lat": 51.3534541,
      "lon": 4.3902317,
      "tags": {
        "information": "board",
        "tourism": "information"
      }
    },
    {
      "type": "node",
      "id": 8679930920,
      "lat": 51.3514008,
      "lon": 4.3662903,
      "tags": {
        "amenity": "bench"
      }
    },
    {
      "type": "node",
      "id": 8706898266,
      "lat": 51.3526387,
      "lon": 4.3940126,
      "tags": {
        "amenity": "bench"
      }
    },
    {
      "type": "node",
      "id": 8761793466,
      "lat": 51.3823392,
      "lon": 4.3734304,
      "tags": {
        "amenity": "bench"
      }
    },
    {
      "type": "node",
      "id": 8761793468,
      "lat": 51.3787358,
      "lon": 4.3799519,
      "tags": {
        "amenity": "bench"
      }
    },
    {
      "type": "node",
      "id": 8780697170,
      "lat": 51.3844526,
      "lon": 4.3138398,
      "tags": {
        "leisure": "picnic_table"
      }
    },
    {
      "type": "node",
      "id": 8850205980,
      "lat": 51.3663223,
      "lon": 4.3891716,
      "tags": {
        "leisure": "picnic_table",
        "tourism": "picnic_site"
      }
    },
    {
      "type": "node",
      "id": 8869894109,
      "lat": 51.365372,
      "lon": 4.3878499,
      "tags": {
        "amenity": "bench"
      }
    },
    {
      "type": "node",
      "id": 8869894111,
      "lat": 51.3633492,
      "lon": 4.3894176,
      "tags": {
        "amenity": "bench"
      }
    },
    {
      "type": "node",
      "id": 8928338603,
      "lat": 51.3573887,
      "lon": 4.3674322,
      "tags": {
        "amenity": "bench",
        "backrest": "yes"
      }
    },
    {
      "type": "node",
      "id": 8928376724,
      "lat": 51.3560723,
      "lon": 4.3729742,
      "tags": {
        "leisure": "picnic_table"
      }
    },
    {
      "type": "node",
      "id": 9026593108,
      "lat": 51.3495774,
      "lon": 4.3228975,
      "tags": {
        "amenity": "bench"
      }
    },
    {
      "type": "node",
      "id": 9026593109,
      "lat": 51.349605,
      "lon": 4.3228398,
      "tags": {
        "amenity": "bench"
      }
    },
    {
      "type": "node",
      "id": 9026593110,
      "lat": 51.3497173,
      "lon": 4.3228244,
      "tags": {
        "amenity": "bench"
      }
    },
    {
      "type": "node",
      "id": 9026593111,
      "lat": 51.3497529,
      "lon": 4.322868,
      "tags": {
        "amenity": "bench"
      }
    },
    {
      "type": "node",
      "id": 9026593112,
      "lat": 51.3497596,
      "lon": 4.3230443,
      "tags": {
        "amenity": "bench"
      }
    },
    {
      "type": "node",
      "id": 9026593113,
      "lat": 51.3497315,
      "lon": 4.323096,
      "tags": {
        "amenity": "bench"
      }
    },
    {
      "type": "node",
      "id": 9026593114,
      "lat": 51.3496195,
      "lon": 4.3231101,
      "tags": {
        "amenity": "bench"
      }
    },
    {
      "type": "node",
      "id": 9026593115,
      "lat": 51.349586,
      "lon": 4.3230651,
      "tags": {
        "amenity": "bench"
      }
    },
    {
      "type": "node",
      "id": 9026633921,
      "lat": 51.3461468,
      "lon": 4.3227577,
      "tags": {
        "amenity": "bench"
      }
    },
    {
      "type": "node",
      "id": 9026633922,
      "lat": 51.3461412,
      "lon": 4.3227463,
      "tags": {
        "amenity": "bench"
      }
    },
    {
      "type": "node",
      "id": 9197075795,
      "lat": 51.3508861,
      "lon": 4.3277815,
      "tags": {
        "amenity": "bench"
      }
    },
    {
      "type": "node",
      "id": 9197075796,
      "lat": 51.3508729,
      "lon": 4.3277631,
      "tags": {
        "amenity": "bench"
      }
    },
    {
      "type": "node",
      "id": 9197075797,
      "lat": 51.3508545,
      "lon": 4.3277972,
      "tags": {
        "amenity": "bench"
      }
    },
    {
      "type": "node",
      "id": 9197075798,
      "lat": 51.3508667,
      "lon": 4.3278142,
      "tags": {
        "amenity": "bench"
      }
    },
    {
      "type": "node",
      "id": 9197075799,
      "lat": 51.3508793,
      "lon": 4.3278316,
      "tags": {
        "amenity": "bench"
      }
    },
    {
      "type": "node",
      "id": 9197075800,
      "lat": 51.3508977,
      "lon": 4.3277976,
      "tags": {
        "amenity": "bench"
      }
    },
    {
      "type": "node",
      "id": 9249949529,
      "lat": 51.3625652,
      "lon": 4.3775847,
      "tags": {
        "amenity": "bench"
      }
    },
    {
      "type": "node",
      "id": 9249949530,
      "lat": 51.350471,
      "lon": 4.3884623,
      "tags": {
        "amenity": "bench"
      }
    },
    {
      "type": "node",
      "id": 9251319222,
      "lat": 51.3489058,
      "lon": 4.3158922,
      "tags": {
        "artist_name": "Dré Van Eyken",
        "information": "board",
        "name": "Ganzenbord",
        "tourism": "information"
      }
    },
    {
      "type": "node",
      "id": 9251319223,
      "lat": 51.3485588,
      "lon": 4.3162052,
      "tags": {
        "amenity": "bench"
      }
    },
    {
      "type": "node",
      "id": 9251319224,
      "lat": 51.3486709,
      "lon": 4.3161843,
      "tags": {
        "amenity": "bench"
      }
    },
    {
      "type": "node",
      "id": 9251319225,
      "lat": 51.3487367,
      "lon": 4.316179,
      "tags": {
        "amenity": "bench"
      }
    },
    {
      "type": "node",
      "id": 9251319226,
      "lat": 51.3488035,
      "lon": 4.316179,
      "tags": {
        "amenity": "bench"
      }
    },
    {
      "type": "node",
      "id": 9251319227,
      "lat": 51.3488693,
      "lon": 4.3161782,
      "tags": {
        "amenity": "bench"
      }
    },
    {
      "type": "node",
      "id": 9251319228,
      "lat": 51.3487122,
      "lon": 4.3161486,
      "tags": {
        "amenity": "bench"
      }
    },
    {
      "type": "node",
      "id": 9271342379,
      "lat": 51.3494565,
      "lon": 4.316253,
      "tags": {
        "amenity": "bench"
      }
    },
    {
      "type": "node",
      "id": 9271342380,
      "lat": 51.3494107,
      "lon": 4.316256,
      "tags": {
        "amenity": "bench"
      }
    },
    {
      "type": "node",
      "id": 9271342381,
      "lat": 51.3493265,
      "lon": 4.3162614,
      "tags": {
        "amenity": "bench"
      }
    },
    {
      "type": "node",
      "id": 9271342382,
      "lat": 51.349278,
      "lon": 4.3162645,
      "tags": {
        "amenity": "bench"
      }
    },
    {
      "type": "node",
      "id": 9271342383,
      "lat": 51.3491924,
      "lon": 4.31627,
      "tags": {
        "amenity": "bench"
      }
    },
    {
      "type": "node",
      "id": 9271342384,
      "lat": 51.3491457,
      "lon": 4.316273,
      "tags": {
        "amenity": "bench"
      }
    },
    {
      "type": "node",
      "id": 9271342385,
      "lat": 51.3490555,
      "lon": 4.3162788,
      "tags": {
        "amenity": "bench"
      }
    },
    {
      "type": "node",
      "id": 9271342386,
      "lat": 51.3490074,
      "lon": 4.3162819,
      "tags": {
        "amenity": "bench"
      }
    },
    {
      "type": "node",
      "id": 9288015631,
      "lat": 51.358148,
      "lon": 4.324122,
      "tags": {
        "amenity": "bench"
      }
    },
    {
      "type": "way",
      "id": 75178165,
      "nodes": [
        8104027017,
        8104013815,
        8104013816,
        887158145,
        8104027019,
        887158162,
        8104013807,
        8104013799,
        8104013795,
        8104013800,
        8104013808,
        8104027018,
        8104013811,
        8104013812,
        8104013813,
        8104013814,
        8104013810,
        8104013809,
        8104027017
      ],
      "tags": {
        "access": "customers",
        "amenity": "parking",
        "parking": "surface"
      }
    },
    {
      "type": "way",
      "id": 161038968,
      "nodes": [
        597285730,
        1730419291,
        8545174486,
        1730419278,
        2562529630,
        2562529625,
        1730424362,
        2562529628,
        2562529635,
        597285730
      ],
      "tags": {
        "amenity": "parking"
      }
    },
    {
      "type": "way",
      "id": 161046083,
      "nodes": [
        2495961279,
        1730482384,
        1730482403,
        1731729161,
        1730482382,
        1730482380,
        2495961279
      ],
      "tags": {
        "amenity": "parking",
        "capacity": "48",
        "capacity:disabled": "3",
        "fee": "no",
        "parking": "surface"
      }
    },
    {
      "type": "way",
      "id": 161189404,
      "nodes": [
        1731846073,
        1731846117,
        1731846090,
        1731846054,
        4040013968,
        4040013967,
        1731846092,
        1731846073
      ],
      "tags": {
        "access": "customers",
        "amenity": "parking",
        "capacity": "12",
        "name": "Molengeest",
        "parking": "surface"
      }
    },
    {
      "type": "way",
      "id": 220286840,
      "nodes": [
        1731852949,
        3526231929,
        2294147099,
        2294147083,
        2294147084,
        7972914202,
        7972914203,
        2294147087,
        2294147089,
        2294147091,
        2294147092,
        2294147093,
        2294147103,
        2294147102,
        2294147101,
        2294147100,
        2294147096,
        2294147098,
        1731852949
      ],
      "tags": {
        "amenity": "parking",
        "name": "Carrefour Market",
        "parking": "surface"
      }
    },
    {
      "type": "way",
      "id": 242017235,
      "nodes": [
        1749651474,
        1730482380,
        1730482386,
        1730482407,
        4841518559,
        1749651474
      ],
      "tags": {
        "access": "no",
        "amenity": "parking",
        "bus": "designated",
        "parking": "surface"
      }
    },
    {
      "type": "way",
      "id": 249375751,
      "nodes": [
        7959943707,
        2559856009,
        2559856003,
        597278764,
        597278864,
        597278843,
        7959943569,
        7959943713,
        2559856011,
        2559856012,
        2559856014,
        7959943712,
        2559856013,
        597278901,
        2294147104,
        597278877,
        7959943711,
        7959943710,
        7959943709,
        7959943708,
        7959943707
      ],
      "tags": {
        "access": "customers",
        "amenity": "parking",
        "name": "Proxy Delhaize",
        "parking": "surface"
      }
    },
    {
      "type": "way",
      "id": 249673480,
      "nodes": [
        2562529632,
        3217729939,
        2562529638,
        9197938015,
        2562529639,
        2562529633,
        2562529632
      ],
      "tags": {
        "access": "customers",
        "amenity": "parking",
        "parking": "surface",
        "surface": "unpaved"
      }
    },
    {
      "type": "way",
      "id": 278651717,
      "nodes": [
        2829832915,
        2829832925,
        2829832918,
        2829832912,
        2829832920,
        2829832916,
        2829832910,
        2829832908,
        2829832914,
        2829832911,
        2829832915
      ],
      "tags": {
        "access": "customers",
        "amenity": "toilets",
        "building": "yes",
        "drinking_water": "yes",
        "fee": "no",
        "ref:bag": "873100000420266",
        "source": "BAG",
        "source:date": "2014-02-11",
        "start_date": "1992",
        "unisex": "yes"
      }
    },
    {
      "type": "way",
      "id": 278653081,
      "nodes": [
        2829833131,
        2829833128,
        2829833126,
        2829833123,
        2829833121,
        2829833119,
        2829833117,
        2829833115,
        2829833113,
        2829833111,
        2829833108,
        2829833106,
        2829833105,
        2829833103,
        2829832999,
        2829832998,
        2829832996,
        2829832995,
        2829832997,
        2829833000,
        2829833102,
        2829833104,
        2829833107,
        2829833109,
        2829833110,
        2829833112,
        2829833116,
        2829833118,
        2829833120,
        2829833122,
        2829833124,
        2829833125,
        2829833127,
        2829833129,
        2829833130,
        2829833132,
        2829833131
      ],
      "tags": {
        "access": "customers",
        "amenity": "toilets",
        "building": "yes",
        "ref:bag": "873100000411663",
        "source": "BAG",
        "source:date": "2014-02-11",
        "start_date": "1984",
        "unisex": "yes"
      }
    },
    {
      "type": "way",
      "id": 278656522,
      "nodes": [
        2829832344,
        2829832340,
        2829832368,
        2829832364,
        2829832366,
        2829832376,
        2829832344
      ],
      "tags": {
        "access": "customers",
        "amenity": "toilets",
        "building": "yes",
        "drinking_water": "yes",
        "ref:bag": "873100000420242",
        "source": "BAG",
        "source:date": "2014-02-11",
        "start_date": "1997",
        "unisex": "yes"
      }
    },
    {
      "type": "way",
      "id": 278657550,
      "nodes": [
        2829832632,
        2829832614,
        2829832616,
        2829832604,
        2829832609,
        2829832617,
        2829832618,
        2829832636,
        2829832632
      ],
      "tags": {
        "access": "customers",
        "amenity": "toilets",
        "building": "yes",
        "drinking_water": "yes",
        "ref:bag": "873100000415737",
        "source": "BAG",
        "source:date": "2014-02-11",
        "start_date": "1984",
        "unisex": "yes"
      }
    },
    {
      "type": "way",
      "id": 315643050,
      "nodes": [
        3217729945,
        3217729948,
        3217729947,
        3217729944,
        9217202842,
        9217202843,
        3217729945
      ],
      "tags": {
        "access": "customers",
        "amenity": "parking",
        "parking": "surface",
        "surface": "unpaved"
      }
    },
    {
      "type": "way",
      "id": 324101953,
      "nodes": [
        3308538921,
        3308538920,
        3308539870,
        3308538874,
        3308538921
      ],
      "tags": {
        "amenity": "parking"
      }
    },
    {
      "type": "way",
      "id": 327857419,
      "nodes": [
        3346669493,
        3346668389,
        3346668388,
        3346668371,
        3346668370,
        4840133203,
        3346668376,
        3346668377,
        3346668392,
        3346669493
      ],
      "tags": {
        "access": "customers",
        "amenity": "parking",
        "parking": "surface"
      }
    },
    {
      "type": "way",
      "id": 354388298,
      "nodes": [
        3601230636,
        3601230635,
        3601230631,
        3601230630,
        3601230629,
        3601230634,
        7963691387,
        3601230636
      ],
      "tags": {
        "amenity": "parking",
        "parking": "surface"
      }
    },
    {
      "type": "way",
      "id": 355042585,
      "nodes": [
        42532607,
        3606711910,
        2829697136,
        2829696490,
        3606711908,
        3606711903,
        3606711904,
        3606711905,
        3606711906,
        3606711907,
        2829697312,
        42532607
      ],
      "tags": {
        "amenity": "parking",
        "name": "De Cichorei",
        "parking": "surface"
      }
    },
    {
      "type": "way",
      "id": 398924378,
      "nodes": [
        4016617523,
        4016617524,
        4016617522,
        4016617520,
        4016617516,
        4016617517,
        4016617518,
        4016617519,
        4016617514,
        4016617512,
        4016617511,
        4016617509,
        4016617507,
        4016617521,
        4016617523
      ],
      "tags": {
        "amenity": "parking",
        "capacity": "44",
        "capacity:disabled": "3",
        "name": "Douaneplein",
        "parking": "surface"
      }
    },
    {
      "type": "way",
      "id": 414579166,
      "nodes": [
        1731846078,
        2123534251,
        4157038841,
        4157038842,
        4157038840,
        4157038838,
        4157038839,
        2123534248,
        4157167859,
        4157167861,
        1731846078
      ],
      "tags": {
        "access": "destination",
        "amenity": "parking",
        "capacity": "30",
        "name": "Monnikenhof",
        "parking": "surface"
      }
    },
    {
      "type": "way",
      "id": 429026921,
      "nodes": [
        4281553019,
        4379741090,
        4281553020,
        7958595364,
        4559805208,
        4281553011,
        7958595395,
        7958595396,
        4281553019
      ],
      "tags": {
        "amenity": "parking",
        "capacity": "31",
        "capacity:disabled": "2",
        "parking": "surface"
      }
    },
    {
      "type": "way",
      "id": 434820615,
      "nodes": [
        4327397798,
        4327397799,
        4327397800,
        4327397801,
        4327397798
      ],
      "tags": {
        "amenity": "parking",
        "capacity": "14",
        "fee": "no",
        "parking": "surface",
        "supervised": "no",
        "surface": "paving_stones"
      }
    },
    {
      "type": "way",
      "id": 434820616,
      "nodes": [
        4327397802,
        4327397803,
        4327397804,
        4327397805,
        4327397802
      ],
      "tags": {
        "amenity": "parking",
        "capacity": "14",
        "capacity:disabled": "1",
        "parking": "surface",
        "supervised": "no",
        "surface": "paving_stones"
      }
    },
    {
      "type": "way",
      "id": 451922821,
      "nodes": [
        4487277160,
        4487277158,
        4487277159,
        4487277161,
        4487277160
      ],
      "tags": {
        "access": "customers",
        "amenity": "parking",
        "parking": "surface"
      }
    },
    {
      "type": "way",
      "id": 451922822,
      "nodes": [
        4487277162,
        581384303,
        2376931411,
        581384304,
        7959612202,
        3742038420,
        7959612198,
        3742038413,
        3742038407,
        4487277163,
        4487277162
      ],
      "tags": {
        "access": "customers",
        "amenity": "parking",
        "capacity": "6",
        "parking": "surface"
      }
    },
    {
      "type": "way",
      "id": 460008421,
      "nodes": [
        4557009234,
        4557009235,
        4557009236,
        4557009237,
        4557009234
      ],
      "tags": {
        "amenity": "parking",
        "capacity": "1",
        "fee": "no",
        "parking": "surface",
        "supervised": "no",
        "surface": "paved"
      }
    },
    {
      "type": "way",
      "id": 460008422,
      "nodes": [
        4557009238,
        4557009239,
        4557009240,
        4557009241,
        4557009238
      ],
      "tags": {
        "amenity": "parking",
        "capacity": "2",
        "fee": "no",
        "parking": "surface",
        "supervised": "no"
      }
    },
    {
      "type": "way",
      "id": 460008423,
      "nodes": [
        4557009242,
        4557009243,
        4557009244,
        4557009245,
        4557009242
      ],
      "tags": {
        "amenity": "parking",
        "capacity": "4",
        "fee": "no",
        "parking": "surface",
        "supervised": "no",
        "surface": "paved"
      }
    },
    {
      "type": "way",
      "id": 460008424,
      "nodes": [
        4557009246,
        4557009247,
        4557009248,
        4557009249,
        4557009246
      ],
      "tags": {
        "amenity": "parking",
        "capacity": "2",
        "fee": "no",
        "parking": "surface",
        "supervised": "no",
        "surface": "paved"
      }
    },
    {
      "type": "way",
      "id": 460008425,
      "nodes": [
        4557009250,
        4557009251,
        4557009252,
        4557009253,
        4557009250
      ],
      "tags": {
        "amenity": "parking",
        "capacity": "5",
        "fee": "no",
        "parking": "surface",
        "supervised": "no",
        "surface": "paved"
      }
    },
    {
      "type": "way",
      "id": 460008426,
      "nodes": [
        4557009254,
        4557009255,
        4557009256,
        4557009257,
        4557009254
      ],
      "tags": {
        "amenity": "parking",
        "capacity": "2",
        "fee": "no",
        "parking": "surface",
        "supervised": "no",
        "surface": "paved"
      }
    },
    {
      "type": "way",
      "id": 466911227,
      "nodes": [
        4616131499,
        4616131498,
        4616131497,
        4616131503,
        4616131499
      ],
      "tags": {
        "amenity": "parking",
        "parking": "surface"
      }
    },
    {
      "type": "way",
      "id": 544218543,
      "nodes": [
        5260773227,
        5260773226,
        5260773225,
        5260773224,
        5260773223,
        5260773222,
        5260773221,
        3308608064,
        5260773227
      ],
      "tags": {
        "amenity": "parking",
        "fee": "no",
        "parking": "surface"
      }
    },
    {
      "type": "way",
      "id": 601340592,
      "nodes": [
        5715613199,
        5715613198,
        7966282285,
        1749651356,
        5715613195,
        1749651346,
        6388005299,
        6388005300,
        6388005302,
        7966282288,
        7966282287,
        7966282286,
        5715613199
      ],
      "tags": {
        "amenity": "parking",
        "capacity": "59",
        "parking": "surface"
      }
    },
    {
      "type": "way",
      "id": 623160944,
      "nodes": [
        5885321817,
        5885321816,
        5885321815,
        887157661,
        887157662,
        5885321814,
        5885321817
      ],
      "tags": {
        "amenity": "parking",
        "parking": "surface"
      }
    },
    {
      "type": "way",
      "id": 710523634,
      "nodes": [
        887181866,
        887181864,
        887181897,
        887182077,
        6680301610,
        1543937382,
        887181674,
        887181673,
        887181866
      ],
      "tags": {
        "access": "customers",
        "amenity": "parking",
        "fee": "no",
        "name": "Camping Athena",
        "park_ride": "no",
        "parking": "surface",
        "supervised": "no",
        "surface": "unpaved"
      }
    },
    {
      "type": "way",
      "id": 851771131,
      "nodes": [
        7944441152,
        7944441153,
        7944441154,
        7944441155,
        7944441152
      ],
      "tags": {
        "amenity": "parking"
      }
    },
    {
      "type": "way",
      "id": 855459695,
      "nodes": [
        7977665066,
        7977665067,
        7977665072,
        7977665068,
        7977665069,
        7977665071,
        7977665066
      ],
      "tags": {
        "amenity": "parking"
      }
    },
    {
      "type": "way",
      "id": 855465393,
      "nodes": [
        7977704833,
        7977704834,
        7977704838,
        7977704835,
        7977704837,
        7977704836,
        2294147086,
        7977704833
      ],
      "tags": {
        "amenity": "parking"
      }
    },
    {
      "type": "way",
      "id": 855475805,
      "nodes": [
        7977780044,
        7977780045,
        1734191945,
        7977780046,
        7977780047,
        7977780044
      ],
      "tags": {
        "amenity": "parking"
      }
    },
    {
      "type": "way",
      "id": 858797007,
      "nodes": [
        8005625554,
        8005625525,
        8005625526,
        8005625555,
        8005625554
      ],
      "tags": {
        "amenity": "parking"
      }
    },
    {
      "type": "way",
      "id": 858797008,
      "nodes": [
        8005625527,
        8005625528,
        8005625529,
        8005625530,
        8005625527
      ],
      "tags": {
        "amenity": "parking"
      }
    },
    {
      "type": "way",
      "id": 858822742,
      "nodes": [
        8005890005,
        8005890007,
        887153535,
        8005890006,
        597285844,
        7959073854,
        7959073857,
        7959073856,
        7959073858,
        7959073861,
        8005890005
      ],
      "tags": {
        "access": "customers",
        "amenity": "parking"
      }
    },
    {
      "type": "way",
      "id": 934953243,
      "nodes": [
        1309201467,
        1442397796,
        8664217492,
        8664217491,
        4267934832,
        8664217490,
        1309201467
      ],
      "tags": {
        "amenity": "parking",
        "capacity": "70",
        "fee": "no",
        "name": "Moretusbos",
        "note": "temporary parking, future forest; to be replaced by larger parking near the forest's eastern edge (Oud Broek - Canadalaan)",
        "parking": "surface",
        "surface": "unpaved"
      }
    },
    {
      "type": "way",
      "id": 934953244,
      "nodes": [
        8664217497,
        8664217496,
        8664217495,
        1304659694,
        8664217497
      ],
      "tags": {
        "access": "yes",
        "amenity": "parking",
        "capacity": "23",
        "capacity:disabled": "1",
        "fee": "no",
        "name": "Ravenhof",
        "parking": "surface"
      }
    },
    {
      "type": "way",
      "id": 941702623,
      "nodes": [
        8720654289,
        8720654290,
        8720654291,
        8720654292,
        8720654293,
        8720654294,
        8720654295,
        8720654296,
        8720654297,
        8720654298,
        8720654299,
        8720654300,
        8720654301,
        8720654302,
        8720654303,
        8720654304,
        8720654305,
        8720654306,
        8720654307,
        8720654308,
        8720654309,
        8720654310,
        8720654312,
        8720654311,
        8720654313,
        8720654314,
        8720654315,
        8720654316,
        8720702417,
        8720702418,
        8720702419,
        8720702420,
        8720702421,
        8720702422,
        8720702423,
        8720702424,
        8724571576,
        8720702425,
        8720702426,
        8720702427,
        8720702428,
        8720702429,
        8720702430,
        8720702431,
        8720702432,
        8720702433,
        8720702434,
        8720702435,
        8720702436,
        8720702437,
        8720702438,
        8720702439,
        8720702440,
        8720702441,
        8720702442,
        8720702443,
        8724571547,
        8720702444,
        8720702445,
        8720702446,
        8720702447,
        8720702448,
        8720702449,
        8720702450,
        8720702451,
        8720702452,
        8720702453,
        8720702454,
        8720702455,
        8720702456,
        8720702457,
        8720702458,
        8720702459,
        8720702460,
        8720702461,
        8720702462,
        8720702463,
        8720702464,
        8720702465,
        8720702466,
        8720702467,
        8720702468,
        8720702469,
        8720702470,
        8720702471,
        8720702472,
        8720702473,
        8720702474,
        8720654289
      ],
      "tags": {
        "OnroerendErfgoed:criteria": "BE",
        "addr:city": "Stabroek",
        "addr:street": "Abtsdreef",
        "boundary": "protected_area",
        "heritage": "4",
        "heritage:operator": "OnroerendErfgoed",
        "heritage:website": "https://id.erfgoed.net/erfgoedobjecten/84250",
        "historic": "fort",
        "leisure": "nature_reserve",
        "name": "Fort van Stabroek",
        "natura2000_sitecode": "BE2100045",
        "operator": "Natuurpunt Beheer v.z.w.",
        "protect_class": "97",
        "protection_title": "Natura 2000",
        "ref:OnroerendErfgoed": "84250",
        "ref:natura2000": "6",
        "start_date": "1907",
        "url": "https://www.fortengordels.be/forten/fort-van-stabroek",
        "website": "https://www.stafort.be",
        "wikidata": "Q2513106",
        "wikipedia": "nl:Fort van Stabroek"
      }
    },
    {
      "type": "way",
      "id": 956386161,
      "nodes": [
        8851042681,
        8851042680,
        8851042679,
        8851042678,
        8851042677,
        4450961878,
        8851042676,
        8851042675,
        8851042674,
        8851042673,
        8851042682,
        8851042683,
        8851042686,
        4450961875,
        4450961873,
        4450961871,
        8851042681
      ],
      "tags": {
        "amenity": "parking",
        "name": "Tervoplein",
        "parking": "surface"
      }
    },
    {
      "type": "way",
      "id": 996103067,
      "nodes": [
        9197853282,
        9197853281,
        9197853280,
        9197853279,
        9197853282
      ],
      "tags": {
        "access": "customers",
        "amenity": "parking",
        "parking": "surface",
        "surface": "unpaved"
      }
    },
    {
      "type": "way",
      "id": 997098469,
      "nodes": [
        9207074364,
        9207074363,
        9207074362,
        9207074361,
        9207074364
      ],
      "tags": {
        "amenity": "parking",
        "capacity": "3",
        "parking": "street_side",
        "parking:orientation": "perpendicular"
      }
    },
    {
      "type": "way",
      "id": 997098470,
      "nodes": [
        9207074371,
        9207074369,
        9207074366,
        9207074365,
        9207074371
      ],
      "tags": {
        "amenity": "parking",
        "capacity": "6",
        "parking": "street_side",
        "parking:orientation": "perpendicular"
      }
    },
    {
      "type": "way",
      "id": 997098471,
      "nodes": [
        9207074368,
        9207074367,
        9207074370,
        9207074372,
        9207074368
      ],
      "tags": {
        "amenity": "parking",
        "capacity": "5",
        "parking": "street_side",
        "parking:orientation": "perpendicular"
      }
    },
    {
      "type": "way",
      "id": 1009342762,
      "nodes": [
        9312815668,
        9312815667,
        9312815666,
        9312815665,
        9312815664,
        9312815663,
        9312815662,
        9312815668
      ],
      "tags": {
        "access": "customers",
        "amenity": "parking",
        "fee": "no",
        "parking": "surface"
      }
    },
    {
      "type": "relation",
      "id": 6024878,
      "members": [
        {
          "type": "way",
          "ref": 202376801,
          "role": "outer"
        },
        {
          "type": "way",
          "ref": 202376798,
          "role": "outer"
        },
        {
          "type": "way",
          "ref": 202376800,
          "role": "outer"
        }
      ],
      "tags": {
        "amenity": "parking",
        "fee": "no",
        "parking": "surface",
        "supervised": "no",
        "type": "multipolygon"
      }
    },
    {
      "type": "relation",
      "id": 12679023,
      "members": [
        {
          "type": "way",
          "ref": 940028318,
          "role": "outer"
        },
        {
          "type": "way",
          "ref": 940028317,
          "role": "outer"
        },
        {
          "type": "way",
          "ref": 940028319,
          "role": "outer"
        },
        {
          "type": "way",
          "ref": 940028315,
          "role": "outer"
        },
        {
          "type": "way",
          "ref": 940028316,
          "role": "outer"
        }
      ],
      "tags": {
        "amenity": "parking",
        "parking": "surface",
        "type": "multipolygon"
      }
    },
    {
      "type": "node",
      "id": 1463070700,
      "lat": 51.3562688,
      "lon": 4.3933421,
      "timestamp": "2016-12-06T20:42:35Z",
      "version": 2,
      "changeset": 44219480,
      "user": "QuercE",
      "uid": 551808,
      "tags": {
        "amenity": "parking",
        "capacity": "90",
        "name": "Albert Heijn",
        "parking": "surface"
      }
    },
    {
      "type": "node",
      "id": 3308538927,
      "lat": 51.393811,
      "lon": 4.3223749,
      "timestamp": "2015-01-24T23:10:03Z",
      "version": 1,
      "changeset": 28384403,
      "user": "Andre Engels",
      "uid": 4054,
      "tags": {
        "amenity": "parking"
      }
    },
    {
      "type": "node",
      "id": 3350505042,
      "lat": 51.3645133,
      "lon": 4.3390191,
      "timestamp": "2015-02-14T18:48:05Z",
      "version": 1,
      "changeset": 28848723,
      "user": "QuercE",
      "uid": 551808,
      "tags": {
        "access": "permissive",
        "amenity": "parking",
        "parking": "surface"
      }
    },
    {
      "type": "node",
      "id": 3517559056,
      "lat": 51.3696582,
      "lon": 4.3310457,
      "timestamp": "2015-05-14T16:29:20Z",
      "version": 1,
      "changeset": 31146782,
      "user": "QuercE",
      "uid": 551808,
      "tags": {
        "information": "board",
        "name": "Brabantse Wal",
        "tourism": "information"
      }
    },
    {
      "type": "node",
      "id": 3673481037,
      "lat": 51.3597591,
      "lon": 4.3067824,
      "timestamp": "2015-07-30T13:54:42Z",
      "version": 1,
      "changeset": 32981015,
      "user": "QuercE",
      "uid": 551808,
      "tags": {
        "amenity": "bench"
      }
    },
    {
      "type": "node",
      "id": 3673481042,
      "lat": 51.3603086,
      "lon": 4.3066725,
      "timestamp": "2015-07-30T13:54:42Z",
      "version": 1,
      "changeset": 32981015,
      "user": "QuercE",
      "uid": 551808,
      "tags": {
        "amenity": "bench"
      }
    },
    {
      "type": "node",
      "id": 4036458489,
      "lat": 51.3576958,
      "lon": 4.3361054,
      "timestamp": "2021-07-17T08:45:54Z",
      "version": 3,
      "changeset": 108150876,
      "user": "staf",
      "uid": 377797,
      "tags": {
        "board_type": "nature",
        "check_date": "2021-07-17",
        "information": "board",
        "name": "Ruige Heide",
        "tourism": "information"
      }
    },
    {
      "type": "node",
      "id": 4731986972,
      "lat": 51.3473326,
      "lon": 4.3311536,
      "timestamp": "2017-03-13T10:14:51Z",
      "version": 1,
      "changeset": 46808030,
      "user": "philippec",
      "uid": 76884,
      "tags": {
        "amenity": "drinking_water",
        "mapillary": "https://www.mapillary.com/app/?pKey=wz2QSHszFx71Wo3FDTo7yQ&lat=51.34737274289364&lng=4.331065478260598&z=17&focus=photo&mapStyle=osm&menu=false&x=0.4886026991423532&y=0.4439512387296862&zoom=0"
      }
    },
    {
      "type": "node",
      "id": 4731986973,
      "lat": 51.3567622,
      "lon": 4.3176482,
      "timestamp": "2017-03-13T10:14:51Z",
      "version": 1,
      "changeset": 46808030,
      "user": "philippec",
      "uid": 76884,
      "tags": {
        "amenity": "drinking_water",
        "mapillary": "https://www.mapillary.com/app/?pKey=a_owqJ--9LCKyuQSXrojxw&lat=51.356905269149024&lng=4.317425515914238&z=17&focus=photo&mapStyle=osm&menu=false&x=0.508193040037377&y=0.4923422762344477&zoom=0"
      }
    },
    {
      "type": "node",
      "id": 6653377287,
      "lat": 51.3908799,
      "lon": 4.3603413,
      "timestamp": "2019-07-29T18:04:07Z",
      "version": 3,
      "changeset": 72781691,
      "user": "geocalp",
      "uid": 653746,
      "tags": {
        "access": "yes",
        "amenity": "parking",
        "capacity": "15",
        "description": "Kleine parking voor max 10 auto´s",
        "fee": "no",
        "surface": "ground"
      }
    },
    {
      "type": "node",
      "id": 8309548915,
      "lat": 51.3462628,
      "lon": 4.3304848,
      "timestamp": "2021-01-10T22:15:46Z",
      "version": 1,
      "changeset": 97265995,
      "user": "QuercE",
      "uid": 551808,
      "tags": {
        "amenity": "bench"
      }
    },
    {
      "type": "node",
      "id": 8450388538,
      "lat": 51.3919144,
      "lon": 4.3372065,
      "timestamp": "2021-02-23T18:49:56Z",
      "version": 1,
      "changeset": 99849029,
      "user": "QuercE",
      "uid": 551808,
      "tags": {
        "amenity": "bench"
      }
    },
    {
      "type": "node",
      "id": 8450388542,
      "lat": 51.3919168,
      "lon": 4.3369337,
      "timestamp": "2021-02-23T18:49:56Z",
      "version": 1,
      "changeset": 99849029,
      "user": "QuercE",
      "uid": 551808,
      "tags": {
        "amenity": "bench"
      }
    },
    {
      "type": "node",
      "id": 8450388543,
      "lat": 51.3919851,
      "lon": 4.3367198,
      "timestamp": "2021-02-23T18:49:56Z",
      "version": 1,
      "changeset": 99849029,
      "user": "QuercE",
      "uid": 551808,
      "tags": {
        "amenity": "bench"
      }
    },
    {
      "type": "node",
      "id": 8471966748,
      "lat": 51.3487096,
      "lon": 4.3694955,
      "timestamp": "2021-02-28T19:28:25Z",
      "version": 1,
      "changeset": 100153249,
      "user": "QuercE",
      "uid": 551808,
      "tags": {
        "amenity": "bench"
      }
    },
    {
      "type": "node",
      "id": 8521549724,
      "lat": 51.3459608,
      "lon": 4.3234718,
      "timestamp": "2021-03-15T17:15:25Z",
      "version": 1,
      "changeset": 101065760,
      "user": "philippec",
      "uid": 76884,
      "tags": {
        "amenity": "drinking_water",
        "mapillary": "https://www.mapillary.com/map/im/iWk9wYEF5sRCNinkEBU42k"
      }
    },
    {
      "type": "node",
      "id": 8545174469,
      "lat": 51.3575047,
      "lon": 4.3258426,
      "timestamp": "2021-03-21T19:58:39Z",
      "version": 1,
      "changeset": 101455434,
      "user": "QuercE",
      "uid": 551808,
      "tags": {
        "amenity": "bench"
      }
    },
    {
      "type": "node",
      "id": 8545174470,
      "lat": 51.3579464,
      "lon": 4.3255609,
      "timestamp": "2021-03-21T19:58:39Z",
      "version": 1,
      "changeset": 101455434,
      "user": "QuercE",
      "uid": 551808,
      "tags": {
        "amenity": "bench"
      }
    },
    {
      "type": "node",
      "id": 8626699795,
      "lat": 51.3454406,
      "lon": 4.3265973,
      "timestamp": "2021-04-13T17:48:30Z",
      "version": 1,
      "changeset": 102881692,
      "user": "QuercE",
      "uid": 551808,
      "tags": {
        "amenity": "bench"
      }
    },
    {
      "type": "node",
      "id": 8626699796,
      "lat": 51.3455579,
      "lon": 4.3263146,
      "timestamp": "2021-04-13T17:48:30Z",
      "version": 1,
      "changeset": 102881692,
      "user": "QuercE",
      "uid": 551808,
      "tags": {
        "amenity": "bench"
      }
    },
    {
      "type": "node",
      "id": 8626699797,
      "lat": 51.345578,
      "lon": 4.3261477,
      "timestamp": "2021-04-13T17:48:30Z",
      "version": 1,
      "changeset": 102881692,
      "user": "QuercE",
      "uid": 551808,
      "tags": {
        "leisure": "picnic_table"
      }
    },
    {
      "type": "node",
      "id": 8626699798,
      "lat": 51.3455244,
      "lon": 4.3263307,
      "timestamp": "2021-04-13T17:48:30Z",
      "version": 1,
      "changeset": 102881692,
      "user": "QuercE",
      "uid": 551808,
      "tags": {
        "amenity": "bench"
      }
    },
    {
      "type": "node",
      "id": 8626699800,
      "lat": 51.3455307,
      "lon": 4.3262161,
      "timestamp": "2021-04-13T17:48:30Z",
      "version": 1,
      "changeset": 102881692,
      "user": "QuercE",
      "uid": 551808,
      "tags": {
        "amenity": "bench"
      }
    },
    {
      "type": "node",
      "id": 8640516300,
      "lat": 51.3515659,
      "lon": 4.32172,
      "timestamp": "2021-04-18T17:33:24Z",
      "version": 1,
      "changeset": 103147778,
      "user": "QuercE",
      "uid": 551808,
      "tags": {
        "amenity": "bench"
      }
    },
    {
      "type": "node",
      "id": 8640516301,
      "lat": 51.3515666,
      "lon": 4.3216695,
      "timestamp": "2021-04-18T17:33:24Z",
      "version": 1,
      "changeset": 103147778,
      "user": "QuercE",
      "uid": 551808,
      "tags": {
        "amenity": "bench"
      }
    },
    {
      "type": "node",
      "id": 8640516302,
      "lat": 51.3516189,
      "lon": 4.3215941,
      "timestamp": "2021-04-18T17:33:24Z",
      "version": 1,
      "changeset": 103147778,
      "user": "QuercE",
      "uid": 551808,
      "tags": {
        "leisure": "picnic_table"
      }
    },
    {
      "type": "node",
      "id": 8640516303,
      "lat": 51.3516192,
      "lon": 4.321526,
      "timestamp": "2021-04-18T17:33:24Z",
      "version": 1,
      "changeset": 103147778,
      "user": "QuercE",
      "uid": 551808,
      "tags": {
        "leisure": "picnic_table"
      }
    },
    {
      "type": "node",
      "id": 8640516305,
      "lat": 51.3529992,
      "lon": 4.3244349,
      "timestamp": "2021-04-18T17:33:24Z",
      "version": 1,
      "changeset": 103147778,
      "user": "QuercE",
      "uid": 551808,
      "tags": {
        "leisure": "picnic_table"
      }
    },
    {
      "type": "node",
      "id": 8662439329,
      "lat": 51.3528213,
      "lon": 4.3860649,
      "timestamp": "2021-04-24T15:55:22Z",
      "version": 1,
      "changeset": 103543008,
      "user": "QuercE",
      "uid": 551808,
      "tags": {
        "amenity": "bench"
      }
    },
    {
      "type": "node",
      "id": 8662439330,
      "lat": 51.352947,
      "lon": 4.386485,
      "timestamp": "2021-07-17T10:37:02Z",
      "version": 2,
      "changeset": 108154429,
      "user": "staf",
      "uid": 377797,
      "tags": {
        "amenity": "bench",
        "backrest": "yes"
      }
    },
    {
      "type": "node",
      "id": 8662439332,
      "lat": 51.3528414,
      "lon": 4.3846346,
      "timestamp": "2021-04-24T15:55:22Z",
      "version": 1,
      "changeset": 103543008,
      "user": "QuercE",
      "uid": 551808,
      "tags": {
        "leisure": "picnic_table"
      }
    },
    {
      "type": "node",
      "id": 8662439340,
      "lat": 51.3529038,
      "lon": 4.3845363,
      "timestamp": "2021-04-24T15:55:22Z",
      "version": 1,
      "changeset": 103543008,
      "user": "QuercE",
      "uid": 551808,
      "tags": {
        "leisure": "picnic_table"
      }
    },
    {
      "type": "node",
      "id": 8662439341,
      "lat": 51.3530361,
      "lon": 4.3844731,
      "timestamp": "2021-04-24T15:55:22Z",
      "version": 1,
      "changeset": 103543008,
      "user": "QuercE",
      "uid": 551808,
      "tags": {
        "leisure": "picnic_table"
      }
    },
    {
      "type": "node",
      "id": 8662439345,
      "lat": 51.3545167,
      "lon": 4.3857564,
      "timestamp": "2021-04-24T15:55:22Z",
      "version": 1,
      "changeset": 103543008,
      "user": "QuercE",
      "uid": 551808,
      "tags": {
        "amenity": "bench"
      }
    },
    {
      "type": "node",
      "id": 8662439346,
      "lat": 51.3544731,
      "lon": 4.3855561,
      "timestamp": "2021-04-24T15:55:22Z",
      "version": 1,
      "changeset": 103543008,
      "user": "QuercE",
      "uid": 551808,
      "tags": {
        "amenity": "bench"
      }
    },
    {
      "type": "node",
      "id": 8662439347,
      "lat": 51.3546823,
      "lon": 4.3856702,
      "timestamp": "2021-07-17T10:31:31Z",
      "version": 2,
      "changeset": 108154429,
      "user": "staf",
      "uid": 377797,
      "tags": {
        "amenity": "bench",
        "backrest": "yes"
      }
    },
    {
      "type": "node",
      "id": 8662439348,
      "lat": 51.3546427,
      "lon": 4.385467,
      "timestamp": "2021-07-17T10:31:33Z",
      "version": 2,
      "changeset": 108154429,
      "user": "staf",
      "uid": 377797,
      "tags": {
        "amenity": "bench",
        "backrest": "yes"
      }
    },
    {
      "type": "node",
      "id": 8664217486,
      "lat": 51.3531145,
      "lon": 4.3845628,
      "timestamp": "2021-04-25T10:10:14Z",
      "version": 1,
      "changeset": 103567059,
      "user": "QuercE",
      "uid": 551808,
      "tags": {
        "information": "board",
        "tourism": "information"
      }
    },
    {
      "type": "node",
      "id": 8664217487,
      "lat": 51.3543548,
      "lon": 4.3846346,
      "timestamp": "2021-07-17T10:29:54Z",
      "version": 2,
      "changeset": 108154363,
      "user": "staf",
      "uid": 377797,
      "tags": {
        "board_type": "nature",
        "information": "board",
        "tourism": "information"
      }
    },
    {
      "type": "node",
      "id": 8664583441,
      "lat": 51.3544633,
      "lon": 4.3856042,
      "timestamp": "2021-04-25T14:00:08Z",
      "version": 1,
      "changeset": 103575767,
      "user": "QuercE",
      "uid": 551808,
      "tags": {
        "information": "board",
        "tourism": "information"
      }
    },
    {
      "type": "node",
      "id": 8664593292,
      "lat": 51.3524949,
      "lon": 4.3840063,
      "timestamp": "2021-04-25T13:58:15Z",
      "version": 1,
      "changeset": 103575767,
      "user": "QuercE",
      "uid": 551808,
      "tags": {
        "amenity": "bench"
      }
    },
    {
      "type": "node",
      "id": 8664593293,
      "lat": 51.3527062,
      "lon": 4.3831211,
      "timestamp": "2021-04-25T13:58:15Z",
      "version": 1,
      "changeset": 103575767,
      "user": "QuercE",
      "uid": 551808,
      "tags": {
        "amenity": "bench"
      }
    },
    {
      "type": "node",
      "id": 8664593297,
      "lat": 51.3540542,
      "lon": 4.3833826,
      "timestamp": "2021-04-25T13:58:15Z",
      "version": 1,
      "changeset": 103575767,
      "user": "QuercE",
      "uid": 551808,
      "tags": {
        "information": "board",
        "tourism": "information"
      }
    },
    {
      "type": "node",
      "id": 8664602690,
      "lat": 51.3534541,
      "lon": 4.3902317,
      "timestamp": "2021-04-25T14:07:28Z",
      "version": 1,
      "changeset": 103575767,
      "user": "QuercE",
      "uid": 551808,
      "tags": {
        "information": "board",
        "tourism": "information"
      }
    },
    {
      "type": "node",
      "id": 8679930920,
      "lat": 51.3514008,
      "lon": 4.3662903,
      "timestamp": "2021-04-29T13:59:46Z",
      "version": 1,
      "changeset": 103850303,
      "user": "QuercE",
      "uid": 551808,
      "tags": {
        "amenity": "bench"
      }
    },
    {
      "type": "node",
      "id": 8706898266,
      "lat": 51.3526387,
      "lon": 4.3940126,
      "timestamp": "2021-05-06T16:41:32Z",
      "version": 1,
      "changeset": 104265450,
      "user": "QuercE",
      "uid": 551808,
      "tags": {
        "amenity": "bench"
      }
    },
    {
      "type": "node",
      "id": 8761793466,
      "lat": 51.3823392,
      "lon": 4.3734304,
      "timestamp": "2021-05-24T16:21:31Z",
      "version": 1,
      "changeset": 105239176,
      "user": "QuercE",
      "uid": 551808,
      "tags": {
        "amenity": "bench"
      }
    },
    {
      "type": "node",
      "id": 8761793468,
      "lat": 51.3787358,
      "lon": 4.3799519,
      "timestamp": "2021-05-24T16:21:31Z",
      "version": 1,
      "changeset": 105239176,
      "user": "QuercE",
      "uid": 551808,
      "tags": {
        "amenity": "bench"
      }
    },
    {
      "type": "node",
      "id": 8780697170,
      "lat": 51.3844526,
      "lon": 4.3138398,
      "timestamp": "2021-05-30T10:05:46Z",
      "version": 1,
      "changeset": 105561148,
      "user": "QuercE",
      "uid": 551808,
      "tags": {
        "leisure": "picnic_table"
      }
    },
    {
      "type": "node",
      "id": 8850205980,
      "lat": 51.3663223,
      "lon": 4.3891716,
      "timestamp": "2021-06-20T11:16:12Z",
      "version": 1,
      "changeset": 106661796,
      "user": "QuercE",
      "uid": 551808,
      "tags": {
        "leisure": "picnic_table",
        "tourism": "picnic_site"
      }
    },
    {
      "type": "node",
      "id": 8869894109,
      "lat": 51.365372,
      "lon": 4.3878499,
      "timestamp": "2021-06-27T14:52:59Z",
      "version": 1,
      "changeset": 107039837,
      "user": "QuercE",
      "uid": 551808,
      "tags": {
        "amenity": "bench"
      }
    },
    {
      "type": "node",
      "id": 8869894111,
      "lat": 51.3633492,
      "lon": 4.3894176,
      "timestamp": "2021-06-27T14:52:59Z",
      "version": 1,
      "changeset": 107039837,
      "user": "QuercE",
      "uid": 551808,
      "tags": {
        "amenity": "bench"
      }
    },
    {
      "type": "node",
      "id": 8928338603,
      "lat": 51.3573887,
      "lon": 4.3674322,
      "timestamp": "2021-07-17T09:46:53Z",
      "version": 1,
      "changeset": 108152929,
      "user": "staf",
      "uid": 377797,
      "tags": {
        "amenity": "bench",
        "backrest": "yes"
      }
    },
    {
      "type": "node",
      "id": 8928376724,
      "lat": 51.3560723,
      "lon": 4.3729742,
      "timestamp": "2021-07-17T10:17:26Z",
      "version": 1,
      "changeset": 108154000,
      "user": "staf",
      "uid": 377797,
      "tags": {
        "leisure": "picnic_table"
      }
    },
    {
      "type": "node",
      "id": 9026593108,
      "lat": 51.3495774,
      "lon": 4.3228975,
      "timestamp": "2021-08-22T16:07:23Z",
      "version": 1,
      "changeset": 110068654,
      "user": "QuercE",
      "uid": 551808,
      "tags": {
        "amenity": "bench"
      }
    },
    {
      "type": "node",
      "id": 9026593109,
      "lat": 51.349605,
      "lon": 4.3228398,
      "timestamp": "2021-08-22T16:07:23Z",
      "version": 1,
      "changeset": 110068654,
      "user": "QuercE",
      "uid": 551808,
      "tags": {
        "amenity": "bench"
      }
    },
    {
      "type": "node",
      "id": 9026593110,
      "lat": 51.3497173,
      "lon": 4.3228244,
      "timestamp": "2021-08-22T16:07:23Z",
      "version": 1,
      "changeset": 110068654,
      "user": "QuercE",
      "uid": 551808,
      "tags": {
        "amenity": "bench"
      }
    },
    {
      "type": "node",
      "id": 9026593111,
      "lat": 51.3497529,
      "lon": 4.322868,
      "timestamp": "2021-08-22T16:07:23Z",
      "version": 1,
      "changeset": 110068654,
      "user": "QuercE",
      "uid": 551808,
      "tags": {
        "amenity": "bench"
      }
    },
    {
      "type": "node",
      "id": 9026593112,
      "lat": 51.3497596,
      "lon": 4.3230443,
      "timestamp": "2021-08-22T16:07:23Z",
      "version": 1,
      "changeset": 110068654,
      "user": "QuercE",
      "uid": 551808,
      "tags": {
        "amenity": "bench"
      }
    },
    {
      "type": "node",
      "id": 9026593113,
      "lat": 51.3497315,
      "lon": 4.323096,
      "timestamp": "2021-08-22T16:07:23Z",
      "version": 1,
      "changeset": 110068654,
      "user": "QuercE",
      "uid": 551808,
      "tags": {
        "amenity": "bench"
      }
    },
    {
      "type": "node",
      "id": 9026593114,
      "lat": 51.3496195,
      "lon": 4.3231101,
      "timestamp": "2021-08-22T16:07:23Z",
      "version": 1,
      "changeset": 110068654,
      "user": "QuercE",
      "uid": 551808,
      "tags": {
        "amenity": "bench"
      }
    },
    {
      "type": "node",
      "id": 9026593115,
      "lat": 51.349586,
      "lon": 4.3230651,
      "timestamp": "2021-08-22T16:07:23Z",
      "version": 1,
      "changeset": 110068654,
      "user": "QuercE",
      "uid": 551808,
      "tags": {
        "amenity": "bench"
      }
    },
    {
      "type": "node",
      "id": 9026633921,
      "lat": 51.3461468,
      "lon": 4.3227577,
      "timestamp": "2021-08-22T16:13:58Z",
      "version": 1,
      "changeset": 110068926,
      "user": "QuercE",
      "uid": 551808,
      "tags": {
        "amenity": "bench"
      }
    },
    {
      "type": "node",
      "id": 9026633922,
      "lat": 51.3461412,
      "lon": 4.3227463,
      "timestamp": "2021-08-22T16:13:58Z",
      "version": 1,
      "changeset": 110068926,
      "user": "QuercE",
      "uid": 551808,
      "tags": {
        "amenity": "bench"
      }
    },
    {
      "type": "node",
      "id": 9197075795,
      "lat": 51.3508861,
      "lon": 4.3277815,
      "timestamp": "2021-10-24T09:49:42Z",
      "version": 1,
      "changeset": 112898843,
      "user": "QuercE",
      "uid": 551808,
      "tags": {
        "amenity": "bench"
      }
    },
    {
      "type": "node",
      "id": 9197075796,
      "lat": 51.3508729,
      "lon": 4.3277631,
      "timestamp": "2021-10-24T09:49:42Z",
      "version": 1,
      "changeset": 112898843,
      "user": "QuercE",
      "uid": 551808,
      "tags": {
        "amenity": "bench"
      }
    },
    {
      "type": "node",
      "id": 9197075797,
      "lat": 51.3508545,
      "lon": 4.3277972,
      "timestamp": "2021-10-24T09:49:42Z",
      "version": 1,
      "changeset": 112898843,
      "user": "QuercE",
      "uid": 551808,
      "tags": {
        "amenity": "bench"
      }
    },
    {
      "type": "node",
      "id": 9197075798,
      "lat": 51.3508667,
      "lon": 4.3278142,
      "timestamp": "2021-10-24T09:49:42Z",
      "version": 1,
      "changeset": 112898843,
      "user": "QuercE",
      "uid": 551808,
      "tags": {
        "amenity": "bench"
      }
    },
    {
      "type": "node",
      "id": 9197075799,
      "lat": 51.3508793,
      "lon": 4.3278316,
      "timestamp": "2021-10-24T09:49:42Z",
      "version": 1,
      "changeset": 112898843,
      "user": "QuercE",
      "uid": 551808,
      "tags": {
        "amenity": "bench"
      }
    },
    {
      "type": "node",
      "id": 9197075800,
      "lat": 51.3508977,
      "lon": 4.3277976,
      "timestamp": "2021-10-24T09:49:42Z",
      "version": 1,
      "changeset": 112898843,
      "user": "QuercE",
      "uid": 551808,
      "tags": {
        "amenity": "bench"
      }
    },
    {
      "type": "node",
      "id": 9249949529,
      "lat": 51.3625652,
      "lon": 4.3775847,
      "timestamp": "2021-11-14T09:10:33Z",
      "version": 1,
      "changeset": 113755109,
      "user": "QuercE",
      "uid": 551808,
      "tags": {
        "amenity": "bench"
      }
    },
    {
      "type": "node",
      "id": 9249949530,
      "lat": 51.350471,
      "lon": 4.3884623,
      "timestamp": "2021-11-14T09:10:33Z",
      "version": 1,
      "changeset": 113755109,
      "user": "QuercE",
      "uid": 551808,
      "tags": {
        "amenity": "bench"
      }
    },
    {
      "type": "node",
      "id": 9251319222,
      "lat": 51.3489058,
      "lon": 4.3158922,
      "timestamp": "2021-11-14T20:20:47Z",
      "version": 2,
      "changeset": 113777585,
      "user": "QuercE",
      "uid": 551808,
      "tags": {
        "artist_name": "Dré Van Eyken",
        "information": "board",
        "name": "Ganzenbord",
        "tourism": "information"
      }
    },
    {
      "type": "node",
      "id": 9251319223,
      "lat": 51.3485588,
      "lon": 4.3162052,
      "timestamp": "2021-11-14T20:18:43Z",
      "version": 1,
      "changeset": 113777585,
      "user": "QuercE",
      "uid": 551808,
      "tags": {
        "amenity": "bench"
      }
    },
    {
      "type": "node",
      "id": 9251319224,
      "lat": 51.3486709,
      "lon": 4.3161843,
      "timestamp": "2021-11-14T20:18:43Z",
      "version": 1,
      "changeset": 113777585,
      "user": "QuercE",
      "uid": 551808,
      "tags": {
        "amenity": "bench"
      }
    },
    {
      "type": "node",
      "id": 9251319225,
      "lat": 51.3487367,
      "lon": 4.316179,
      "timestamp": "2021-11-14T20:18:43Z",
      "version": 1,
      "changeset": 113777585,
      "user": "QuercE",
      "uid": 551808,
      "tags": {
        "amenity": "bench"
      }
    },
    {
      "type": "node",
      "id": 9251319226,
      "lat": 51.3488035,
      "lon": 4.316179,
      "timestamp": "2021-11-14T20:18:43Z",
      "version": 1,
      "changeset": 113777585,
      "user": "QuercE",
      "uid": 551808,
      "tags": {
        "amenity": "bench"
      }
    },
    {
      "type": "node",
      "id": 9251319227,
      "lat": 51.3488693,
      "lon": 4.3161782,
      "timestamp": "2021-11-14T20:18:43Z",
      "version": 1,
      "changeset": 113777585,
      "user": "QuercE",
      "uid": 551808,
      "tags": {
        "amenity": "bench"
      }
    },
    {
      "type": "node",
      "id": 9251319228,
      "lat": 51.3487122,
      "lon": 4.3161486,
      "timestamp": "2021-11-14T20:18:43Z",
      "version": 1,
      "changeset": 113777585,
      "user": "QuercE",
      "uid": 551808,
      "tags": {
        "amenity": "bench"
      }
    },
    {
      "type": "node",
      "id": 9271342379,
      "lat": 51.3494565,
      "lon": 4.316253,
      "timestamp": "2021-11-21T09:10:13Z",
      "version": 1,
      "changeset": 114049949,
      "user": "QuercE",
      "uid": 551808,
      "tags": {
        "amenity": "bench"
      }
    },
    {
      "type": "node",
      "id": 9271342380,
      "lat": 51.3494107,
      "lon": 4.316256,
      "timestamp": "2021-11-21T09:10:13Z",
      "version": 1,
      "changeset": 114049949,
      "user": "QuercE",
      "uid": 551808,
      "tags": {
        "amenity": "bench"
      }
    },
    {
      "type": "node",
      "id": 9271342381,
      "lat": 51.3493265,
      "lon": 4.3162614,
      "timestamp": "2021-11-21T09:10:13Z",
      "version": 1,
      "changeset": 114049949,
      "user": "QuercE",
      "uid": 551808,
      "tags": {
        "amenity": "bench"
      }
    },
    {
      "type": "node",
      "id": 9271342382,
      "lat": 51.349278,
      "lon": 4.3162645,
      "timestamp": "2021-11-21T09:10:13Z",
      "version": 1,
      "changeset": 114049949,
      "user": "QuercE",
      "uid": 551808,
      "tags": {
        "amenity": "bench"
      }
    },
    {
      "type": "node",
      "id": 9271342383,
      "lat": 51.3491924,
      "lon": 4.31627,
      "timestamp": "2021-11-21T09:10:13Z",
      "version": 1,
      "changeset": 114049949,
      "user": "QuercE",
      "uid": 551808,
      "tags": {
        "amenity": "bench"
      }
    },
    {
      "type": "node",
      "id": 9271342384,
      "lat": 51.3491457,
      "lon": 4.316273,
      "timestamp": "2021-11-21T09:10:13Z",
      "version": 1,
      "changeset": 114049949,
      "user": "QuercE",
      "uid": 551808,
      "tags": {
        "amenity": "bench"
      }
    },
    {
      "type": "node",
      "id": 9271342385,
      "lat": 51.3490555,
      "lon": 4.3162788,
      "timestamp": "2021-11-21T09:10:13Z",
      "version": 1,
      "changeset": 114049949,
      "user": "QuercE",
      "uid": 551808,
      "tags": {
        "amenity": "bench"
      }
    },
    {
      "type": "node",
      "id": 9271342386,
      "lat": 51.3490074,
      "lon": 4.3162819,
      "timestamp": "2021-11-21T09:10:13Z",
      "version": 1,
      "changeset": 114049949,
      "user": "QuercE",
      "uid": 551808,
      "tags": {
        "amenity": "bench"
      }
    },
    {
      "type": "node",
      "id": 9288015631,
      "lat": 51.358148,
      "lon": 4.324122,
      "timestamp": "2021-11-27T11:51:48Z",
      "version": 1,
      "changeset": 114291801,
      "user": "QuercE",
      "uid": 551808,
      "tags": {
        "amenity": "bench"
      }
    },
    {
      "type": "way",
      "id": 75178165,
      "timestamp": "2020-11-10T17:14:36Z",
      "version": 3,
      "changeset": 93875276,
      "user": "QuercE",
      "uid": 551808,
      "nodes": [
        8104027017,
        8104013815,
        8104013816,
        887158145,
        8104027019,
        887158162,
        8104013807,
        8104013799,
        8104013795,
        8104013800,
        8104013808,
        8104027018,
        8104013811,
        8104013812,
        8104013813,
        8104013814,
        8104013810,
        8104013809,
        8104027017
      ],
      "tags": {
        "access": "customers",
        "amenity": "parking",
        "parking": "surface"
      }
    },
    {
      "type": "way",
      "id": 161038968,
      "timestamp": "2021-03-21T19:58:39Z",
      "version": 4,
      "changeset": 101455434,
      "user": "QuercE",
      "uid": 551808,
      "nodes": [
        597285730,
        1730419291,
        8545174486,
        1730419278,
        2562529630,
        2562529625,
        1730424362,
        2562529628,
        2562529635,
        597285730
      ],
      "tags": {
        "amenity": "parking"
      }
    },
    {
      "type": "way",
      "id": 161046083,
      "timestamp": "2021-11-14T20:15:41Z",
      "version": 4,
      "changeset": 113777585,
      "user": "QuercE",
      "uid": 551808,
      "nodes": [
        2495961279,
        1730482384,
        1730482403,
        1731729161,
        1730482382,
        1730482380,
        2495961279
      ],
      "tags": {
        "amenity": "parking",
        "capacity": "48",
        "capacity:disabled": "3",
        "fee": "no",
        "parking": "surface"
      }
    },
    {
      "type": "way",
      "id": 161189404,
      "timestamp": "2021-12-05T17:39:14Z",
      "version": 4,
      "changeset": 114589419,
      "user": "QuercE",
      "uid": 551808,
      "nodes": [
        1731846073,
        1731846117,
        1731846090,
        1731846054,
        4040013968,
        4040013967,
        1731846092,
        1731846073
      ],
      "tags": {
        "access": "customers",
        "amenity": "parking",
        "capacity": "12",
        "name": "Molengeest",
        "parking": "surface"
      }
    },
    {
      "type": "way",
      "id": 220286840,
      "timestamp": "2020-10-05T15:17:10Z",
      "version": 5,
      "changeset": 91994382,
      "user": "Jorisbo",
      "uid": 1983103,
      "nodes": [
        1731852949,
        3526231929,
        2294147099,
        2294147083,
        2294147084,
        7972914202,
        7972914203,
        2294147087,
        2294147089,
        2294147091,
        2294147092,
        2294147093,
        2294147103,
        2294147102,
        2294147101,
        2294147100,
        2294147096,
        2294147098,
        1731852949
      ],
      "tags": {
        "amenity": "parking",
        "name": "Carrefour Market",
        "parking": "surface"
      }
    },
    {
      "type": "way",
      "id": 242017235,
      "timestamp": "2017-05-08T11:29:19Z",
      "version": 3,
      "changeset": 48499142,
      "user": "AdVerburg",
      "uid": 2831457,
      "nodes": [
        1749651474,
        1730482380,
        1730482386,
        1730482407,
        4841518559,
        1749651474
      ],
      "tags": {
        "access": "no",
        "amenity": "parking",
        "bus": "designated",
        "parking": "surface"
      }
    },
    {
      "type": "way",
      "id": 249375751,
      "timestamp": "2020-09-30T14:19:01Z",
      "version": 3,
      "changeset": 91774286,
      "user": "Jorisbo",
      "uid": 1983103,
      "nodes": [
        7959943707,
        2559856009,
        2559856003,
        597278764,
        597278864,
        597278843,
        7959943569,
        7959943713,
        2559856011,
        2559856012,
        2559856014,
        7959943712,
        2559856013,
        597278901,
        2294147104,
        597278877,
        7959943711,
        7959943710,
        7959943709,
        7959943708,
        7959943707
      ],
      "tags": {
        "access": "customers",
        "amenity": "parking",
        "name": "Proxy Delhaize",
        "parking": "surface"
      }
    },
    {
      "type": "way",
      "id": 249673480,
      "timestamp": "2021-10-24T17:19:36Z",
      "version": 3,
      "changeset": 112913875,
      "user": "QuercE",
      "uid": 551808,
      "nodes": [
        2562529632,
        3217729939,
        2562529638,
        9197938015,
        2562529639,
        2562529633,
        2562529632
      ],
      "tags": {
        "access": "customers",
        "amenity": "parking",
        "parking": "surface",
        "surface": "unpaved"
      }
    },
    {
      "type": "way",
      "id": 278651717,
      "timestamp": "2019-08-03T17:20:47Z",
      "version": 2,
      "changeset": 72973843,
      "user": "MvanderHeide",
      "uid": 431046,
      "nodes": [
        2829832915,
        2829832925,
        2829832918,
        2829832912,
        2829832920,
        2829832916,
        2829832910,
        2829832908,
        2829832914,
        2829832911,
        2829832915
      ],
      "tags": {
        "access": "customers",
        "amenity": "toilets",
        "building": "yes",
        "drinking_water": "yes",
        "fee": "no",
        "ref:bag": "873100000420266",
        "source": "BAG",
        "source:date": "2014-02-11",
        "start_date": "1992",
        "unisex": "yes"
      }
    },
    {
      "type": "way",
      "id": 278653081,
      "timestamp": "2019-08-03T17:20:47Z",
      "version": 2,
      "changeset": 72973843,
      "user": "MvanderHeide",
      "uid": 431046,
      "nodes": [
        2829833131,
        2829833128,
        2829833126,
        2829833123,
        2829833121,
        2829833119,
        2829833117,
        2829833115,
        2829833113,
        2829833111,
        2829833108,
        2829833106,
        2829833105,
        2829833103,
        2829832999,
        2829832998,
        2829832996,
        2829832995,
        2829832997,
        2829833000,
        2829833102,
        2829833104,
        2829833107,
        2829833109,
        2829833110,
        2829833112,
        2829833116,
        2829833118,
        2829833120,
        2829833122,
        2829833124,
        2829833125,
        2829833127,
        2829833129,
        2829833130,
        2829833132,
        2829833131
      ],
      "tags": {
        "access": "customers",
        "amenity": "toilets",
        "building": "yes",
        "ref:bag": "873100000411663",
        "source": "BAG",
        "source:date": "2014-02-11",
        "start_date": "1984",
        "unisex": "yes"
      }
    },
    {
      "type": "way",
      "id": 278656522,
      "timestamp": "2019-08-03T17:20:47Z",
      "version": 2,
      "changeset": 72973843,
      "user": "MvanderHeide",
      "uid": 431046,
      "nodes": [
        2829832344,
        2829832340,
        2829832368,
        2829832364,
        2829832366,
        2829832376,
        2829832344
      ],
      "tags": {
        "access": "customers",
        "amenity": "toilets",
        "building": "yes",
        "drinking_water": "yes",
        "ref:bag": "873100000420242",
        "source": "BAG",
        "source:date": "2014-02-11",
        "start_date": "1997",
        "unisex": "yes"
      }
    },
    {
      "type": "way",
      "id": 278657550,
      "timestamp": "2019-08-03T17:20:47Z",
      "version": 2,
      "changeset": 72973843,
      "user": "MvanderHeide",
      "uid": 431046,
      "nodes": [
        2829832632,
        2829832614,
        2829832616,
        2829832604,
        2829832609,
        2829832617,
        2829832618,
        2829832636,
        2829832632
      ],
      "tags": {
        "access": "customers",
        "amenity": "toilets",
        "building": "yes",
        "drinking_water": "yes",
        "ref:bag": "873100000415737",
        "source": "BAG",
        "source:date": "2014-02-11",
        "start_date": "1984",
        "unisex": "yes"
      }
    },
    {
      "type": "way",
      "id": 315643050,
      "timestamp": "2021-11-01T22:34:57Z",
      "version": 2,
      "changeset": 113257996,
      "user": "QuercE",
      "uid": 551808,
      "nodes": [
        3217729945,
        3217729948,
        3217729947,
        3217729944,
        9217202842,
        9217202843,
        3217729945
      ],
      "tags": {
        "access": "customers",
        "amenity": "parking",
        "parking": "surface",
        "surface": "unpaved"
      }
    },
    {
      "type": "way",
      "id": 324101953,
      "timestamp": "2015-01-24T23:10:06Z",
      "version": 1,
      "changeset": 28384403,
      "user": "Andre Engels",
      "uid": 4054,
      "nodes": [
        3308538921,
        3308538920,
        3308539870,
        3308538874,
        3308538921
      ],
      "tags": {
        "amenity": "parking"
      }
    },
    {
      "type": "way",
      "id": 327857419,
      "timestamp": "2017-05-07T16:33:43Z",
      "version": 2,
      "changeset": 48479432,
      "user": "QuercE",
      "uid": 551808,
      "nodes": [
        3346669493,
        3346668389,
        3346668388,
        3346668371,
        3346668370,
        4840133203,
        3346668376,
        3346668377,
        3346668392,
        3346669493
      ],
      "tags": {
        "access": "customers",
        "amenity": "parking",
        "parking": "surface"
      }
    },
    {
      "type": "way",
      "id": 354388298,
      "timestamp": "2020-10-01T14:38:14Z",
      "version": 2,
      "changeset": 91833124,
      "user": "Jorisbo",
      "uid": 1983103,
      "nodes": [
        3601230636,
        3601230635,
        3601230631,
        3601230630,
        3601230629,
        3601230634,
        7963691387,
        3601230636
      ],
      "tags": {
        "amenity": "parking",
        "parking": "surface"
      }
    },
    {
      "type": "way",
      "id": 355042585,
      "timestamp": "2015-06-20T08:54:17Z",
      "version": 1,
      "changeset": 32092793,
      "user": "QuercE",
      "uid": 551808,
      "nodes": [
        42532607,
        3606711910,
        2829697136,
        2829696490,
        3606711908,
        3606711903,
        3606711904,
        3606711905,
        3606711906,
        3606711907,
        2829697312,
        42532607
      ],
      "tags": {
        "amenity": "parking",
        "name": "De Cichorei",
        "parking": "surface"
      }
    },
    {
      "type": "way",
      "id": 398924378,
      "timestamp": "2016-02-20T15:18:36Z",
      "version": 1,
      "changeset": 37330326,
      "user": "QuercE",
      "uid": 551808,
      "nodes": [
        4016617523,
        4016617524,
        4016617522,
        4016617520,
        4016617516,
        4016617517,
        4016617518,
        4016617519,
        4016617514,
        4016617512,
        4016617511,
        4016617509,
        4016617507,
        4016617521,
        4016617523
      ],
      "tags": {
        "amenity": "parking",
        "capacity": "44",
        "capacity:disabled": "3",
        "name": "Douaneplein",
        "parking": "surface"
      }
    },
    {
      "type": "way",
      "id": 414579166,
      "timestamp": "2016-04-30T10:39:16Z",
      "version": 2,
      "changeset": 38996807,
      "user": "QuercE",
      "uid": 551808,
      "nodes": [
        1731846078,
        2123534251,
        4157038841,
        4157038842,
        4157038840,
        4157038838,
        4157038839,
        2123534248,
        4157167859,
        4157167861,
        1731846078
      ],
      "tags": {
        "access": "destination",
        "amenity": "parking",
        "capacity": "30",
        "name": "Monnikenhof",
        "parking": "surface"
      }
    },
    {
      "type": "way",
      "id": 429026921,
      "timestamp": "2020-09-30T06:33:46Z",
      "version": 4,
      "changeset": 91746552,
      "user": "Jorisbo",
      "uid": 1983103,
      "nodes": [
        4281553019,
        4379741090,
        4281553020,
        7958595364,
        4559805208,
        4281553011,
        7958595395,
        7958595396,
        4281553019
      ],
      "tags": {
        "amenity": "parking",
        "capacity": "31",
        "capacity:disabled": "2",
        "parking": "surface"
      }
    },
    {
      "type": "way",
      "id": 434820615,
      "timestamp": "2021-12-05T17:40:04Z",
      "version": 2,
      "changeset": 114589448,
      "user": "QuercE",
      "uid": 551808,
      "nodes": [
        4327397798,
        4327397799,
        4327397800,
        4327397801,
        4327397798
      ],
      "tags": {
        "amenity": "parking",
        "capacity": "14",
        "fee": "no",
        "parking": "surface",
        "supervised": "no",
        "surface": "paving_stones"
      }
    },
    {
      "type": "way",
      "id": 434820616,
      "timestamp": "2021-12-05T17:39:14Z",
      "version": 2,
      "changeset": 114589419,
      "user": "QuercE",
      "uid": 551808,
      "nodes": [
        4327397802,
        4327397803,
        4327397804,
        4327397805,
        4327397802
      ],
      "tags": {
        "amenity": "parking",
        "capacity": "14",
        "capacity:disabled": "1",
        "parking": "surface",
        "supervised": "no",
        "surface": "paving_stones"
      }
    },
    {
      "type": "way",
      "id": 451922821,
      "timestamp": "2016-11-07T17:10:09Z",
      "version": 1,
      "changeset": 43468910,
      "user": "QuercE",
      "uid": 551808,
      "nodes": [
        4487277160,
        4487277158,
        4487277159,
        4487277161,
        4487277160
      ],
      "tags": {
        "access": "customers",
        "amenity": "parking",
        "parking": "surface"
      }
    },
    {
      "type": "way",
      "id": 451922822,
      "timestamp": "2020-09-30T12:43:50Z",
      "version": 3,
      "changeset": 91769662,
      "user": "Jorisbo",
      "uid": 1983103,
      "nodes": [
        4487277162,
        581384303,
        2376931411,
        581384304,
        7959612202,
        3742038420,
        7959612198,
        3742038413,
        3742038407,
        4487277163,
        4487277162
      ],
      "tags": {
        "access": "customers",
        "amenity": "parking",
        "capacity": "6",
        "parking": "surface"
      }
    },
    {
      "type": "way",
      "id": 460008421,
      "timestamp": "2016-12-16T11:34:34Z",
      "version": 1,
      "changeset": 44445079,
      "user": "B-Alien",
      "uid": 3967148,
      "nodes": [
        4557009234,
        4557009235,
        4557009236,
        4557009237,
        4557009234
      ],
      "tags": {
        "amenity": "parking",
        "capacity": "1",
        "fee": "no",
        "parking": "surface",
        "supervised": "no",
        "surface": "paved"
      }
    },
    {
      "type": "way",
      "id": 460008422,
      "timestamp": "2016-12-16T11:34:34Z",
      "version": 1,
      "changeset": 44445079,
      "user": "B-Alien",
      "uid": 3967148,
      "nodes": [
        4557009238,
        4557009239,
        4557009240,
        4557009241,
        4557009238
      ],
      "tags": {
        "amenity": "parking",
        "capacity": "2",
        "fee": "no",
        "parking": "surface",
        "supervised": "no"
      }
    },
    {
      "type": "way",
      "id": 460008423,
      "timestamp": "2016-12-16T11:34:34Z",
      "version": 1,
      "changeset": 44445079,
      "user": "B-Alien",
      "uid": 3967148,
      "nodes": [
        4557009242,
        4557009243,
        4557009244,
        4557009245,
        4557009242
      ],
      "tags": {
        "amenity": "parking",
        "capacity": "4",
        "fee": "no",
        "parking": "surface",
        "supervised": "no",
        "surface": "paved"
      }
    },
    {
      "type": "way",
      "id": 460008424,
      "timestamp": "2016-12-16T11:34:34Z",
      "version": 1,
      "changeset": 44445079,
      "user": "B-Alien",
      "uid": 3967148,
      "nodes": [
        4557009246,
        4557009247,
        4557009248,
        4557009249,
        4557009246
      ],
      "tags": {
        "amenity": "parking",
        "capacity": "2",
        "fee": "no",
        "parking": "surface",
        "supervised": "no",
        "surface": "paved"
      }
    },
    {
      "type": "way",
      "id": 460008425,
      "timestamp": "2016-12-16T11:34:35Z",
      "version": 1,
      "changeset": 44445079,
      "user": "B-Alien",
      "uid": 3967148,
      "nodes": [
        4557009250,
        4557009251,
        4557009252,
        4557009253,
        4557009250
      ],
      "tags": {
        "amenity": "parking",
        "capacity": "5",
        "fee": "no",
        "parking": "surface",
        "supervised": "no",
        "surface": "paved"
      }
    },
    {
      "type": "way",
      "id": 460008426,
      "timestamp": "2016-12-16T11:34:35Z",
      "version": 1,
      "changeset": 44445079,
      "user": "B-Alien",
      "uid": 3967148,
      "nodes": [
        4557009254,
        4557009255,
        4557009256,
        4557009257,
        4557009254
      ],
      "tags": {
        "amenity": "parking",
        "capacity": "2",
        "fee": "no",
        "parking": "surface",
        "supervised": "no",
        "surface": "paved"
      }
    },
    {
      "type": "way",
      "id": 466911227,
      "timestamp": "2017-01-18T12:15:00Z",
      "version": 1,
      "changeset": 45268805,
      "user": "AdVerburg",
      "uid": 2831457,
      "nodes": [
        4616131499,
        4616131498,
        4616131497,
        4616131503,
        4616131499
      ],
      "tags": {
        "amenity": "parking",
        "parking": "surface"
      }
    },
    {
      "type": "way",
      "id": 544218543,
      "timestamp": "2017-12-02T21:05:47Z",
      "version": 1,
      "changeset": 54281789,
      "user": "QuercE",
      "uid": 551808,
      "nodes": [
        5260773227,
        5260773226,
        5260773225,
        5260773224,
        5260773223,
        5260773222,
        5260773221,
        3308608064,
        5260773227
      ],
      "tags": {
        "amenity": "parking",
        "fee": "no",
        "parking": "surface"
      }
    },
    {
      "type": "way",
      "id": 601340592,
      "timestamp": "2020-10-02T12:54:18Z",
      "version": 3,
      "changeset": 91867062,
      "user": "Jorisbo",
      "uid": 1983103,
      "nodes": [
        5715613199,
        5715613198,
        7966282285,
        1749651356,
        5715613195,
        1749651346,
        6388005299,
        6388005300,
        6388005302,
        7966282288,
        7966282287,
        7966282286,
        5715613199
      ],
      "tags": {
        "amenity": "parking",
        "capacity": "59",
        "parking": "surface"
      }
    },
    {
      "type": "way",
      "id": 623160944,
      "timestamp": "2018-09-05T18:31:05Z",
      "version": 1,
      "changeset": 62321183,
      "user": "AdVerburg",
      "uid": 2831457,
      "nodes": [
        5885321817,
        5885321816,
        5885321815,
        887157661,
        887157662,
        5885321814,
        5885321817
      ],
      "tags": {
        "amenity": "parking",
        "parking": "surface"
      }
    },
    {
      "type": "way",
      "id": 710523634,
      "timestamp": "2019-08-03T17:20:47Z",
      "version": 1,
      "changeset": 72973843,
      "user": "MvanderHeide",
      "uid": 431046,
      "nodes": [
        887181866,
        887181864,
        887181897,
        887182077,
        6680301610,
        1543937382,
        887181674,
        887181673,
        887181866
      ],
      "tags": {
        "access": "customers",
        "amenity": "parking",
        "fee": "no",
        "name": "Camping Athena",
        "park_ride": "no",
        "parking": "surface",
        "supervised": "no",
        "surface": "unpaved"
      }
    },
    {
      "type": "way",
      "id": 851771131,
      "timestamp": "2020-09-26T09:50:48Z",
      "version": 1,
      "changeset": 91545211,
      "user": "Mangobonbon",
      "uid": 10115287,
      "nodes": [
        7944441152,
        7944441153,
        7944441154,
        7944441155,
        7944441152
      ],
      "tags": {
        "amenity": "parking"
      }
    },
    {
      "type": "way",
      "id": 855459695,
      "timestamp": "2020-10-05T14:58:09Z",
      "version": 1,
      "changeset": 91993610,
      "user": "Jorisbo",
      "uid": 1983103,
      "nodes": [
        7977665066,
        7977665067,
        7977665072,
        7977665068,
        7977665069,
        7977665071,
        7977665066
      ],
      "tags": {
        "amenity": "parking"
      }
    },
    {
      "type": "way",
      "id": 855465393,
      "timestamp": "2020-10-05T15:17:10Z",
      "version": 1,
      "changeset": 91994382,
      "user": "Jorisbo",
      "uid": 1983103,
      "nodes": [
        7977704833,
        7977704834,
        7977704838,
        7977704835,
        7977704837,
        7977704836,
        2294147086,
        7977704833
      ],
      "tags": {
        "amenity": "parking"
      }
    },
    {
      "type": "way",
      "id": 855475805,
      "timestamp": "2020-10-05T15:42:55Z",
      "version": 1,
      "changeset": 91995581,
      "user": "Jorisbo",
      "uid": 1983103,
      "nodes": [
        7977780044,
        7977780045,
        1734191945,
        7977780046,
        7977780047,
        7977780044
      ],
      "tags": {
        "amenity": "parking"
      }
    },
    {
      "type": "way",
      "id": 858797007,
      "timestamp": "2020-10-14T06:36:13Z",
      "version": 1,
      "changeset": 92452512,
      "user": "Jorisbo",
      "uid": 1983103,
      "nodes": [
        8005625554,
        8005625525,
        8005625526,
        8005625555,
        8005625554
      ],
      "tags": {
        "amenity": "parking"
      }
    },
    {
      "type": "way",
      "id": 858797008,
      "timestamp": "2020-10-14T06:36:13Z",
      "version": 1,
      "changeset": 92452512,
      "user": "Jorisbo",
      "uid": 1983103,
      "nodes": [
        8005625527,
        8005625528,
        8005625529,
        8005625530,
        8005625527
      ],
      "tags": {
        "amenity": "parking"
      }
    },
    {
      "type": "way",
      "id": 858822742,
      "timestamp": "2020-10-14T08:15:37Z",
      "version": 1,
      "changeset": 92458025,
      "user": "Jorisbo",
      "uid": 1983103,
      "nodes": [
        8005890005,
        8005890007,
        887153535,
        8005890006,
        597285844,
        7959073854,
        7959073857,
        7959073856,
        7959073858,
        7959073861,
        8005890005
      ],
      "tags": {
        "access": "customers",
        "amenity": "parking"
      }
    },
    {
      "type": "way",
      "id": 934953243,
      "timestamp": "2021-04-25T10:10:14Z",
      "version": 1,
      "changeset": 103567059,
      "user": "QuercE",
      "uid": 551808,
      "nodes": [
        1309201467,
        1442397796,
        8664217492,
        8664217491,
        4267934832,
        8664217490,
        1309201467
      ],
      "tags": {
        "amenity": "parking",
        "capacity": "70",
        "fee": "no",
        "name": "Moretusbos",
        "note": "temporary parking, future forest; to be replaced by larger parking near the forest's eastern edge (Oud Broek - Canadalaan)",
        "parking": "surface",
        "surface": "unpaved"
      }
    },
    {
      "type": "way",
      "id": 934953244,
      "timestamp": "2021-07-17T10:33:00Z",
      "version": 2,
      "changeset": 108154483,
      "user": "staf",
      "uid": 377797,
      "nodes": [
        8664217497,
        8664217496,
        8664217495,
        1304659694,
        8664217497
      ],
      "tags": {
        "access": "yes",
        "amenity": "parking",
        "capacity": "23",
        "capacity:disabled": "1",
        "fee": "no",
        "name": "Ravenhof",
        "parking": "surface"
      }
    },
    {
      "type": "way",
      "id": 941702623,
      "timestamp": "2021-05-12T09:47:05Z",
      "version": 2,
      "changeset": 104562769,
      "user": "Rienux",
      "uid": 11911273,
      "nodes": [
        8720654289,
        8720654290,
        8720654291,
        8720654292,
        8720654293,
        8720654294,
        8720654295,
        8720654296,
        8720654297,
        8720654298,
        8720654299,
        8720654300,
        8720654301,
        8720654302,
        8720654303,
        8720654304,
        8720654305,
        8720654306,
        8720654307,
        8720654308,
        8720654309,
        8720654310,
        8720654312,
        8720654311,
        8720654313,
        8720654314,
        8720654315,
        8720654316,
        8720702417,
        8720702418,
        8720702419,
        8720702420,
        8720702421,
        8720702422,
        8720702423,
        8720702424,
        8724571576,
        8720702425,
        8720702426,
        8720702427,
        8720702428,
        8720702429,
        8720702430,
        8720702431,
        8720702432,
        8720702433,
        8720702434,
        8720702435,
        8720702436,
        8720702437,
        8720702438,
        8720702439,
        8720702440,
        8720702441,
        8720702442,
        8720702443,
        8724571547,
        8720702444,
        8720702445,
        8720702446,
        8720702447,
        8720702448,
        8720702449,
        8720702450,
        8720702451,
        8720702452,
        8720702453,
        8720702454,
        8720702455,
        8720702456,
        8720702457,
        8720702458,
        8720702459,
        8720702460,
        8720702461,
        8720702462,
        8720702463,
        8720702464,
        8720702465,
        8720702466,
        8720702467,
        8720702468,
        8720702469,
        8720702470,
        8720702471,
        8720702472,
        8720702473,
        8720702474,
        8720654289
      ],
      "tags": {
        "OnroerendErfgoed:criteria": "BE",
        "addr:city": "Stabroek",
        "addr:street": "Abtsdreef",
        "boundary": "protected_area",
        "heritage": "4",
        "heritage:operator": "OnroerendErfgoed",
        "heritage:website": "https://id.erfgoed.net/erfgoedobjecten/84250",
        "historic": "fort",
        "leisure": "nature_reserve",
        "name": "Fort van Stabroek",
        "natura2000_sitecode": "BE2100045",
        "operator": "Natuurpunt Beheer v.z.w.",
        "protect_class": "97",
        "protection_title": "Natura 2000",
        "ref:OnroerendErfgoed": "84250",
        "ref:natura2000": "6",
        "start_date": "1907",
        "url": "https://www.fortengordels.be/forten/fort-van-stabroek",
        "website": "https://www.stafort.be",
        "wikidata": "Q2513106",
        "wikipedia": "nl:Fort van Stabroek"
      }
    },
    {
      "type": "way",
      "id": 956386161,
      "timestamp": "2021-06-20T18:36:21Z",
      "version": 1,
      "changeset": 106676983,
      "user": "QuercE",
      "uid": 551808,
      "nodes": [
        8851042681,
        8851042680,
        8851042679,
        8851042678,
        8851042677,
        4450961878,
        8851042676,
        8851042675,
        8851042674,
        8851042673,
        8851042682,
        8851042683,
        8851042686,
        4450961875,
        4450961873,
        4450961871,
        8851042681
      ],
      "tags": {
        "amenity": "parking",
        "name": "Tervoplein",
        "parking": "surface"
      }
    },
    {
      "type": "way",
      "id": 996103067,
      "timestamp": "2021-10-24T17:21:22Z",
      "version": 1,
      "changeset": 112913875,
      "user": "QuercE",
      "uid": 551808,
      "nodes": [
        9197853282,
        9197853281,
        9197853280,
        9197853279,
        9197853282
      ],
      "tags": {
        "access": "customers",
        "amenity": "parking",
        "parking": "surface",
        "surface": "unpaved"
      }
    },
    {
      "type": "way",
      "id": 997098469,
      "timestamp": "2021-10-28T07:49:00Z",
      "version": 1,
      "changeset": 113069355,
      "user": "arvdk",
      "uid": 3708382,
      "nodes": [
        9207074364,
        9207074363,
        9207074362,
        9207074361,
        9207074364
      ],
      "tags": {
        "amenity": "parking",
        "capacity": "3",
        "parking": "street_side",
        "parking:orientation": "perpendicular"
      }
    },
    {
      "type": "way",
      "id": 997098470,
      "timestamp": "2021-10-28T07:49:00Z",
      "version": 1,
      "changeset": 113069355,
      "user": "arvdk",
      "uid": 3708382,
      "nodes": [
        9207074371,
        9207074369,
        9207074366,
        9207074365,
        9207074371
      ],
      "tags": {
        "amenity": "parking",
        "capacity": "6",
        "parking": "street_side",
        "parking:orientation": "perpendicular"
      }
    },
    {
      "type": "way",
      "id": 997098471,
      "timestamp": "2021-10-28T07:49:00Z",
      "version": 1,
      "changeset": 113069355,
      "user": "arvdk",
      "uid": 3708382,
      "nodes": [
        9207074368,
        9207074367,
        9207074370,
        9207074372,
        9207074368
      ],
      "tags": {
        "amenity": "parking",
        "capacity": "5",
        "parking": "street_side",
        "parking:orientation": "perpendicular"
      }
    },
    {
      "type": "way",
      "id": 1009342762,
      "timestamp": "2021-12-05T17:39:14Z",
      "version": 1,
      "changeset": 114589419,
      "user": "QuercE",
      "uid": 551808,
      "nodes": [
        9312815668,
        9312815667,
        9312815666,
        9312815665,
        9312815664,
        9312815663,
        9312815662,
        9312815668
      ],
      "tags": {
        "access": "customers",
        "amenity": "parking",
        "fee": "no",
        "parking": "surface"
      }
    },
    {
      "type": "relation",
      "id": 6024878,
      "timestamp": "2016-07-29T21:27:15Z",
      "version": 2,
      "changeset": 41118726,
      "user": "B-Alien",
      "uid": 3967148,
      "members": [
        {
          "type": "way",
          "ref": 202376801,
          "role": "outer"
        },
        {
          "type": "way",
          "ref": 202376798,
          "role": "outer"
        },
        {
          "type": "way",
          "ref": 202376800,
          "role": "outer"
        }
      ],
      "tags": {
        "amenity": "parking",
        "fee": "no",
        "parking": "surface",
        "supervised": "no",
        "type": "multipolygon"
      }
    },
    {
      "type": "relation",
      "id": 12679023,
      "timestamp": "2021-05-06T16:41:32Z",
      "version": 1,
      "changeset": 104265450,
      "user": "QuercE",
      "uid": 551808,
      "members": [
        {
          "type": "way",
          "ref": 940028318,
          "role": "outer"
        },
        {
          "type": "way",
          "ref": 940028317,
          "role": "outer"
        },
        {
          "type": "way",
          "ref": 940028319,
          "role": "outer"
        },
        {
          "type": "way",
          "ref": 940028315,
          "role": "outer"
        },
        {
          "type": "way",
          "ref": 940028316,
          "role": "outer"
        }
      ],
      "tags": {
        "amenity": "parking",
        "parking": "surface",
        "type": "multipolygon"
      }
    },
    {
      "type": "node",
      "id": 8720654289,
      "lat": 51.3423161,
      "lon": 4.3499196
    },
    {
      "type": "node",
      "id": 8720654290,
      "lat": 51.3423347,
      "lon": 4.3498905
    },
    {
      "type": "node",
      "id": 8720654291,
      "lat": 51.3423493,
      "lon": 4.349854
    },
    {
      "type": "node",
      "id": 8720654292,
      "lat": 51.3423593,
      "lon": 4.3498314
    },
    {
      "type": "node",
      "id": 8720654293,
      "lat": 51.3424353,
      "lon": 4.3495706
    },
    {
      "type": "node",
      "id": 8720654294,
      "lat": 51.3426029,
      "lon": 4.349497
    },
    {
      "type": "node",
      "id": 8720654295,
      "lat": 51.342779,
      "lon": 4.3494583
    },
    {
      "type": "node",
      "id": 8720654296,
      "lat": 51.3428473,
      "lon": 4.3494591
    },
    {
      "type": "node",
      "id": 8720654297,
      "lat": 51.3429192,
      "lon": 4.3494707
    },
    {
      "type": "node",
      "id": 8720654298,
      "lat": 51.3429875,
      "lon": 4.349494
    },
    {
      "type": "node",
      "id": 8720654299,
      "lat": 51.3430685,
      "lon": 4.3495589
    },
    {
      "type": "node",
      "id": 8720654300,
      "lat": 51.3431591,
      "lon": 4.349642
    },
    {
      "type": "node",
      "id": 8720654301,
      "lat": 51.343181,
      "lon": 4.3496587
    },
    {
      "type": "node",
      "id": 8720654302,
      "lat": 51.3432146,
      "lon": 4.3497032
    },
    {
      "type": "node",
      "id": 8720654303,
      "lat": 51.3432977,
      "lon": 4.3498143
    },
    {
      "type": "node",
      "id": 8720654304,
      "lat": 51.343378,
      "lon": 4.349902
    },
    {
      "type": "node",
      "id": 8720654305,
      "lat": 51.3435105,
      "lon": 4.3501446
    },
    {
      "type": "node",
      "id": 8720654306,
      "lat": 51.3435448,
      "lon": 4.3502415
    },
    {
      "type": "node",
      "id": 8720654307,
      "lat": 51.3436258,
      "lon": 4.350547
    },
    {
      "type": "node",
      "id": 8720654308,
      "lat": 51.3436401,
      "lon": 4.3506058
    },
    {
      "type": "node",
      "id": 8720654309,
      "lat": 51.3437144,
      "lon": 4.3506423
    },
    {
      "type": "node",
      "id": 8720654310,
      "lat": 51.3437774,
      "lon": 4.3507003
    },
    {
      "type": "node",
      "id": 8720654311,
      "lat": 51.3439249,
      "lon": 4.3509113
    },
    {
      "type": "node",
      "id": 8720654312,
      "lat": 51.3438471,
      "lon": 4.3507885
    },
    {
      "type": "node",
      "id": 8720654313,
      "lat": 51.3440172,
      "lon": 4.3510683
    },
    {
      "type": "node",
      "id": 8720654314,
      "lat": 51.3440272,
      "lon": 4.3510867
    },
    {
      "type": "node",
      "id": 8720654315,
      "lat": 51.3441115,
      "lon": 4.351242
    },
    {
      "type": "node",
      "id": 8720702458,
      "lat": 51.3401989,
      "lon": 4.3515312
    },
    {
      "type": "node",
      "id": 8720702459,
      "lat": 51.3402962,
      "lon": 4.3514081
    },
    {
      "type": "node",
      "id": 8720702464,
      "lat": 51.3410868,
      "lon": 4.3511861
    },
    {
      "type": "node",
      "id": 8720702465,
      "lat": 51.3410985,
      "lon": 4.3509914
    },
    {
      "type": "node",
      "id": 8720702466,
      "lat": 51.3411661,
      "lon": 4.3509494
    },
    {
      "type": "node",
      "id": 8720702467,
      "lat": 51.3411768,
      "lon": 4.3510693
    },
    {
      "type": "node",
      "id": 8720702468,
      "lat": 51.3412274,
      "lon": 4.350891
    },
    {
      "type": "node",
      "id": 8720702469,
      "lat": 51.3414021,
      "lon": 4.3505942
    },
    {
      "type": "node",
      "id": 8720702470,
      "lat": 51.3414464,
      "lon": 4.3505319
    },
    {
      "type": "node",
      "id": 8720702471,
      "lat": 51.3414357,
      "lon": 4.350394
    },
    {
      "type": "node",
      "id": 8720702472,
      "lat": 51.3414678,
      "lon": 4.3503917
    },
    {
      "type": "node",
      "id": 8720702473,
      "lat": 51.3415413,
      "lon": 4.3503504
    },
    {
      "type": "node",
      "id": 8720702474,
      "lat": 51.3422832,
      "lon": 4.3499509
    },
    {
      "type": "node",
      "id": 8720702429,
      "lat": 51.3441368,
      "lon": 4.3541592
    },
    {
      "type": "node",
      "id": 8720702430,
      "lat": 51.3440532,
      "lon": 4.3543393
    },
    {
      "type": "node",
      "id": 8720702431,
      "lat": 51.3439712,
      "lon": 4.3545075
    },
    {
      "type": "node",
      "id": 8720702432,
      "lat": 51.343986,
      "lon": 4.3547045
    },
    {
      "type": "node",
      "id": 8720702433,
      "lat": 51.34399,
      "lon": 4.3549823
    },
    {
      "type": "node",
      "id": 8720702434,
      "lat": 51.34388,
      "lon": 4.3553415
    },
    {
      "type": "node",
      "id": 8720702435,
      "lat": 51.3438357,
      "lon": 4.3554615
    },
    {
      "type": "node",
      "id": 8720702436,
      "lat": 51.3437499,
      "lon": 4.3556419
    },
    {
      "type": "node",
      "id": 8720702437,
      "lat": 51.3436882,
      "lon": 4.3557474
    },
    {
      "type": "node",
      "id": 8720702438,
      "lat": 51.3436024,
      "lon": 4.355844
    },
    {
      "type": "node",
      "id": 8720702439,
      "lat": 51.3435361,
      "lon": 4.3559133
    },
    {
      "type": "node",
      "id": 8720702440,
      "lat": 51.3433505,
      "lon": 4.3560177
    },
    {
      "type": "node",
      "id": 8720702441,
      "lat": 51.3431943,
      "lon": 4.3560674
    },
    {
      "type": "node",
      "id": 8720702442,
      "lat": 51.3430223,
      "lon": 4.3560791
    },
    {
      "type": "node",
      "id": 8720702443,
      "lat": 51.3428727,
      "lon": 4.355782
    },
    {
      "type": "node",
      "id": 8720702444,
      "lat": 51.3419036,
      "lon": 4.3556933
    },
    {
      "type": "node",
      "id": 8720702445,
      "lat": 51.3418942,
      "lon": 4.3555927
    },
    {
      "type": "node",
      "id": 8720702446,
      "lat": 51.3416019,
      "lon": 4.3553035
    },
    {
      "type": "node",
      "id": 8720702447,
      "lat": 51.341619,
      "lon": 4.355447
    },
    {
      "type": "node",
      "id": 8720702448,
      "lat": 51.3415862,
      "lon": 4.3554085
    },
    {
      "type": "node",
      "id": 8720702449,
      "lat": 51.341575,
      "lon": 4.3554057
    },
    {
      "type": "node",
      "id": 8720702450,
      "lat": 51.3415701,
      "lon": 4.3553951
    },
    {
      "type": "node",
      "id": 8720702451,
      "lat": 51.3414676,
      "lon": 4.355179
    },
    {
      "type": "node",
      "id": 8720702452,
      "lat": 51.3413151,
      "lon": 4.3545105
    },
    {
      "type": "node",
      "id": 8720702453,
      "lat": 51.3412757,
      "lon": 4.3543614
    },
    {
      "type": "node",
      "id": 8720702454,
      "lat": 51.3412433,
      "lon": 4.354204
    },
    {
      "type": "node",
      "id": 8720702455,
      "lat": 51.3411407,
      "lon": 4.3537634
    },
    {
      "type": "node",
      "id": 8720702456,
      "lat": 51.3410054,
      "lon": 4.3531988
    },
    {
      "type": "node",
      "id": 8720702457,
      "lat": 51.3409904,
      "lon": 4.353129
    },
    {
      "type": "node",
      "id": 8720702460,
      "lat": 51.3409978,
      "lon": 4.3528778
    },
    {
      "type": "node",
      "id": 8720702461,
      "lat": 51.3410216,
      "lon": 4.3529199
    },
    {
      "type": "node",
      "id": 8720702462,
      "lat": 51.3410338,
      "lon": 4.3524268
    },
    {
      "type": "node",
      "id": 8720702463,
      "lat": 51.3410474,
      "lon": 4.3518964
    },
    {
      "type": "node",
      "id": 8724571547,
      "lat": 51.3423349,
      "lon": 4.3557328
    },
    {
      "type": "node",
      "id": 1734191945,
      "lat": 51.3467716,
      "lon": 4.3067543
    },
    {
      "type": "node",
      "id": 7977780044,
      "lat": 51.3465356,
      "lon": 4.3066637
    },
    {
      "type": "node",
      "id": 7977780045,
      "lat": 51.3466417,
      "lon": 4.3068362
    },
    {
      "type": "node",
      "id": 7977780046,
      "lat": 51.3467787,
      "lon": 4.3066254
    },
    {
      "type": "node",
      "id": 7977780047,
      "lat": 51.34675,
      "lon": 4.3065106
    },
    {
      "type": "node",
      "id": 1730482380,
      "lat": 51.3501818,
      "lon": 4.3160012
    },
    {
      "type": "node",
      "id": 1730482382,
      "lat": 51.3494946,
      "lon": 4.3160271
    },
    {
      "type": "node",
      "id": 1730482384,
      "lat": 51.3501859,
      "lon": 4.3162528
    },
    {
      "type": "node",
      "id": 1730482386,
      "lat": 51.3501683,
      "lon": 4.3155032
    },
    {
      "type": "node",
      "id": 1730482403,
      "lat": 51.3494963,
      "lon": 4.3162975
    },
    {
      "type": "node",
      "id": 1730482407,
      "lat": 51.3501952,
      "lon": 4.3155049
    },
    {
      "type": "node",
      "id": 1731729161,
      "lat": 51.3494957,
      "lon": 4.3161726
    },
    {
      "type": "node",
      "id": 1749651346,
      "lat": 51.3456764,
      "lon": 4.3181581
    },
    {
      "type": "node",
      "id": 1749651356,
      "lat": 51.3456075,
      "lon": 4.3183441
    },
    {
      "type": "node",
      "id": 1749651474,
      "lat": 51.3502839,
      "lon": 4.3159998
    },
    {
      "type": "node",
      "id": 2495961279,
      "lat": 51.3501836,
      "lon": 4.3161234
    },
    {
      "type": "node",
      "id": 3601230629,
      "lat": 51.3462854,
      "lon": 4.312484
    },
    {
      "type": "node",
      "id": 3601230630,
      "lat": 51.3462859,
      "lon": 4.3125621
    },
    {
      "type": "node",
      "id": 3601230631,
      "lat": 51.3462868,
      "lon": 4.3128366
    },
    {
      "type": "node",
      "id": 3601230634,
      "lat": 51.34638,
      "lon": 4.3124124
    },
    {
      "type": "node",
      "id": 3601230635,
      "lat": 51.3464415,
      "lon": 4.3128374
    },
    {
      "type": "node",
      "id": 3601230636,
      "lat": 51.3464507,
      "lon": 4.312414
    },
    {
      "type": "node",
      "id": 4487277158,
      "lat": 51.346298,
      "lon": 4.3166082
    },
    {
      "type": "node",
      "id": 4487277159,
      "lat": 51.3463042,
      "lon": 4.3177452
    },
    {
      "type": "node",
      "id": 4487277160,
      "lat": 51.3463795,
      "lon": 4.316607
    },
    {
      "type": "node",
      "id": 4487277161,
      "lat": 51.3463856,
      "lon": 4.317744
    },
    {
      "type": "node",
      "id": 4841518559,
      "lat": 51.3502022,
      "lon": 4.3155442
    },
    {
      "type": "node",
      "id": 5715613195,
      "lat": 51.3456278,
      "lon": 4.318185
    },
    {
      "type": "node",
      "id": 5715613198,
      "lat": 51.3461363,
      "lon": 4.3184119
    },
    {
      "type": "node",
      "id": 5715613199,
      "lat": 51.3461359,
      "lon": 4.3179286
    },
    {
      "type": "node",
      "id": 6388005299,
      "lat": 51.3457106,
      "lon": 4.3180853
    },
    {
      "type": "node",
      "id": 6388005300,
      "lat": 51.3456972,
      "lon": 4.3179736
    },
    {
      "type": "node",
      "id": 6388005302,
      "lat": 51.3458869,
      "lon": 4.3178581
    },
    {
      "type": "node",
      "id": 7963691387,
      "lat": 51.3464126,
      "lon": 4.3124128
    },
    {
      "type": "node",
      "id": 7966282285,
      "lat": 51.3456085,
      "lon": 4.3184228
    },
    {
      "type": "node",
      "id": 7966282286,
      "lat": 51.3460987,
      "lon": 4.3179349
    },
    {
      "type": "node",
      "id": 7966282287,
      "lat": 51.3460461,
      "lon": 4.3179563
    },
    {
      "type": "node",
      "id": 7966282288,
      "lat": 51.3459497,
      "lon": 4.3179983
    },
    {
      "type": "node",
      "id": 1731846054,
      "lat": 51.3487544,
      "lon": 4.3236558
    },
    {
      "type": "node",
      "id": 1731846073,
      "lat": 51.3485346,
      "lon": 4.3234379
    },
    {
      "type": "node",
      "id": 1731846078,
      "lat": 51.3465697,
      "lon": 4.3221702
    },
    {
      "type": "node",
      "id": 1731846090,
      "lat": 51.3487297,
      "lon": 4.3237095
    },
    {
      "type": "node",
      "id": 1731846092,
      "lat": 51.3486341,
      "lon": 4.3234309
    },
    {
      "type": "node",
      "id": 1731846117,
      "lat": 51.348548,
      "lon": 4.3237356
    },
    {
      "type": "node",
      "id": 2123504269,
      "lat": 51.3493324,
      "lon": 4.3235584
    },
    {
      "type": "node",
      "id": 2123504271,
      "lat": 51.3493365,
      "lon": 4.3236442
    },
    {
      "type": "node",
      "id": 2123504274,
      "lat": 51.3493413,
      "lon": 4.3237439
    },
    {
      "type": "node",
      "id": 2123504276,
      "lat": 51.3494856,
      "lon": 4.3235396
    },
    {
      "type": "node",
      "id": 2123504278,
      "lat": 51.3494896,
      "lon": 4.3236215
    },
    {
      "type": "node",
      "id": 2123504281,
      "lat": 51.3494946,
      "lon": 4.3237251
    },
    {
      "type": "node",
      "id": 2123504285,
      "lat": 51.3496382,
      "lon": 4.3236556
    },
    {
      "type": "node",
      "id": 2123504286,
      "lat": 51.3496439,
      "lon": 4.3237605
    },
    {
      "type": "node",
      "id": 2123504287,
      "lat": 51.3497738,
      "lon": 4.3236369
    },
    {
      "type": "node",
      "id": 2123504288,
      "lat": 51.3497794,
      "lon": 4.3237417
    },
    {
      "type": "node",
      "id": 2123504290,
      "lat": 51.3499093,
      "lon": 4.3235291
    },
    {
      "type": "node",
      "id": 2123504291,
      "lat": 51.3499135,
      "lon": 4.3236159
    },
    {
      "type": "node",
      "id": 2123504292,
      "lat": 51.3499163,
      "lon": 4.3236738
    },
    {
      "type": "node",
      "id": 2123504295,
      "lat": 51.3500701,
      "lon": 4.3235093
    },
    {
      "type": "node",
      "id": 2123504297,
      "lat": 51.3500747,
      "lon": 4.3236037
    },
    {
      "type": "node",
      "id": 2123504299,
      "lat": 51.3500771,
      "lon": 4.3236539
    },
    {
      "type": "node",
      "id": 2123534248,
      "lat": 51.3463155,
      "lon": 4.3224197
    },
    {
      "type": "node",
      "id": 2123534251,
      "lat": 51.3466099,
      "lon": 4.3222751
    },
    {
      "type": "node",
      "id": 4040013967,
      "lat": 51.3486368,
      "lon": 4.3234798
    },
    {
      "type": "node",
      "id": 4040013968,
      "lat": 51.3487451,
      "lon": 4.3234666
    },
    {
      "type": "node",
      "id": 4157038838,
      "lat": 51.3463239,
      "lon": 4.3225545
    },
    {
      "type": "node",
      "id": 4157038839,
      "lat": 51.3463554,
      "lon": 4.3225237
    },
    {
      "type": "node",
      "id": 4157038840,
      "lat": 51.3464087,
      "lon": 4.3227758
    },
    {
      "type": "node",
      "id": 4157038841,
      "lat": 51.3465713,
      "lon": 4.322313
    },
    {
      "type": "node",
      "id": 4157038842,
      "lat": 51.3466557,
      "lon": 4.3225333
    },
    {
      "type": "node",
      "id": 4157167859,
      "lat": 51.3463407,
      "lon": 4.322395
    },
    {
      "type": "node",
      "id": 4157167861,
      "lat": 51.3464571,
      "lon": 4.3222807
    },
    {
      "type": "node",
      "id": 4327397798,
      "lat": 51.350514,
      "lon": 4.3224271
    },
    {
      "type": "node",
      "id": 4327397799,
      "lat": 51.350509,
      "lon": 4.3223293
    },
    {
      "type": "node",
      "id": 4327397800,
      "lat": 51.3500709,
      "lon": 4.3223872
    },
    {
      "type": "node",
      "id": 4327397801,
      "lat": 51.3500759,
      "lon": 4.322485
    },
    {
      "type": "node",
      "id": 4327397802,
      "lat": 51.3492017,
      "lon": 4.3226236
    },
    {
      "type": "node",
      "id": 4327397803,
      "lat": 51.3491964,
      "lon": 4.322512
    },
    {
      "type": "node",
      "id": 4327397804,
      "lat": 51.3488395,
      "lon": 4.322556
    },
    {
      "type": "node",
      "id": 4327397805,
      "lat": 51.3488448,
      "lon": 4.3226676
    },
    {
      "type": "node",
      "id": 4557009234,
      "lat": 51.3482102,
      "lon": 4.32386
    },
    {
      "type": "node",
      "id": 4557009235,
      "lat": 51.3482066,
      "lon": 4.323895
    },
    {
      "type": "node",
      "id": 4557009236,
      "lat": 51.3481693,
      "lon": 4.3238833
    },
    {
      "type": "node",
      "id": 4557009237,
      "lat": 51.3481731,
      "lon": 4.3238491
    },
    {
      "type": "node",
      "id": 4557009238,
      "lat": 51.3483402,
      "lon": 4.323759
    },
    {
      "type": "node",
      "id": 4557009239,
      "lat": 51.3483378,
      "lon": 4.323794
    },
    {
      "type": "node",
      "id": 4557009240,
      "lat": 51.3482627,
      "lon": 4.3237762
    },
    {
      "type": "node",
      "id": 4557009241,
      "lat": 51.3482657,
      "lon": 4.3237418
    },
    {
      "type": "node",
      "id": 4557009242,
      "lat": 51.3479711,
      "lon": 4.3236844
    },
    {
      "type": "node",
      "id": 4557009243,
      "lat": 51.3478963,
      "lon": 4.3236645
    },
    {
      "type": "node",
      "id": 4557009244,
      "lat": 51.347898,
      "lon": 4.3235861
    },
    {
      "type": "node",
      "id": 4557009245,
      "lat": 51.3479731,
      "lon": 4.3236065
    },
    {
      "type": "node",
      "id": 4557009246,
      "lat": 51.3476705,
      "lon": 4.3237687
    },
    {
      "type": "node",
      "id": 4557009247,
      "lat": 51.3476577,
      "lon": 4.3238579
    },
    {
      "type": "node",
      "id": 4557009248,
      "lat": 51.347593,
      "lon": 4.3238364
    },
    {
      "type": "node",
      "id": 4557009249,
      "lat": 51.3476061,
      "lon": 4.3237456
    },
    {
      "type": "node",
      "id": 4557009250,
      "lat": 51.3475977,
      "lon": 4.3236495
    },
    {
      "type": "node",
      "id": 4557009251,
      "lat": 51.3475863,
      "lon": 4.323729
    },
    {
      "type": "node",
      "id": 4557009252,
      "lat": 51.3474927,
      "lon": 4.3236967
    },
    {
      "type": "node",
      "id": 4557009253,
      "lat": 51.3475058,
      "lon": 4.3236145
    },
    {
      "type": "node",
      "id": 4557009254,
      "lat": 51.3476205,
      "lon": 4.3240641
    },
    {
      "type": "node",
      "id": 4557009255,
      "lat": 51.3476433,
      "lon": 4.3240711
    },
    {
      "type": "node",
      "id": 4557009256,
      "lat": 51.3476188,
      "lon": 4.3242532
    },
    {
      "type": "node",
      "id": 4557009257,
      "lat": 51.3475963,
      "lon": 4.3242473
    },
    {
      "type": "node",
      "id": 7977665066,
      "lat": 51.3456432,
      "lon": 4.3221861
    },
    {
      "type": "node",
      "id": 7977665067,
      "lat": 51.3454144,
      "lon": 4.3225559
    },
    {
      "type": "node",
      "id": 7977665068,
      "lat": 51.3453038,
      "lon": 4.3223887
    },
    {
      "type": "node",
      "id": 7977665069,
      "lat": 51.3455365,
      "lon": 4.3220091
    },
    {
      "type": "node",
      "id": 7977665071,
      "lat": 51.3455917,
      "lon": 4.3221006
    },
    {
      "type": "node",
      "id": 7977665072,
      "lat": 51.3453567,
      "lon": 4.3224686
    },
    {
      "type": "node",
      "id": 8005625525,
      "lat": 51.3479376,
      "lon": 4.3212053
    },
    {
      "type": "node",
      "id": 8005625526,
      "lat": 51.3479375,
      "lon": 4.3214
    },
    {
      "type": "node",
      "id": 8005625527,
      "lat": 51.347539,
      "lon": 4.3211981
    },
    {
      "type": "node",
      "id": 8005625528,
      "lat": 51.3474895,
      "lon": 4.3211981
    },
    {
      "type": "node",
      "id": 8005625529,
      "lat": 51.3474895,
      "lon": 4.3214241
    },
    {
      "type": "node",
      "id": 8005625530,
      "lat": 51.347539,
      "lon": 4.3214241
    },
    {
      "type": "node",
      "id": 8005625554,
      "lat": 51.3479909,
      "lon": 4.3212035
    },
    {
      "type": "node",
      "id": 8005625555,
      "lat": 51.3479909,
      "lon": 4.3213991
    },
    {
      "type": "node",
      "id": 9312815662,
      "lat": 51.3485865,
      "lon": 4.3227586
    },
    {
      "type": "node",
      "id": 9312815663,
      "lat": 51.3485115,
      "lon": 4.3227685
    },
    {
      "type": "node",
      "id": 9312815664,
      "lat": 51.3484451,
      "lon": 4.3227761
    },
    {
      "type": "node",
      "id": 9312815665,
      "lat": 51.348402,
      "lon": 4.3227738
    },
    {
      "type": "node",
      "id": 9312815666,
      "lat": 51.3484114,
      "lon": 4.3228953
    },
    {
      "type": "node",
      "id": 9312815667,
      "lat": 51.3486586,
      "lon": 4.3228551
    },
    {
      "type": "node",
      "id": 9312815668,
      "lat": 51.3486529,
      "lon": 4.3227396
    },
    {
      "type": "node",
      "id": 597285730,
      "lat": 51.3571612,
      "lon": 4.3171361
    },
    {
      "type": "node",
      "id": 1730419278,
      "lat": 51.3566707,
      "lon": 4.3173059
    },
    {
      "type": "node",
      "id": 1730419291,
      "lat": 51.3571333,
      "lon": 4.3173911
    },
    {
      "type": "node",
      "id": 1730424362,
      "lat": 51.3566424,
      "lon": 4.3170287
    },
    {
      "type": "node",
      "id": 2562529625,
      "lat": 51.3566357,
      "lon": 4.3171601
    },
    {
      "type": "node",
      "id": 2562529628,
      "lat": 51.3566657,
      "lon": 4.3170322
    },
    {
      "type": "node",
      "id": 2562529630,
      "lat": 51.3566743,
      "lon": 4.3172412
    },
    {
      "type": "node",
      "id": 2562529632,
      "lat": 51.3570427,
      "lon": 4.3169567
    },
    {
      "type": "node",
      "id": 2562529633,
      "lat": 51.3570835,
      "lon": 4.3163353
    },
    {
      "type": "node",
      "id": 2562529635,
      "lat": 51.3571294,
      "lon": 4.3171337
    },
    {
      "type": "node",
      "id": 2562529638,
      "lat": 51.3572082,
      "lon": 4.3169909
    },
    {
      "type": "node",
      "id": 2562529639,
      "lat": 51.3572527,
      "lon": 4.3163625
    },
    {
      "type": "node",
      "id": 3217729939,
      "lat": 51.3571394,
      "lon": 4.3169767
    },
    {
      "type": "node",
      "id": 8545174486,
      "lat": 51.3570787,
      "lon": 4.3173811
    },
    {
      "type": "node",
      "id": 9197938015,
      "lat": 51.3572286,
      "lon": 4.3167025
    },
    {
      "type": "node",
      "id": 3742038407,
      "lat": 51.3595307,
      "lon": 4.3122136
    },
    {
      "type": "node",
      "id": 3742038413,
      "lat": 51.3595904,
      "lon": 4.3122294
    },
    {
      "type": "node",
      "id": 3742038420,
      "lat": 51.3596463,
      "lon": 4.312244
    },
    {
      "type": "node",
      "id": 4281553011,
      "lat": 51.3584735,
      "lon": 4.311506
    },
    {
      "type": "node",
      "id": 4281553019,
      "lat": 51.3588907,
      "lon": 4.311685
    },
    {
      "type": "node",
      "id": 4281553020,
      "lat": 51.3589197,
      "lon": 4.3114611
    },
    {
      "type": "node",
      "id": 4379741090,
      "lat": 51.3589024,
      "lon": 4.3115671
    },
    {
      "type": "node",
      "id": 4559805208,
      "lat": 51.3585229,
      "lon": 4.3112906
    },
    {
      "type": "node",
      "id": 7958595364,
      "lat": 51.3585638,
      "lon": 4.3113092
    },
    {
      "type": "node",
      "id": 7958595395,
      "lat": 51.3588119,
      "lon": 4.3116509
    },
    {
      "type": "node",
      "id": 7958595396,
      "lat": 51.3588605,
      "lon": 4.311672
    },
    {
      "type": "node",
      "id": 7959612198,
      "lat": 51.3596454,
      "lon": 4.312249
    },
    {
      "type": "node",
      "id": 7959612202,
      "lat": 51.359681,
      "lon": 4.3122572
    },
    {
      "type": "node",
      "id": 581384303,
      "lat": 51.3597098,
      "lon": 4.3124145
    },
    {
      "type": "node",
      "id": 581384304,
      "lat": 51.3597117,
      "lon": 4.3122689
    },
    {
      "type": "node",
      "id": 597278764,
      "lat": 51.3583053,
      "lon": 4.3155642
    },
    {
      "type": "node",
      "id": 597278843,
      "lat": 51.3584101,
      "lon": 4.3154915
    },
    {
      "type": "node",
      "id": 597278864,
      "lat": 51.3584008,
      "lon": 4.3155845
    },
    {
      "type": "node",
      "id": 597278877,
      "lat": 51.3585922,
      "lon": 4.3156041
    },
    {
      "type": "node",
      "id": 597278901,
      "lat": 51.3591253,
      "lon": 4.3157056
    },
    {
      "type": "node",
      "id": 597285844,
      "lat": 51.3591583,
      "lon": 4.3182694
    },
    {
      "type": "node",
      "id": 887153535,
      "lat": 51.359289,
      "lon": 4.3184404
    },
    {
      "type": "node",
      "id": 2294147104,
      "lat": 51.3590428,
      "lon": 4.3156834
    },
    {
      "type": "node",
      "id": 2376931411,
      "lat": 51.3597006,
      "lon": 4.3123497
    },
    {
      "type": "node",
      "id": 2559856003,
      "lat": 51.3582717,
      "lon": 4.3159166
    },
    {
      "type": "node",
      "id": 2559856009,
      "lat": 51.3585186,
      "lon": 4.3159896
    },
    {
      "type": "node",
      "id": 2559856011,
      "lat": 51.3585876,
      "lon": 4.3155145
    },
    {
      "type": "node",
      "id": 2559856012,
      "lat": 51.3585953,
      "lon": 4.3154023
    },
    {
      "type": "node",
      "id": 2559856013,
      "lat": 51.3591325,
      "lon": 4.3156467
    },
    {
      "type": "node",
      "id": 2559856014,
      "lat": 51.3591541,
      "lon": 4.3155235
    },
    {
      "type": "node",
      "id": 3217729944,
      "lat": 51.3578404,
      "lon": 4.3174287
    },
    {
      "type": "node",
      "id": 3217729945,
      "lat": 51.3578586,
      "lon": 4.3172478
    },
    {
      "type": "node",
      "id": 3217729947,
      "lat": 51.3580479,
      "lon": 4.3174799
    },
    {
      "type": "node",
      "id": 3217729948,
      "lat": 51.3580653,
      "lon": 4.3172988
    },
    {
      "type": "node",
      "id": 4487277162,
      "lat": 51.3595138,
      "lon": 4.3123455
    },
    {
      "type": "node",
      "id": 4487277163,
      "lat": 51.3595188,
      "lon": 4.3123062
    },
    {
      "type": "node",
      "id": 7959073854,
      "lat": 51.3591762,
      "lon": 4.3181405
    },
    {
      "type": "node",
      "id": 7959073856,
      "lat": 51.3592278,
      "lon": 4.3181171
    },
    {
      "type": "node",
      "id": 7959073857,
      "lat": 51.3592218,
      "lon": 4.3181577
    },
    {
      "type": "node",
      "id": 7959073858,
      "lat": 51.3592524,
      "lon": 4.3181268
    },
    {
      "type": "node",
      "id": 7959073861,
      "lat": 51.3592667,
      "lon": 4.318016
    },
    {
      "type": "node",
      "id": 7959943569,
      "lat": 51.3584442,
      "lon": 4.3154942
    },
    {
      "type": "node",
      "id": 7959943707,
      "lat": 51.3585457,
      "lon": 4.3157618
    },
    {
      "type": "node",
      "id": 7959943708,
      "lat": 51.3585139,
      "lon": 4.3157541
    },
    {
      "type": "node",
      "id": 7959943709,
      "lat": 51.3585195,
      "lon": 4.3156794
    },
    {
      "type": "node",
      "id": 7959943710,
      "lat": 51.3585824,
      "lon": 4.3156926
    },
    {
      "type": "node",
      "id": 7959943711,
      "lat": 51.358586,
      "lon": 4.3156938
    },
    {
      "type": "node",
      "id": 7959943712,
      "lat": 51.3591434,
      "lon": 4.3155915
    },
    {
      "type": "node",
      "id": 7959943713,
      "lat": 51.3584993,
      "lon": 4.315502
    },
    {
      "type": "node",
      "id": 8005890005,
      "lat": 51.359482,
      "lon": 4.3180894
    },
    {
      "type": "node",
      "id": 8005890006,
      "lat": 51.3591425,
      "lon": 4.3183892
    },
    {
      "type": "node",
      "id": 8005890007,
      "lat": 51.3594279,
      "lon": 4.318489
    },
    {
      "type": "node",
      "id": 9197853279,
      "lat": 51.3582916,
      "lon": 4.3165429
    },
    {
      "type": "node",
      "id": 9197853280,
      "lat": 51.3584946,
      "lon": 4.3165787
    },
    {
      "type": "node",
      "id": 9197853281,
      "lat": 51.3584417,
      "lon": 4.3172377
    },
    {
      "type": "node",
      "id": 9197853282,
      "lat": 51.3582474,
      "lon": 4.3171984
    },
    {
      "type": "node",
      "id": 9217202842,
      "lat": 51.3578059,
      "lon": 4.3174202
    },
    {
      "type": "node",
      "id": 9217202843,
      "lat": 51.3578233,
      "lon": 4.3172391
    },
    {
      "type": "node",
      "id": 1731852949,
      "lat": 51.3477001,
      "lon": 4.3290887
    },
    {
      "type": "node",
      "id": 2294147083,
      "lat": 51.3472582,
      "lon": 4.3288981
    },
    {
      "type": "node",
      "id": 2294147084,
      "lat": 51.3472733,
      "lon": 4.3289704
    },
    {
      "type": "node",
      "id": 2294147086,
      "lat": 51.3473169,
      "lon": 4.3303536
    },
    {
      "type": "node",
      "id": 2294147087,
      "lat": 51.3473846,
      "lon": 4.3295988
    },
    {
      "type": "node",
      "id": 2294147089,
      "lat": 51.3474273,
      "lon": 4.3295779
    },
    {
      "type": "node",
      "id": 2294147091,
      "lat": 51.3474645,
      "lon": 4.3297728
    },
    {
      "type": "node",
      "id": 2294147092,
      "lat": 51.3474746,
      "lon": 4.3298241
    },
    {
      "type": "node",
      "id": 2294147093,
      "lat": 51.3474983,
      "lon": 4.3299127
    },
    {
      "type": "node",
      "id": 2294147096,
      "lat": 51.3475746,
      "lon": 4.32915
    },
    {
      "type": "node",
      "id": 2294147098,
      "lat": 51.3476196,
      "lon": 4.3291257
    },
    {
      "type": "node",
      "id": 2294147099,
      "lat": 51.3476326,
      "lon": 4.328716
    },
    {
      "type": "node",
      "id": 2294147100,
      "lat": 51.3476657,
      "lon": 4.32963
    },
    {
      "type": "node",
      "id": 2294147101,
      "lat": 51.3476662,
      "lon": 4.3296995
    },
    {
      "type": "node",
      "id": 2294147102,
      "lat": 51.3476701,
      "lon": 4.3297437
    },
    {
      "type": "node",
      "id": 2294147103,
      "lat": 51.3476864,
      "lon": 4.3298214
    },
    {
      "type": "node",
      "id": 3526231929,
      "lat": 51.3476934,
      "lon": 4.3290517
    },
    {
      "type": "node",
      "id": 7972914202,
      "lat": 51.3472742,
      "lon": 4.3289751
    },
    {
      "type": "node",
      "id": 7972914203,
      "lat": 51.3472653,
      "lon": 4.3289806
    },
    {
      "type": "node",
      "id": 7977704833,
      "lat": 51.3472987,
      "lon": 4.3302496
    },
    {
      "type": "node",
      "id": 7977704834,
      "lat": 51.3472068,
      "lon": 4.330298
    },
    {
      "type": "node",
      "id": 7977704835,
      "lat": 51.3472437,
      "lon": 4.3304848
    },
    {
      "type": "node",
      "id": 7977704836,
      "lat": 51.3473323,
      "lon": 4.3304417
    },
    {
      "type": "node",
      "id": 7977704837,
      "lat": 51.3472677,
      "lon": 4.3304731
    },
    {
      "type": "node",
      "id": 7977704838,
      "lat": 51.3472119,
      "lon": 4.3303238
    },
    {
      "type": "node",
      "id": 8720654316,
      "lat": 51.3442035,
      "lon": 4.351453
    },
    {
      "type": "node",
      "id": 887158145,
      "lat": 51.3940494,
      "lon": 4.3159551
    },
    {
      "type": "node",
      "id": 887158162,
      "lat": 51.3938186,
      "lon": 4.3156274
    },
    {
      "type": "node",
      "id": 8104013795,
      "lat": 51.3940755,
      "lon": 4.3155484
    },
    {
      "type": "node",
      "id": 8104013799,
      "lat": 51.3938459,
      "lon": 4.3155322
    },
    {
      "type": "node",
      "id": 8104013800,
      "lat": 51.3940845,
      "lon": 4.3155764
    },
    {
      "type": "node",
      "id": 8104013807,
      "lat": 51.3938229,
      "lon": 4.3155308
    },
    {
      "type": "node",
      "id": 8104013808,
      "lat": 51.3941731,
      "lon": 4.3155849
    },
    {
      "type": "node",
      "id": 8104013809,
      "lat": 51.3944969,
      "lon": 4.314719
    },
    {
      "type": "node",
      "id": 8104013810,
      "lat": 51.3945002,
      "lon": 4.3147336
    },
    {
      "type": "node",
      "id": 8104013811,
      "lat": 51.3941871,
      "lon": 4.3149226
    },
    {
      "type": "node",
      "id": 8104013812,
      "lat": 51.3943108,
      "lon": 4.3154653
    },
    {
      "type": "node",
      "id": 8104013813,
      "lat": 51.3945813,
      "lon": 4.3154921
    },
    {
      "type": "node",
      "id": 8104013814,
      "lat": 51.3944272,
      "lon": 4.3147866
    },
    {
      "type": "node",
      "id": 8104013815,
      "lat": 51.3948118,
      "lon": 4.3157875
    },
    {
      "type": "node",
      "id": 8104013816,
      "lat": 51.3948113,
      "lon": 4.3160023
    },
    {
      "type": "node",
      "id": 8104027017,
      "lat": 51.3945622,
      "lon": 4.3146679
    },
    {
      "type": "node",
      "id": 8104027018,
      "lat": 51.3940393,
      "lon": 4.3150167
    },
    {
      "type": "node",
      "id": 8104027019,
      "lat": 51.3940572,
      "lon": 4.31564
    },
    {
      "type": "node",
      "id": 3308538874,
      "lat": 51.3924939,
      "lon": 4.3236786
    },
    {
      "type": "node",
      "id": 3308538920,
      "lat": 51.3925943,
      "lon": 4.3245879
    },
    {
      "type": "node",
      "id": 3308538921,
      "lat": 51.3925876,
      "lon": 4.3236813
    },
    {
      "type": "node",
      "id": 3308539870,
      "lat": 51.3925006,
      "lon": 4.3245906
    },
    {
      "type": "node",
      "id": 9207074361,
      "lat": 51.3955684,
      "lon": 4.3239632
    },
    {
      "type": "node",
      "id": 9207074362,
      "lat": 51.3955281,
      "lon": 4.3239902
    },
    {
      "type": "node",
      "id": 9207074363,
      "lat": 51.3955011,
      "lon": 4.3238867
    },
    {
      "type": "node",
      "id": 9207074364,
      "lat": 51.3955413,
      "lon": 4.3238598
    },
    {
      "type": "node",
      "id": 9207074365,
      "lat": 51.3955341,
      "lon": 4.3238289
    },
    {
      "type": "node",
      "id": 9207074366,
      "lat": 51.3954931,
      "lon": 4.3238562
    },
    {
      "type": "node",
      "id": 9207074367,
      "lat": 51.3953745,
      "lon": 4.3233993
    },
    {
      "type": "node",
      "id": 9207074368,
      "lat": 51.3954163,
      "lon": 4.3233716
    },
    {
      "type": "node",
      "id": 9207074369,
      "lat": 51.3954298,
      "lon": 4.3236124
    },
    {
      "type": "node",
      "id": 9207074370,
      "lat": 51.3954224,
      "lon": 4.3235853
    },
    {
      "type": "node",
      "id": 9207074371,
      "lat": 51.3954707,
      "lon": 4.3235851
    },
    {
      "type": "node",
      "id": 9207074372,
      "lat": 51.3954642,
      "lon": 4.3235576
    },
    {
      "type": "node",
      "id": 887181897,
      "lat": 51.376818,
      "lon": 4.3364732
    },
    {
      "type": "node",
      "id": 887182077,
      "lat": 51.3765209,
      "lon": 4.337578
    },
    {
      "type": "node",
      "id": 2829832604,
      "lat": 51.3757078,
      "lon": 4.3383995
    },
    {
      "type": "node",
      "id": 2829832609,
      "lat": 51.3757129,
      "lon": 4.3383781
    },
    {
      "type": "node",
      "id": 2829832614,
      "lat": 51.3757237,
      "lon": 4.3384223
    },
    {
      "type": "node",
      "id": 2829832616,
      "lat": 51.3757263,
      "lon": 4.3384109
    },
    {
      "type": "node",
      "id": 2829832617,
      "lat": 51.3757315,
      "lon": 4.3383889
    },
    {
      "type": "node",
      "id": 2829832618,
      "lat": 51.3757341,
      "lon": 4.3383772
    },
    {
      "type": "node",
      "id": 2829832632,
      "lat": 51.3757861,
      "lon": 4.3384615
    },
    {
      "type": "node",
      "id": 2829832636,
      "lat": 51.3757975,
      "lon": 4.3384144
    },
    {
      "type": "node",
      "id": 887181673,
      "lat": 51.3774026,
      "lon": 4.3368514
    },
    {
      "type": "node",
      "id": 887181674,
      "lat": 51.3773906,
      "lon": 4.3369112
    },
    {
      "type": "node",
      "id": 887181864,
      "lat": 51.3771689,
      "lon": 4.3367343
    },
    {
      "type": "node",
      "id": 887181866,
      "lat": 51.377191,
      "lon": 4.3366901
    },
    {
      "type": "node",
      "id": 1543937382,
      "lat": 51.3778717,
      "lon": 4.3372805
    },
    {
      "type": "node",
      "id": 2829832340,
      "lat": 51.3755156,
      "lon": 4.3401615
    },
    {
      "type": "node",
      "id": 2829832344,
      "lat": 51.3755274,
      "lon": 4.3403099
    },
    {
      "type": "node",
      "id": 2829832364,
      "lat": 51.3756012,
      "lon": 4.3400776
    },
    {
      "type": "node",
      "id": 2829832366,
      "lat": 51.375605,
      "lon": 4.3400769
    },
    {
      "type": "node",
      "id": 2829832368,
      "lat": 51.3756065,
      "lon": 4.3401429
    },
    {
      "type": "node",
      "id": 2829832376,
      "lat": 51.3756221,
      "lon": 4.3402906
    },
    {
      "type": "node",
      "id": 2829832908,
      "lat": 51.3760608,
      "lon": 4.3422285
    },
    {
      "type": "node",
      "id": 2829832910,
      "lat": 51.3760687,
      "lon": 4.3422408
    },
    {
      "type": "node",
      "id": 2829832911,
      "lat": 51.3760699,
      "lon": 4.3421844
    },
    {
      "type": "node",
      "id": 2829832912,
      "lat": 51.3760725,
      "lon": 4.3422759
    },
    {
      "type": "node",
      "id": 2829832914,
      "lat": 51.376079,
      "lon": 4.3421984
    },
    {
      "type": "node",
      "id": 2829832915,
      "lat": 51.3760834,
      "lon": 4.342162
    },
    {
      "type": "node",
      "id": 2829832916,
      "lat": 51.376088,
      "lon": 4.3422088
    },
    {
      "type": "node",
      "id": 2829832918,
      "lat": 51.3760941,
      "lon": 4.3423093
    },
    {
      "type": "node",
      "id": 2829832920,
      "lat": 51.3761009,
      "lon": 4.3422288
    },
    {
      "type": "node",
      "id": 2829832925,
      "lat": 51.376135,
      "lon": 4.3422415
    },
    {
      "type": "node",
      "id": 2829832995,
      "lat": 51.3765632,
      "lon": 4.3409273
    },
    {
      "type": "node",
      "id": 2829832996,
      "lat": 51.3765632,
      "lon": 4.340935
    },
    {
      "type": "node",
      "id": 2829832997,
      "lat": 51.3765642,
      "lon": 4.3409198
    },
    {
      "type": "node",
      "id": 2829832998,
      "lat": 51.3765642,
      "lon": 4.3409425
    },
    {
      "type": "node",
      "id": 2829832999,
      "lat": 51.3765651,
      "lon": 4.340946
    },
    {
      "type": "node",
      "id": 2829833000,
      "lat": 51.3765654,
      "lon": 4.3409152
    },
    {
      "type": "node",
      "id": 2829833102,
      "lat": 51.3765667,
      "lon": 4.3409119
    },
    {
      "type": "node",
      "id": 2829833103,
      "lat": 51.3765674,
      "lon": 4.3409527
    },
    {
      "type": "node",
      "id": 2829833104,
      "lat": 51.3765698,
      "lon": 4.3409061
    },
    {
      "type": "node",
      "id": 2829833105,
      "lat": 51.3765706,
      "lon": 4.3409584
    },
    {
      "type": "node",
      "id": 2829833106,
      "lat": 51.3765725,
      "lon": 4.3409608
    },
    {
      "type": "node",
      "id": 2829833107,
      "lat": 51.3765737,
      "lon": 4.3409014
    },
    {
      "type": "node",
      "id": 2829833108,
      "lat": 51.3765745,
      "lon": 4.3409629
    },
    {
      "type": "node",
      "id": 2829833109,
      "lat": 51.3765758,
      "lon": 4.3408996
    },
    {
      "type": "node",
      "id": 2829833110,
      "lat": 51.376578,
      "lon": 4.3408981
    },
    {
      "type": "node",
      "id": 2829833111,
      "lat": 51.376578,
      "lon": 4.3409656
    },
    {
      "type": "node",
      "id": 2829833112,
      "lat": 51.3765827,
      "lon": 4.3408963
    },
    {
      "type": "node",
      "id": 2829833113,
      "lat": 51.3765827,
      "lon": 4.3409675
    },
    {
      "type": "node",
      "id": 2829833115,
      "lat": 51.3765875,
      "lon": 4.3409678
    },
    {
      "type": "node",
      "id": 2829833116,
      "lat": 51.3765876,
      "lon": 4.3408962
    },
    {
      "type": "node",
      "id": 2829833117,
      "lat": 51.3765922,
      "lon": 4.3409665
    },
    {
      "type": "node",
      "id": 2829833118,
      "lat": 51.3765923,
      "lon": 4.3408976
    },
    {
      "type": "node",
      "id": 2829833119,
      "lat": 51.3765945,
      "lon": 4.3409653
    },
    {
      "type": "node",
      "id": 2829833120,
      "lat": 51.3765946,
      "lon": 4.3408989
    },
    {
      "type": "node",
      "id": 2829833121,
      "lat": 51.3765966,
      "lon": 4.3409637
    },
    {
      "type": "node",
      "id": 2829833122,
      "lat": 51.3765987,
      "lon": 4.3409025
    },
    {
      "type": "node",
      "id": 2829833123,
      "lat": 51.3766006,
      "lon": 4.3409595
    },
    {
      "type": "node",
      "id": 2829833124,
      "lat": 51.3766023,
      "lon": 4.3409075
    },
    {
      "type": "node",
      "id": 2829833125,
      "lat": 51.3766039,
      "lon": 4.3409105
    },
    {
      "type": "node",
      "id": 2829833126,
      "lat": 51.376604,
      "lon": 4.340954
    },
    {
      "type": "node",
      "id": 2829833127,
      "lat": 51.3766053,
      "lon": 4.3409136
    },
    {
      "type": "node",
      "id": 2829833128,
      "lat": 51.3766066,
      "lon": 4.3409475
    },
    {
      "type": "node",
      "id": 2829833129,
      "lat": 51.3766074,
      "lon": 4.3409206
    },
    {
      "type": "node",
      "id": 2829833130,
      "lat": 51.3766081,
      "lon": 4.3409243
    },
    {
      "type": "node",
      "id": 2829833131,
      "lat": 51.3766082,
      "lon": 4.3409403
    },
    {
      "type": "node",
      "id": 2829833132,
      "lat": 51.3766087,
      "lon": 4.3409319
    },
    {
      "type": "node",
      "id": 6680301610,
      "lat": 51.3774816,
      "lon": 4.3385249
    },
    {
      "type": "node",
      "id": 42532607,
      "lat": 51.395046,
      "lon": 4.3288559
    },
    {
      "type": "node",
      "id": 2829696490,
      "lat": 51.394954,
      "lon": 4.3281074
    },
    {
      "type": "node",
      "id": 2829697136,
      "lat": 51.3949592,
      "lon": 4.3283517
    },
    {
      "type": "node",
      "id": 2829697312,
      "lat": 51.3949738,
      "lon": 4.3288582
    },
    {
      "type": "node",
      "id": 3308608064,
      "lat": 51.393473,
      "lon": 4.3294106
    },
    {
      "type": "node",
      "id": 3606711903,
      "lat": 51.3946701,
      "lon": 4.3280056
    },
    {
      "type": "node",
      "id": 3606711904,
      "lat": 51.3946737,
      "lon": 4.3281337
    },
    {
      "type": "node",
      "id": 3606711905,
      "lat": 51.3946801,
      "lon": 4.3283825
    },
    {
      "type": "node",
      "id": 3606711906,
      "lat": 51.3946862,
      "lon": 4.3286108
    },
    {
      "type": "node",
      "id": 3606711907,
      "lat": 51.394692,
      "lon": 4.3288833
    },
    {
      "type": "node",
      "id": 3606711908,
      "lat": 51.394954,
      "lon": 4.3279788
    },
    {
      "type": "node",
      "id": 3606711910,
      "lat": 51.3950315,
      "lon": 4.3283439
    },
    {
      "type": "node",
      "id": 5260773221,
      "lat": 51.3934477,
      "lon": 4.3296836
    },
    {
      "type": "node",
      "id": 5260773222,
      "lat": 51.3934382,
      "lon": 4.3297798
    },
    {
      "type": "node",
      "id": 5260773223,
      "lat": 51.3936492,
      "lon": 4.3298458
    },
    {
      "type": "node",
      "id": 5260773224,
      "lat": 51.3937032,
      "lon": 4.3293409
    },
    {
      "type": "node",
      "id": 5260773225,
      "lat": 51.3935355,
      "lon": 4.3292935
    },
    {
      "type": "node",
      "id": 5260773226,
      "lat": 51.3935455,
      "lon": 4.3291748
    },
    {
      "type": "node",
      "id": 5260773227,
      "lat": 51.3935021,
      "lon": 4.3291598
    },
    {
      "type": "node",
      "id": 7944441152,
      "lat": 51.3956498,
      "lon": 4.3295806
    },
    {
      "type": "node",
      "id": 7944441153,
      "lat": 51.3955171,
      "lon": 4.3296151
    },
    {
      "type": "node",
      "id": 7944441154,
      "lat": 51.3955629,
      "lon": 4.330068
    },
    {
      "type": "node",
      "id": 7944441155,
      "lat": 51.3956956,
      "lon": 4.3300335
    },
    {
      "type": "node",
      "id": 8720702417,
      "lat": 51.3442533,
      "lon": 4.3515916
    },
    {
      "type": "node",
      "id": 8720702418,
      "lat": 51.3442788,
      "lon": 4.3516752
    },
    {
      "type": "node",
      "id": 8720702419,
      "lat": 51.3443386,
      "lon": 4.3518999
    },
    {
      "type": "node",
      "id": 8720702420,
      "lat": 51.3443901,
      "lon": 4.3521437
    },
    {
      "type": "node",
      "id": 8720702421,
      "lat": 51.3444251,
      "lon": 4.3524075
    },
    {
      "type": "node",
      "id": 8720702422,
      "lat": 51.3444399,
      "lon": 4.3526105
    },
    {
      "type": "node",
      "id": 8720702423,
      "lat": 51.3444401,
      "lon": 4.3528419
    },
    {
      "type": "node",
      "id": 8720702424,
      "lat": 51.3444234,
      "lon": 4.3530597
    },
    {
      "type": "node",
      "id": 8720702425,
      "lat": 51.3444049,
      "lon": 4.3532311
    },
    {
      "type": "node",
      "id": 8720702426,
      "lat": 51.3443403,
      "lon": 4.353561
    },
    {
      "type": "node",
      "id": 8720702427,
      "lat": 51.3442926,
      "lon": 4.3537408
    },
    {
      "type": "node",
      "id": 8720702428,
      "lat": 51.3442455,
      "lon": 4.3538917
    },
    {
      "type": "node",
      "id": 8724571576,
      "lat": 51.3444232,
      "lon": 4.353062
    },
    {
      "type": "node",
      "id": 3346668370,
      "lat": 51.3568199,
      "lon": 4.3520979
    },
    {
      "type": "node",
      "id": 3346668371,
      "lat": 51.3568412,
      "lon": 4.3524584
    },
    {
      "type": "node",
      "id": 3346668376,
      "lat": 51.3568983,
      "lon": 4.3520869
    },
    {
      "type": "node",
      "id": 3346668377,
      "lat": 51.3569016,
      "lon": 4.3521374
    },
    {
      "type": "node",
      "id": 3346668388,
      "lat": 51.3571379,
      "lon": 4.3524026
    },
    {
      "type": "node",
      "id": 3346668389,
      "lat": 51.3571542,
      "lon": 4.3523988
    },
    {
      "type": "node",
      "id": 3346668392,
      "lat": 51.3572449,
      "lon": 4.3520831
    },
    {
      "type": "node",
      "id": 3346669493,
      "lat": 51.3572647,
      "lon": 4.3523788
    },
    {
      "type": "node",
      "id": 4840133203,
      "lat": 51.3568648,
      "lon": 4.3520916
    },
    {
      "type": "node",
      "id": 1309201467,
      "lat": 51.3541453,
      "lon": 4.3832406
    },
    {
      "type": "node",
      "id": 1442397796,
      "lat": 51.3541035,
      "lon": 4.3832602
    },
    {
      "type": "node",
      "id": 4267934832,
      "lat": 51.3539317,
      "lon": 4.3823006
    },
    {
      "type": "node",
      "id": 8664217490,
      "lat": 51.3539696,
      "lon": 4.3822828
    },
    {
      "type": "node",
      "id": 8664217491,
      "lat": 51.3538441,
      "lon": 4.3823418
    },
    {
      "type": "node",
      "id": 8664217492,
      "lat": 51.3540199,
      "lon": 4.3832996
    },
    {
      "type": "node",
      "id": 1304659694,
      "lat": 51.3541679,
      "lon": 4.3856877
    },
    {
      "type": "node",
      "id": 8664217495,
      "lat": 51.3542139,
      "lon": 4.3859257
    },
    {
      "type": "node",
      "id": 8664217496,
      "lat": 51.3544719,
      "lon": 4.3857977
    },
    {
      "type": "node",
      "id": 8664217497,
      "lat": 51.3544258,
      "lon": 4.3855596
    },
    {
      "type": "node",
      "id": 4016617507,
      "lat": 51.3550022,
      "lon": 4.3941638
    },
    {
      "type": "node",
      "id": 4016617509,
      "lat": 51.3550899,
      "lon": 4.3945939
    },
    {
      "type": "node",
      "id": 4016617511,
      "lat": 51.3551374,
      "lon": 4.3945647
    },
    {
      "type": "node",
      "id": 4016617512,
      "lat": 51.3551574,
      "lon": 4.3946619
    },
    {
      "type": "node",
      "id": 4016617514,
      "lat": 51.3552004,
      "lon": 4.3946318
    },
    {
      "type": "node",
      "id": 4016617516,
      "lat": 51.3552662,
      "lon": 4.3941544
    },
    {
      "type": "node",
      "id": 4016617517,
      "lat": 51.3552948,
      "lon": 4.3942829
    },
    {
      "type": "node",
      "id": 4016617518,
      "lat": 51.3553216,
      "lon": 4.3944123
    },
    {
      "type": "node",
      "id": 4016617519,
      "lat": 51.3553496,
      "lon": 4.3945518
    },
    {
      "type": "node",
      "id": 4016617520,
      "lat": 51.3554153,
      "lon": 4.3940697
    },
    {
      "type": "node",
      "id": 4016617521,
      "lat": 51.3554197,
      "lon": 4.3939268
    },
    {
      "type": "node",
      "id": 4016617522,
      "lat": 51.3554939,
      "lon": 4.3940409
    },
    {
      "type": "node",
      "id": 4016617523,
      "lat": 51.355503,
      "lon": 4.3938949
    },
    {
      "type": "node",
      "id": 4016617524,
      "lat": 51.3555207,
      "lon": 4.3940328
    },
    {
      "type": "node",
      "id": 8706898285,
      "lat": 51.3528727,
      "lon": 4.3949041
    },
    {
      "type": "node",
      "id": 8706898286,
      "lat": 51.3528356,
      "lon": 4.3947668
    },
    {
      "type": "node",
      "id": 8706898287,
      "lat": 51.3527991,
      "lon": 4.3947921
    },
    {
      "type": "node",
      "id": 8706898288,
      "lat": 51.3527882,
      "lon": 4.3947874
    },
    {
      "type": "node",
      "id": 8706898289,
      "lat": 51.3527832,
      "lon": 4.3947659
    },
    {
      "type": "node",
      "id": 8706898290,
      "lat": 51.3527883,
      "lon": 4.3947542
    },
    {
      "type": "node",
      "id": 8706898291,
      "lat": 51.3528262,
      "lon": 4.3947278
    },
    {
      "type": "node",
      "id": 8706898292,
      "lat": 51.3527704,
      "lon": 4.3945226
    },
    {
      "type": "node",
      "id": 8706898293,
      "lat": 51.3527293,
      "lon": 4.3945512
    },
    {
      "type": "node",
      "id": 8706898294,
      "lat": 51.3527212,
      "lon": 4.394543
    },
    {
      "type": "node",
      "id": 8706898295,
      "lat": 51.3527177,
      "lon": 4.3945282
    },
    {
      "type": "node",
      "id": 8706898296,
      "lat": 51.3527197,
      "lon": 4.3945159
    },
    {
      "type": "node",
      "id": 8706898297,
      "lat": 51.3527612,
      "lon": 4.394487
    },
    {
      "type": "node",
      "id": 8706898298,
      "lat": 51.3526765,
      "lon": 4.3941751
    },
    {
      "type": "node",
      "id": 8706898299,
      "lat": 51.3526298,
      "lon": 4.3942077
    },
    {
      "type": "node",
      "id": 8706898304,
      "lat": 51.3526567,
      "lon": 4.3939385
    },
    {
      "type": "node",
      "id": 8706898305,
      "lat": 51.3526635,
      "lon": 4.3939465
    },
    {
      "type": "node",
      "id": 8706898306,
      "lat": 51.3526757,
      "lon": 4.394011
    },
    {
      "type": "node",
      "id": 8706898307,
      "lat": 51.3528438,
      "lon": 4.3939295
    },
    {
      "type": "node",
      "id": 8706898308,
      "lat": 51.3528303,
      "lon": 4.3938581
    },
    {
      "type": "node",
      "id": 8706898309,
      "lat": 51.3528377,
      "lon": 4.3938453
    },
    {
      "type": "node",
      "id": 8706898310,
      "lat": 51.3528473,
      "lon": 4.3938426
    },
    {
      "type": "node",
      "id": 8706898311,
      "lat": 51.3528568,
      "lon": 4.3938514
    },
    {
      "type": "node",
      "id": 8706898312,
      "lat": 51.3528686,
      "lon": 4.3939133
    },
    {
      "type": "node",
      "id": 8706898313,
      "lat": 51.3529878,
      "lon": 4.3938552
    },
    {
      "type": "node",
      "id": 8706898314,
      "lat": 51.3529752,
      "lon": 4.3937889
    },
    {
      "type": "node",
      "id": 8706898315,
      "lat": 51.3529825,
      "lon": 4.3937698
    },
    {
      "type": "node",
      "id": 8706955825,
      "lat": 51.3528284,
      "lon": 4.3949348
    },
    {
      "type": "node",
      "id": 4616131497,
      "lat": 51.3605387,
      "lon": 4.3897508
    },
    {
      "type": "node",
      "id": 4616131498,
      "lat": 51.3607824,
      "lon": 4.3896288
    },
    {
      "type": "node",
      "id": 4616131499,
      "lat": 51.3607434,
      "lon": 4.3894358
    },
    {
      "type": "node",
      "id": 4616131503,
      "lat": 51.3605136,
      "lon": 4.3895487
    },
    {
      "type": "node",
      "id": 4450961871,
      "lat": 51.3575208,
      "lon": 4.3923885
    },
    {
      "type": "node",
      "id": 4450961873,
      "lat": 51.3576643,
      "lon": 4.3923291
    },
    {
      "type": "node",
      "id": 4450961875,
      "lat": 51.3577387,
      "lon": 4.3923189
    },
    {
      "type": "node",
      "id": 4450961878,
      "lat": 51.3578719,
      "lon": 4.392258
    },
    {
      "type": "node",
      "id": 8851042673,
      "lat": 51.3581577,
      "lon": 4.3936561
    },
    {
      "type": "node",
      "id": 8851042674,
      "lat": 51.3581167,
      "lon": 4.3933335
    },
    {
      "type": "node",
      "id": 8851042675,
      "lat": 51.357997,
      "lon": 4.3925517
    },
    {
      "type": "node",
      "id": 8851042676,
      "lat": 51.357923,
      "lon": 4.3925801
    },
    {
      "type": "node",
      "id": 8851042677,
      "lat": 51.3578722,
      "lon": 4.3921845
    },
    {
      "type": "node",
      "id": 8851042678,
      "lat": 51.357794,
      "lon": 4.3917303
    },
    {
      "type": "node",
      "id": 8851042679,
      "lat": 51.3577203,
      "lon": 4.3917601
    },
    {
      "type": "node",
      "id": 8851042680,
      "lat": 51.357581,
      "lon": 4.3918118
    },
    {
      "type": "node",
      "id": 8851042681,
      "lat": 51.3574412,
      "lon": 4.3918693
    },
    {
      "type": "node",
      "id": 8851042682,
      "lat": 51.3580909,
      "lon": 4.3936818
    },
    {
      "type": "node",
      "id": 8851042683,
      "lat": 51.3579598,
      "lon": 4.3937282
    },
    {
      "type": "node",
      "id": 8851042686,
      "lat": 51.3579226,
      "lon": 4.3934514
    },
    {
      "type": "node",
      "id": 887157661,
      "lat": 51.3979542,
      "lon": 4.326507
    },
    {
      "type": "node",
      "id": 887157662,
      "lat": 51.3979106,
      "lon": 4.3265369
    },
    {
      "type": "node",
      "id": 5885321814,
      "lat": 51.397892,
      "lon": 4.3265497
    },
    {
      "type": "node",
      "id": 5885321815,
      "lat": 51.3980295,
      "lon": 4.3264552
    },
    {
      "type": "node",
      "id": 5885321816,
      "lat": 51.3979057,
      "lon": 4.325992
    },
    {
      "type": "node",
      "id": 5885321817,
      "lat": 51.3977682,
      "lon": 4.3260864
    },
    {
      "type": "way",
      "id": 202376798,
      "nodes": [
        2123504287,
        2123504288,
        2123504286,
        2123504285,
        2123504287
      ]
    },
    {
      "type": "way",
      "id": 202376800,
      "nodes": [
        2123504278,
        2123504276,
        2123504269,
        2123504271,
        2123504274,
        2123504281,
        2123504278
      ]
    },
    {
      "type": "way",
      "id": 202376801,
      "nodes": [
        2123504297,
        2123504295,
        2123504290,
        2123504291,
        2123504292,
        2123504299,
        2123504297
      ]
    },
    {
      "type": "way",
      "id": 940028315,
      "nodes": [
        8706898306,
        8706898305,
        8706898304,
        8706898309,
        8706898308,
        8706898307,
        8706898306
      ]
    },
    {
      "type": "way",
      "id": 940028316,
      "nodes": [
        8706898314,
        8706898313,
        8706898312,
        8706898311,
        8706898310,
        8706898315,
        8706898314
      ]
    },
    {
      "type": "way",
      "id": 940028317,
      "nodes": [
        8706898286,
        8706898285,
        8706955825,
        8706898288,
        8706898287,
        8706898286
      ]
    },
    {
      "type": "way",
      "id": 940028318,
      "nodes": [
        8706898292,
        8706898291,
        8706898290,
        8706898289,
        8706898294,
        8706898293,
        8706898292
      ]
    },
    {
      "type": "way",
      "id": 940028319,
      "nodes": [
        8706898299,
        8706898298,
        8706898297,
        8706898296,
        8706898295,
        8706898299
      ]
    }
  ]
}