{
  "version": 0.6,
  "generator": "Overpass API 0.7.56.8 7d656e78",
  "osm3s": {
    "timestamp_osm_base": "2021-12-11T04:41:27Z",
    "copyright": "The data included in this document is from www.openstreetmap.org. The data is made available under ODbL."
  },
  "elements": [
    {
      "type": "node",
      "id": 2335419982,
      "lat": 51.4467773,
      "lon": 4.9256073,
      "tags": {
        "amenity": "parking"
      }
    },
    {
      "type": "node",
      "id": 3378019553,
      "lat": 51.42417,
      "lon": 4.9258487,
      "tags": {
        "amenity": "bench"
      }
    },
    {
      "type": "node",
      "id": 3740987726,
      "lat": 51.4258196,
      "lon": 4.960583,
      "tags": {
        "access": "private",
        "amenity": "parking",
        "parking": "surface"
      }
    },
    {
      "type": "node",
      "id": 4239325114,
      "lat": 51.4296443,
      "lon": 4.9291096,
      "tags": {
        "leisure": "picnic_table"
      }
    },
    {
      "type": "node",
      "id": 4404074517,
      "lat": 51.4307189,
      "lon": 5.0058225,
      "tags": {
        "amenity": "bench",
        "backrest": "yes"
      }
    },
    {
      "type": "node",
      "id": 4404074521,
      "lat": 51.4307388,
      "lon": 5.0058058,
      "tags": {
        "amenity": "bench",
        "backrest": "yes"
      }
    },
    {
      "type": "node",
      "id": 4411403071,
      "lat": 51.4111082,
      "lon": 5.0053512,
      "tags": {
        "advertising": "sign",
        "information": "board",
        "inscription": "Gemeentehuis Gemeentehuis Ravels",
        "operator": "Gemeente Ravels",
        "tourism": "information"
      }
    },
    {
      "type": "node",
      "id": 4411403113,
      "lat": 51.4113955,
      "lon": 5.0051584,
      "tags": {
        "amenity": "bench",
        "backrest": "yes"
      }
    },
    {
      "type": "node",
      "id": 4411403129,
      "lat": 51.4114643,
      "lon": 5.0052141,
      "tags": {
        "amenity": "bench",
        "backrest": "yes"
      }
    },
    {
      "type": "node",
      "id": 4411403133,
      "lat": 51.4115307,
      "lon": 5.0052697,
      "tags": {
        "amenity": "bench",
        "backrest": "yes"
      }
    },
    {
      "type": "node",
      "id": 4411403141,
      "lat": 51.4115989,
      "lon": 5.0053263,
      "tags": {
        "amenity": "bench",
        "backrest": "yes"
      }
    },
    {
      "type": "node",
      "id": 4411403156,
      "lat": 51.4116653,
      "lon": 5.0053801,
      "tags": {
        "amenity": "bench",
        "backrest": "yes"
      }
    },
    {
      "type": "node",
      "id": 4413062049,
      "lat": 51.4104449,
      "lon": 5.0069588,
      "tags": {
        "amenity": "bench",
        "backrest": "yes"
      }
    },
    {
      "type": "node",
      "id": 4413062051,
      "lat": 51.4104531,
      "lon": 5.0069303,
      "tags": {
        "amenity": "bench",
        "backrest": "yes"
      }
    },
    {
      "type": "node",
      "id": 4582422541,
      "lat": 51.4422899,
      "lon": 4.9305581,
      "tags": {
        "amenity": "bench"
      }
    },
    {
      "type": "node",
      "id": 4607859303,
      "lat": 51.4450841,
      "lon": 4.9269482,
      "tags": {
        "amenity": "bench"
      }
    },
    {
      "type": "node",
      "id": 4607859304,
      "lat": 51.4450837,
      "lon": 4.9269104,
      "tags": {
        "amenity": "bench"
      }
    },
    {
      "type": "node",
      "id": 4665577213,
      "lat": 51.4270913,
      "lon": 4.946699,
      "tags": {
        "leisure": "picnic_table"
      }
    },
    {
      "type": "node",
      "id": 4910732792,
      "lat": 51.4481576,
      "lon": 4.9265411,
      "tags": {
        "amenity": "bench",
        "backrest": "yes"
      }
    },
    {
      "type": "node",
      "id": 5033997612,
      "lat": 51.4409163,
      "lon": 4.9618533,
      "tags": {
        "access": "customers",
        "amenity": "toilets"
      }
    },
    {
      "type": "node",
      "id": 5035798304,
      "lat": 51.4391323,
      "lon": 4.9501898,
      "tags": {
        "board_type": "nature",
        "information": "board",
        "note:en": "The Buykse Pit is the source of De Leie en de Donge. Here the Lei, which passes to Hoogle van Hulten in the Donge, rises and at Geertruidenberg flows into the Amer",
        "note:nl": "De Buykse kuil is de bron van De Leie en de Donge. Hier ontspringt De Leie die ter hoogle van Hulten overgaat in De Donge en bij Geertruidenberg uitmondt in de Amer",
        "tourism": "information"
      }
    },
    {
      "type": "node",
      "id": 5035798305,
      "lat": 51.4391345,
      "lon": 4.9501403,
      "tags": {
        "amenity": "bench"
      }
    },
    {
      "type": "node",
      "id": 5086853374,
      "lat": 51.4421192,
      "lon": 4.9299662,
      "tags": {
        "amenity": "bench",
        "backrest": "yes"
      }
    },
    {
      "type": "node",
      "id": 5086853375,
      "lat": 51.4436123,
      "lon": 4.9282513,
      "tags": {
        "amenity": "bench",
        "backrest": "yes"
      }
    },
    {
      "type": "node",
      "id": 5086853376,
      "lat": 51.4439329,
      "lon": 4.9274123,
      "tags": {
        "amenity": "bench",
        "backrest": "yes"
      }
    },
    {
      "type": "node",
      "id": 5086853377,
      "lat": 51.4440073,
      "lon": 4.9274092,
      "tags": {
        "amenity": "bench",
        "backrest": "yes"
      }
    },
    {
      "type": "node",
      "id": 5086853378,
      "lat": 51.4440608,
      "lon": 4.9273327,
      "tags": {
        "amenity": "bench",
        "backrest": "yes"
      }
    },
    {
      "type": "node",
      "id": 5086853379,
      "lat": 51.4454562,
      "lon": 4.9268281,
      "tags": {
        "amenity": "bench",
        "backrest": "yes",
        "image": "https://images.mapillary.com/blbNi7jm90REJMYQfabOIB/thumb-2048.jpg",
        "mapillary": "https://www.mapillary.com/map/im/blbNi7jm90REJMYQfabOIB",
        "name": "Bankje van hoop"
      }
    },
    {
      "type": "node",
      "id": 5086853380,
      "lat": 51.4456486,
      "lon": 4.9267964,
      "tags": {
        "amenity": "bench",
        "backrest": "yes"
      }
    },
    {
      "type": "node",
      "id": 5086853381,
      "lat": 51.4465354,
      "lon": 4.9268531,
      "tags": {
        "amenity": "bench",
        "backrest": "yes"
      }
    },
    {
      "type": "node",
      "id": 5086853382,
      "lat": 51.4468003,
      "lon": 4.9265572,
      "tags": {
        "amenity": "bench",
        "backrest": "yes"
      }
    },
    {
      "type": "node",
      "id": 5086853383,
      "lat": 51.4481717,
      "lon": 4.9268232,
      "tags": {
        "amenity": "bench",
        "backrest": "yes"
      }
    },
    {
      "type": "node",
      "id": 5086853384,
      "lat": 51.4490624,
      "lon": 4.9267744,
      "tags": {
        "amenity": "bench",
        "backrest": "yes"
      }
    },
    {
      "type": "node",
      "id": 5086853385,
      "lat": 51.4510968,
      "lon": 4.9276055,
      "tags": {
        "amenity": "bench",
        "backrest": "yes"
      }
    },
    {
      "type": "node",
      "id": 5265970764,
      "lat": 51.4108475,
      "lon": 5.0056537,
      "tags": {
        "amenity": "bench",
        "backrest": "yes"
      }
    },
    {
      "type": "node",
      "id": 5532119438,
      "lat": 51.4109761,
      "lon": 5.006242,
      "tags": {
        "amenity": "bench"
      }
    },
    {
      "type": "node",
      "id": 5532143948,
      "lat": 51.4082281,
      "lon": 4.9941408,
      "tags": {
        "amenity": "bench",
        "backrest": "yes"
      }
    },
    {
      "type": "node",
      "id": 5532143949,
      "lat": 51.408185,
      "lon": 4.9921072,
      "tags": {
        "covered": "no",
        "leisure": "picnic_table"
      }
    },
    {
      "type": "node",
      "id": 5532143950,
      "lat": 51.4081074,
      "lon": 4.9921662,
      "tags": {
        "covered": "no",
        "leisure": "picnic_table"
      }
    },
    {
      "type": "node",
      "id": 5532143951,
      "lat": 51.4080168,
      "lon": 4.9921997,
      "tags": {
        "covered": "no",
        "leisure": "picnic_table"
      }
    },
    {
      "type": "node",
      "id": 5532143954,
      "lat": 51.4077839,
      "lon": 4.9906593,
      "tags": {
        "amenity": "bench"
      }
    },
    {
      "type": "node",
      "id": 5532143955,
      "lat": 51.4098169,
      "lon": 4.997063,
      "tags": {
        "amenity": "bench",
        "backrest": "yes"
      }
    },
    {
      "type": "node",
      "id": 5532143956,
      "lat": 51.4097726,
      "lon": 4.9969964,
      "tags": {
        "amenity": "bench",
        "backrest": "yes"
      }
    },
    {
      "type": "node",
      "id": 5532143958,
      "lat": 51.4098239,
      "lon": 4.9966074,
      "tags": {
        "amenity": "bench",
        "backrest": "yes"
      }
    },
    {
      "type": "node",
      "id": 5532143960,
      "lat": 51.4091775,
      "lon": 4.9966705,
      "tags": {
        "amenity": "bench"
      }
    },
    {
      "type": "node",
      "id": 5532143961,
      "lat": 51.4092056,
      "lon": 4.996666,
      "tags": {
        "amenity": "bench"
      }
    },
    {
      "type": "node",
      "id": 5532143962,
      "lat": 51.4126313,
      "lon": 4.9913568,
      "tags": {
        "leisure": "picnic_table"
      }
    },
    {
      "type": "node",
      "id": 5555111134,
      "lat": 51.4218525,
      "lon": 4.9825618,
      "tags": {
        "leisure": "picnic_table"
      }
    },
    {
      "type": "node",
      "id": 5782870347,
      "lat": 51.4531425,
      "lon": 4.9307755,
      "tags": {
        "amenity": "bench",
        "backrest": "yes"
      }
    },
    {
      "type": "node",
      "id": 5881692431,
      "lat": 51.4204098,
      "lon": 4.9813722,
      "tags": {
        "leisure": "picnic_table"
      }
    },
    {
      "type": "node",
      "id": 5881692434,
      "lat": 51.4204673,
      "lon": 4.9809694,
      "tags": {
        "leisure": "picnic_table"
      }
    },
    {
      "type": "node",
      "id": 5881692469,
      "lat": 51.419842,
      "lon": 4.9787566,
      "tags": {
        "information": "board",
        "tourism": "information"
      }
    },
    {
      "type": "node",
      "id": 6015226917,
      "lat": 51.4415765,
      "lon": 4.945004,
      "tags": {
        "amenity": "bench",
        "backrest": "no"
      }
    },
    {
      "type": "node",
      "id": 6015226918,
      "lat": 51.4415952,
      "lon": 4.9450587,
      "tags": {
        "amenity": "bench",
        "backrest": "no"
      }
    },
    {
      "type": "node",
      "id": 6015226919,
      "lat": 51.441607,
      "lon": 4.944962,
      "tags": {
        "amenity": "bench",
        "backrest": "no"
      }
    },
    {
      "type": "node",
      "id": 6015226920,
      "lat": 51.4416261,
      "lon": 4.9450183,
      "tags": {
        "amenity": "bench",
        "backrest": "no"
      }
    },
    {
      "type": "node",
      "id": 6015226921,
      "lat": 51.4418107,
      "lon": 4.9470676,
      "tags": {
        "amenity": "bench",
        "backrest": "no"
      }
    },
    {
      "type": "node",
      "id": 6015230067,
      "lat": 51.4434783,
      "lon": 4.9287391,
      "tags": {
        "amenity": "bench",
        "backrest": "yes"
      }
    },
    {
      "type": "node",
      "id": 6017555724,
      "lat": 51.4417812,
      "lon": 4.9455065,
      "tags": {
        "amenity": "bench",
        "backrest": "no"
      }
    },
    {
      "type": "node",
      "id": 6198746213,
      "lat": 51.4413989,
      "lon": 4.9449696,
      "tags": {
        "amenity": "bench",
        "backrest": "no"
      }
    },
    {
      "type": "node",
      "id": 6198746214,
      "lat": 51.4414952,
      "lon": 4.9458399,
      "tags": {
        "amenity": "bench",
        "backrest": "no"
      }
    },
    {
      "type": "node",
      "id": 6268139911,
      "lat": 51.4411849,
      "lon": 4.9259668,
      "tags": {
        "amenity": "bench",
        "backrest": "yes"
      }
    },
    {
      "type": "node",
      "id": 6268139912,
      "lat": 51.4419953,
      "lon": 4.9277878,
      "tags": {
        "amenity": "bench",
        "backrest": "yes"
      }
    },
    {
      "type": "node",
      "id": 6268139913,
      "lat": 51.4438596,
      "lon": 4.9268892,
      "tags": {
        "amenity": "bench",
        "backrest": "no"
      }
    },
    {
      "type": "node",
      "id": 6268139914,
      "lat": 51.4438727,
      "lon": 4.9268419,
      "tags": {
        "amenity": "bench",
        "backrest": "no"
      }
    },
    {
      "type": "node",
      "id": 6268139915,
      "lat": 51.4439039,
      "lon": 4.9268296,
      "tags": {
        "amenity": "bench",
        "backrest": "no"
      }
    },
    {
      "type": "node",
      "id": 6268139916,
      "lat": 51.4439323,
      "lon": 4.9268401,
      "tags": {
        "amenity": "bench",
        "backrest": "no"
      }
    },
    {
      "type": "node",
      "id": 6273871488,
      "lat": 51.4431359,
      "lon": 4.9299135,
      "tags": {
        "amenity": "bench",
        "backrest": "yes"
      }
    },
    {
      "type": "node",
      "id": 6273871489,
      "lat": 51.4432822,
      "lon": 4.9302491,
      "tags": {
        "amenity": "bench",
        "backrest": "yes"
      }
    },
    {
      "type": "node",
      "id": 6273871490,
      "lat": 51.4432598,
      "lon": 4.9305952,
      "tags": {
        "amenity": "bench",
        "backrest": "yes"
      }
    },
    {
      "type": "node",
      "id": 6273871491,
      "lat": 51.4433487,
      "lon": 4.9304952,
      "tags": {
        "amenity": "bench",
        "backrest": "yes"
      }
    },
    {
      "type": "node",
      "id": 6282837712,
      "lat": 51.4417262,
      "lon": 4.9462597,
      "tags": {
        "amenity": "bench",
        "backrest": "no"
      }
    },
    {
      "type": "node",
      "id": 6284313348,
      "lat": 51.4464364,
      "lon": 4.9314963,
      "tags": {
        "amenity": "bench",
        "backrest": "yes"
      }
    },
    {
      "type": "node",
      "id": 6284313349,
      "lat": 51.440157,
      "lon": 4.9301778,
      "tags": {
        "amenity": "bench",
        "backrest": "no"
      }
    },
    {
      "type": "node",
      "id": 6284313350,
      "lat": 51.440218,
      "lon": 4.9301568,
      "tags": {
        "amenity": "bench",
        "backrest": "no"
      }
    },
    {
      "type": "node",
      "id": 6284313351,
      "lat": 51.4401453,
      "lon": 4.9304529,
      "tags": {
        "amenity": "bench",
        "backrest": "no"
      }
    },
    {
      "type": "node",
      "id": 6284313352,
      "lat": 51.4401422,
      "lon": 4.9303773,
      "tags": {
        "amenity": "bench",
        "backrest": "no"
      }
    },
    {
      "type": "node",
      "id": 6284313353,
      "lat": 51.4475881,
      "lon": 4.9302343,
      "tags": {
        "amenity": "bench",
        "backrest": "yes"
      }
    },
    {
      "type": "node",
      "id": 6284313354,
      "lat": 51.4475935,
      "lon": 4.9302847,
      "tags": {
        "amenity": "bench",
        "backrest": "yes"
      }
    },
    {
      "type": "node",
      "id": 6284313359,
      "lat": 51.4450892,
      "lon": 4.9281694,
      "tags": {
        "amenity": "bench",
        "backrest": "yes"
      }
    },
    {
      "type": "node",
      "id": 6284313360,
      "lat": 51.4450232,
      "lon": 4.9281563,
      "tags": {
        "amenity": "bench",
        "backrest": "yes"
      }
    },
    {
      "type": "node",
      "id": 6284370138,
      "lat": 51.4437426,
      "lon": 4.9314994,
      "tags": {
        "amenity": "bench",
        "backrest": "yes"
      }
    },
    {
      "type": "node",
      "id": 6284370139,
      "lat": 51.4437697,
      "lon": 4.9315058,
      "tags": {
        "amenity": "bench",
        "backrest": "yes"
      }
    },
    {
      "type": "node",
      "id": 6284370140,
      "lat": 51.4437613,
      "lon": 4.9315548,
      "tags": {
        "amenity": "bench",
        "backrest": "yes"
      }
    },
    {
      "type": "node",
      "id": 6284370141,
      "lat": 51.443732,
      "lon": 4.9315467,
      "tags": {
        "amenity": "bench",
        "backrest": "yes"
      }
    },
    {
      "type": "node",
      "id": 6421419445,
      "lat": 51.4405102,
      "lon": 4.9276257,
      "tags": {
        "board_type": "history",
        "information": "board",
        "name": "Dondendraadroute 1: Welkom in Vrij Baarle",
        "operator": "Heemkundekring Amalia van Solms",
        "tourism": "information"
      }
    },
    {
      "type": "node",
      "id": 6421419446,
      "lat": 51.442144,
      "lon": 4.9302116,
      "tags": {
        "board_type": "history",
        "image": "https://images.mapillary.com/kP9viOCB3bYjWqc00ZVDl6/thumb-2048.jpg",
        "information": "board",
        "mapillary": "https://www.mapillary.com/map/im/kP9viOCB3bYjWqc00ZVDl6",
        "name": "Dodendraadroute 2: Centrum van de brievensmokkel",
        "operator": "Heemkundekring Amalia van Solms",
        "tourism": "information"
      }
    },
    {
      "type": "node",
      "id": 6421419447,
      "lat": 51.4436699,
      "lon": 4.9229936,
      "tags": {
        "board_type": "history",
        "description": "https://photos.app.goo.gl/2xUFLoSgExDiNHQF9",
        "image": "https://images.mapillary.com/lVNXvNojPCiiUntrysQu8g/thumb-2048.jpg",
        "information": "board",
        "mapillary": "https://www.mapillary.com/map/im/lVNXvNojPCiiUntrysQu8g",
        "name": "Dodendraadroute 3: Belgisch militair zendstation MN 7",
        "operator": "Heemkundekring Amalia van Solms",
        "tourism": "information"
      }
    },
    {
      "type": "node",
      "id": 6465386800,
      "lat": 51.399849,
      "lon": 4.9341518,
      "tags": {
        "board_type": "history",
        "information": "board",
        "name": "Dodendraadroute 15: Op de vlucht",
        "operator": "Heemkundekring Amalia van Solms",
        "tourism": "information"
      }
    },
    {
      "type": "node",
      "id": 6483474449,
      "lat": 51.4453301,
      "lon": 4.9301805,
      "tags": {
        "amenity": "bench",
        "backrest": "yes"
      }
    },
    {
      "type": "node",
      "id": 6485785472,
      "lat": 51.4400216,
      "lon": 4.9284758,
      "tags": {
        "amenity": "bench",
        "backrest": "yes"
      }
    },
    {
      "type": "node",
      "id": 6485785473,
      "lat": 51.4400076,
      "lon": 4.9284317,
      "tags": {
        "amenity": "bench",
        "backrest": "yes"
      }
    },
    {
      "type": "node",
      "id": 6485785474,
      "lat": 51.4399512,
      "lon": 4.9283906,
      "tags": {
        "amenity": "bench",
        "backrest": "yes"
      }
    },
    {
      "type": "node",
      "id": 6485785475,
      "lat": 51.4399256,
      "lon": 4.9284162,
      "tags": {
        "amenity": "bench",
        "backrest": "yes"
      }
    },
    {
      "type": "node",
      "id": 6485785476,
      "lat": 51.4402957,
      "lon": 4.9294094,
      "tags": {
        "amenity": "bench",
        "backrest": "yes"
      }
    },
    {
      "type": "node",
      "id": 6485785477,
      "lat": 51.440301,
      "lon": 4.9293862,
      "tags": {
        "amenity": "bench",
        "backrest": "yes"
      }
    },
    {
      "type": "node",
      "id": 6485785478,
      "lat": 51.4402904,
      "lon": 4.9293769,
      "tags": {
        "amenity": "bench",
        "backrest": "yes"
      }
    },
    {
      "type": "node",
      "id": 6485785479,
      "lat": 51.4402836,
      "lon": 4.9293978,
      "tags": {
        "amenity": "bench",
        "backrest": "yes"
      }
    },
    {
      "type": "node",
      "id": 6649592329,
      "lat": 51.4393035,
      "lon": 4.927924,
      "tags": {
        "amenity": "bench",
        "backrest": "yes"
      }
    },
    {
      "type": "node",
      "id": 6718390151,
      "lat": 51.4498811,
      "lon": 4.9269298,
      "tags": {
        "board_type": "map",
        "image": "https://images.mapillary.com/ef1RkkLXsFO4o9icXtffI4/thumb-2048.jpg",
        "information": "board",
        "mapillary": "https://www.mapillary.com/map/im/ef1RkkLXsFO4o9icXtffI4",
        "name": "Fietsen doe je in Brabant 93",
        "tourism": "information"
      }
    },
    {
      "type": "node",
      "id": 6718390152,
      "lat": 51.4453945,
      "lon": 4.9267341,
      "tags": {
        "board_type": "history",
        "image": "https://images.mapillary.com/avED6ajNZAjhlDAwlU2EDw/thumb-2048.jpg",
        "information": "board",
        "mapillary": "https://www.mapillary.com/map/im/avED6ajNZAjhlDAwlU2EDw",
        "name": "MN7 in de groote Oorlog",
        "tourism": "information",
        "url": "https://www.bndestem.nl/brabant/het-leven-in-de-grote-oorlog-zendmast-werd-dorp-binnen-gesmokkeld~afae875e/",
        "website": "https://toerismebaarle.com/must-see/zendstation-mn-7/"
      }
    },
    {
      "type": "node",
      "id": 6718390153,
      "lat": 51.4440827,
      "lon": 4.9268834,
      "tags": {
        "board_type": "map",
        "image": "https://images.mapillary.com/Cca1ylM7DkG8bPySV9JGZU/thumb-2048.jpg",
        "information": "board",
        "mapillary": "https://www.mapillary.com/map/im/Cca1ylM7DkG8bPySV9JGZU",
        "name": "Fietsen doe je in Brabant",
        "tourism": "information"
      }
    },
    {
      "type": "node",
      "id": 7334819536,
      "lat": 51.4331874,
      "lon": 4.9287171,
      "tags": {
        "amenity": "bench",
        "backrest": "yes"
      }
    },
    {
      "type": "node",
      "id": 7599832447,
      "lat": 51.4090679,
      "lon": 4.9731001,
      "tags": {
        "information": "board",
        "name": "Grafheuvels Hoogeinde Bergen",
        "tourism": "information"
      }
    },
    {
      "type": "node",
      "id": 8004086033,
      "lat": 51.4457877,
      "lon": 4.9265609,
      "tags": {
        "image": "https://images.mapillary.com/9MOxENzVCFmK44gbgwiMIz/thumb-2048.jpg",
        "information": "board",
        "mapillary": "https://www.mapillary.com/map/im/9MOxENzVCFmK44gbgwiMIz",
        "name": "Reconstructie van de veerting meter lange mast...",
        "tourism": "information",
        "url": "https://www.bndestem.nl/brabant/het-leven-in-de-grote-oorlog-zendmast-werd-dorp-binnen-gesmokkeld~afae875e/",
        "website": "https://toerismebaarle.com/must-see/zendstation-mn-7/"
      }
    },
    {
      "type": "node",
      "id": 8004849041,
      "lat": 51.4427719,
      "lon": 4.9308523,
      "tags": {
        "image": "https://images.mapillary.com/PIyJQUfuEsQJXhO8XOnIY3/thumb-2048.jpg",
        "information": "board",
        "mapillary": "https://www.mapillary.com/map/im/PIyJQUfuEsQJXhO8XOnIY3",
        "name": "Belgische Enclave",
        "tourism": "information"
      }
    },
    {
      "type": "node",
      "id": 8004849042,
      "lat": 51.4432712,
      "lon": 4.9306187,
      "tags": {
        "description": "https://photos.app.goo.gl/KTDRLQ9EJjhjyvxGA",
        "image": "https://images.mapillary.com/jtK6O6R2UjH32CWvJeZaQf/thumb-2048.jpg",
        "information": "board",
        "mapillary": "https://www.mapillary.com/map/im/jtK6O6R2UjH32CWvJeZaQf",
        "name": "Liberation route Europe The 28 days of Baarle",
        "ref": "138",
        "tourism": "information",
        "website": "https://liberationroute.pl/the-netherlands/pois/t/the-28-days-of-baarle"
      }
    },
    {
      "type": "node",
      "id": 8238446144,
      "lat": 51.4439482,
      "lon": 4.9268532,
      "tags": {
        "amenity": "bench",
        "backrest": "yes",
        "colour": "brown",
        "material": "wood"
      }
    },
    {
      "type": "node",
      "id": 8238446145,
      "lat": 51.4439147,
      "lon": 4.9268363,
      "tags": {
        "amenity": "bench",
        "backrest": "yes",
        "colour": "brown",
        "material": "wood"
      }
    },
    {
      "type": "node",
      "id": 8238446146,
      "lat": 51.443863,
      "lon": 4.9268938,
      "tags": {
        "amenity": "bench",
        "backrest": "yes",
        "colour": "brown",
        "material": "wood"
      }
    },
    {
      "type": "node",
      "id": 8238446147,
      "lat": 51.443883,
      "lon": 4.9268419,
      "tags": {
        "amenity": "bench",
        "backrest": "yes",
        "colour": "brown",
        "material": "wood"
      }
    },
    {
      "type": "node",
      "id": 8238446149,
      "lat": 51.4437507,
      "lon": 4.9272013,
      "tags": {
        "amenity": "bench",
        "backrest": "yes",
        "colour": "brown",
        "material": "wood"
      }
    },
    {
      "type": "node",
      "id": 8422298050,
      "lat": 51.4079531,
      "lon": 4.9740947,
      "tags": {
        "amenity": "bench",
        "backrest": "yes"
      }
    },
    {
      "type": "node",
      "id": 8422303556,
      "lat": 51.4091058,
      "lon": 4.9733003,
      "tags": {
        "amenity": "bench",
        "backrest": "yes"
      }
    },
    {
      "type": "node",
      "id": 8434762570,
      "lat": 51.4097961,
      "lon": 4.9643363,
      "tags": {
        "leisure": "bird_hide"
      }
    },
    {
      "type": "way",
      "id": 239891185,
      "nodes": [
        2476654855,
        6291888400,
        2476654856,
        6291888386,
        2476654857,
        2476654859,
        2476654855
      ],
      "tags": {
        "access": "yes",
        "amenity": "parking",
        "fee": "no",
        "parking": "surface"
      }
    },
    {
      "type": "way",
      "id": 239891189,
      "nodes": [
        2476654878,
        2476654879,
        2476654880,
        2476654882,
        2476654883,
        6265533464,
        2476654884,
        2476654885,
        2476654878
      ],
      "tags": {
        "access": "yes",
        "amenity": "parking",
        "fee": "no",
        "parking": "surface"
      }
    },
    {
      "type": "way",
      "id": 443357999,
      "nodes": [
        4409468092,
        4409468096,
        4409468093,
        4409468091,
        4409468092
      ],
      "tags": {
        "access": "private",
        "amenity": "parking",
        "parking": "surface"
      }
    },
    {
      "type": "way",
      "id": 443582554,
      "nodes": [
        4411403201,
        4411403203,
        4411403194,
        4411403189,
        4411403201
      ],
      "tags": {
        "access": "customers",
        "amenity": "parking",
        "capacity": "0",
        "capacity:disabled": "2",
        "fee": "no",
        "operator": "KBC",
        "parking": "surface"
      }
    },
    {
      "type": "way",
      "id": 443582560,
      "nodes": [
        4411403065,
        4411403050,
        4411403035,
        4411403060,
        4411403065
      ],
      "tags": {
        "amenity": "parking",
        "parking": "surface"
      }
    },
    {
      "type": "way",
      "id": 443582563,
      "nodes": [
        1497392633,
        4411403143,
        4411403204,
        4411403195,
        4411403155,
        4411403144,
        4411403140,
        1497392633
      ],
      "tags": {
        "amenity": "parking",
        "parking": "surface"
      }
    },
    {
      "type": "way",
      "id": 443768186,
      "nodes": [
        4413062121,
        4413062125,
        4413062105,
        4413062081,
        4413062121
      ],
      "tags": {
        "amenity": "parking",
        "parking": "surface"
      }
    },
    {
      "type": "way",
      "id": 462910534,
      "nodes": [
        4582403956,
        4582403957,
        4582403958,
        4582403959,
        4582403960,
        4582403961,
        4582403962,
        4582403963,
        4582403964,
        4582403956
      ],
      "tags": {
        "access": "yes",
        "amenity": "parking",
        "fee": "no",
        "parking": "surface"
      }
    },
    {
      "type": "way",
      "id": 462912047,
      "nodes": [
        4582422536,
        4582422537,
        4582422538,
        4582422539,
        4582422540,
        4582422536
      ],
      "tags": {
        "access": "yes",
        "amenity": "parking",
        "fee": "no",
        "parking": "surface"
      }
    },
    {
      "type": "way",
      "id": 462913359,
      "nodes": [
        4582441813,
        6286309968,
        4582441814,
        6286309967,
        6286309965,
        5942929335,
        6286309966,
        5942929334,
        6286309973,
        6286309974,
        4582441817,
        910383105,
        4582441818,
        910383115,
        4582441813
      ],
      "tags": {
        "amenity": "parking",
        "fee": "no",
        "maxstay": "2 hr",
        "parking:condition": "disc"
      }
    },
    {
      "type": "way",
      "id": 462926985,
      "nodes": [
        4582545560,
        6286223199,
        4582545561,
        4582545562,
        2780607636,
        2780607643,
        6286223188,
        6286223197,
        6286223198,
        4582545560
      ],
      "tags": {
        "amenity": "parking",
        "fee": "no",
        "maxstay": "2 hr",
        "parking:condition": "disc"
      }
    },
    {
      "type": "way",
      "id": 465883894,
      "nodes": [
        4607870596,
        4607870597,
        4607870598,
        4607870599,
        4607870600,
        4623279937,
        4607870602,
        4607870603,
        8238446106,
        8238446103,
        4607870596
      ],
      "tags": {
        "amenity": "parking",
        "fee": "no",
        "supervised": "no"
      }
    },
    {
      "type": "way",
      "id": 468462650,
      "nodes": [
        4629969032,
        4629969033,
        4629969034,
        4629969035,
        4629969036,
        4629969037,
        4629969032
      ],
      "tags": {
        "amenity": "parking"
      }
    },
    {
      "type": "way",
      "id": 468462655,
      "nodes": [
        4629969045,
        4629969046,
        4629969047,
        4629969048,
        4629969049,
        4629969050,
        4629969045
      ],
      "tags": {
        "amenity": "parking"
      }
    },
    {
      "type": "way",
      "id": 549561142,
      "nodes": [
        5308468555,
        5308468556,
        5308468557,
        5308468558,
        5308468559,
        5308468560,
        5308468555
      ],
      "tags": {
        "access": "yes",
        "amenity": "parking",
        "fee": "no",
        "parking": "surface"
      }
    },
    {
      "type": "way",
      "id": 576907655,
      "nodes": [
        4413062067,
        5532119445,
        5532119446,
        4413062035,
        5532119447,
        5532119448,
        4413062067
      ],
      "tags": {
        "amenity": "parking"
      }
    },
    {
      "type": "way",
      "id": 580238094,
      "nodes": [
        5555111132,
        5555111133,
        910404981,
        5555111132
      ],
      "tags": {
        "amenity": "parking",
        "surface": "unpaved"
      }
    },
    {
      "type": "way",
      "id": 638202951,
      "nodes": [
        6015202319,
        6296162485,
        5256644321,
        3488403118,
        6015202322,
        6015202323,
        6015202324,
        6015202319
      ],
      "tags": {
        "amenity": "parking",
        "fee": "no",
        "supervised": "no",
        "surface": "paving_stones"
      }
    },
    {
      "type": "way",
      "id": 669629953,
      "nodes": [
        6270817889,
        6270817890,
        6270817891,
        6270817892,
        6270817889
      ],
      "tags": {
        "access": "customers",
        "amenity": "parking",
        "capacity": "500",
        "fee": "no"
      }
    },
    {
      "type": "way",
      "id": 669629954,
      "nodes": [
        6270817896,
        6270817897,
        6270817898,
        6270817906,
        6270817899,
        6270817900,
        6270817901,
        6270817905,
        6270817902,
        6270817904,
        6270817896
      ],
      "tags": {
        "access": "customers",
        "amenity": "parking",
        "capacity": "100",
        "fee": "no"
      }
    },
    {
      "type": "way",
      "id": 669714516,
      "nodes": [
        6271731956,
        6271731957,
        6649605688,
        6271731961,
        6271731958,
        6271731959,
        6271731960,
        6271731956
      ],
      "tags": {
        "amenity": "parking",
        "capacity": "13",
        "fee": "no"
      }
    },
    {
      "type": "way",
      "id": 670965874,
      "nodes": [
        6283250548,
        6283250549,
        6283250550,
        6283250551,
        6283250552,
        6283250548
      ],
      "tags": {
        "amenity": "parking",
        "capacity": "14",
        "fee": "no",
        "maxstay": "2 hr",
        "parking:condition": "disc"
      }
    },
    {
      "type": "way",
      "id": 671259842,
      "nodes": [
        6286117732,
        6286117733,
        6286117734,
        6286117735,
        6286117732
      ],
      "tags": {
        "amenity": "parking",
        "fee": "no"
      }
    },
    {
      "type": "way",
      "id": 671268661,
      "nodes": [
        6286223181,
        6286223182,
        6286223183,
        6286223184,
        6286223185,
        6286223186,
        2780607577,
        2780607567,
        2780607646,
        2780607645,
        6286223187,
        6286223188,
        6286223197,
        6286223189,
        2780607740,
        6286223190,
        6286223191,
        6286223192,
        4632086384,
        6286223193,
        6286223194,
        6286223195,
        6286223196,
        6286223181
      ],
      "tags": {
        "access": "customers",
        "amenity": "parking",
        "fee": "no",
        "maxstay": "2 hr",
        "parking": "surface",
        "parking:condition": "disc"
      }
    },
    {
      "type": "way",
      "id": 671268667,
      "nodes": [
        6286223208,
        6286223209,
        6286223210,
        6286223211,
        6286223208
      ],
      "tags": {
        "access": "private",
        "amenity": "parking"
      }
    },
    {
      "type": "way",
      "id": 671278384,
      "nodes": [
        6286332075,
        6286332076,
        6286332073,
        6286332077,
        6286332075
      ],
      "tags": {
        "amenity": "parking",
        "capacity:disabled": "1",
        "fee": "no",
        "maxstay": "2 hr",
        "parking:condition": "disc"
      }
    },
    {
      "type": "way",
      "id": 671278385,
      "nodes": [
        6286332078,
        6286332079,
        6286332080,
        6286332081,
        6286332078
      ],
      "tags": {
        "amenity": "parking",
        "capacity:disabled": "1",
        "fee": "no",
        "maxstay": "2 hr",
        "parking:condition": "disc"
      }
    },
    {
      "type": "way",
      "id": 671290039,
      "nodes": [
        6286469398,
        6286469399,
        6286469400,
        6286469401,
        6286469402,
        6286469403,
        6286469398
      ],
      "tags": {
        "access": "yes",
        "amenity": "parking",
        "fee": "no",
        "parking": "surface"
      }
    },
    {
      "type": "way",
      "id": 671292214,
      "nodes": [
        6286491585,
        6286491586,
        6286491587,
        6286491588,
        6286491589,
        6286491590,
        6286491585
      ],
      "tags": {
        "amenity": "parking",
        "fee": "no"
      }
    },
    {
      "type": "way",
      "id": 671292216,
      "nodes": [
        6286491599,
        6286491608,
        6286491609,
        6286491600,
        6286491607,
        6286491601,
        6286491602,
        6286530816,
        6286530817,
        6286530818,
        6286530819,
        6286491603,
        6286491604,
        6286491595,
        6286491605,
        6286491606,
        6286491599
      ],
      "tags": {
        "amenity": "parking",
        "fee": "no"
      }
    },
    {
      "type": "way",
      "id": 671517443,
      "nodes": [
        6288341839,
        6268139930,
        6268139929,
        266721760,
        6288341840,
        6288341839
      ],
      "tags": {
        "amenity": "parking",
        "capacity": "14",
        "fee": "no"
      }
    },
    {
      "type": "way",
      "id": 671932708,
      "nodes": [
        6292202447,
        6292202448,
        6292202449,
        6292202450,
        6292202458,
        6292202457,
        6292202451,
        6292202452,
        6292202453,
        6292202454,
        6292202455,
        6292202456,
        6292202447
      ],
      "tags": {
        "amenity": "parking",
        "fee": "no",
        "maxstay": "2 hr",
        "parking:condition": "disc"
      }
    },
    {
      "type": "way",
      "id": 671932710,
      "nodes": [
        6292202461,
        6292202462,
        6292202463,
        6292202464,
        6292202461
      ],
      "tags": {
        "amenity": "parking",
        "fee": "no",
        "maxstay": "2 hr",
        "parking:condition": "disc"
      }
    },
    {
      "type": "way",
      "id": 688153957,
      "nodes": [
        909884293,
        6452048206,
        6452048207,
        6452048208,
        909884293
      ],
      "tags": {
        "amenity": "parking"
      }
    },
    {
      "type": "way",
      "id": 689461583,
      "nodes": [
        6467981037,
        6467981038,
        6467981039,
        6467981040,
        6467981037
      ],
      "tags": {
        "amenity": "parking"
      }
    },
    {
      "type": "way",
      "id": 690999634,
      "nodes": [
        6483474453,
        6483474454,
        6483474455,
        6483474456,
        6483474453
      ],
      "tags": {
        "amenity": "parking"
      }
    },
    {
      "type": "way",
      "id": 690999635,
      "nodes": [
        6483474457,
        6483474458,
        6483474459,
        6483474460,
        6483474457
      ],
      "tags": {
        "amenity": "parking"
      }
    },
    {
      "type": "way",
      "id": 691227960,
      "nodes": [
        6485818547,
        6485818548,
        6485818549,
        6485818550,
        6485818547
      ],
      "tags": {
        "amenity": "parking"
      }
    },
    {
      "type": "way",
      "id": 691227966,
      "nodes": [
        6485818570,
        6485818571,
        6485818572,
        6485818573,
        6485818570
      ],
      "tags": {
        "amenity": "parking"
      }
    },
    {
      "type": "way",
      "id": 691227967,
      "nodes": [
        6485818574,
        6485818575,
        6485818576,
        6485818566,
        6485818567,
        6485818574
      ],
      "tags": {
        "amenity": "parking"
      }
    },
    {
      "type": "way",
      "id": 691227968,
      "nodes": [
        6485818556,
        6485818557,
        6485818577,
        6485818565,
        6485818556
      ],
      "tags": {
        "amenity": "parking"
      }
    },
    {
      "type": "way",
      "id": 691411922,
      "nodes": [
        6487836788,
        6487836789,
        6487836790,
        7041927871,
        7041927870,
        6487836791,
        6487836788
      ],
      "tags": {
        "amenity": "parking"
      }
    },
    {
      "type": "way",
      "id": 691412205,
      "nodes": [
        6467981043,
        6467981065,
        6467981064,
        6467981063,
        6467981062,
        6467981066,
        6467981061,
        6467981060,
        6467981059,
        6467981058,
        6467981057,
        6467981056,
        6487840805,
        6487840806,
        6487840807,
        6487840808,
        6467981043
      ],
      "tags": {
        "amenity": "parking"
      }
    },
    {
      "type": "way",
      "id": 692964592,
      "nodes": [
        6505763992,
        6505763997,
        6505763993,
        6505763994,
        6505763992
      ],
      "tags": {
        "amenity": "parking"
      }
    },
    {
      "type": "way",
      "id": 692964594,
      "nodes": [
        6505763995,
        6505763998,
        6505763999,
        6505763996,
        6505763995
      ],
      "tags": {
        "amenity": "parking"
      }
    },
    {
      "type": "way",
      "id": 692964596,
      "nodes": [
        6505764004,
        6505764005,
        6505764006,
        6505764007,
        6505764004
      ],
      "tags": {
        "amenity": "parking"
      }
    },
    {
      "type": "way",
      "id": 707599251,
      "nodes": [
        6649583413,
        6649583414,
        6649583415,
        6649583416,
        6649583417,
        6649583418,
        6649583413
      ],
      "tags": {
        "amenity": "parking",
        "fee": "yes"
      }
    },
    {
      "type": "way",
      "id": 715717847,
      "nodes": [
        6726264209,
        6726264210,
        6726264211,
        6726264212,
        6726264209
      ],
      "tags": {
        "amenity": "parking",
        "capacity": "20",
        "fee": "no"
      }
    },
    {
      "type": "way",
      "id": 721117632,
      "nodes": [
        6296162485,
        5256644321,
        6015202321,
        6015202320,
        6296162485
      ],
      "tags": {
        "access": "private",
        "amenity": "parking",
        "fee": "no"
      }
    },
    {
      "type": "way",
      "id": 780496202,
      "nodes": [
        7288176617,
        7288176618,
        7288176619,
        7288176621,
        7288176622,
        7288176623,
        7288176624,
        7288176625,
        7288176617
      ],
      "tags": {
        "access": "customers",
        "amenity": "parking",
        "fee": "no"
      }
    },
    {
      "type": "way",
      "id": 780584240,
      "nodes": [
        6274422464,
        7289086578,
        7289086579,
        7289086577,
        6274422464
      ],
      "tags": {
        "amenity": "parking"
      }
    },
    {
      "type": "way",
      "id": 967226907,
      "nodes": [
        8948420824,
        8948420823,
        8948420814,
        8948420822,
        8948420821,
        8948420820,
        8948420819,
        8948420818,
        8948420817,
        8948420816,
        8948420815,
        8948420824
      ],
      "tags": {
        "amenity": "parking"
      }
    },
    {
      "type": "way",
      "id": 973147329,
      "nodes": [
        9007061646,
        9007061647,
        9007061648,
        9007061649,
        9007061646
      ],
      "tags": {
        "amenity": "parking",
        "operator": "B&B Kelpiebrink"
      }
    },
    {
      "type": "node",
      "id": 2335419982,
      "lat": 51.4467773,
      "lon": 4.9256073,
      "timestamp": "2013-06-07T14:31:15Z",
      "version": 1,
      "changeset": 16457787,
      "user": "Mhwvdrongelen",
      "uid": 1526121,
      "tags": {
        "amenity": "parking"
      }
    },
    {
      "type": "node",
      "id": 3378019553,
      "lat": 51.42417,
      "lon": 4.9258487,
      "timestamp": "2015-03-01T15:45:20Z",
      "version": 1,
      "changeset": 29179625,
      "user": "lupien",
      "uid": 1626843,
      "tags": {
        "amenity": "bench"
      }
    },
    {
      "type": "node",
      "id": 3740987726,
      "lat": 51.4258196,
      "lon": 4.960583,
      "timestamp": "2015-09-13T09:05:50Z",
      "version": 1,
      "changeset": 33995447,
      "user": "M66B",
      "uid": 3066485,
      "tags": {
        "access": "private",
        "amenity": "parking",
        "parking": "surface"
      }
    },
    {
      "type": "node",
      "id": 4239325114,
      "lat": 51.4296443,
      "lon": 4.9291096,
      "timestamp": "2016-06-12T13:29:04Z",
      "version": 1,
      "changeset": 39971393,
      "user": "dvdhoven",
      "uid": 294028,
      "tags": {
        "leisure": "picnic_table"
      }
    },
    {
      "type": "node",
      "id": 4404074517,
      "lat": 51.4307189,
      "lon": 5.0058225,
      "timestamp": "2016-09-16T11:06:06Z",
      "version": 1,
      "changeset": 42200175,
      "user": "escada",
      "uid": 436365,
      "tags": {
        "amenity": "bench",
        "backrest": "yes"
      }
    },
    {
      "type": "node",
      "id": 4404074521,
      "lat": 51.4307388,
      "lon": 5.0058058,
      "timestamp": "2016-09-16T11:06:06Z",
      "version": 1,
      "changeset": 42200175,
      "user": "escada",
      "uid": 436365,
      "tags": {
        "amenity": "bench",
        "backrest": "yes"
      }
    },
    {
      "type": "node",
      "id": 4411403071,
      "lat": 51.4111082,
      "lon": 5.0053512,
      "timestamp": "2017-12-05T15:18:11Z",
      "version": 2,
      "changeset": 54368851,
      "user": "Stinus_Clasius",
      "uid": 1086503,
      "tags": {
        "advertising": "sign",
        "information": "board",
        "inscription": "Gemeentehuis Gemeentehuis Ravels",
        "operator": "Gemeente Ravels",
        "tourism": "information"
      }
    },
    {
      "type": "node",
      "id": 4411403113,
      "lat": 51.4113955,
      "lon": 5.0051584,
      "timestamp": "2016-09-21T11:07:30Z",
      "version": 1,
      "changeset": 42320979,
      "user": "escada",
      "uid": 436365,
      "tags": {
        "amenity": "bench",
        "backrest": "yes"
      }
    },
    {
      "type": "node",
      "id": 4411403129,
      "lat": 51.4114643,
      "lon": 5.0052141,
      "timestamp": "2016-09-21T11:07:30Z",
      "version": 1,
      "changeset": 42320979,
      "user": "escada",
      "uid": 436365,
      "tags": {
        "amenity": "bench",
        "backrest": "yes"
      }
    },
    {
      "type": "node",
      "id": 4411403133,
      "lat": 51.4115307,
      "lon": 5.0052697,
      "timestamp": "2016-09-21T11:07:30Z",
      "version": 1,
      "changeset": 42320979,
      "user": "escada",
      "uid": 436365,
      "tags": {
        "amenity": "bench",
        "backrest": "yes"
      }
    },
    {
      "type": "node",
      "id": 4411403141,
      "lat": 51.4115989,
      "lon": 5.0053263,
      "timestamp": "2016-09-21T11:07:31Z",
      "version": 1,
      "changeset": 42320979,
      "user": "escada",
      "uid": 436365,
      "tags": {
        "amenity": "bench",
        "backrest": "yes"
      }
    },
    {
      "type": "node",
      "id": 4411403156,
      "lat": 51.4116653,
      "lon": 5.0053801,
      "timestamp": "2016-09-21T11:07:31Z",
      "version": 1,
      "changeset": 42320979,
      "user": "escada",
      "uid": 436365,
      "tags": {
        "amenity": "bench",
        "backrest": "yes"
      }
    },
    {
      "type": "node",
      "id": 4413062049,
      "lat": 51.4104449,
      "lon": 5.0069588,
      "timestamp": "2016-09-22T10:54:45Z",
      "version": 1,
      "changeset": 42344517,
      "user": "escada",
      "uid": 436365,
      "tags": {
        "amenity": "bench",
        "backrest": "yes"
      }
    },
    {
      "type": "node",
      "id": 4413062051,
      "lat": 51.4104531,
      "lon": 5.0069303,
      "timestamp": "2016-09-22T10:54:45Z",
      "version": 1,
      "changeset": 42344517,
      "user": "escada",
      "uid": 436365,
      "tags": {
        "amenity": "bench",
        "backrest": "yes"
      }
    },
    {
      "type": "node",
      "id": 4582422541,
      "lat": 51.4422899,
      "lon": 4.9305581,
      "timestamp": "2016-12-31T09:17:39Z",
      "version": 1,
      "changeset": 44802293,
      "user": "Mutant-art",
      "uid": 5053389,
      "tags": {
        "amenity": "bench"
      }
    },
    {
      "type": "node",
      "id": 4607859303,
      "lat": 51.4450841,
      "lon": 4.9269482,
      "timestamp": "2017-01-14T14:24:20Z",
      "version": 1,
      "changeset": 45161310,
      "user": "Mutant-art",
      "uid": 5053389,
      "tags": {
        "amenity": "bench"
      }
    },
    {
      "type": "node",
      "id": 4607859304,
      "lat": 51.4450837,
      "lon": 4.9269104,
      "timestamp": "2017-01-14T14:24:20Z",
      "version": 1,
      "changeset": 45161310,
      "user": "Mutant-art",
      "uid": 5053389,
      "tags": {
        "amenity": "bench"
      }
    },
    {
      "type": "node",
      "id": 4665577213,
      "lat": 51.4270913,
      "lon": 4.946699,
      "timestamp": "2017-02-05T15:40:25Z",
      "version": 2,
      "changeset": 45832220,
      "user": "Mutant-art",
      "uid": 5053389,
      "tags": {
        "leisure": "picnic_table"
      }
    },
    {
      "type": "node",
      "id": 4910732792,
      "lat": 51.4481576,
      "lon": 4.9265411,
      "timestamp": "2017-06-12T12:17:20Z",
      "version": 1,
      "changeset": 49467077,
      "user": "fietswim",
      "uid": 477921,
      "tags": {
        "amenity": "bench",
        "backrest": "yes"
      }
    },
    {
      "type": "node",
      "id": 5033997612,
      "lat": 51.4409163,
      "lon": 4.9618533,
      "timestamp": "2017-08-14T08:40:35Z",
      "version": 1,
      "changeset": 51103009,
      "user": "Chris Clemson",
      "uid": 120664,
      "tags": {
        "access": "customers",
        "amenity": "toilets"
      }
    },
    {
      "type": "node",
      "id": 5035798304,
      "lat": 51.4391323,
      "lon": 4.9501898,
      "timestamp": "2017-08-15T00:29:24Z",
      "version": 1,
      "changeset": 51125417,
      "user": "Chris Clemson",
      "uid": 120664,
      "tags": {
        "board_type": "nature",
        "information": "board",
        "note:en": "The Buykse Pit is the source of De Leie en de Donge. Here the Lei, which passes to Hoogle van Hulten in the Donge, rises and at Geertruidenberg flows into the Amer",
        "note:nl": "De Buykse kuil is de bron van De Leie en de Donge. Hier ontspringt De Leie die ter hoogle van Hulten overgaat in De Donge en bij Geertruidenberg uitmondt in de Amer",
        "tourism": "information"
      }
    },
    {
      "type": "node",
      "id": 5035798305,
      "lat": 51.4391345,
      "lon": 4.9501403,
      "timestamp": "2017-08-15T00:29:24Z",
      "version": 1,
      "changeset": 51125417,
      "user": "Chris Clemson",
      "uid": 120664,
      "tags": {
        "amenity": "bench"
      }
    },
    {
      "type": "node",
      "id": 5086853374,
      "lat": 51.4421192,
      "lon": 4.9299662,
      "timestamp": "2017-09-07T19:26:46Z",
      "version": 1,
      "changeset": 51822651,
      "user": "Garstig",
      "uid": 1623234,
      "tags": {
        "amenity": "bench",
        "backrest": "yes"
      }
    },
    {
      "type": "node",
      "id": 5086853375,
      "lat": 51.4436123,
      "lon": 4.9282513,
      "timestamp": "2017-09-07T19:26:46Z",
      "version": 1,
      "changeset": 51822651,
      "user": "Garstig",
      "uid": 1623234,
      "tags": {
        "amenity": "bench",
        "backrest": "yes"
      }
    },
    {
      "type": "node",
      "id": 5086853376,
      "lat": 51.4439329,
      "lon": 4.9274123,
      "timestamp": "2017-09-07T19:26:46Z",
      "version": 1,
      "changeset": 51822651,
      "user": "Garstig",
      "uid": 1623234,
      "tags": {
        "amenity": "bench",
        "backrest": "yes"
      }
    },
    {
      "type": "node",
      "id": 5086853377,
      "lat": 51.4440073,
      "lon": 4.9274092,
      "timestamp": "2017-09-07T19:26:47Z",
      "version": 1,
      "changeset": 51822651,
      "user": "Garstig",
      "uid": 1623234,
      "tags": {
        "amenity": "bench",
        "backrest": "yes"
      }
    },
    {
      "type": "node",
      "id": 5086853378,
      "lat": 51.4440608,
      "lon": 4.9273327,
      "timestamp": "2017-09-07T19:26:47Z",
      "version": 1,
      "changeset": 51822651,
      "user": "Garstig",
      "uid": 1623234,
      "tags": {
        "amenity": "bench",
        "backrest": "yes"
      }
    },
    {
      "type": "node",
      "id": 5086853379,
      "lat": 51.4454562,
      "lon": 4.9268281,
      "timestamp": "2020-10-13T16:21:51Z",
      "version": 2,
      "changeset": 92428456,
      "user": "km2bp",
      "uid": 3610826,
      "tags": {
        "amenity": "bench",
        "backrest": "yes",
        "image": "https://images.mapillary.com/blbNi7jm90REJMYQfabOIB/thumb-2048.jpg",
        "mapillary": "https://www.mapillary.com/map/im/blbNi7jm90REJMYQfabOIB",
        "name": "Bankje van hoop"
      }
    },
    {
      "type": "node",
      "id": 5086853380,
      "lat": 51.4456486,
      "lon": 4.9267964,
      "timestamp": "2017-09-07T19:26:47Z",
      "version": 1,
      "changeset": 51822651,
      "user": "Garstig",
      "uid": 1623234,
      "tags": {
        "amenity": "bench",
        "backrest": "yes"
      }
    },
    {
      "type": "node",
      "id": 5086853381,
      "lat": 51.4465354,
      "lon": 4.9268531,
      "timestamp": "2017-09-07T19:26:47Z",
      "version": 1,
      "changeset": 51822651,
      "user": "Garstig",
      "uid": 1623234,
      "tags": {
        "amenity": "bench",
        "backrest": "yes"
      }
    },
    {
      "type": "node",
      "id": 5086853382,
      "lat": 51.4468003,
      "lon": 4.9265572,
      "timestamp": "2017-09-07T19:26:47Z",
      "version": 1,
      "changeset": 51822651,
      "user": "Garstig",
      "uid": 1623234,
      "tags": {
        "amenity": "bench",
        "backrest": "yes"
      }
    },
    {
      "type": "node",
      "id": 5086853383,
      "lat": 51.4481717,
      "lon": 4.9268232,
      "timestamp": "2017-09-07T19:26:47Z",
      "version": 1,
      "changeset": 51822651,
      "user": "Garstig",
      "uid": 1623234,
      "tags": {
        "amenity": "bench",
        "backrest": "yes"
      }
    },
    {
      "type": "node",
      "id": 5086853384,
      "lat": 51.4490624,
      "lon": 4.9267744,
      "timestamp": "2017-09-07T19:26:47Z",
      "version": 1,
      "changeset": 51822651,
      "user": "Garstig",
      "uid": 1623234,
      "tags": {
        "amenity": "bench",
        "backrest": "yes"
      }
    },
    {
      "type": "node",
      "id": 5086853385,
      "lat": 51.4510968,
      "lon": 4.9276055,
      "timestamp": "2017-09-07T19:26:47Z",
      "version": 1,
      "changeset": 51822651,
      "user": "Garstig",
      "uid": 1623234,
      "tags": {
        "amenity": "bench",
        "backrest": "yes"
      }
    },
    {
      "type": "node",
      "id": 5265970764,
      "lat": 51.4108475,
      "lon": 5.0056537,
      "timestamp": "2017-12-05T15:16:56Z",
      "version": 1,
      "changeset": 54368778,
      "user": "Stinus_Clasius",
      "uid": 1086503,
      "tags": {
        "amenity": "bench",
        "backrest": "yes"
      }
    },
    {
      "type": "node",
      "id": 5532119438,
      "lat": 51.4109761,
      "lon": 5.006242,
      "timestamp": "2018-04-05T22:18:32Z",
      "version": 1,
      "changeset": 57848987,
      "user": "Stinus_Clasius",
      "uid": 1086503,
      "tags": {
        "amenity": "bench"
      }
    },
    {
      "type": "node",
      "id": 5532143948,
      "lat": 51.4082281,
      "lon": 4.9941408,
      "timestamp": "2021-10-23T09:54:24Z",
      "version": 2,
      "changeset": 112867777,
      "user": "staf",
      "uid": 377797,
      "tags": {
        "amenity": "bench",
        "backrest": "yes"
      }
    },
    {
      "type": "node",
      "id": 5532143949,
      "lat": 51.408185,
      "lon": 4.9921072,
      "timestamp": "2021-10-23T09:51:22Z",
      "version": 2,
      "changeset": 112867686,
      "user": "staf",
      "uid": 377797,
      "tags": {
        "covered": "no",
        "leisure": "picnic_table"
      }
    },
    {
      "type": "node",
      "id": 5532143950,
      "lat": 51.4081074,
      "lon": 4.9921662,
      "timestamp": "2021-10-23T09:51:13Z",
      "version": 2,
      "changeset": 112867686,
      "user": "staf",
      "uid": 377797,
      "tags": {
        "covered": "no",
        "leisure": "picnic_table"
      }
    },
    {
      "type": "node",
      "id": 5532143951,
      "lat": 51.4080168,
      "lon": 4.9921997,
      "timestamp": "2021-10-23T09:51:16Z",
      "version": 2,
      "changeset": 112867686,
      "user": "staf",
      "uid": 377797,
      "tags": {
        "covered": "no",
        "leisure": "picnic_table"
      }
    },
    {
      "type": "node",
      "id": 5532143954,
      "lat": 51.4077839,
      "lon": 4.9906593,
      "timestamp": "2018-04-05T22:31:16Z",
      "version": 1,
      "changeset": 57849163,
      "user": "Stinus_Clasius",
      "uid": 1086503,
      "tags": {
        "amenity": "bench"
      }
    },
    {
      "type": "node",
      "id": 5532143955,
      "lat": 51.4098169,
      "lon": 4.997063,
      "timestamp": "2021-10-23T09:58:52Z",
      "version": 2,
      "changeset": 112867777,
      "user": "staf",
      "uid": 377797,
      "tags": {
        "amenity": "bench",
        "backrest": "yes"
      }
    },
    {
      "type": "node",
      "id": 5532143956,
      "lat": 51.4097726,
      "lon": 4.9969964,
      "timestamp": "2021-10-23T09:58:50Z",
      "version": 2,
      "changeset": 112867777,
      "user": "staf",
      "uid": 377797,
      "tags": {
        "amenity": "bench",
        "backrest": "yes"
      }
    },
    {
      "type": "node",
      "id": 5532143958,
      "lat": 51.4098239,
      "lon": 4.9966074,
      "timestamp": "2021-10-23T10:32:40Z",
      "version": 2,
      "changeset": 112867777,
      "user": "staf",
      "uid": 377797,
      "tags": {
        "amenity": "bench",
        "backrest": "yes"
      }
    },
    {
      "type": "node",
      "id": 5532143960,
      "lat": 51.4091775,
      "lon": 4.9966705,
      "timestamp": "2018-04-05T22:31:16Z",
      "version": 1,
      "changeset": 57849163,
      "user": "Stinus_Clasius",
      "uid": 1086503,
      "tags": {
        "amenity": "bench"
      }
    },
    {
      "type": "node",
      "id": 5532143961,
      "lat": 51.4092056,
      "lon": 4.996666,
      "timestamp": "2018-04-05T22:31:16Z",
      "version": 1,
      "changeset": 57849163,
      "user": "Stinus_Clasius",
      "uid": 1086503,
      "tags": {
        "amenity": "bench"
      }
    },
    {
      "type": "node",
      "id": 5532143962,
      "lat": 51.4126313,
      "lon": 4.9913568,
      "timestamp": "2018-04-05T22:31:16Z",
      "version": 1,
      "changeset": 57849163,
      "user": "Stinus_Clasius",
      "uid": 1086503,
      "tags": {
        "leisure": "picnic_table"
      }
    },
    {
      "type": "node",
      "id": 5555111134,
      "lat": 51.4218525,
      "lon": 4.9825618,
      "timestamp": "2018-04-15T19:25:43Z",
      "version": 1,
      "changeset": 58118269,
      "user": "Peer55",
      "uid": 3826290,
      "tags": {
        "leisure": "picnic_table"
      }
    },
    {
      "type": "node",
      "id": 5782870347,
      "lat": 51.4531425,
      "lon": 4.9307755,
      "timestamp": "2018-07-24T20:35:37Z",
      "version": 1,
      "changeset": 61036339,
      "user": "Mutant-art",
      "uid": 5053389,
      "tags": {
        "amenity": "bench",
        "backrest": "yes"
      }
    },
    {
      "type": "node",
      "id": 5881692431,
      "lat": 51.4204098,
      "lon": 4.9813722,
      "timestamp": "2018-09-04T13:31:27Z",
      "version": 1,
      "changeset": 62279717,
      "user": "Stinus_Clasius",
      "uid": 1086503,
      "tags": {
        "leisure": "picnic_table"
      }
    },
    {
      "type": "node",
      "id": 5881692434,
      "lat": 51.4204673,
      "lon": 4.9809694,
      "timestamp": "2018-09-04T13:31:27Z",
      "version": 1,
      "changeset": 62279717,
      "user": "Stinus_Clasius",
      "uid": 1086503,
      "tags": {
        "leisure": "picnic_table"
      }
    },
    {
      "type": "node",
      "id": 5881692469,
      "lat": 51.419842,
      "lon": 4.9787566,
      "timestamp": "2018-09-04T13:31:28Z",
      "version": 1,
      "changeset": 62279717,
      "user": "Stinus_Clasius",
      "uid": 1086503,
      "tags": {
        "information": "board",
        "tourism": "information"
      }
    },
    {
      "type": "node",
      "id": 6015226917,
      "lat": 51.4415765,
      "lon": 4.945004,
      "timestamp": "2018-10-26T11:21:01Z",
      "version": 1,
      "changeset": 63896866,
      "user": "Mutant-art",
      "uid": 5053389,
      "tags": {
        "amenity": "bench",
        "backrest": "no"
      }
    },
    {
      "type": "node",
      "id": 6015226918,
      "lat": 51.4415952,
      "lon": 4.9450587,
      "timestamp": "2018-10-26T11:21:01Z",
      "version": 1,
      "changeset": 63896866,
      "user": "Mutant-art",
      "uid": 5053389,
      "tags": {
        "amenity": "bench",
        "backrest": "no"
      }
    },
    {
      "type": "node",
      "id": 6015226919,
      "lat": 51.441607,
      "lon": 4.944962,
      "timestamp": "2018-10-26T11:21:01Z",
      "version": 1,
      "changeset": 63896866,
      "user": "Mutant-art",
      "uid": 5053389,
      "tags": {
        "amenity": "bench",
        "backrest": "no"
      }
    },
    {
      "type": "node",
      "id": 6015226920,
      "lat": 51.4416261,
      "lon": 4.9450183,
      "timestamp": "2018-10-26T11:21:01Z",
      "version": 1,
      "changeset": 63896866,
      "user": "Mutant-art",
      "uid": 5053389,
      "tags": {
        "amenity": "bench",
        "backrest": "no"
      }
    },
    {
      "type": "node",
      "id": 6015226921,
      "lat": 51.4418107,
      "lon": 4.9470676,
      "timestamp": "2018-10-26T11:21:01Z",
      "version": 1,
      "changeset": 63896866,
      "user": "Mutant-art",
      "uid": 5053389,
      "tags": {
        "amenity": "bench",
        "backrest": "no"
      }
    },
    {
      "type": "node",
      "id": 6015230067,
      "lat": 51.4434783,
      "lon": 4.9287391,
      "timestamp": "2018-10-26T11:24:15Z",
      "version": 1,
      "changeset": 63896958,
      "user": "Mutant-art",
      "uid": 5053389,
      "tags": {
        "amenity": "bench",
        "backrest": "yes"
      }
    },
    {
      "type": "node",
      "id": 6017555724,
      "lat": 51.4417812,
      "lon": 4.9455065,
      "timestamp": "2018-10-27T11:19:12Z",
      "version": 1,
      "changeset": 63925329,
      "user": "Mutant-art",
      "uid": 5053389,
      "tags": {
        "amenity": "bench",
        "backrest": "no"
      }
    },
    {
      "type": "node",
      "id": 6198746213,
      "lat": 51.4413989,
      "lon": 4.9449696,
      "timestamp": "2019-01-10T15:36:35Z",
      "version": 1,
      "changeset": 66199851,
      "user": "Mutant-art",
      "uid": 5053389,
      "tags": {
        "amenity": "bench",
        "backrest": "no"
      }
    },
    {
      "type": "node",
      "id": 6198746214,
      "lat": 51.4414952,
      "lon": 4.9458399,
      "timestamp": "2019-01-10T15:36:35Z",
      "version": 1,
      "changeset": 66199851,
      "user": "Mutant-art",
      "uid": 5053389,
      "tags": {
        "amenity": "bench",
        "backrest": "no"
      }
    },
    {
      "type": "node",
      "id": 6268139911,
      "lat": 51.4411849,
      "lon": 4.9259668,
      "timestamp": "2019-02-09T15:58:09Z",
      "version": 1,
      "changeset": 67052659,
      "user": "Mutant-art",
      "uid": 5053389,
      "tags": {
        "amenity": "bench",
        "backrest": "yes"
      }
    },
    {
      "type": "node",
      "id": 6268139912,
      "lat": 51.4419953,
      "lon": 4.9277878,
      "timestamp": "2019-02-09T15:58:09Z",
      "version": 1,
      "changeset": 67052659,
      "user": "Mutant-art",
      "uid": 5053389,
      "tags": {
        "amenity": "bench",
        "backrest": "yes"
      }
    },
    {
      "type": "node",
      "id": 6268139913,
      "lat": 51.4438596,
      "lon": 4.9268892,
      "timestamp": "2019-02-09T15:58:09Z",
      "version": 1,
      "changeset": 67052659,
      "user": "Mutant-art",
      "uid": 5053389,
      "tags": {
        "amenity": "bench",
        "backrest": "no"
      }
    },
    {
      "type": "node",
      "id": 6268139914,
      "lat": 51.4438727,
      "lon": 4.9268419,
      "timestamp": "2019-02-09T15:58:09Z",
      "version": 1,
      "changeset": 67052659,
      "user": "Mutant-art",
      "uid": 5053389,
      "tags": {
        "amenity": "bench",
        "backrest": "no"
      }
    },
    {
      "type": "node",
      "id": 6268139915,
      "lat": 51.4439039,
      "lon": 4.9268296,
      "timestamp": "2019-02-09T15:58:09Z",
      "version": 1,
      "changeset": 67052659,
      "user": "Mutant-art",
      "uid": 5053389,
      "tags": {
        "amenity": "bench",
        "backrest": "no"
      }
    },
    {
      "type": "node",
      "id": 6268139916,
      "lat": 51.4439323,
      "lon": 4.9268401,
      "timestamp": "2019-02-09T15:58:09Z",
      "version": 1,
      "changeset": 67052659,
      "user": "Mutant-art",
      "uid": 5053389,
      "tags": {
        "amenity": "bench",
        "backrest": "no"
      }
    },
    {
      "type": "node",
      "id": 6273871488,
      "lat": 51.4431359,
      "lon": 4.9299135,
      "timestamp": "2019-02-12T09:49:00Z",
      "version": 1,
      "changeset": 67125765,
      "user": "Mutant-art",
      "uid": 5053389,
      "tags": {
        "amenity": "bench",
        "backrest": "yes"
      }
    },
    {
      "type": "node",
      "id": 6273871489,
      "lat": 51.4432822,
      "lon": 4.9302491,
      "timestamp": "2019-02-12T09:49:00Z",
      "version": 1,
      "changeset": 67125765,
      "user": "Mutant-art",
      "uid": 5053389,
      "tags": {
        "amenity": "bench",
        "backrest": "yes"
      }
    },
    {
      "type": "node",
      "id": 6273871490,
      "lat": 51.4432598,
      "lon": 4.9305952,
      "timestamp": "2019-02-12T09:49:00Z",
      "version": 1,
      "changeset": 67125765,
      "user": "Mutant-art",
      "uid": 5053389,
      "tags": {
        "amenity": "bench",
        "backrest": "yes"
      }
    },
    {
      "type": "node",
      "id": 6273871491,
      "lat": 51.4433487,
      "lon": 4.9304952,
      "timestamp": "2019-02-12T09:49:00Z",
      "version": 1,
      "changeset": 67125765,
      "user": "Mutant-art",
      "uid": 5053389,
      "tags": {
        "amenity": "bench",
        "backrest": "yes"
      }
    },
    {
      "type": "node",
      "id": 6282837712,
      "lat": 51.4417262,
      "lon": 4.9462597,
      "timestamp": "2019-02-16T13:33:13Z",
      "version": 1,
      "changeset": 67254102,
      "user": "Mutant-art",
      "uid": 5053389,
      "tags": {
        "amenity": "bench",
        "backrest": "no"
      }
    },
    {
      "type": "node",
      "id": 6284313348,
      "lat": 51.4464364,
      "lon": 4.9314963,
      "timestamp": "2019-02-17T13:16:46Z",
      "version": 1,
      "changeset": 67279238,
      "user": "Mutant-art",
      "uid": 5053389,
      "tags": {
        "amenity": "bench",
        "backrest": "yes"
      }
    },
    {
      "type": "node",
      "id": 6284313349,
      "lat": 51.440157,
      "lon": 4.9301778,
      "timestamp": "2019-03-27T15:53:57Z",
      "version": 2,
      "changeset": 68591691,
      "user": "Mutant-art",
      "uid": 5053389,
      "tags": {
        "amenity": "bench",
        "backrest": "no"
      }
    },
    {
      "type": "node",
      "id": 6284313350,
      "lat": 51.440218,
      "lon": 4.9301568,
      "timestamp": "2019-03-27T15:53:57Z",
      "version": 2,
      "changeset": 68591691,
      "user": "Mutant-art",
      "uid": 5053389,
      "tags": {
        "amenity": "bench",
        "backrest": "no"
      }
    },
    {
      "type": "node",
      "id": 6284313351,
      "lat": 51.4401453,
      "lon": 4.9304529,
      "timestamp": "2019-03-27T15:53:57Z",
      "version": 2,
      "changeset": 68591691,
      "user": "Mutant-art",
      "uid": 5053389,
      "tags": {
        "amenity": "bench",
        "backrest": "no"
      }
    },
    {
      "type": "node",
      "id": 6284313352,
      "lat": 51.4401422,
      "lon": 4.9303773,
      "timestamp": "2019-03-27T15:53:58Z",
      "version": 2,
      "changeset": 68591691,
      "user": "Mutant-art",
      "uid": 5053389,
      "tags": {
        "amenity": "bench",
        "backrest": "no"
      }
    },
    {
      "type": "node",
      "id": 6284313353,
      "lat": 51.4475881,
      "lon": 4.9302343,
      "timestamp": "2019-02-17T13:16:46Z",
      "version": 1,
      "changeset": 67279238,
      "user": "Mutant-art",
      "uid": 5053389,
      "tags": {
        "amenity": "bench",
        "backrest": "yes"
      }
    },
    {
      "type": "node",
      "id": 6284313354,
      "lat": 51.4475935,
      "lon": 4.9302847,
      "timestamp": "2019-02-17T13:16:46Z",
      "version": 1,
      "changeset": 67279238,
      "user": "Mutant-art",
      "uid": 5053389,
      "tags": {
        "amenity": "bench",
        "backrest": "yes"
      }
    },
    {
      "type": "node",
      "id": 6284313359,
      "lat": 51.4450892,
      "lon": 4.9281694,
      "timestamp": "2019-02-17T13:16:46Z",
      "version": 1,
      "changeset": 67279238,
      "user": "Mutant-art",
      "uid": 5053389,
      "tags": {
        "amenity": "bench",
        "backrest": "yes"
      }
    },
    {
      "type": "node",
      "id": 6284313360,
      "lat": 51.4450232,
      "lon": 4.9281563,
      "timestamp": "2019-02-17T14:04:41Z",
      "version": 2,
      "changeset": 67280424,
      "user": "Mutant-art",
      "uid": 5053389,
      "tags": {
        "amenity": "bench",
        "backrest": "yes"
      }
    },
    {
      "type": "node",
      "id": 6284370138,
      "lat": 51.4437426,
      "lon": 4.9314994,
      "timestamp": "2019-02-17T14:06:45Z",
      "version": 1,
      "changeset": 67280502,
      "user": "Mutant-art",
      "uid": 5053389,
      "tags": {
        "amenity": "bench",
        "backrest": "yes"
      }
    },
    {
      "type": "node",
      "id": 6284370139,
      "lat": 51.4437697,
      "lon": 4.9315058,
      "timestamp": "2019-02-17T14:06:45Z",
      "version": 1,
      "changeset": 67280502,
      "user": "Mutant-art",
      "uid": 5053389,
      "tags": {
        "amenity": "bench",
        "backrest": "yes"
      }
    },
    {
      "type": "node",
      "id": 6284370140,
      "lat": 51.4437613,
      "lon": 4.9315548,
      "timestamp": "2019-02-17T14:06:45Z",
      "version": 1,
      "changeset": 67280502,
      "user": "Mutant-art",
      "uid": 5053389,
      "tags": {
        "amenity": "bench",
        "backrest": "yes"
      }
    },
    {
      "type": "node",
      "id": 6284370141,
      "lat": 51.443732,
      "lon": 4.9315467,
      "timestamp": "2019-02-17T14:06:45Z",
      "version": 1,
      "changeset": 67280502,
      "user": "Mutant-art",
      "uid": 5053389,
      "tags": {
        "amenity": "bench",
        "backrest": "yes"
      }
    },
    {
      "type": "node",
      "id": 6421419445,
      "lat": 51.4405102,
      "lon": 4.9276257,
      "timestamp": "2019-05-06T14:36:05Z",
      "version": 2,
      "changeset": 69939103,
      "user": "Mutant-art",
      "uid": 5053389,
      "tags": {
        "board_type": "history",
        "information": "board",
        "name": "Dondendraadroute 1: Welkom in Vrij Baarle",
        "operator": "Heemkundekring Amalia van Solms",
        "tourism": "information"
      }
    },
    {
      "type": "node",
      "id": 6421419446,
      "lat": 51.442144,
      "lon": 4.9302116,
      "timestamp": "2020-10-13T16:21:51Z",
      "version": 2,
      "changeset": 92428456,
      "user": "km2bp",
      "uid": 3610826,
      "tags": {
        "board_type": "history",
        "image": "https://images.mapillary.com/kP9viOCB3bYjWqc00ZVDl6/thumb-2048.jpg",
        "information": "board",
        "mapillary": "https://www.mapillary.com/map/im/kP9viOCB3bYjWqc00ZVDl6",
        "name": "Dodendraadroute 2: Centrum van de brievensmokkel",
        "operator": "Heemkundekring Amalia van Solms",
        "tourism": "information"
      }
    },
    {
      "type": "node",
      "id": 6421419447,
      "lat": 51.4436699,
      "lon": 4.9229936,
      "timestamp": "2020-10-14T14:45:22Z",
      "version": 3,
      "changeset": 92479596,
      "user": "km2bp",
      "uid": 3610826,
      "tags": {
        "board_type": "history",
        "description": "https://photos.app.goo.gl/2xUFLoSgExDiNHQF9",
        "image": "https://images.mapillary.com/lVNXvNojPCiiUntrysQu8g/thumb-2048.jpg",
        "information": "board",
        "mapillary": "https://www.mapillary.com/map/im/lVNXvNojPCiiUntrysQu8g",
        "name": "Dodendraadroute 3: Belgisch militair zendstation MN 7",
        "operator": "Heemkundekring Amalia van Solms",
        "tourism": "information"
      }
    },
    {
      "type": "node",
      "id": 6465386800,
      "lat": 51.399849,
      "lon": 4.9341518,
      "timestamp": "2019-05-10T18:32:06Z",
      "version": 1,
      "changeset": 70120633,
      "user": "Mutant-art",
      "uid": 5053389,
      "tags": {
        "board_type": "history",
        "information": "board",
        "name": "Dodendraadroute 15: Op de vlucht",
        "operator": "Heemkundekring Amalia van Solms",
        "tourism": "information"
      }
    },
    {
      "type": "node",
      "id": 6483474449,
      "lat": 51.4453301,
      "lon": 4.9301805,
      "timestamp": "2019-05-19T08:17:15Z",
      "version": 1,
      "changeset": 70403796,
      "user": "Mutant-art",
      "uid": 5053389,
      "tags": {
        "amenity": "bench",
        "backrest": "yes"
      }
    },
    {
      "type": "node",
      "id": 6485785472,
      "lat": 51.4400216,
      "lon": 4.9284758,
      "timestamp": "2019-05-20T13:22:40Z",
      "version": 1,
      "changeset": 70440857,
      "user": "Mutant-art",
      "uid": 5053389,
      "tags": {
        "amenity": "bench",
        "backrest": "yes"
      }
    },
    {
      "type": "node",
      "id": 6485785473,
      "lat": 51.4400076,
      "lon": 4.9284317,
      "timestamp": "2019-05-20T13:22:40Z",
      "version": 1,
      "changeset": 70440857,
      "user": "Mutant-art",
      "uid": 5053389,
      "tags": {
        "amenity": "bench",
        "backrest": "yes"
      }
    },
    {
      "type": "node",
      "id": 6485785474,
      "lat": 51.4399512,
      "lon": 4.9283906,
      "timestamp": "2019-05-20T13:22:40Z",
      "version": 1,
      "changeset": 70440857,
      "user": "Mutant-art",
      "uid": 5053389,
      "tags": {
        "amenity": "bench",
        "backrest": "yes"
      }
    },
    {
      "type": "node",
      "id": 6485785475,
      "lat": 51.4399256,
      "lon": 4.9284162,
      "timestamp": "2019-05-20T13:22:41Z",
      "version": 1,
      "changeset": 70440857,
      "user": "Mutant-art",
      "uid": 5053389,
      "tags": {
        "amenity": "bench",
        "backrest": "yes"
      }
    },
    {
      "type": "node",
      "id": 6485785476,
      "lat": 51.4402957,
      "lon": 4.9294094,
      "timestamp": "2019-05-20T13:22:41Z",
      "version": 1,
      "changeset": 70440857,
      "user": "Mutant-art",
      "uid": 5053389,
      "tags": {
        "amenity": "bench",
        "backrest": "yes"
      }
    },
    {
      "type": "node",
      "id": 6485785477,
      "lat": 51.440301,
      "lon": 4.9293862,
      "timestamp": "2019-05-20T13:22:41Z",
      "version": 1,
      "changeset": 70440857,
      "user": "Mutant-art",
      "uid": 5053389,
      "tags": {
        "amenity": "bench",
        "backrest": "yes"
      }
    },
    {
      "type": "node",
      "id": 6485785478,
      "lat": 51.4402904,
      "lon": 4.9293769,
      "timestamp": "2019-05-20T13:22:41Z",
      "version": 1,
      "changeset": 70440857,
      "user": "Mutant-art",
      "uid": 5053389,
      "tags": {
        "amenity": "bench",
        "backrest": "yes"
      }
    },
    {
      "type": "node",
      "id": 6485785479,
      "lat": 51.4402836,
      "lon": 4.9293978,
      "timestamp": "2019-05-20T13:22:41Z",
      "version": 1,
      "changeset": 70440857,
      "user": "Mutant-art",
      "uid": 5053389,
      "tags": {
        "amenity": "bench",
        "backrest": "yes"
      }
    },
    {
      "type": "node",
      "id": 6649592329,
      "lat": 51.4393035,
      "lon": 4.927924,
      "timestamp": "2019-07-26T10:14:51Z",
      "version": 1,
      "changeset": 72678785,
      "user": "Mutant-art",
      "uid": 5053389,
      "tags": {
        "amenity": "bench",
        "backrest": "yes"
      }
    },
    {
      "type": "node",
      "id": 6718390151,
      "lat": 51.4498811,
      "lon": 4.9269298,
      "timestamp": "2020-10-13T16:21:51Z",
      "version": 2,
      "changeset": 92428456,
      "user": "km2bp",
      "uid": 3610826,
      "tags": {
        "board_type": "map",
        "image": "https://images.mapillary.com/ef1RkkLXsFO4o9icXtffI4/thumb-2048.jpg",
        "information": "board",
        "mapillary": "https://www.mapillary.com/map/im/ef1RkkLXsFO4o9icXtffI4",
        "name": "Fietsen doe je in Brabant 93",
        "tourism": "information"
      }
    },
    {
      "type": "node",
      "id": 6718390152,
      "lat": 51.4453945,
      "lon": 4.9267341,
      "timestamp": "2021-02-18T12:06:18Z",
      "version": 3,
      "changeset": 99522302,
      "user": "Mateusz Konieczny - bot account",
      "uid": 3199858,
      "tags": {
        "board_type": "history",
        "image": "https://images.mapillary.com/avED6ajNZAjhlDAwlU2EDw/thumb-2048.jpg",
        "information": "board",
        "mapillary": "https://www.mapillary.com/map/im/avED6ajNZAjhlDAwlU2EDw",
        "name": "MN7 in de groote Oorlog",
        "tourism": "information",
        "url": "https://www.bndestem.nl/brabant/het-leven-in-de-grote-oorlog-zendmast-werd-dorp-binnen-gesmokkeld~afae875e/",
        "website": "https://toerismebaarle.com/must-see/zendstation-mn-7/"
      }
    },
    {
      "type": "node",
      "id": 6718390153,
      "lat": 51.4440827,
      "lon": 4.9268834,
      "timestamp": "2020-10-13T16:21:51Z",
      "version": 2,
      "changeset": 92428456,
      "user": "km2bp",
      "uid": 3610826,
      "tags": {
        "board_type": "map",
        "image": "https://images.mapillary.com/Cca1ylM7DkG8bPySV9JGZU/thumb-2048.jpg",
        "information": "board",
        "mapillary": "https://www.mapillary.com/map/im/Cca1ylM7DkG8bPySV9JGZU",
        "name": "Fietsen doe je in Brabant",
        "tourism": "information"
      }
    },
    {
      "type": "node",
      "id": 7334819536,
      "lat": 51.4331874,
      "lon": 4.9287171,
      "timestamp": "2020-03-27T12:10:50Z",
      "version": 1,
      "changeset": 82713737,
      "user": "Mutant-art",
      "uid": 5053389,
      "tags": {
        "amenity": "bench",
        "backrest": "yes"
      }
    },
    {
      "type": "node",
      "id": 7599832447,
      "lat": 51.4090679,
      "lon": 4.9731001,
      "timestamp": "2021-09-26T09:26:10Z",
      "version": 3,
      "changeset": 111713045,
      "user": "StijnRR",
      "uid": 911613,
      "tags": {
        "information": "board",
        "name": "Grafheuvels Hoogeinde Bergen",
        "tourism": "information"
      }
    },
    {
      "type": "node",
      "id": 8004086033,
      "lat": 51.4457877,
      "lon": 4.9265609,
      "timestamp": "2021-02-18T12:06:18Z",
      "version": 2,
      "changeset": 99522302,
      "user": "Mateusz Konieczny - bot account",
      "uid": 3199858,
      "tags": {
        "image": "https://images.mapillary.com/9MOxENzVCFmK44gbgwiMIz/thumb-2048.jpg",
        "information": "board",
        "mapillary": "https://www.mapillary.com/map/im/9MOxENzVCFmK44gbgwiMIz",
        "name": "Reconstructie van de veerting meter lange mast...",
        "tourism": "information",
        "url": "https://www.bndestem.nl/brabant/het-leven-in-de-grote-oorlog-zendmast-werd-dorp-binnen-gesmokkeld~afae875e/",
        "website": "https://toerismebaarle.com/must-see/zendstation-mn-7/"
      }
    },
    {
      "type": "node",
      "id": 8004849041,
      "lat": 51.4427719,
      "lon": 4.9308523,
      "timestamp": "2020-10-13T22:39:04Z",
      "version": 1,
      "changeset": 92440887,
      "user": "km2bp",
      "uid": 3610826,
      "tags": {
        "image": "https://images.mapillary.com/PIyJQUfuEsQJXhO8XOnIY3/thumb-2048.jpg",
        "information": "board",
        "mapillary": "https://www.mapillary.com/map/im/PIyJQUfuEsQJXhO8XOnIY3",
        "name": "Belgische Enclave",
        "tourism": "information"
      }
    },
    {
      "type": "node",
      "id": 8004849042,
      "lat": 51.4432712,
      "lon": 4.9306187,
      "timestamp": "2020-10-13T22:39:04Z",
      "version": 1,
      "changeset": 92440887,
      "user": "km2bp",
      "uid": 3610826,
      "tags": {
        "description": "https://photos.app.goo.gl/KTDRLQ9EJjhjyvxGA",
        "image": "https://images.mapillary.com/jtK6O6R2UjH32CWvJeZaQf/thumb-2048.jpg",
        "information": "board",
        "mapillary": "https://www.mapillary.com/map/im/jtK6O6R2UjH32CWvJeZaQf",
        "name": "Liberation route Europe The 28 days of Baarle",
        "ref": "138",
        "tourism": "information",
        "website": "https://liberationroute.pl/the-netherlands/pois/t/the-28-days-of-baarle"
      }
    },
    {
      "type": "node",
      "id": 8238446144,
      "lat": 51.4439482,
      "lon": 4.9268532,
      "timestamp": "2020-12-17T20:01:11Z",
      "version": 1,
      "changeset": 96026216,
      "user": "Lachgast",
      "uid": 9674663,
      "tags": {
        "amenity": "bench",
        "backrest": "yes",
        "colour": "brown",
        "material": "wood"
      }
    },
    {
      "type": "node",
      "id": 8238446145,
      "lat": 51.4439147,
      "lon": 4.9268363,
      "timestamp": "2020-12-17T20:01:11Z",
      "version": 1,
      "changeset": 96026216,
      "user": "Lachgast",
      "uid": 9674663,
      "tags": {
        "amenity": "bench",
        "backrest": "yes",
        "colour": "brown",
        "material": "wood"
      }
    },
    {
      "type": "node",
      "id": 8238446146,
      "lat": 51.443863,
      "lon": 4.9268938,
      "timestamp": "2020-12-17T20:01:11Z",
      "version": 1,
      "changeset": 96026216,
      "user": "Lachgast",
      "uid": 9674663,
      "tags": {
        "amenity": "bench",
        "backrest": "yes",
        "colour": "brown",
        "material": "wood"
      }
    },
    {
      "type": "node",
      "id": 8238446147,
      "lat": 51.443883,
      "lon": 4.9268419,
      "timestamp": "2020-12-17T20:01:11Z",
      "version": 1,
      "changeset": 96026216,
      "user": "Lachgast",
      "uid": 9674663,
      "tags": {
        "amenity": "bench",
        "backrest": "yes",
        "colour": "brown",
        "material": "wood"
      }
    },
    {
      "type": "node",
      "id": 8238446149,
      "lat": 51.4437507,
      "lon": 4.9272013,
      "timestamp": "2020-12-17T20:01:11Z",
      "version": 1,
      "changeset": 96026216,
      "user": "Lachgast",
      "uid": 9674663,
      "tags": {
        "amenity": "bench",
        "backrest": "yes",
        "colour": "brown",
        "material": "wood"
      }
    },
    {
      "type": "node",
      "id": 8422298050,
      "lat": 51.4079531,
      "lon": 4.9740947,
      "timestamp": "2021-02-15T05:37:13Z",
      "version": 2,
      "changeset": 99280828,
      "user": "user_5359",
      "uid": 5359,
      "tags": {
        "amenity": "bench",
        "backrest": "yes"
      }
    },
    {
      "type": "node",
      "id": 8422303556,
      "lat": 51.4091058,
      "lon": 4.9733003,
      "timestamp": "2021-02-18T12:01:59Z",
      "version": 2,
      "changeset": 99521997,
      "user": "pointseven",
      "uid": 4355310,
      "tags": {
        "amenity": "bench",
        "backrest": "yes"
      }
    },
    {
      "type": "node",
      "id": 8434762570,
      "lat": 51.4097961,
      "lon": 4.9643363,
      "timestamp": "2021-02-18T11:58:15Z",
      "version": 1,
      "changeset": 99521725,
      "user": "pointseven",
      "uid": 4355310,
      "tags": {
        "leisure": "bird_hide"
      }
    },
    {
      "type": "way",
      "id": 239891185,
      "timestamp": "2019-12-18T11:03:29Z",
      "version": 4,
      "changeset": 78577941,
      "user": "staf",
      "uid": 377797,
      "nodes": [
        2476654855,
        6291888400,
        2476654856,
        6291888386,
        2476654857,
        2476654859,
        2476654855
      ],
      "tags": {
        "access": "yes",
        "amenity": "parking",
        "fee": "no",
        "parking": "surface"
      }
    },
    {
      "type": "way",
      "id": 239891189,
      "timestamp": "2019-12-18T11:04:24Z",
      "version": 7,
      "changeset": 78577981,
      "user": "staf",
      "uid": 377797,
      "nodes": [
        2476654878,
        2476654879,
        2476654880,
        2476654882,
        2476654883,
        6265533464,
        2476654884,
        2476654885,
        2476654878
      ],
      "tags": {
        "access": "yes",
        "amenity": "parking",
        "fee": "no",
        "parking": "surface"
      }
    },
    {
      "type": "way",
      "id": 443357999,
      "timestamp": "2016-09-20T11:03:52Z",
      "version": 1,
      "changeset": 42295746,
      "user": "escada",
      "uid": 436365,
      "nodes": [
        4409468092,
        4409468096,
        4409468093,
        4409468091,
        4409468092
      ],
      "tags": {
        "access": "private",
        "amenity": "parking",
        "parking": "surface"
      }
    },
    {
      "type": "way",
      "id": 443582554,
      "timestamp": "2016-09-21T11:07:33Z",
      "version": 1,
      "changeset": 42320979,
      "user": "escada",
      "uid": 436365,
      "nodes": [
        4411403201,
        4411403203,
        4411403194,
        4411403189,
        4411403201
      ],
      "tags": {
        "access": "customers",
        "amenity": "parking",
        "capacity": "0",
        "capacity:disabled": "2",
        "fee": "no",
        "operator": "KBC",
        "parking": "surface"
      }
    },
    {
      "type": "way",
      "id": 443582560,
      "timestamp": "2016-09-21T11:07:33Z",
      "version": 1,
      "changeset": 42320979,
      "user": "escada",
      "uid": 436365,
      "nodes": [
        4411403065,
        4411403050,
        4411403035,
        4411403060,
        4411403065
      ],
      "tags": {
        "amenity": "parking",
        "parking": "surface"
      }
    },
    {
      "type": "way",
      "id": 443582563,
      "timestamp": "2016-09-21T11:07:33Z",
      "version": 1,
      "changeset": 42320979,
      "user": "escada",
      "uid": 436365,
      "nodes": [
        1497392633,
        4411403143,
        4411403204,
        4411403195,
        4411403155,
        4411403144,
        4411403140,
        1497392633
      ],
      "tags": {
        "amenity": "parking",
        "parking": "surface"
      }
    },
    {
      "type": "way",
      "id": 443768186,
      "timestamp": "2016-09-22T10:54:47Z",
      "version": 1,
      "changeset": 42344517,
      "user": "escada",
      "uid": 436365,
      "nodes": [
        4413062121,
        4413062125,
        4413062105,
        4413062081,
        4413062121
      ],
      "tags": {
        "amenity": "parking",
        "parking": "surface"
      }
    },
    {
      "type": "way",
      "id": 462910534,
      "timestamp": "2020-01-02T12:56:34Z",
      "version": 4,
      "changeset": 79113516,
      "user": "s8evq",
      "uid": 3710738,
      "nodes": [
        4582403956,
        4582403957,
        4582403958,
        4582403959,
        4582403960,
        4582403961,
        4582403962,
        4582403963,
        4582403964,
        4582403956
      ],
      "tags": {
        "access": "yes",
        "amenity": "parking",
        "fee": "no",
        "parking": "surface"
      }
    },
    {
      "type": "way",
      "id": 462912047,
      "timestamp": "2019-12-18T11:10:26Z",
      "version": 4,
      "changeset": 78577981,
      "user": "staf",
      "uid": 377797,
      "nodes": [
        4582422536,
        4582422537,
        4582422538,
        4582422539,
        4582422540,
        4582422536
      ],
      "tags": {
        "access": "yes",
        "amenity": "parking",
        "fee": "no",
        "parking": "surface"
      }
    },
    {
      "type": "way",
      "id": 462913359,
      "timestamp": "2019-02-18T15:12:36Z",
      "version": 4,
      "changeset": 67319387,
      "user": "Mutant-art",
      "uid": 5053389,
      "nodes": [
        4582441813,
        6286309968,
        4582441814,
        6286309967,
        6286309965,
        5942929335,
        6286309966,
        5942929334,
        6286309973,
        6286309974,
        4582441817,
        910383105,
        4582441818,
        910383115,
        4582441813
      ],
      "tags": {
        "amenity": "parking",
        "fee": "no",
        "maxstay": "2 hr",
        "parking:condition": "disc"
      }
    },
    {
      "type": "way",
      "id": 462926985,
      "timestamp": "2019-02-18T14:28:40Z",
      "version": 2,
      "changeset": 67317938,
      "user": "Mutant-art",
      "uid": 5053389,
      "nodes": [
        4582545560,
        6286223199,
        4582545561,
        4582545562,
        2780607636,
        2780607643,
        6286223188,
        6286223197,
        6286223198,
        4582545560
      ],
      "tags": {
        "amenity": "parking",
        "fee": "no",
        "maxstay": "2 hr",
        "parking:condition": "disc"
      }
    },
    {
      "type": "way",
      "id": 465883894,
      "timestamp": "2020-12-17T20:01:11Z",
      "version": 3,
      "changeset": 96026216,
      "user": "Lachgast",
      "uid": 9674663,
      "nodes": [
        4607870596,
        4607870597,
        4607870598,
        4607870599,
        4607870600,
        4623279937,
        4607870602,
        4607870603,
        8238446106,
        8238446103,
        4607870596
      ],
      "tags": {
        "amenity": "parking",
        "fee": "no",
        "supervised": "no"
      }
    },
    {
      "type": "way",
      "id": 468462650,
      "timestamp": "2017-01-24T18:24:54Z",
      "version": 1,
      "changeset": 45444326,
      "user": "Mutant-art",
      "uid": 5053389,
      "nodes": [
        4629969032,
        4629969033,
        4629969034,
        4629969035,
        4629969036,
        4629969037,
        4629969032
      ],
      "tags": {
        "amenity": "parking"
      }
    },
    {
      "type": "way",
      "id": 468462655,
      "timestamp": "2017-01-24T18:24:54Z",
      "version": 1,
      "changeset": 45444326,
      "user": "Mutant-art",
      "uid": 5053389,
      "nodes": [
        4629969045,
        4629969046,
        4629969047,
        4629969048,
        4629969049,
        4629969050,
        4629969045
      ],
      "tags": {
        "amenity": "parking"
      }
    },
    {
      "type": "way",
      "id": 549561142,
      "timestamp": "2021-02-14T11:11:50Z",
      "version": 4,
      "changeset": 99245204,
      "user": "staf",
      "uid": 377797,
      "nodes": [
        5308468555,
        5308468556,
        5308468557,
        5308468558,
        5308468559,
        5308468560,
        5308468555
      ],
      "tags": {
        "access": "yes",
        "amenity": "parking",
        "fee": "no",
        "parking": "surface"
      }
    },
    {
      "type": "way",
      "id": 576907655,
      "timestamp": "2018-04-05T22:18:32Z",
      "version": 1,
      "changeset": 57848987,
      "user": "Stinus_Clasius",
      "uid": 1086503,
      "nodes": [
        4413062067,
        5532119445,
        5532119446,
        4413062035,
        5532119447,
        5532119448,
        4413062067
      ],
      "tags": {
        "amenity": "parking"
      }
    },
    {
      "type": "way",
      "id": 580238094,
      "timestamp": "2018-04-15T19:25:43Z",
      "version": 1,
      "changeset": 58118269,
      "user": "Peer55",
      "uid": 3826290,
      "nodes": [
        5555111132,
        5555111133,
        910404981,
        5555111132
      ],
      "tags": {
        "amenity": "parking",
        "surface": "unpaved"
      }
    },
    {
      "type": "way",
      "id": 638202951,
      "timestamp": "2019-09-02T09:49:08Z",
      "version": 6,
      "changeset": 73993468,
      "user": "Mutant-art",
      "uid": 5053389,
      "nodes": [
        6015202319,
        6296162485,
        5256644321,
        3488403118,
        6015202322,
        6015202323,
        6015202324,
        6015202319
      ],
      "tags": {
        "amenity": "parking",
        "fee": "no",
        "supervised": "no",
        "surface": "paving_stones"
      }
    },
    {
      "type": "way",
      "id": 669629953,
      "timestamp": "2019-02-11T06:03:42Z",
      "version": 1,
      "changeset": 67089507,
      "user": "Mutant-art",
      "uid": 5053389,
      "nodes": [
        6270817889,
        6270817890,
        6270817891,
        6270817892,
        6270817889
      ],
      "tags": {
        "access": "customers",
        "amenity": "parking",
        "capacity": "500",
        "fee": "no"
      }
    },
    {
      "type": "way",
      "id": 669629954,
      "timestamp": "2019-02-11T06:03:43Z",
      "version": 1,
      "changeset": 67089507,
      "user": "Mutant-art",
      "uid": 5053389,
      "nodes": [
        6270817896,
        6270817897,
        6270817898,
        6270817906,
        6270817899,
        6270817900,
        6270817901,
        6270817905,
        6270817902,
        6270817904,
        6270817896
      ],
      "tags": {
        "access": "customers",
        "amenity": "parking",
        "capacity": "100",
        "fee": "no"
      }
    },
    {
      "type": "way",
      "id": 669714516,
      "timestamp": "2019-07-26T10:11:16Z",
      "version": 2,
      "changeset": 72678672,
      "user": "Mutant-art",
      "uid": 5053389,
      "nodes": [
        6271731956,
        6271731957,
        6649605688,
        6271731961,
        6271731958,
        6271731959,
        6271731960,
        6271731956
      ],
      "tags": {
        "amenity": "parking",
        "capacity": "13",
        "fee": "no"
      }
    },
    {
      "type": "way",
      "id": 670965874,
      "timestamp": "2019-02-18T14:28:40Z",
      "version": 2,
      "changeset": 67317938,
      "user": "Mutant-art",
      "uid": 5053389,
      "nodes": [
        6283250548,
        6283250549,
        6283250550,
        6283250551,
        6283250552,
        6283250548
      ],
      "tags": {
        "amenity": "parking",
        "capacity": "14",
        "fee": "no",
        "maxstay": "2 hr",
        "parking:condition": "disc"
      }
    },
    {
      "type": "way",
      "id": 671259842,
      "timestamp": "2019-02-18T13:43:12Z",
      "version": 1,
      "changeset": 67316279,
      "user": "Mutant-art",
      "uid": 5053389,
      "nodes": [
        6286117732,
        6286117733,
        6286117734,
        6286117735,
        6286117732
      ],
      "tags": {
        "amenity": "parking",
        "fee": "no"
      }
    },
    {
      "type": "way",
      "id": 671268661,
      "timestamp": "2019-12-18T11:08:42Z",
      "version": 3,
      "changeset": 78577981,
      "user": "staf",
      "uid": 377797,
      "nodes": [
        6286223181,
        6286223182,
        6286223183,
        6286223184,
        6286223185,
        6286223186,
        2780607577,
        2780607567,
        2780607646,
        2780607645,
        6286223187,
        6286223188,
        6286223197,
        6286223189,
        2780607740,
        6286223190,
        6286223191,
        6286223192,
        4632086384,
        6286223193,
        6286223194,
        6286223195,
        6286223196,
        6286223181
      ],
      "tags": {
        "access": "customers",
        "amenity": "parking",
        "fee": "no",
        "maxstay": "2 hr",
        "parking": "surface",
        "parking:condition": "disc"
      }
    },
    {
      "type": "way",
      "id": 671268667,
      "timestamp": "2019-02-18T14:28:40Z",
      "version": 1,
      "changeset": 67317938,
      "user": "Mutant-art",
      "uid": 5053389,
      "nodes": [
        6286223208,
        6286223209,
        6286223210,
        6286223211,
        6286223208
      ],
      "tags": {
        "access": "private",
        "amenity": "parking"
      }
    },
    {
      "type": "way",
      "id": 671278384,
      "timestamp": "2019-02-18T15:22:28Z",
      "version": 1,
      "changeset": 67319707,
      "user": "Mutant-art",
      "uid": 5053389,
      "nodes": [
        6286332075,
        6286332076,
        6286332073,
        6286332077,
        6286332075
      ],
      "tags": {
        "amenity": "parking",
        "capacity:disabled": "1",
        "fee": "no",
        "maxstay": "2 hr",
        "parking:condition": "disc"
      }
    },
    {
      "type": "way",
      "id": 671278385,
      "timestamp": "2019-02-18T15:22:28Z",
      "version": 1,
      "changeset": 67319707,
      "user": "Mutant-art",
      "uid": 5053389,
      "nodes": [
        6286332078,
        6286332079,
        6286332080,
        6286332081,
        6286332078
      ],
      "tags": {
        "amenity": "parking",
        "capacity:disabled": "1",
        "fee": "no",
        "maxstay": "2 hr",
        "parking:condition": "disc"
      }
    },
    {
      "type": "way",
      "id": 671290039,
      "timestamp": "2021-01-20T11:00:25Z",
      "version": 3,
      "changeset": 97831622,
      "user": "staf",
      "uid": 377797,
      "nodes": [
        6286469398,
        6286469399,
        6286469400,
        6286469401,
        6286469402,
        6286469403,
        6286469398
      ],
      "tags": {
        "access": "yes",
        "amenity": "parking",
        "fee": "no",
        "parking": "surface"
      }
    },
    {
      "type": "way",
      "id": 671292214,
      "timestamp": "2019-02-18T16:41:41Z",
      "version": 1,
      "changeset": 67322508,
      "user": "Mutant-art",
      "uid": 5053389,
      "nodes": [
        6286491585,
        6286491586,
        6286491587,
        6286491588,
        6286491589,
        6286491590,
        6286491585
      ],
      "tags": {
        "amenity": "parking",
        "fee": "no"
      }
    },
    {
      "type": "way",
      "id": 671292216,
      "timestamp": "2019-02-18T17:00:02Z",
      "version": 2,
      "changeset": 67323179,
      "user": "Mutant-art",
      "uid": 5053389,
      "nodes": [
        6286491599,
        6286491608,
        6286491609,
        6286491600,
        6286491607,
        6286491601,
        6286491602,
        6286530816,
        6286530817,
        6286530818,
        6286530819,
        6286491603,
        6286491604,
        6286491595,
        6286491605,
        6286491606,
        6286491599
      ],
      "tags": {
        "amenity": "parking",
        "fee": "no"
      }
    },
    {
      "type": "way",
      "id": 671517443,
      "timestamp": "2019-02-19T10:04:41Z",
      "version": 1,
      "changeset": 67346499,
      "user": "Mutant-art",
      "uid": 5053389,
      "nodes": [
        6288341839,
        6268139930,
        6268139929,
        266721760,
        6288341840,
        6288341839
      ],
      "tags": {
        "amenity": "parking",
        "capacity": "14",
        "fee": "no"
      }
    },
    {
      "type": "way",
      "id": 671932708,
      "timestamp": "2019-02-20T23:34:00Z",
      "version": 1,
      "changeset": 67411241,
      "user": "Mutant-art",
      "uid": 5053389,
      "nodes": [
        6292202447,
        6292202448,
        6292202449,
        6292202450,
        6292202458,
        6292202457,
        6292202451,
        6292202452,
        6292202453,
        6292202454,
        6292202455,
        6292202456,
        6292202447
      ],
      "tags": {
        "amenity": "parking",
        "fee": "no",
        "maxstay": "2 hr",
        "parking:condition": "disc"
      }
    },
    {
      "type": "way",
      "id": 671932710,
      "timestamp": "2019-02-20T23:34:00Z",
      "version": 1,
      "changeset": 67411241,
      "user": "Mutant-art",
      "uid": 5053389,
      "nodes": [
        6292202461,
        6292202462,
        6292202463,
        6292202464,
        6292202461
      ],
      "tags": {
        "amenity": "parking",
        "fee": "no",
        "maxstay": "2 hr",
        "parking:condition": "disc"
      }
    },
    {
      "type": "way",
      "id": 688153957,
      "timestamp": "2019-05-06T13:16:54Z",
      "version": 1,
      "changeset": 69936015,
      "user": "Mutant-art",
      "uid": 5053389,
      "nodes": [
        909884293,
        6452048206,
        6452048207,
        6452048208,
        909884293
      ],
      "tags": {
        "amenity": "parking"
      }
    },
    {
      "type": "way",
      "id": 689461583,
      "timestamp": "2019-05-12T12:32:24Z",
      "version": 1,
      "changeset": 70159354,
      "user": "Mutant-art",
      "uid": 5053389,
      "nodes": [
        6467981037,
        6467981038,
        6467981039,
        6467981040,
        6467981037
      ],
      "tags": {
        "amenity": "parking"
      }
    },
    {
      "type": "way",
      "id": 690999634,
      "timestamp": "2019-05-19T08:17:15Z",
      "version": 1,
      "changeset": 70403796,
      "user": "Mutant-art",
      "uid": 5053389,
      "nodes": [
        6483474453,
        6483474454,
        6483474455,
        6483474456,
        6483474453
      ],
      "tags": {
        "amenity": "parking"
      }
    },
    {
      "type": "way",
      "id": 690999635,
      "timestamp": "2019-05-19T08:17:16Z",
      "version": 1,
      "changeset": 70403796,
      "user": "Mutant-art",
      "uid": 5053389,
      "nodes": [
        6483474457,
        6483474458,
        6483474459,
        6483474460,
        6483474457
      ],
      "tags": {
        "amenity": "parking"
      }
    },
    {
      "type": "way",
      "id": 691227960,
      "timestamp": "2019-05-20T13:39:57Z",
      "version": 1,
      "changeset": 70441589,
      "user": "Mutant-art",
      "uid": 5053389,
      "nodes": [
        6485818547,
        6485818548,
        6485818549,
        6485818550,
        6485818547
      ],
      "tags": {
        "amenity": "parking"
      }
    },
    {
      "type": "way",
      "id": 691227966,
      "timestamp": "2019-05-20T13:39:57Z",
      "version": 1,
      "changeset": 70441589,
      "user": "Mutant-art",
      "uid": 5053389,
      "nodes": [
        6485818570,
        6485818571,
        6485818572,
        6485818573,
        6485818570
      ],
      "tags": {
        "amenity": "parking"
      }
    },
    {
      "type": "way",
      "id": 691227967,
      "timestamp": "2019-05-20T13:39:57Z",
      "version": 1,
      "changeset": 70441589,
      "user": "Mutant-art",
      "uid": 5053389,
      "nodes": [
        6485818574,
        6485818575,
        6485818576,
        6485818566,
        6485818567,
        6485818574
      ],
      "tags": {
        "amenity": "parking"
      }
    },
    {
      "type": "way",
      "id": 691227968,
      "timestamp": "2019-05-20T13:39:58Z",
      "version": 1,
      "changeset": 70441589,
      "user": "Mutant-art",
      "uid": 5053389,
      "nodes": [
        6485818556,
        6485818557,
        6485818577,
        6485818565,
        6485818556
      ],
      "tags": {
        "amenity": "parking"
      }
    },
    {
      "type": "way",
      "id": 691411922,
      "timestamp": "2019-12-08T15:59:17Z",
      "version": 2,
      "changeset": 78112544,
      "user": "drMerry",
      "uid": 323720,
      "nodes": [
        6487836788,
        6487836789,
        6487836790,
        7041927871,
        7041927870,
        6487836791,
        6487836788
      ],
      "tags": {
        "amenity": "parking"
      }
    },
    {
      "type": "way",
      "id": 691412205,
      "timestamp": "2019-05-21T11:16:05Z",
      "version": 1,
      "changeset": 70474161,
      "user": "Mutant-art",
      "uid": 5053389,
      "nodes": [
        6467981043,
        6467981065,
        6467981064,
        6467981063,
        6467981062,
        6467981066,
        6467981061,
        6467981060,
        6467981059,
        6467981058,
        6467981057,
        6467981056,
        6487840805,
        6487840806,
        6487840807,
        6487840808,
        6467981043
      ],
      "tags": {
        "amenity": "parking"
      }
    },
    {
      "type": "way",
      "id": 692964592,
      "timestamp": "2019-05-28T09:48:58Z",
      "version": 1,
      "changeset": 70689697,
      "user": "Mutant-art",
      "uid": 5053389,
      "nodes": [
        6505763992,
        6505763997,
        6505763993,
        6505763994,
        6505763992
      ],
      "tags": {
        "amenity": "parking"
      }
    },
    {
      "type": "way",
      "id": 692964594,
      "timestamp": "2019-05-28T09:48:58Z",
      "version": 1,
      "changeset": 70689697,
      "user": "Mutant-art",
      "uid": 5053389,
      "nodes": [
        6505763995,
        6505763998,
        6505763999,
        6505763996,
        6505763995
      ],
      "tags": {
        "amenity": "parking"
      }
    },
    {
      "type": "way",
      "id": 692964596,
      "timestamp": "2019-05-28T09:48:58Z",
      "version": 1,
      "changeset": 70689697,
      "user": "Mutant-art",
      "uid": 5053389,
      "nodes": [
        6505764004,
        6505764005,
        6505764006,
        6505764007,
        6505764004
      ],
      "tags": {
        "amenity": "parking"
      }
    },
    {
      "type": "way",
      "id": 707599251,
      "timestamp": "2019-07-26T09:58:30Z",
      "version": 1,
      "changeset": 72678245,
      "user": "Mutant-art",
      "uid": 5053389,
      "nodes": [
        6649583413,
        6649583414,
        6649583415,
        6649583416,
        6649583417,
        6649583418,
        6649583413
      ],
      "tags": {
        "amenity": "parking",
        "fee": "yes"
      }
    },
    {
      "type": "way",
      "id": 715717847,
      "timestamp": "2019-08-20T10:04:08Z",
      "version": 1,
      "changeset": 73530799,
      "user": "Mutant-art",
      "uid": 5053389,
      "nodes": [
        6726264209,
        6726264210,
        6726264211,
        6726264212,
        6726264209
      ],
      "tags": {
        "amenity": "parking",
        "capacity": "20",
        "fee": "no"
      }
    },
    {
      "type": "way",
      "id": 721117632,
      "timestamp": "2019-11-06T10:49:54Z",
      "version": 2,
      "changeset": 76692525,
      "user": "de vries",
      "uid": 1707814,
      "nodes": [
        6296162485,
        5256644321,
        6015202321,
        6015202320,
        6296162485
      ],
      "tags": {
        "access": "private",
        "amenity": "parking",
        "fee": "no"
      }
    },
    {
      "type": "way",
      "id": 780496202,
      "timestamp": "2021-07-25T12:42:26Z",
      "version": 2,
      "changeset": 108564021,
      "user": "StijnRR",
      "uid": 911613,
      "nodes": [
        7288176617,
        7288176618,
        7288176619,
        7288176621,
        7288176622,
        7288176623,
        7288176624,
        7288176625,
        7288176617
      ],
      "tags": {
        "access": "customers",
        "amenity": "parking",
        "fee": "no"
      }
    },
    {
      "type": "way",
      "id": 780584240,
      "timestamp": "2020-03-12T16:52:23Z",
      "version": 1,
      "changeset": 82122339,
      "user": "Mutant-art",
      "uid": 5053389,
      "nodes": [
        6274422464,
        7289086578,
        7289086579,
        7289086577,
        6274422464
      ],
      "tags": {
        "amenity": "parking"
      }
    },
    {
      "type": "way",
      "id": 967226907,
      "timestamp": "2021-07-25T09:59:39Z",
      "version": 1,
      "changeset": 108558863,
      "user": "StijnRR",
      "uid": 911613,
      "nodes": [
        8948420824,
        8948420823,
        8948420814,
        8948420822,
        8948420821,
        8948420820,
        8948420819,
        8948420818,
        8948420817,
        8948420816,
        8948420815,
        8948420824
      ],
      "tags": {
        "amenity": "parking"
      }
    },
    {
      "type": "way",
      "id": 973147329,
      "timestamp": "2021-08-14T19:58:24Z",
      "version": 1,
      "changeset": 109681505,
      "user": "Essex_Boy",
      "uid": 1247041,
      "nodes": [
        9007061646,
        9007061647,
        9007061648,
        9007061649,
        9007061646
      ],
      "tags": {
        "amenity": "parking",
        "operator": "B&B Kelpiebrink"
      }
    },
    {
      "type": "node",
      "id": 2476654855,
      "lat": 51.4406544,
      "lon": 4.9238015
    },
    {
      "type": "node",
      "id": 2476654856,
      "lat": 51.4404073,
      "lon": 4.9242155
    },
    {
      "type": "node",
      "id": 2476654857,
      "lat": 51.4407375,
      "lon": 4.9247213
    },
    {
      "type": "node",
      "id": 2476654859,
      "lat": 51.4409988,
      "lon": 4.9243044
    },
    {
      "type": "node",
      "id": 2476654878,
      "lat": 51.4413587,
      "lon": 4.9247525
    },
    {
      "type": "node",
      "id": 2476654879,
      "lat": 51.4412908,
      "lon": 4.9249634
    },
    {
      "type": "node",
      "id": 2476654880,
      "lat": 51.4412661,
      "lon": 4.9255589
    },
    {
      "type": "node",
      "id": 2476654882,
      "lat": 51.4414803,
      "lon": 4.9255825
    },
    {
      "type": "node",
      "id": 2476654883,
      "lat": 51.441482,
      "lon": 4.9255449
    },
    {
      "type": "node",
      "id": 2476654884,
      "lat": 51.4415338,
      "lon": 4.9255503
    },
    {
      "type": "node",
      "id": 2476654885,
      "lat": 51.4415623,
      "lon": 4.9251104
    },
    {
      "type": "node",
      "id": 6265533464,
      "lat": 51.4415152,
      "lon": 4.9255484
    },
    {
      "type": "node",
      "id": 6286469398,
      "lat": 51.4398291,
      "lon": 4.9271956
    },
    {
      "type": "node",
      "id": 6286469399,
      "lat": 51.4395822,
      "lon": 4.9272229
    },
    {
      "type": "node",
      "id": 6286469400,
      "lat": 51.4395877,
      "lon": 4.9274322
    },
    {
      "type": "node",
      "id": 6286469401,
      "lat": 51.4397829,
      "lon": 4.9274068
    },
    {
      "type": "node",
      "id": 6286469402,
      "lat": 51.4397804,
      "lon": 4.9272848
    },
    {
      "type": "node",
      "id": 6286469403,
      "lat": 51.4398308,
      "lon": 4.9272793
    },
    {
      "type": "node",
      "id": 6286491601,
      "lat": 51.4418799,
      "lon": 4.9269379
    },
    {
      "type": "node",
      "id": 6286491602,
      "lat": 51.4418919,
      "lon": 4.9273255
    },
    {
      "type": "node",
      "id": 6286530816,
      "lat": 51.4420557,
      "lon": 4.9273017
    },
    {
      "type": "node",
      "id": 6286530817,
      "lat": 51.4420532,
      "lon": 4.9272192
    },
    {
      "type": "node",
      "id": 6286530818,
      "lat": 51.4421188,
      "lon": 4.9272122
    },
    {
      "type": "node",
      "id": 6286530819,
      "lat": 51.4421221,
      "lon": 4.9272911
    },
    {
      "type": "node",
      "id": 6291888386,
      "lat": 51.4405156,
      "lon": 4.9244078
    },
    {
      "type": "node",
      "id": 6291888400,
      "lat": 51.4404474,
      "lon": 4.9241536
    },
    {
      "type": "node",
      "id": 6487836788,
      "lat": 51.4404595,
      "lon": 4.9280026
    },
    {
      "type": "node",
      "id": 6487836789,
      "lat": 51.4404145,
      "lon": 4.9282227
    },
    {
      "type": "node",
      "id": 6487836790,
      "lat": 51.4403697,
      "lon": 4.9281991
    },
    {
      "type": "node",
      "id": 6487836791,
      "lat": 51.4404144,
      "lon": 4.9279785
    },
    {
      "type": "node",
      "id": 7041927870,
      "lat": 51.4403829,
      "lon": 4.9279613
    },
    {
      "type": "node",
      "id": 7041927871,
      "lat": 51.4403358,
      "lon": 4.9281807
    },
    {
      "type": "node",
      "id": 4607870596,
      "lat": 51.4449965,
      "lon": 4.9267362
    },
    {
      "type": "node",
      "id": 4607870597,
      "lat": 51.444996,
      "lon": 4.9268167
    },
    {
      "type": "node",
      "id": 4607870598,
      "lat": 51.44492,
      "lon": 4.9268422
    },
    {
      "type": "node",
      "id": 4607870599,
      "lat": 51.4449359,
      "lon": 4.9269804
    },
    {
      "type": "node",
      "id": 4607870600,
      "lat": 51.444548,
      "lon": 4.9270972
    },
    {
      "type": "node",
      "id": 4607870602,
      "lat": 51.4442143,
      "lon": 4.9270393
    },
    {
      "type": "node",
      "id": 4607870603,
      "lat": 51.4442066,
      "lon": 4.926982
    },
    {
      "type": "node",
      "id": 4623279937,
      "lat": 51.444539,
      "lon": 4.9269392
    },
    {
      "type": "node",
      "id": 6286491585,
      "lat": 51.4437075,
      "lon": 4.9271017
    },
    {
      "type": "node",
      "id": 6286491586,
      "lat": 51.4437141,
      "lon": 4.9273242
    },
    {
      "type": "node",
      "id": 6286491587,
      "lat": 51.443337,
      "lon": 4.9273826
    },
    {
      "type": "node",
      "id": 6286491588,
      "lat": 51.4433326,
      "lon": 4.9272954
    },
    {
      "type": "node",
      "id": 6286491589,
      "lat": 51.4432895,
      "lon": 4.9272338
    },
    {
      "type": "node",
      "id": 6286491590,
      "lat": 51.4432848,
      "lon": 4.9271593
    },
    {
      "type": "node",
      "id": 6286491595,
      "lat": 51.4432602,
      "lon": 4.9269946
    },
    {
      "type": "node",
      "id": 6286491599,
      "lat": 51.4436446,
      "lon": 4.9270564
    },
    {
      "type": "node",
      "id": 6286491600,
      "lat": 51.4435488,
      "lon": 4.926747
    },
    {
      "type": "node",
      "id": 6286491603,
      "lat": 51.4432565,
      "lon": 4.9271159
    },
    {
      "type": "node",
      "id": 6286491604,
      "lat": 51.4432521,
      "lon": 4.9269956
    },
    {
      "type": "node",
      "id": 6286491605,
      "lat": 51.4432749,
      "lon": 4.9269925
    },
    {
      "type": "node",
      "id": 6286491606,
      "lat": 51.4432783,
      "lon": 4.9271144
    },
    {
      "type": "node",
      "id": 6286491607,
      "lat": 51.4435193,
      "lon": 4.9266884
    },
    {
      "type": "node",
      "id": 6286491608,
      "lat": 51.4436352,
      "lon": 4.92682
    },
    {
      "type": "node",
      "id": 6286491609,
      "lat": 51.4435909,
      "lon": 4.9268191
    },
    {
      "type": "node",
      "id": 6485818556,
      "lat": 51.4446244,
      "lon": 4.9282607
    },
    {
      "type": "node",
      "id": 6485818565,
      "lat": 51.4445152,
      "lon": 4.9282719
    },
    {
      "type": "node",
      "id": 6485818566,
      "lat": 51.4444653,
      "lon": 4.928277
    },
    {
      "type": "node",
      "id": 6485818573,
      "lat": 51.4443468,
      "lon": 4.9282721
    },
    {
      "type": "node",
      "id": 6726264209,
      "lat": 51.4453974,
      "lon": 4.9240858
    },
    {
      "type": "node",
      "id": 6726264210,
      "lat": 51.4453355,
      "lon": 4.9242739
    },
    {
      "type": "node",
      "id": 6726264211,
      "lat": 51.4450989,
      "lon": 4.9240734
    },
    {
      "type": "node",
      "id": 6726264212,
      "lat": 51.4451608,
      "lon": 4.9238854
    },
    {
      "type": "node",
      "id": 8238446103,
      "lat": 51.4444965,
      "lon": 4.9268896
    },
    {
      "type": "node",
      "id": 8238446106,
      "lat": 51.4444853,
      "lon": 4.926893
    },
    {
      "type": "node",
      "id": 6505764004,
      "lat": 51.4506208,
      "lon": 4.9262131
    },
    {
      "type": "node",
      "id": 6505764005,
      "lat": 51.4505789,
      "lon": 4.9259906
    },
    {
      "type": "node",
      "id": 6505764006,
      "lat": 51.4504721,
      "lon": 4.9260423
    },
    {
      "type": "node",
      "id": 6505764007,
      "lat": 51.450514,
      "lon": 4.9262649
    },
    {
      "type": "node",
      "id": 8948420814,
      "lat": 51.4021991,
      "lon": 4.9378728
    },
    {
      "type": "node",
      "id": 8948420815,
      "lat": 51.4024219,
      "lon": 4.9374342
    },
    {
      "type": "node",
      "id": 8948420816,
      "lat": 51.4024491,
      "lon": 4.9374482
    },
    {
      "type": "node",
      "id": 8948420817,
      "lat": 51.4024631,
      "lon": 4.937484
    },
    {
      "type": "node",
      "id": 8948420818,
      "lat": 51.4024587,
      "lon": 4.9375261
    },
    {
      "type": "node",
      "id": 8948420819,
      "lat": 51.4022687,
      "lon": 4.937917
    },
    {
      "type": "node",
      "id": 8948420820,
      "lat": 51.4022455,
      "lon": 4.9379289
    },
    {
      "type": "node",
      "id": 8948420821,
      "lat": 51.4022223,
      "lon": 4.9379254
    },
    {
      "type": "node",
      "id": 8948420822,
      "lat": 51.4022083,
      "lon": 4.9379002
    },
    {
      "type": "node",
      "id": 8948420823,
      "lat": 51.4022021,
      "lon": 4.937837
    },
    {
      "type": "node",
      "id": 8948420824,
      "lat": 51.4024031,
      "lon": 4.9374433
    },
    {
      "type": "node",
      "id": 909884293,
      "lat": 51.4109789,
      "lon": 4.9389368
    },
    {
      "type": "node",
      "id": 6452048206,
      "lat": 51.4103124,
      "lon": 4.9392931
    },
    {
      "type": "node",
      "id": 6452048207,
      "lat": 51.4103525,
      "lon": 4.9395194
    },
    {
      "type": "node",
      "id": 6452048208,
      "lat": 51.4110189,
      "lon": 4.9391641
    },
    {
      "type": "node",
      "id": 9007061646,
      "lat": 51.4319537,
      "lon": 4.9416965
    },
    {
      "type": "node",
      "id": 9007061647,
      "lat": 51.4318579,
      "lon": 4.9417653
    },
    {
      "type": "node",
      "id": 9007061648,
      "lat": 51.4319695,
      "lon": 4.9421645
    },
    {
      "type": "node",
      "id": 9007061649,
      "lat": 51.4320652,
      "lon": 4.9420957
    },
    {
      "type": "node",
      "id": 2780607567,
      "lat": 51.4419952,
      "lon": 4.9289061
    },
    {
      "type": "node",
      "id": 2780607577,
      "lat": 51.4420023,
      "lon": 4.9289344
    },
    {
      "type": "node",
      "id": 2780607636,
      "lat": 51.4420678,
      "lon": 4.9286632
    },
    {
      "type": "node",
      "id": 2780607643,
      "lat": 51.4420734,
      "lon": 4.9287708
    },
    {
      "type": "node",
      "id": 2780607645,
      "lat": 51.4420757,
      "lon": 4.9288343
    },
    {
      "type": "node",
      "id": 2780607646,
      "lat": 51.4420764,
      "lon": 4.9288732
    },
    {
      "type": "node",
      "id": 2780607740,
      "lat": 51.4422581,
      "lon": 4.9288992
    },
    {
      "type": "node",
      "id": 4582403956,
      "lat": 51.4408682,
      "lon": 4.9315066
    },
    {
      "type": "node",
      "id": 4582403957,
      "lat": 51.4403984,
      "lon": 4.9317855
    },
    {
      "type": "node",
      "id": 4582403958,
      "lat": 51.4401961,
      "lon": 4.9317104
    },
    {
      "type": "node",
      "id": 4582403959,
      "lat": 51.4401493,
      "lon": 4.9312866
    },
    {
      "type": "node",
      "id": 4582403960,
      "lat": 51.4404469,
      "lon": 4.9311874
    },
    {
      "type": "node",
      "id": 4582403961,
      "lat": 51.440482,
      "lon": 4.9313537
    },
    {
      "type": "node",
      "id": 4582403962,
      "lat": 51.4407511,
      "lon": 4.9312437
    },
    {
      "type": "node",
      "id": 4582403963,
      "lat": 51.4407746,
      "lon": 4.9313215
    },
    {
      "type": "node",
      "id": 4582403964,
      "lat": 51.4408297,
      "lon": 4.9312973
    },
    {
      "type": "node",
      "id": 4582422537,
      "lat": 51.4423657,
      "lon": 4.9304771
    },
    {
      "type": "node",
      "id": 4582422538,
      "lat": 51.4423109,
      "lon": 4.9305413
    },
    {
      "type": "node",
      "id": 4582422539,
      "lat": 51.4423177,
      "lon": 4.9305888
    },
    {
      "type": "node",
      "id": 4582545560,
      "lat": 51.442178,
      "lon": 4.9285036
    },
    {
      "type": "node",
      "id": 4582545561,
      "lat": 51.4419312,
      "lon": 4.9284951
    },
    {
      "type": "node",
      "id": 4582545562,
      "lat": 51.4419389,
      "lon": 4.9286687
    },
    {
      "type": "node",
      "id": 4632086384,
      "lat": 51.4423601,
      "lon": 4.9291721
    },
    {
      "type": "node",
      "id": 6270817896,
      "lat": 51.4367422,
      "lon": 4.9335956
    },
    {
      "type": "node",
      "id": 6270817897,
      "lat": 51.4362575,
      "lon": 4.9341217
    },
    {
      "type": "node",
      "id": 6270817898,
      "lat": 51.436065,
      "lon": 4.9335997
    },
    {
      "type": "node",
      "id": 6270817899,
      "lat": 51.4361777,
      "lon": 4.9335897
    },
    {
      "type": "node",
      "id": 6270817900,
      "lat": 51.4362203,
      "lon": 4.9335514
    },
    {
      "type": "node",
      "id": 6270817901,
      "lat": 51.4362896,
      "lon": 4.9334653
    },
    {
      "type": "node",
      "id": 6270817902,
      "lat": 51.4364889,
      "lon": 4.9333515
    },
    {
      "type": "node",
      "id": 6270817904,
      "lat": 51.4366153,
      "lon": 4.9332419
    },
    {
      "type": "node",
      "id": 6270817905,
      "lat": 51.4363463,
      "lon": 4.9334156
    },
    {
      "type": "node",
      "id": 6270817906,
      "lat": 51.4361142,
      "lon": 4.9335516
    },
    {
      "type": "node",
      "id": 6283250548,
      "lat": 51.4411357,
      "lon": 4.9295338
    },
    {
      "type": "node",
      "id": 6283250549,
      "lat": 51.4410504,
      "lon": 4.9296419
    },
    {
      "type": "node",
      "id": 6283250550,
      "lat": 51.4410252,
      "lon": 4.9296909
    },
    {
      "type": "node",
      "id": 6283250551,
      "lat": 51.4409049,
      "lon": 4.9295381
    },
    {
      "type": "node",
      "id": 6283250552,
      "lat": 51.4409974,
      "lon": 4.9293393
    },
    {
      "type": "node",
      "id": 6286117732,
      "lat": 51.440536,
      "lon": 4.9289439
    },
    {
      "type": "node",
      "id": 6286117733,
      "lat": 51.4404762,
      "lon": 4.9287379
    },
    {
      "type": "node",
      "id": 6286117734,
      "lat": 51.4406622,
      "lon": 4.9286204
    },
    {
      "type": "node",
      "id": 6286117735,
      "lat": 51.4407161,
      "lon": 4.9288236
    },
    {
      "type": "node",
      "id": 6286223181,
      "lat": 51.4419096,
      "lon": 4.9295976
    },
    {
      "type": "node",
      "id": 6286223182,
      "lat": 51.4418921,
      "lon": 4.9295429
    },
    {
      "type": "node",
      "id": 6286223183,
      "lat": 51.4418692,
      "lon": 4.9295587
    },
    {
      "type": "node",
      "id": 6286223184,
      "lat": 51.4417645,
      "lon": 4.9292684
    },
    {
      "type": "node",
      "id": 6286223185,
      "lat": 51.4419529,
      "lon": 4.9291287
    },
    {
      "type": "node",
      "id": 6286223186,
      "lat": 51.4419068,
      "lon": 4.9289925
    },
    {
      "type": "node",
      "id": 6286223187,
      "lat": 51.4420972,
      "lon": 4.9288296
    },
    {
      "type": "node",
      "id": 6286223188,
      "lat": 51.4420978,
      "lon": 4.9287702
    },
    {
      "type": "node",
      "id": 6286223189,
      "lat": 51.4422506,
      "lon": 4.9287592
    },
    {
      "type": "node",
      "id": 6286223190,
      "lat": 51.4422132,
      "lon": 4.9289132
    },
    {
      "type": "node",
      "id": 6286223191,
      "lat": 51.4422667,
      "lon": 4.9290555
    },
    {
      "type": "node",
      "id": 6286223192,
      "lat": 51.4423104,
      "lon": 4.9290118
    },
    {
      "type": "node",
      "id": 6286223193,
      "lat": 51.4423117,
      "lon": 4.9292236
    },
    {
      "type": "node",
      "id": 6286223194,
      "lat": 51.4423259,
      "lon": 4.9292783
    },
    {
      "type": "node",
      "id": 6286223195,
      "lat": 51.442147,
      "lon": 4.9294074
    },
    {
      "type": "node",
      "id": 6286223196,
      "lat": 51.442128,
      "lon": 4.9293967
    },
    {
      "type": "node",
      "id": 6286223197,
      "lat": 51.442239,
      "lon": 4.9287532
    },
    {
      "type": "node",
      "id": 6286223198,
      "lat": 51.4422317,
      "lon": 4.928499
    },
    {
      "type": "node",
      "id": 6286223199,
      "lat": 51.4421771,
      "lon": 4.9284687
    },
    {
      "type": "node",
      "id": 6286223208,
      "lat": 51.4421561,
      "lon": 4.9283529
    },
    {
      "type": "node",
      "id": 6286223209,
      "lat": 51.4419472,
      "lon": 4.9283851
    },
    {
      "type": "node",
      "id": 6286223210,
      "lat": 51.4419511,
      "lon": 4.9284706
    },
    {
      "type": "node",
      "id": 6286223211,
      "lat": 51.442159,
      "lon": 4.9284447
    },
    {
      "type": "node",
      "id": 6286332073,
      "lat": 51.4406333,
      "lon": 4.9324633
    },
    {
      "type": "node",
      "id": 6286332075,
      "lat": 51.44059,
      "lon": 4.9323868
    },
    {
      "type": "node",
      "id": 6286332076,
      "lat": 51.4405992,
      "lon": 4.9324716
    },
    {
      "type": "node",
      "id": 6286332077,
      "lat": 51.4406239,
      "lon": 4.9323756
    },
    {
      "type": "node",
      "id": 6286332078,
      "lat": 51.4405179,
      "lon": 4.9324055
    },
    {
      "type": "node",
      "id": 6286332079,
      "lat": 51.4405273,
      "lon": 4.9324905
    },
    {
      "type": "node",
      "id": 6286332080,
      "lat": 51.4405611,
      "lon": 4.9324816
    },
    {
      "type": "node",
      "id": 6286332081,
      "lat": 51.4405524,
      "lon": 4.9323964
    },
    {
      "type": "node",
      "id": 6467981037,
      "lat": 51.4400012,
      "lon": 4.9291243
    },
    {
      "type": "node",
      "id": 6467981038,
      "lat": 51.4398622,
      "lon": 4.9293077
    },
    {
      "type": "node",
      "id": 6467981039,
      "lat": 51.439895,
      "lon": 4.9293717
    },
    {
      "type": "node",
      "id": 6467981040,
      "lat": 51.440034,
      "lon": 4.9291883
    },
    {
      "type": "node",
      "id": 6467981043,
      "lat": 51.4408846,
      "lon": 4.9297573
    },
    {
      "type": "node",
      "id": 6467981056,
      "lat": 51.4407586,
      "lon": 4.9298493
    },
    {
      "type": "node",
      "id": 6467981057,
      "lat": 51.4407724,
      "lon": 4.9297538
    },
    {
      "type": "node",
      "id": 6467981058,
      "lat": 51.440791,
      "lon": 4.9297574
    },
    {
      "type": "node",
      "id": 6467981059,
      "lat": 51.4407946,
      "lon": 4.9297414
    },
    {
      "type": "node",
      "id": 6467981060,
      "lat": 51.4408166,
      "lon": 4.929748
    },
    {
      "type": "node",
      "id": 6467981061,
      "lat": 51.4408191,
      "lon": 4.9297251
    },
    {
      "type": "node",
      "id": 6467981062,
      "lat": 51.4408467,
      "lon": 4.9297026
    },
    {
      "type": "node",
      "id": 6467981063,
      "lat": 51.4408652,
      "lon": 4.9297131
    },
    {
      "type": "node",
      "id": 6467981064,
      "lat": 51.4408698,
      "lon": 4.9296837
    },
    {
      "type": "node",
      "id": 6467981065,
      "lat": 51.4408924,
      "lon": 4.9296931
    },
    {
      "type": "node",
      "id": 6467981066,
      "lat": 51.4408432,
      "lon": 4.9297311
    },
    {
      "type": "node",
      "id": 6487840805,
      "lat": 51.4407835,
      "lon": 4.9298376
    },
    {
      "type": "node",
      "id": 6487840806,
      "lat": 51.4408143,
      "lon": 4.9298231
    },
    {
      "type": "node",
      "id": 6487840807,
      "lat": 51.4408403,
      "lon": 4.9298019
    },
    {
      "type": "node",
      "id": 6487840808,
      "lat": 51.4408702,
      "lon": 4.9297776
    },
    {
      "type": "node",
      "id": 6270817889,
      "lat": 51.4369095,
      "lon": 4.936577
    },
    {
      "type": "node",
      "id": 6270817890,
      "lat": 51.4374008,
      "lon": 4.9364582
    },
    {
      "type": "node",
      "id": 6270817891,
      "lat": 51.4373914,
      "lon": 4.9353823
    },
    {
      "type": "node",
      "id": 6270817892,
      "lat": 51.4368452,
      "lon": 4.9354176
    },
    {
      "type": "node",
      "id": 7289086577,
      "lat": 51.442205,
      "lon": 4.9383343
    },
    {
      "type": "node",
      "id": 7289086579,
      "lat": 51.4422199,
      "lon": 4.9384888
    },
    {
      "type": "node",
      "id": 266721760,
      "lat": 51.4449574,
      "lon": 4.9288122
    },
    {
      "type": "node",
      "id": 910383105,
      "lat": 51.4437555,
      "lon": 4.9319789
    },
    {
      "type": "node",
      "id": 910383115,
      "lat": 51.4437186,
      "lon": 4.9311309
    },
    {
      "type": "node",
      "id": 4582422536,
      "lat": 51.4425549,
      "lon": 4.9304771
    },
    {
      "type": "node",
      "id": 4582422540,
      "lat": 51.4425487,
      "lon": 4.9305512
    },
    {
      "type": "node",
      "id": 4582441813,
      "lat": 51.4438463,
      "lon": 4.9310101
    },
    {
      "type": "node",
      "id": 4582441814,
      "lat": 51.4441088,
      "lon": 4.9316617
    },
    {
      "type": "node",
      "id": 4582441817,
      "lat": 51.4435351,
      "lon": 4.9313455
    },
    {
      "type": "node",
      "id": 4582441818,
      "lat": 51.4439983,
      "lon": 4.9316785
    },
    {
      "type": "node",
      "id": 5942929334,
      "lat": 51.4434464,
      "lon": 4.9315176
    },
    {
      "type": "node",
      "id": 5942929335,
      "lat": 51.4437277,
      "lon": 4.9321967
    },
    {
      "type": "node",
      "id": 6268139929,
      "lat": 51.4449193,
      "lon": 4.9287322
    },
    {
      "type": "node",
      "id": 6268139930,
      "lat": 51.445054,
      "lon": 4.9285557
    },
    {
      "type": "node",
      "id": 6271731956,
      "lat": 51.4439721,
      "lon": 4.9344198
    },
    {
      "type": "node",
      "id": 6271731957,
      "lat": 51.4439474,
      "lon": 4.9341637
    },
    {
      "type": "node",
      "id": 6271731958,
      "lat": 51.4438187,
      "lon": 4.9344099
    },
    {
      "type": "node",
      "id": 6271731959,
      "lat": 51.4438657,
      "lon": 4.934396
    },
    {
      "type": "node",
      "id": 6271731960,
      "lat": 51.4438731,
      "lon": 4.9344496
    },
    {
      "type": "node",
      "id": 6271731961,
      "lat": 51.4438009,
      "lon": 4.9341978
    },
    {
      "type": "node",
      "id": 6286309965,
      "lat": 51.4437744,
      "lon": 4.9321885
    },
    {
      "type": "node",
      "id": 6286309966,
      "lat": 51.443669,
      "lon": 4.9321641
    },
    {
      "type": "node",
      "id": 6286309967,
      "lat": 51.444094,
      "lon": 4.9317762
    },
    {
      "type": "node",
      "id": 6286309968,
      "lat": 51.4441201,
      "lon": 4.9315724
    },
    {
      "type": "node",
      "id": 6286309973,
      "lat": 51.4435154,
      "lon": 4.9314447
    },
    {
      "type": "node",
      "id": 6286309974,
      "lat": 51.4434972,
      "lon": 4.9313896
    },
    {
      "type": "node",
      "id": 6288341839,
      "lat": 51.445135,
      "lon": 4.9287258
    },
    {
      "type": "node",
      "id": 6288341840,
      "lat": 51.445,
      "lon": 4.9289028
    },
    {
      "type": "node",
      "id": 6292202447,
      "lat": 51.4434229,
      "lon": 4.9289242
    },
    {
      "type": "node",
      "id": 6292202448,
      "lat": 51.4434694,
      "lon": 4.928961
    },
    {
      "type": "node",
      "id": 6292202449,
      "lat": 51.4434473,
      "lon": 4.9290328
    },
    {
      "type": "node",
      "id": 6292202450,
      "lat": 51.4435706,
      "lon": 4.9291307
    },
    {
      "type": "node",
      "id": 6292202451,
      "lat": 51.4436644,
      "lon": 4.9289346
    },
    {
      "type": "node",
      "id": 6292202452,
      "lat": 51.4435362,
      "lon": 4.9288328
    },
    {
      "type": "node",
      "id": 6292202453,
      "lat": 51.4435204,
      "lon": 4.9288838
    },
    {
      "type": "node",
      "id": 6292202454,
      "lat": 51.4434956,
      "lon": 4.9288641
    },
    {
      "type": "node",
      "id": 6292202455,
      "lat": 51.4435118,
      "lon": 4.9288117
    },
    {
      "type": "node",
      "id": 6292202456,
      "lat": 51.4434682,
      "lon": 4.9287772
    },
    {
      "type": "node",
      "id": 6292202457,
      "lat": 51.4436373,
      "lon": 4.9290227
    },
    {
      "type": "node",
      "id": 6292202458,
      "lat": 51.4436105,
      "lon": 4.9290014
    },
    {
      "type": "node",
      "id": 6292202461,
      "lat": 51.4435562,
      "lon": 4.928817
    },
    {
      "type": "node",
      "id": 6292202462,
      "lat": 51.4434817,
      "lon": 4.9287639
    },
    {
      "type": "node",
      "id": 6292202463,
      "lat": 51.4435026,
      "lon": 4.9286885
    },
    {
      "type": "node",
      "id": 6292202464,
      "lat": 51.443577,
      "lon": 4.9287416
    },
    {
      "type": "node",
      "id": 6483474453,
      "lat": 51.4453665,
      "lon": 4.9299877
    },
    {
      "type": "node",
      "id": 6483474454,
      "lat": 51.4453231,
      "lon": 4.9300112
    },
    {
      "type": "node",
      "id": 6483474455,
      "lat": 51.445379,
      "lon": 4.930277
    },
    {
      "type": "node",
      "id": 6483474456,
      "lat": 51.4454224,
      "lon": 4.9302535
    },
    {
      "type": "node",
      "id": 6483474457,
      "lat": 51.4456064,
      "lon": 4.9297725
    },
    {
      "type": "node",
      "id": 6483474458,
      "lat": 51.4456186,
      "lon": 4.9298366
    },
    {
      "type": "node",
      "id": 6483474459,
      "lat": 51.4454259,
      "lon": 4.9299309
    },
    {
      "type": "node",
      "id": 6483474460,
      "lat": 51.4454138,
      "lon": 4.9298668
    },
    {
      "type": "node",
      "id": 6485818547,
      "lat": 51.444395,
      "lon": 4.9285744
    },
    {
      "type": "node",
      "id": 6485818548,
      "lat": 51.4442498,
      "lon": 4.9287538
    },
    {
      "type": "node",
      "id": 6485818549,
      "lat": 51.4442233,
      "lon": 4.9286988
    },
    {
      "type": "node",
      "id": 6485818550,
      "lat": 51.4443686,
      "lon": 4.9285193
    },
    {
      "type": "node",
      "id": 6485818557,
      "lat": 51.4446288,
      "lon": 4.9283275
    },
    {
      "type": "node",
      "id": 6485818567,
      "lat": 51.4445131,
      "lon": 4.9283688
    },
    {
      "type": "node",
      "id": 6485818570,
      "lat": 51.4444528,
      "lon": 4.9285133
    },
    {
      "type": "node",
      "id": 6485818571,
      "lat": 51.444412,
      "lon": 4.9285595
    },
    {
      "type": "node",
      "id": 6485818572,
      "lat": 51.4443059,
      "lon": 4.9283183
    },
    {
      "type": "node",
      "id": 6485818574,
      "lat": 51.4445322,
      "lon": 4.9284054
    },
    {
      "type": "node",
      "id": 6485818575,
      "lat": 51.4444945,
      "lon": 4.9284547
    },
    {
      "type": "node",
      "id": 6485818576,
      "lat": 51.4444268,
      "lon": 4.9283202
    },
    {
      "type": "node",
      "id": 6485818577,
      "lat": 51.4445137,
      "lon": 4.9283416
    },
    {
      "type": "node",
      "id": 6649583413,
      "lat": 51.4432492,
      "lon": 4.9325232
    },
    {
      "type": "node",
      "id": 6649583414,
      "lat": 51.4431716,
      "lon": 4.9326187
    },
    {
      "type": "node",
      "id": 6649583415,
      "lat": 51.4432341,
      "lon": 4.9331171
    },
    {
      "type": "node",
      "id": 6649583416,
      "lat": 51.4434762,
      "lon": 4.9330459
    },
    {
      "type": "node",
      "id": 6649583417,
      "lat": 51.4434691,
      "lon": 4.932965
    },
    {
      "type": "node",
      "id": 6649583418,
      "lat": 51.4435387,
      "lon": 4.9327611
    },
    {
      "type": "node",
      "id": 6649605688,
      "lat": 51.4438843,
      "lon": 4.9341784
    },
    {
      "type": "node",
      "id": 6274422464,
      "lat": 51.4425227,
      "lon": 4.9382556
    },
    {
      "type": "node",
      "id": 7289086578,
      "lat": 51.4425376,
      "lon": 4.9384102
    },
    {
      "type": "node",
      "id": 3488403118,
      "lat": 51.4413806,
      "lon": 4.944859
    },
    {
      "type": "node",
      "id": 5256644321,
      "lat": 51.4417497,
      "lon": 4.944731
    },
    {
      "type": "node",
      "id": 6015202319,
      "lat": 51.4418879,
      "lon": 4.9445652
    },
    {
      "type": "node",
      "id": 6015202320,
      "lat": 51.4420224,
      "lon": 4.9456725
    },
    {
      "type": "node",
      "id": 6015202321,
      "lat": 51.4418758,
      "lon": 4.945722
    },
    {
      "type": "node",
      "id": 6015202322,
      "lat": 51.4415114,
      "lon": 4.9445294
    },
    {
      "type": "node",
      "id": 6015202323,
      "lat": 51.4415448,
      "lon": 4.9443452
    },
    {
      "type": "node",
      "id": 6015202324,
      "lat": 51.441885,
      "lon": 4.944459
    },
    {
      "type": "node",
      "id": 6296162485,
      "lat": 51.4419012,
      "lon": 4.9446746
    },
    {
      "type": "node",
      "id": 4629969045,
      "lat": 51.4278309,
      "lon": 4.9592254
    },
    {
      "type": "node",
      "id": 4629969046,
      "lat": 51.4275992,
      "lon": 4.9597492
    },
    {
      "type": "node",
      "id": 4629969047,
      "lat": 51.427568,
      "lon": 4.9597106
    },
    {
      "type": "node",
      "id": 4629969048,
      "lat": 51.4275321,
      "lon": 4.9597956
    },
    {
      "type": "node",
      "id": 4629969049,
      "lat": 51.4273673,
      "lon": 4.9595778
    },
    {
      "type": "node",
      "id": 4629969050,
      "lat": 51.4276429,
      "lon": 4.9589868
    },
    {
      "type": "node",
      "id": 4629969032,
      "lat": 51.4252058,
      "lon": 4.9637742
    },
    {
      "type": "node",
      "id": 4629969033,
      "lat": 51.424984,
      "lon": 4.9640803
    },
    {
      "type": "node",
      "id": 4629969034,
      "lat": 51.424915,
      "lon": 4.96392
    },
    {
      "type": "node",
      "id": 4629969035,
      "lat": 51.4251131,
      "lon": 4.9636256
    },
    {
      "type": "node",
      "id": 4629969036,
      "lat": 51.4251535,
      "lon": 4.9637123
    },
    {
      "type": "node",
      "id": 4629969037,
      "lat": 51.4251679,
      "lon": 4.9636957
    },
    {
      "type": "node",
      "id": 5308468555,
      "lat": 51.4077823,
      "lon": 4.9958615
    },
    {
      "type": "node",
      "id": 5308468556,
      "lat": 51.4081053,
      "lon": 4.9951371
    },
    {
      "type": "node",
      "id": 5308468557,
      "lat": 51.4082006,
      "lon": 4.9952408
    },
    {
      "type": "node",
      "id": 5308468558,
      "lat": 51.4082359,
      "lon": 4.9951862
    },
    {
      "type": "node",
      "id": 5308468559,
      "lat": 51.4082653,
      "lon": 4.995239
    },
    {
      "type": "node",
      "id": 5308468560,
      "lat": 51.4079206,
      "lon": 4.996016
    },
    {
      "type": "node",
      "id": 910404981,
      "lat": 51.4216032,
      "lon": 4.9830499
    },
    {
      "type": "node",
      "id": 5555111132,
      "lat": 51.4218397,
      "lon": 4.982439
    },
    {
      "type": "node",
      "id": 5555111133,
      "lat": 51.4219977,
      "lon": 4.9826724
    },
    {
      "type": "node",
      "id": 7288176617,
      "lat": 51.4115274,
      "lon": 4.9993039
    },
    {
      "type": "node",
      "id": 7288176618,
      "lat": 51.4112597,
      "lon": 4.9996204
    },
    {
      "type": "node",
      "id": 7288176619,
      "lat": 51.4111225,
      "lon": 4.9992905
    },
    {
      "type": "node",
      "id": 7288176621,
      "lat": 51.4110934,
      "lon": 4.9992097
    },
    {
      "type": "node",
      "id": 7288176622,
      "lat": 51.4109889,
      "lon": 4.998948
    },
    {
      "type": "node",
      "id": 7288176623,
      "lat": 51.4110845,
      "lon": 4.9988866
    },
    {
      "type": "node",
      "id": 7288176624,
      "lat": 51.4111076,
      "lon": 4.9989378
    },
    {
      "type": "node",
      "id": 7288176625,
      "lat": 51.4114989,
      "lon": 4.9992395
    },
    {
      "type": "node",
      "id": 1497392633,
      "lat": 51.4114973,
      "lon": 5.0060244
    },
    {
      "type": "node",
      "id": 4409468091,
      "lat": 51.4117872,
      "lon": 5.0068662
    },
    {
      "type": "node",
      "id": 4409468092,
      "lat": 51.411834,
      "lon": 5.0068167
    },
    {
      "type": "node",
      "id": 4411403035,
      "lat": 51.410877,
      "lon": 5.0055142
    },
    {
      "type": "node",
      "id": 4411403050,
      "lat": 51.4109508,
      "lon": 5.0054262
    },
    {
      "type": "node",
      "id": 4411403060,
      "lat": 51.4110438,
      "lon": 5.0056544
    },
    {
      "type": "node",
      "id": 4411403065,
      "lat": 51.4110821,
      "lon": 5.0055387
    },
    {
      "type": "node",
      "id": 4411403140,
      "lat": 51.4115957,
      "lon": 5.0057308
    },
    {
      "type": "node",
      "id": 4411403143,
      "lat": 51.4116099,
      "lon": 5.0061142
    },
    {
      "type": "node",
      "id": 4411403144,
      "lat": 51.4116129,
      "lon": 5.0057451
    },
    {
      "type": "node",
      "id": 4411403155,
      "lat": 51.411658,
      "lon": 5.0055996
    },
    {
      "type": "node",
      "id": 4411403189,
      "lat": 51.4118069,
      "lon": 5.0047914
    },
    {
      "type": "node",
      "id": 4411403194,
      "lat": 51.4118172,
      "lon": 5.0048786
    },
    {
      "type": "node",
      "id": 4411403195,
      "lat": 51.4118231,
      "lon": 5.0057344
    },
    {
      "type": "node",
      "id": 4411403201,
      "lat": 51.4118507,
      "lon": 5.0047782
    },
    {
      "type": "node",
      "id": 4411403203,
      "lat": 51.411861,
      "lon": 5.0048653
    },
    {
      "type": "node",
      "id": 4411403204,
      "lat": 51.4118614,
      "lon": 5.0060508
    },
    {
      "type": "node",
      "id": 4413062035,
      "lat": 51.4103374,
      "lon": 5.0065044
    },
    {
      "type": "node",
      "id": 4413062067,
      "lat": 51.4106133,
      "lon": 5.0060884
    },
    {
      "type": "node",
      "id": 5532119445,
      "lat": 51.4107972,
      "lon": 5.0064866
    },
    {
      "type": "node",
      "id": 5532119446,
      "lat": 51.4104928,
      "lon": 5.0068471
    },
    {
      "type": "node",
      "id": 5532119447,
      "lat": 51.4104002,
      "lon": 5.0064404
    },
    {
      "type": "node",
      "id": 5532119448,
      "lat": 51.4103689,
      "lon": 5.006374
    },
    {
      "type": "node",
      "id": 4409468093,
      "lat": 51.4118908,
      "lon": 5.0070913
    },
    {
      "type": "node",
      "id": 4409468096,
      "lat": 51.4119346,
      "lon": 5.0070402
    },
    {
      "type": "node",
      "id": 4413062081,
      "lat": 51.4107429,
      "lon": 5.0082338
    },
    {
      "type": "node",
      "id": 4413062105,
      "lat": 51.4108306,
      "lon": 5.0084357
    },
    {
      "type": "node",
      "id": 4413062121,
      "lat": 51.4109223,
      "lon": 5.0080296
    },
    {
      "type": "node",
      "id": 4413062125,
      "lat": 51.4110106,
      "lon": 5.0082316
    },
    {
      "type": "node",
      "id": 6505763992,
      "lat": 51.4504819,
      "lon": 4.9291607
    },
    {
      "type": "node",
      "id": 6505763993,
      "lat": 51.450444,
      "lon": 4.9292385
    },
    {
      "type": "node",
      "id": 6505763994,
      "lat": 51.4504886,
      "lon": 4.9292267
    },
    {
      "type": "node",
      "id": 6505763995,
      "lat": 51.4504427,
      "lon": 4.9287476
    },
    {
      "type": "node",
      "id": 6505763996,
      "lat": 51.4503955,
      "lon": 4.9287611
    },
    {
      "type": "node",
      "id": 6505763997,
      "lat": 51.4504372,
      "lon": 4.9291724
    },
    {
      "type": "node",
      "id": 6505763998,
      "lat": 51.450434,
      "lon": 4.9286693
    },
    {
      "type": "node",
      "id": 6505763999,
      "lat": 51.4503868,
      "lon": 4.9286828
    }
  ]
}