{
  "version": 0.6,
  "generator": "Overpass API 0.7.56.8 7d656e78",
  "osm3s": {
    "timestamp_osm_base": "2021-12-11T04:49:28Z",
    "copyright": "The data included in this document is from www.openstreetmap.org. The data is made available under ODbL."
  },
  "elements": [
    {
      "type": "node",
      "id": 189136446,
      "lat": 51.5419118,
      "lon": 5.2448834,
      "tags": {
        "amenity": "parking"
      }
    },
    {
      "type": "node",
      "id": 751976545,
      "lat": 51.5476107,
      "lon": 5.22271,
      "tags": {
        "amenity": "bench",
        "backrest": "yes",
        "colour": "brown",
        "material": "wood"
      }
    },
    {
      "type": "node",
      "id": 1152619005,
      "lat": 51.5505945,
      "lon": 5.2284829,
      "tags": {
        "amenity": "parking"
      }
    },
    {
      "type": "node",
      "id": 1169747699,
      "lat": 51.55462,
      "lon": 5.20696,
      "tags": {
        "leisure": "bird_hide",
        "name": "Kampina - Kolkven - Vogelkijkpunten",
        "note": "Kampina - Kolkven - Vogelkijkpunten"
      }
    },
    {
      "type": "node",
      "id": 2367714724,
      "lat": 51.5543785,
      "lon": 5.2447858,
      "tags": {
        "amenity": "bench"
      }
    },
    {
      "type": "node",
      "id": 2367714733,
      "lat": 51.5543468,
      "lon": 5.2448113,
      "tags": {
        "amenity": "bench"
      }
    },
    {
      "type": "node",
      "id": 2367714735,
      "lat": 51.5543435,
      "lon": 5.2446637,
      "tags": {
        "amenity": "bench"
      }
    },
    {
      "type": "node",
      "id": 2367714742,
      "lat": 51.5544094,
      "lon": 5.244751,
      "tags": {
        "amenity": "bench"
      }
    },
    {
      "type": "node",
      "id": 2367714751,
      "lat": 51.5543185,
      "lon": 5.2447093,
      "tags": {
        "amenity": "bench"
      }
    },
    {
      "type": "node",
      "id": 2415604419,
      "lat": 51.5373201,
      "lon": 5.1900843,
      "tags": {
        "amenity": "bench"
      }
    },
    {
      "type": "node",
      "id": 2428389369,
      "lat": 51.5169082,
      "lon": 5.2591842,
      "tags": {
        "leisure": "bird_hide",
        "shelter": "no"
      }
    },
    {
      "type": "node",
      "id": 2825870739,
      "lat": 51.5203544,
      "lon": 5.2661339,
      "tags": {
        "addr:city": "Oirschot",
        "addr:housenumber": "130",
        "addr:postcode": "5688KE",
        "addr:street": "Spoordonkseweg",
        "email": "info@spoordonksewatermolen.nl",
        "heritage": "2",
        "heritage:operator": "rce",
        "man_made": "watermill",
        "name": "Spoordonkse Watermolen",
        "opening_hours": "We-Su 10:00+",
        "phone": "0499577186",
        "ref:rce": "31351",
        "source": "BAG",
        "source:date": "2014-03-24",
        "website": "http://www.spoordonksewatermolen.nl/",
        "wikidata": "Q2099514",
        "wikipedia": "nl:Spoordonkse Watermolen"
      }
    },
    {
      "type": "node",
      "id": 3106850720,
      "lat": 51.55971,
      "lon": 5.2059921,
      "tags": {
        "amenity": "bench",
        "backrest": "yes"
      }
    },
    {
      "type": "node",
      "id": 3106850721,
      "lat": 51.5575933,
      "lon": 5.1975977,
      "tags": {
        "amenity": "bench",
        "backrest": "yes"
      }
    },
    {
      "type": "node",
      "id": 3106850722,
      "lat": 51.5573672,
      "lon": 5.1965616,
      "tags": {
        "amenity": "bench",
        "backrest": "yes"
      }
    },
    {
      "type": "node",
      "id": 3106850723,
      "lat": 51.5603197,
      "lon": 5.1964747,
      "tags": {
        "amenity": "bench",
        "backrest": "no"
      }
    },
    {
      "type": "node",
      "id": 3106851432,
      "lat": 51.5586798,
      "lon": 5.2208997,
      "tags": {
        "amenity": "bench",
        "backrest": "yes"
      }
    },
    {
      "type": "node",
      "id": 3106918533,
      "lat": 51.5601981,
      "lon": 5.2360689,
      "tags": {
        "amenity": "bench",
        "tourism": "picnic_site"
      }
    },
    {
      "type": "node",
      "id": 3106918536,
      "lat": 51.5433301,
      "lon": 5.24338,
      "tags": {
        "amenity": "bench",
        "backrest": "yes"
      }
    },
    {
      "type": "node",
      "id": 3106918537,
      "lat": 51.534627,
      "lon": 5.2426163,
      "tags": {
        "amenity": "bench",
        "backrest": "yes"
      }
    },
    {
      "type": "node",
      "id": 3106918538,
      "lat": 51.5419159,
      "lon": 5.2266687,
      "tags": {
        "amenity": "bench",
        "backrest": "yes"
      }
    },
    {
      "type": "node",
      "id": 3106918540,
      "lat": 51.5370802,
      "lon": 5.2046258,
      "tags": {
        "amenity": "bench",
        "backrest": "yes"
      }
    },
    {
      "type": "node",
      "id": 3106918541,
      "lat": 51.5228708,
      "lon": 5.2142675,
      "tags": {
        "leisure": "picnic_table"
      }
    },
    {
      "type": "node",
      "id": 3106918542,
      "lat": 51.5185817,
      "lon": 5.1943482,
      "tags": {
        "amenity": "bench",
        "backrest": "no"
      }
    },
    {
      "type": "node",
      "id": 3106918546,
      "lat": 51.5589223,
      "lon": 5.1932403,
      "tags": {
        "amenity": "bench",
        "backrest": "yes"
      }
    },
    {
      "type": "node",
      "id": 3106918547,
      "lat": 51.5560325,
      "lon": 5.194887,
      "tags": {
        "amenity": "bench",
        "backrest": "yes"
      }
    },
    {
      "type": "node",
      "id": 3106918548,
      "lat": 51.5536247,
      "lon": 5.1968417,
      "tags": {
        "amenity": "bench",
        "backrest": "yes"
      }
    },
    {
      "type": "node",
      "id": 3106918564,
      "lat": 51.5461912,
      "lon": 5.1869956,
      "tags": {
        "amenity": "bench",
        "backrest": "yes"
      }
    },
    {
      "type": "node",
      "id": 3106918565,
      "lat": 51.5457796,
      "lon": 5.1869655,
      "tags": {
        "amenity": "bench",
        "backrest": "yes"
      }
    },
    {
      "type": "node",
      "id": 3106992443,
      "lat": 51.5619115,
      "lon": 5.2627324,
      "tags": {
        "amenity": "bench",
        "backrest": "yes"
      }
    },
    {
      "type": "node",
      "id": 3107050140,
      "lat": 51.5447253,
      "lon": 5.260549,
      "tags": {
        "amenity": "bench",
        "tourism": "picnic_site"
      }
    },
    {
      "type": "node",
      "id": 3107050141,
      "lat": 51.5440734,
      "lon": 5.2638725,
      "tags": {
        "amenity": "bench",
        "backrest": "yes"
      }
    },
    {
      "type": "node",
      "id": 3413275613,
      "lat": 51.5160908,
      "lon": 5.2690313,
      "tags": {
        "amenity": "bench"
      }
    },
    {
      "type": "node",
      "id": 3783056187,
      "lat": 51.553091,
      "lon": 5.2675468,
      "tags": {
        "amenity": "bench",
        "backrest": "yes",
        "seats": "3"
      }
    },
    {
      "type": "node",
      "id": 3783228822,
      "lat": 51.5550375,
      "lon": 5.2655536,
      "tags": {
        "board_type": "history",
        "image": "https://upload.wikimedia.org/wikipedia/commons/1/1b/Balsvoort_Boerderij_2.JPG",
        "information": "board",
        "name": "Balsvoort Boerderijen",
        "tourism": "information"
      }
    },
    {
      "type": "node",
      "id": 4398787811,
      "lat": 51.5540806,
      "lon": 5.1900557,
      "tags": {
        "amenity": "bench",
        "backrest": "yes",
        "bin": "no",
        "direction": "WSW",
        "material": "mixed"
      }
    },
    {
      "type": "node",
      "id": 4401504279,
      "lat": 51.5626905,
      "lon": 5.2143412,
      "tags": {
        "amenity": "bench",
        "backrest": "yes",
        "bin": "no",
        "direction": "SSE",
        "material": "wood",
        "name": "\"Vier het leven\""
      }
    },
    {
      "type": "node",
      "id": 4636274797,
      "lat": 51.5193015,
      "lon": 5.2693494,
      "tags": {
        "amenity": "bench"
      }
    },
    {
      "type": "node",
      "id": 5751734521,
      "lat": 51.561142,
      "lon": 5.198773,
      "tags": {
        "amenity": "bench"
      }
    },
    {
      "type": "node",
      "id": 6141092013,
      "lat": 51.5538951,
      "lon": 5.2254976,
      "tags": {
        "bicycle": "yes",
        "highway": "trailhead",
        "hiking": "yes",
        "information": "board",
        "name": "Streekpark Klein Oisterwijk",
        "source": "gpsfietsroutesnederland.nl",
        "tourism": "information",
        "url": "https://gpsfietsroutesnederland.nl/toeristische-overstappunten/",
        "website": "https://www.natuurpoorten.nl/",
        "wikipedia": "nl:Toeristisch Overstappunt"
      }
    },
    {
      "type": "node",
      "id": 6141092029,
      "lat": 51.520181,
      "lon": 5.2663003,
      "tags": {
        "bicycle": "yes",
        "highway": "trailhead",
        "hiking": "yes",
        "information": "board",
        "name": "Natuurpoort de Spoordonkse Watermolen",
        "source": "gpsfietsroutesnederland.nl",
        "survey:date": "2018-11",
        "tourism": "information",
        "url": "https://gpsfietsroutesnederland.nl/toeristische-overstappunten/",
        "website": "https://www.natuurpoorten.nl/",
        "wikipedia": "nl:Toeristisch Overstappunt"
      }
    },
    {
      "type": "node",
      "id": 6302309279,
      "lat": 51.5552104,
      "lon": 5.2652322,
      "tags": {
        "amenity": "bench"
      }
    },
    {
      "type": "node",
      "id": 6302309280,
      "lat": 51.5553912,
      "lon": 5.2654728,
      "tags": {
        "leisure": "picnic_table",
        "tourism": "picnic_site"
      }
    },
    {
      "type": "node",
      "id": 7150712400,
      "lat": 51.5541048,
      "lon": 5.2235095,
      "tags": {
        "amenity": "bench"
      }
    },
    {
      "type": "node",
      "id": 7156927657,
      "lat": 51.5447717,
      "lon": 5.20654,
      "tags": {
        "amenity": "bench"
      }
    },
    {
      "type": "node",
      "id": 7176736518,
      "lat": 51.5582665,
      "lon": 5.2109326,
      "tags": {
        "amenity": "bench",
        "backrest": "yes"
      }
    },
    {
      "type": "node",
      "id": 7213676436,
      "lat": 51.5571651,
      "lon": 5.2064929,
      "tags": {
        "amenity": "bench",
        "backrest": "yes"
      }
    },
    {
      "type": "node",
      "id": 7215601835,
      "lat": 51.5610812,
      "lon": 5.188699,
      "tags": {
        "amenity": "bench"
      }
    },
    {
      "type": "node",
      "id": 7527125884,
      "lat": 51.521535,
      "lon": 5.2665199,
      "tags": {
        "amenity": "bench"
      }
    },
    {
      "type": "node",
      "id": 7527147685,
      "lat": 51.5220323,
      "lon": 5.2664153,
      "tags": {
        "amenity": "bench"
      }
    },
    {
      "type": "node",
      "id": 7532065119,
      "lat": 51.5378435,
      "lon": 5.262241,
      "tags": {
        "amenity": "bench"
      }
    },
    {
      "type": "node",
      "id": 7532065120,
      "lat": 51.5377948,
      "lon": 5.2622912,
      "tags": {
        "amenity": "bench"
      }
    },
    {
      "type": "node",
      "id": 7565909485,
      "lat": 51.552296,
      "lon": 5.2594619,
      "tags": {
        "amenity": "bench",
        "material": "wood",
        "seats": "2"
      }
    },
    {
      "type": "node",
      "id": 7757187073,
      "lat": 51.5552382,
      "lon": 5.2654326,
      "tags": {
        "board_type": "history",
        "image": "https://www.mapillary.com/app/?lat=51.55524318576935&lng=5.26545750909044&z=17&pKey=fKHAyD1W3oIEXuDnWSsR-w&focus=photo",
        "information": "board",
        "name": "Landbouwenclave Balsvoort",
        "tourism": "information"
      }
    },
    {
      "type": "node",
      "id": 8120555027,
      "lat": 51.5632671,
      "lon": 5.2076099,
      "tags": {
        "amenity": "bench",
        "backrest": "yes"
      }
    },
    {
      "type": "node",
      "id": 8150952004,
      "lat": 51.5463964,
      "lon": 5.1868977,
      "tags": {
        "amenity": "bench",
        "backrest": "yes"
      }
    },
    {
      "type": "node",
      "id": 8528403749,
      "lat": 51.5536279,
      "lon": 5.196932,
      "tags": {
        "board_type": "notice",
        "information": "board",
        "name": "Middelpunt gemeente Oisterwijk",
        "tourism": "information"
      }
    },
    {
      "type": "node",
      "id": 8595741121,
      "lat": 51.5608295,
      "lon": 5.2680205,
      "tags": {
        "amenity": "bench"
      }
    },
    {
      "type": "node",
      "id": 8648891078,
      "lat": 51.5605088,
      "lon": 5.2535934,
      "tags": {
        "amenity": "bench",
        "backrest": "no"
      }
    },
    {
      "type": "node",
      "id": 8648913979,
      "lat": 51.562012,
      "lon": 5.1994529,
      "tags": {
        "amenity": "bench",
        "backrest": "yes"
      }
    },
    {
      "type": "node",
      "id": 8648915919,
      "lat": 51.5628829,
      "lon": 5.1919874,
      "tags": {
        "amenity": "bench",
        "backrest": "yes"
      }
    },
    {
      "type": "node",
      "id": 9066938319,
      "lat": 51.5201941,
      "lon": 5.2652538,
      "tags": {
        "amenity": "bench"
      }
    },
    {
      "type": "node",
      "id": 9124494620,
      "lat": 51.520563,
      "lon": 5.2537461,
      "tags": {
        "amenity": "bench"
      }
    },
    {
      "type": "way",
      "id": 44188210,
      "nodes": [
        6421390884,
        1180835135,
        561271605,
        1180818559,
        6421390884
      ],
      "tags": {
        "amenity": "parking"
      }
    },
    {
      "type": "way",
      "id": 44188234,
      "nodes": [
        561271808,
        561271809,
        561271810,
        561271811,
        561271808
      ],
      "tags": {
        "amenity": "parking"
      }
    },
    {
      "type": "way",
      "id": 44188274,
      "nodes": [
        561271821,
        561271824,
        561271827,
        561271830,
        561271821
      ],
      "tags": {
        "access": "customers",
        "amenity": "parking"
      }
    },
    {
      "type": "way",
      "id": 45260656,
      "nodes": [
        977897629,
        1255969904,
        1255961134,
        574798851,
        574798852,
        977898988,
        1255961136,
        977897629
      ],
      "tags": {
        "amenity": "parking",
        "name": "Logtsebaan P"
      }
    },
    {
      "type": "way",
      "id": 45260665,
      "nodes": [
        574798881,
        574798882,
        574798883,
        574798889,
        574798891,
        574798881
      ],
      "tags": {
        "amenity": "parking"
      }
    },
    {
      "type": "way",
      "id": 219813335,
      "nodes": [
        2289426599,
        2289426597,
        2289426618,
        2289426619,
        2289426599
      ],
      "tags": {
        "amenity": "parking",
        "parking": "surface"
      }
    },
    {
      "type": "way",
      "id": 219878067,
      "nodes": [
        2290106991,
        2290106992,
        2290106994,
        2290106993,
        2290106991
      ],
      "tags": {
        "amenity": "parking",
        "fee": "no",
        "name": "Klein Oisterwijk",
        "parking": "surface",
        "source": "gps"
      }
    },
    {
      "type": "way",
      "id": 454850490,
      "nodes": [
        978658572,
        4513444917,
        978692996,
        978723909,
        978677630,
        978661634,
        978687116,
        978658572
      ],
      "tags": {
        "amenity": "parking"
      }
    },
    {
      "type": "way",
      "id": 467906131,
      "nodes": [
        4624904770,
        4624904769,
        4624904768,
        4624904767,
        4624904770
      ],
      "tags": {
        "access": "customers",
        "amenity": "parking",
        "capacity": "28",
        "parking": "surface"
      }
    },
    {
      "type": "way",
      "id": 538832977,
      "nodes": [
        5214987536,
        5214987537,
        2824053328,
        2824053343,
        7072370596,
        5214987538,
        5214987536
      ],
      "tags": {
        "amenity": "parking"
      }
    },
    {
      "type": "way",
      "id": 664367033,
      "nodes": [
        978293342,
        6218319218,
        978351185,
        978293342
      ],
      "tags": {
        "amenity": "parking"
      }
    },
    {
      "type": "way",
      "id": 677951103,
      "nodes": [
        2825876342,
        2825876258,
        6347917397,
        6347917396,
        6347917394,
        6347917395,
        2825876342
      ],
      "tags": {
        "amenity": "parking"
      }
    },
    {
      "type": "way",
      "id": 768306924,
      "nodes": [
        7173078460,
        7173078459,
        7173078458,
        7173078457,
        7173078456,
        7173078455,
        7173078454,
        7173078460
      ],
      "tags": {
        "amenity": "parking"
      }
    },
    {
      "type": "way",
      "id": 768714254,
      "nodes": [
        7176736536,
        7176736535,
        7176736534,
        7176736533,
        7176736536
      ],
      "tags": {
        "access": "destination",
        "amenity": "parking"
      }
    },
    {
      "type": "way",
      "id": 790434233,
      "nodes": [
        7389770773,
        7389770774,
        7389770775,
        7389770776,
        7389770777,
        7389770778,
        7389770773
      ],
      "tags": {
        "access": "yes",
        "amenity": "parking",
        "capacity": "15",
        "fee": "no",
        "parking": "surface",
        "surface": "ground"
      }
    },
    {
      "type": "way",
      "id": 790444411,
      "nodes": [
        7389853952,
        7389853953,
        7389853954,
        7397492953,
        7389853955,
        7389853956,
        7389853958,
        7389853952
      ],
      "tags": {
        "access": "yes",
        "amenity": "parking",
        "capacity": "8",
        "fee": "no",
        "parking": "surface",
        "surface": "ground"
      }
    },
    {
      "type": "way",
      "id": 790444421,
      "nodes": [
        7389866985,
        7389866986,
        7398770913,
        7389866987,
        7389866985
      ],
      "tags": {
        "access": "yes",
        "amenity": "parking",
        "capacity": "8",
        "fee": "no",
        "parking": "surface",
        "surface": "paving_stones"
      }
    },
    {
      "type": "way",
      "id": 790444422,
      "nodes": [
        7389866988,
        7389866989,
        7389866990,
        7389866992,
        7389866993,
        7389866994,
        7389866995,
        7389866996,
        7389866988
      ],
      "tags": {
        "access": "yes",
        "amenity": "parking",
        "capacity": "15",
        "fee": "no",
        "surface": "paving_stones"
      }
    },
    {
      "type": "node",
      "id": 189136446,
      "lat": 51.5419118,
      "lon": 5.2448834,
      "timestamp": "2020-02-11T10:05:11Z",
      "version": 2,
      "changeset": 80842785,
      "user": "A67-A67",
      "uid": 553736,
      "tags": {
        "amenity": "parking"
      }
    },
    {
      "type": "node",
      "id": 751976545,
      "lat": 51.5476107,
      "lon": 5.22271,
      "timestamp": "2010-05-27T20:51:50Z",
      "version": 1,
      "changeset": 4825614,
      "user": "ivom",
      "uid": 10613,
      "tags": {
        "amenity": "bench",
        "backrest": "yes",
        "colour": "brown",
        "material": "wood"
      }
    },
    {
      "type": "node",
      "id": 1152619005,
      "lat": 51.5505945,
      "lon": 5.2284829,
      "timestamp": "2011-02-14T11:23:15Z",
      "version": 1,
      "changeset": 7284914,
      "user": "Michiel Faber",
      "uid": 46989,
      "tags": {
        "amenity": "parking"
      }
    },
    {
      "type": "node",
      "id": 1169747699,
      "lat": 51.55462,
      "lon": 5.20696,
      "timestamp": "2011-02-24T10:23:59Z",
      "version": 1,
      "changeset": 7380118,
      "user": "joostdejong",
      "uid": 21555,
      "tags": {
        "leisure": "bird_hide",
        "name": "Kampina - Kolkven - Vogelkijkpunten",
        "note": "Kampina - Kolkven - Vogelkijkpunten"
      }
    },
    {
      "type": "node",
      "id": 2367714724,
      "lat": 51.5543785,
      "lon": 5.2447858,
      "timestamp": "2013-06-30T19:48:43Z",
      "version": 1,
      "changeset": 16769191,
      "user": "WanFie",
      "uid": 1018083,
      "tags": {
        "amenity": "bench"
      }
    },
    {
      "type": "node",
      "id": 2367714733,
      "lat": 51.5543468,
      "lon": 5.2448113,
      "timestamp": "2013-06-30T19:48:43Z",
      "version": 1,
      "changeset": 16769191,
      "user": "WanFie",
      "uid": 1018083,
      "tags": {
        "amenity": "bench"
      }
    },
    {
      "type": "node",
      "id": 2367714735,
      "lat": 51.5543435,
      "lon": 5.2446637,
      "timestamp": "2013-06-30T19:48:43Z",
      "version": 1,
      "changeset": 16769191,
      "user": "WanFie",
      "uid": 1018083,
      "tags": {
        "amenity": "bench"
      }
    },
    {
      "type": "node",
      "id": 2367714742,
      "lat": 51.5544094,
      "lon": 5.244751,
      "timestamp": "2013-06-30T19:48:43Z",
      "version": 1,
      "changeset": 16769191,
      "user": "WanFie",
      "uid": 1018083,
      "tags": {
        "amenity": "bench"
      }
    },
    {
      "type": "node",
      "id": 2367714751,
      "lat": 51.5543185,
      "lon": 5.2447093,
      "timestamp": "2013-06-30T19:48:43Z",
      "version": 1,
      "changeset": 16769191,
      "user": "WanFie",
      "uid": 1018083,
      "tags": {
        "amenity": "bench"
      }
    },
    {
      "type": "node",
      "id": 2415604419,
      "lat": 51.5373201,
      "lon": 5.1900843,
      "timestamp": "2013-08-12T04:55:03Z",
      "version": 1,
      "changeset": 17312135,
      "user": "Jarien",
      "uid": 395348,
      "tags": {
        "amenity": "bench"
      }
    },
    {
      "type": "node",
      "id": 2428389369,
      "lat": 51.5169082,
      "lon": 5.2591842,
      "timestamp": "2013-08-22T17:49:37Z",
      "version": 1,
      "changeset": 17459207,
      "user": "Jarien",
      "uid": 395348,
      "tags": {
        "leisure": "bird_hide",
        "shelter": "no"
      }
    },
    {
      "type": "node",
      "id": 2825870739,
      "lat": 51.5203544,
      "lon": 5.2661339,
      "timestamp": "2019-04-22T10:42:14Z",
      "version": 9,
      "changeset": 69448215,
      "user": "de vries",
      "uid": 1707814,
      "tags": {
        "addr:city": "Oirschot",
        "addr:housenumber": "130",
        "addr:postcode": "5688KE",
        "addr:street": "Spoordonkseweg",
        "email": "info@spoordonksewatermolen.nl",
        "heritage": "2",
        "heritage:operator": "rce",
        "man_made": "watermill",
        "name": "Spoordonkse Watermolen",
        "opening_hours": "We-Su 10:00+",
        "phone": "0499577186",
        "ref:rce": "31351",
        "source": "BAG",
        "source:date": "2014-03-24",
        "website": "http://www.spoordonksewatermolen.nl/",
        "wikidata": "Q2099514",
        "wikipedia": "nl:Spoordonkse Watermolen"
      }
    },
    {
      "type": "node",
      "id": 3106850720,
      "lat": 51.55971,
      "lon": 5.2059921,
      "timestamp": "2020-11-15T10:16:24Z",
      "version": 3,
      "changeset": 94137807,
      "user": "staf",
      "uid": 377797,
      "tags": {
        "amenity": "bench",
        "backrest": "yes"
      }
    },
    {
      "type": "node",
      "id": 3106850721,
      "lat": 51.5575933,
      "lon": 5.1975977,
      "timestamp": "2014-10-02T11:08:03Z",
      "version": 1,
      "changeset": 25807910,
      "user": "Garstig",
      "uid": 1623234,
      "tags": {
        "amenity": "bench",
        "backrest": "yes"
      }
    },
    {
      "type": "node",
      "id": 3106850722,
      "lat": 51.5573672,
      "lon": 5.1965616,
      "timestamp": "2020-11-15T10:04:31Z",
      "version": 2,
      "changeset": 94137807,
      "user": "staf",
      "uid": 377797,
      "tags": {
        "amenity": "bench",
        "backrest": "yes"
      }
    },
    {
      "type": "node",
      "id": 3106850723,
      "lat": 51.5603197,
      "lon": 5.1964747,
      "timestamp": "2014-10-02T11:08:03Z",
      "version": 1,
      "changeset": 25807910,
      "user": "Garstig",
      "uid": 1623234,
      "tags": {
        "amenity": "bench",
        "backrest": "no"
      }
    },
    {
      "type": "node",
      "id": 3106851432,
      "lat": 51.5586798,
      "lon": 5.2208997,
      "timestamp": "2014-10-02T11:08:04Z",
      "version": 1,
      "changeset": 25807910,
      "user": "Garstig",
      "uid": 1623234,
      "tags": {
        "amenity": "bench",
        "backrest": "yes"
      }
    },
    {
      "type": "node",
      "id": 3106918533,
      "lat": 51.5601981,
      "lon": 5.2360689,
      "timestamp": "2021-07-09T09:59:17Z",
      "version": 2,
      "changeset": 107692857,
      "user": "eggie",
      "uid": 334075,
      "tags": {
        "amenity": "bench",
        "tourism": "picnic_site"
      }
    },
    {
      "type": "node",
      "id": 3106918536,
      "lat": 51.5433301,
      "lon": 5.24338,
      "timestamp": "2014-10-02T11:40:41Z",
      "version": 1,
      "changeset": 25808447,
      "user": "Garstig",
      "uid": 1623234,
      "tags": {
        "amenity": "bench",
        "backrest": "yes"
      }
    },
    {
      "type": "node",
      "id": 3106918537,
      "lat": 51.534627,
      "lon": 5.2426163,
      "timestamp": "2014-10-02T11:40:41Z",
      "version": 1,
      "changeset": 25808447,
      "user": "Garstig",
      "uid": 1623234,
      "tags": {
        "amenity": "bench",
        "backrest": "yes"
      }
    },
    {
      "type": "node",
      "id": 3106918538,
      "lat": 51.5419159,
      "lon": 5.2266687,
      "timestamp": "2014-10-02T11:40:41Z",
      "version": 1,
      "changeset": 25808447,
      "user": "Garstig",
      "uid": 1623234,
      "tags": {
        "amenity": "bench",
        "backrest": "yes"
      }
    },
    {
      "type": "node",
      "id": 3106918540,
      "lat": 51.5370802,
      "lon": 5.2046258,
      "timestamp": "2014-10-02T11:40:42Z",
      "version": 1,
      "changeset": 25808447,
      "user": "Garstig",
      "uid": 1623234,
      "tags": {
        "amenity": "bench",
        "backrest": "yes"
      }
    },
    {
      "type": "node",
      "id": 3106918541,
      "lat": 51.5228708,
      "lon": 5.2142675,
      "timestamp": "2018-01-23T07:37:04Z",
      "version": 2,
      "changeset": 55675541,
      "user": "byckel",
      "uid": 2195662,
      "tags": {
        "leisure": "picnic_table"
      }
    },
    {
      "type": "node",
      "id": 3106918542,
      "lat": 51.5185817,
      "lon": 5.1943482,
      "timestamp": "2016-11-21T10:20:57Z",
      "version": 2,
      "changeset": 43843089,
      "user": "Andre Engels",
      "uid": 4054,
      "tags": {
        "amenity": "bench",
        "backrest": "no"
      }
    },
    {
      "type": "node",
      "id": 3106918546,
      "lat": 51.5589223,
      "lon": 5.1932403,
      "timestamp": "2014-10-02T11:40:42Z",
      "version": 1,
      "changeset": 25808447,
      "user": "Garstig",
      "uid": 1623234,
      "tags": {
        "amenity": "bench",
        "backrest": "yes"
      }
    },
    {
      "type": "node",
      "id": 3106918547,
      "lat": 51.5560325,
      "lon": 5.194887,
      "timestamp": "2020-11-15T10:02:30Z",
      "version": 2,
      "changeset": 94137807,
      "user": "staf",
      "uid": 377797,
      "tags": {
        "amenity": "bench",
        "backrest": "yes"
      }
    },
    {
      "type": "node",
      "id": 3106918548,
      "lat": 51.5536247,
      "lon": 5.1968417,
      "timestamp": "2014-10-02T11:40:42Z",
      "version": 1,
      "changeset": 25808447,
      "user": "Garstig",
      "uid": 1623234,
      "tags": {
        "amenity": "bench",
        "backrest": "yes"
      }
    },
    {
      "type": "node",
      "id": 3106918564,
      "lat": 51.5461912,
      "lon": 5.1869956,
      "timestamp": "2014-10-02T11:40:43Z",
      "version": 1,
      "changeset": 25808447,
      "user": "Garstig",
      "uid": 1623234,
      "tags": {
        "amenity": "bench",
        "backrest": "yes"
      }
    },
    {
      "type": "node",
      "id": 3106918565,
      "lat": 51.5457796,
      "lon": 5.1869655,
      "timestamp": "2014-10-02T11:40:43Z",
      "version": 1,
      "changeset": 25808447,
      "user": "Garstig",
      "uid": 1623234,
      "tags": {
        "amenity": "bench",
        "backrest": "yes"
      }
    },
    {
      "type": "node",
      "id": 3106992443,
      "lat": 51.5619115,
      "lon": 5.2627324,
      "timestamp": "2014-10-02T12:21:15Z",
      "version": 1,
      "changeset": 25809145,
      "user": "Garstig",
      "uid": 1623234,
      "tags": {
        "amenity": "bench",
        "backrest": "yes"
      }
    },
    {
      "type": "node",
      "id": 3107050140,
      "lat": 51.5447253,
      "lon": 5.260549,
      "timestamp": "2014-10-02T12:54:18Z",
      "version": 1,
      "changeset": 25809762,
      "user": "Garstig",
      "uid": 1623234,
      "tags": {
        "amenity": "bench",
        "tourism": "picnic_site"
      }
    },
    {
      "type": "node",
      "id": 3107050141,
      "lat": 51.5440734,
      "lon": 5.2638725,
      "timestamp": "2014-10-02T12:54:18Z",
      "version": 1,
      "changeset": 25809762,
      "user": "Garstig",
      "uid": 1623234,
      "tags": {
        "amenity": "bench",
        "backrest": "yes"
      }
    },
    {
      "type": "node",
      "id": 3413275613,
      "lat": 51.5160908,
      "lon": 5.2690313,
      "timestamp": "2015-03-22T19:48:40Z",
      "version": 1,
      "changeset": 29664268,
      "user": "Andre Engels",
      "uid": 4054,
      "tags": {
        "amenity": "bench"
      }
    },
    {
      "type": "node",
      "id": 3783056187,
      "lat": 51.553091,
      "lon": 5.2675468,
      "timestamp": "2015-10-12T12:35:35Z",
      "version": 2,
      "changeset": 34589350,
      "user": "marczoutendijk",
      "uid": 606555,
      "tags": {
        "amenity": "bench",
        "backrest": "yes",
        "seats": "3"
      }
    },
    {
      "type": "node",
      "id": 3783228822,
      "lat": 51.5550375,
      "lon": 5.2655536,
      "timestamp": "2020-07-27T17:20:40Z",
      "version": 3,
      "changeset": 88578067,
      "user": "marczoutendijk",
      "uid": 606555,
      "tags": {
        "board_type": "history",
        "image": "https://upload.wikimedia.org/wikipedia/commons/1/1b/Balsvoort_Boerderij_2.JPG",
        "information": "board",
        "name": "Balsvoort Boerderijen",
        "tourism": "information"
      }
    },
    {
      "type": "node",
      "id": 4398787811,
      "lat": 51.5540806,
      "lon": 5.1900557,
      "timestamp": "2016-09-14T17:50:51Z",
      "version": 2,
      "changeset": 42155328,
      "user": "A Flying Dutchman",
      "uid": 4416340,
      "tags": {
        "amenity": "bench",
        "backrest": "yes",
        "bin": "no",
        "direction": "WSW",
        "material": "mixed"
      }
    },
    {
      "type": "node",
      "id": 4401504279,
      "lat": 51.5626905,
      "lon": 5.2143412,
      "timestamp": "2016-09-14T18:10:55Z",
      "version": 2,
      "changeset": 42155722,
      "user": "A Flying Dutchman",
      "uid": 4416340,
      "tags": {
        "amenity": "bench",
        "backrest": "yes",
        "bin": "no",
        "direction": "SSE",
        "material": "wood",
        "name": "\"Vier het leven\""
      }
    },
    {
      "type": "node",
      "id": 4636274797,
      "lat": 51.5193015,
      "lon": 5.2693494,
      "timestamp": "2017-01-26T23:50:28Z",
      "version": 1,
      "changeset": 45535230,
      "user": "KempenNL",
      "uid": 5200591,
      "tags": {
        "amenity": "bench"
      }
    },
    {
      "type": "node",
      "id": 5751734521,
      "lat": 51.561142,
      "lon": 5.198773,
      "timestamp": "2018-07-10T12:35:06Z",
      "version": 1,
      "changeset": 60575702,
      "user": "Wim van der Ven",
      "uid": 1817282,
      "tags": {
        "amenity": "bench"
      }
    },
    {
      "type": "node",
      "id": 6141092013,
      "lat": 51.5538951,
      "lon": 5.2254976,
      "timestamp": "2020-01-22T08:45:56Z",
      "version": 2,
      "changeset": 79903268,
      "user": "FrankOverman",
      "uid": 1987570,
      "tags": {
        "bicycle": "yes",
        "highway": "trailhead",
        "hiking": "yes",
        "information": "board",
        "name": "Streekpark Klein Oisterwijk",
        "source": "gpsfietsroutesnederland.nl",
        "tourism": "information",
        "url": "https://gpsfietsroutesnederland.nl/toeristische-overstappunten/",
        "website": "https://www.natuurpoorten.nl/",
        "wikipedia": "nl:Toeristisch Overstappunt"
      }
    },
    {
      "type": "node",
      "id": 6141092029,
      "lat": 51.520181,
      "lon": 5.2663003,
      "timestamp": "2018-12-24T09:25:41Z",
      "version": 3,
      "changeset": 65734658,
      "user": "Peter Elderson",
      "uid": 7103674,
      "tags": {
        "bicycle": "yes",
        "highway": "trailhead",
        "hiking": "yes",
        "information": "board",
        "name": "Natuurpoort de Spoordonkse Watermolen",
        "source": "gpsfietsroutesnederland.nl",
        "survey:date": "2018-11",
        "tourism": "information",
        "url": "https://gpsfietsroutesnederland.nl/toeristische-overstappunten/",
        "website": "https://www.natuurpoorten.nl/",
        "wikipedia": "nl:Toeristisch Overstappunt"
      }
    },
    {
      "type": "node",
      "id": 6302309279,
      "lat": 51.5552104,
      "lon": 5.2652322,
      "timestamp": "2020-07-27T17:20:40Z",
      "version": 2,
      "changeset": 88578067,
      "user": "marczoutendijk",
      "uid": 606555,
      "tags": {
        "amenity": "bench"
      }
    },
    {
      "type": "node",
      "id": 6302309280,
      "lat": 51.5553912,
      "lon": 5.2654728,
      "timestamp": "2021-04-05T15:40:47Z",
      "version": 3,
      "changeset": 102344780,
      "user": "FrankOverman",
      "uid": 1987570,
      "tags": {
        "leisure": "picnic_table",
        "tourism": "picnic_site"
      }
    },
    {
      "type": "node",
      "id": 7150712400,
      "lat": 51.5541048,
      "lon": 5.2235095,
      "timestamp": "2020-01-22T08:45:56Z",
      "version": 1,
      "changeset": 79903268,
      "user": "FrankOverman",
      "uid": 1987570,
      "tags": {
        "amenity": "bench"
      }
    },
    {
      "type": "node",
      "id": 7156927657,
      "lat": 51.5447717,
      "lon": 5.20654,
      "timestamp": "2020-01-24T16:27:13Z",
      "version": 1,
      "changeset": 80043858,
      "user": "FrankOverman",
      "uid": 1987570,
      "tags": {
        "amenity": "bench"
      }
    },
    {
      "type": "node",
      "id": 7176736518,
      "lat": 51.5582665,
      "lon": 5.2109326,
      "timestamp": "2020-11-15T10:36:37Z",
      "version": 2,
      "changeset": 94137807,
      "user": "staf",
      "uid": 377797,
      "tags": {
        "amenity": "bench",
        "backrest": "yes"
      }
    },
    {
      "type": "node",
      "id": 7213676436,
      "lat": 51.5571651,
      "lon": 5.2064929,
      "timestamp": "2020-11-15T10:22:09Z",
      "version": 2,
      "changeset": 94137807,
      "user": "staf",
      "uid": 377797,
      "tags": {
        "amenity": "bench",
        "backrest": "yes"
      }
    },
    {
      "type": "node",
      "id": 7215601835,
      "lat": 51.5610812,
      "lon": 5.188699,
      "timestamp": "2020-02-16T07:20:33Z",
      "version": 1,
      "changeset": 81063145,
      "user": "FrankOverman",
      "uid": 1987570,
      "tags": {
        "amenity": "bench"
      }
    },
    {
      "type": "node",
      "id": 7527125884,
      "lat": 51.521535,
      "lon": 5.2665199,
      "timestamp": "2020-05-16T19:26:29Z",
      "version": 1,
      "changeset": 85314994,
      "user": "Fons de Beer",
      "uid": 11122239,
      "tags": {
        "amenity": "bench"
      }
    },
    {
      "type": "node",
      "id": 7527147685,
      "lat": 51.5220323,
      "lon": 5.2664153,
      "timestamp": "2020-05-16T19:26:29Z",
      "version": 1,
      "changeset": 85314994,
      "user": "Fons de Beer",
      "uid": 11122239,
      "tags": {
        "amenity": "bench"
      }
    },
    {
      "type": "node",
      "id": 7532065119,
      "lat": 51.5378435,
      "lon": 5.262241,
      "timestamp": "2020-05-18T10:51:38Z",
      "version": 1,
      "changeset": 85378695,
      "user": "Fons de Beer",
      "uid": 11122239,
      "tags": {
        "amenity": "bench"
      }
    },
    {
      "type": "node",
      "id": 7532065120,
      "lat": 51.5377948,
      "lon": 5.2622912,
      "timestamp": "2020-05-18T10:51:38Z",
      "version": 1,
      "changeset": 85378695,
      "user": "Fons de Beer",
      "uid": 11122239,
      "tags": {
        "amenity": "bench"
      }
    },
    {
      "type": "node",
      "id": 7565909485,
      "lat": 51.552296,
      "lon": 5.2594619,
      "timestamp": "2020-05-28T11:12:47Z",
      "version": 1,
      "changeset": 85886628,
      "user": "Fons de Beer",
      "uid": 11122239,
      "tags": {
        "amenity": "bench",
        "material": "wood",
        "seats": "2"
      }
    },
    {
      "type": "node",
      "id": 7757187073,
      "lat": 51.5552382,
      "lon": 5.2654326,
      "timestamp": "2020-07-27T17:23:59Z",
      "version": 1,
      "changeset": 88578186,
      "user": "marczoutendijk",
      "uid": 606555,
      "tags": {
        "board_type": "history",
        "image": "https://www.mapillary.com/app/?lat=51.55524318576935&lng=5.26545750909044&z=17&pKey=fKHAyD1W3oIEXuDnWSsR-w&focus=photo",
        "information": "board",
        "name": "Landbouwenclave Balsvoort",
        "tourism": "information"
      }
    },
    {
      "type": "node",
      "id": 8120555027,
      "lat": 51.5632671,
      "lon": 5.2076099,
      "timestamp": "2020-11-15T10:46:48Z",
      "version": 1,
      "changeset": 94139569,
      "user": "staf",
      "uid": 377797,
      "tags": {
        "amenity": "bench",
        "backrest": "yes"
      }
    },
    {
      "type": "node",
      "id": 8150952004,
      "lat": 51.5463964,
      "lon": 5.1868977,
      "timestamp": "2020-11-22T11:40:44Z",
      "version": 1,
      "changeset": 94576380,
      "user": "staf",
      "uid": 377797,
      "tags": {
        "amenity": "bench",
        "backrest": "yes"
      }
    },
    {
      "type": "node",
      "id": 8528403749,
      "lat": 51.5536279,
      "lon": 5.196932,
      "timestamp": "2021-03-17T13:11:08Z",
      "version": 1,
      "changeset": 101191641,
      "user": "fietswim",
      "uid": 477921,
      "tags": {
        "board_type": "notice",
        "information": "board",
        "name": "Middelpunt gemeente Oisterwijk",
        "tourism": "information"
      }
    },
    {
      "type": "node",
      "id": 8595741121,
      "lat": 51.5608295,
      "lon": 5.2680205,
      "timestamp": "2021-04-05T15:40:47Z",
      "version": 1,
      "changeset": 102344780,
      "user": "FrankOverman",
      "uid": 1987570,
      "tags": {
        "amenity": "bench"
      }
    },
    {
      "type": "node",
      "id": 8648891078,
      "lat": 51.5605088,
      "lon": 5.2535934,
      "timestamp": "2021-04-20T21:24:28Z",
      "version": 1,
      "changeset": 103295478,
      "user": "Peter Elderson",
      "uid": 7103674,
      "tags": {
        "amenity": "bench",
        "backrest": "no"
      }
    },
    {
      "type": "node",
      "id": 8648913979,
      "lat": 51.562012,
      "lon": 5.1994529,
      "timestamp": "2021-04-20T21:36:32Z",
      "version": 1,
      "changeset": 103295478,
      "user": "Peter Elderson",
      "uid": 7103674,
      "tags": {
        "amenity": "bench",
        "backrest": "yes"
      }
    },
    {
      "type": "node",
      "id": 8648915919,
      "lat": 51.5628829,
      "lon": 5.1919874,
      "timestamp": "2021-04-20T21:37:45Z",
      "version": 1,
      "changeset": 103295478,
      "user": "Peter Elderson",
      "uid": 7103674,
      "tags": {
        "amenity": "bench",
        "backrest": "yes"
      }
    },
    {
      "type": "node",
      "id": 9066938319,
      "lat": 51.5201941,
      "lon": 5.2652538,
      "timestamp": "2021-09-06T13:59:24Z",
      "version": 1,
      "changeset": 110805791,
      "user": "Dirk V",
      "uid": 430470,
      "tags": {
        "amenity": "bench"
      }
    },
    {
      "type": "node",
      "id": 9124494620,
      "lat": 51.520563,
      "lon": 5.2537461,
      "timestamp": "2021-09-26T15:56:33Z",
      "version": 1,
      "changeset": 111728997,
      "user": "Erwin van Rijsewijk",
      "uid": 6793,
      "tags": {
        "amenity": "bench"
      }
    },
    {
      "type": "way",
      "id": 44188210,
      "timestamp": "2019-04-22T15:47:42Z",
      "version": 6,
      "changeset": 69458484,
      "user": "de vries",
      "uid": 1707814,
      "nodes": [
        6421390884,
        1180835135,
        561271605,
        1180818559,
        6421390884
      ],
      "tags": {
        "amenity": "parking"
      }
    },
    {
      "type": "way",
      "id": 44188234,
      "timestamp": "2019-05-22T12:21:58Z",
      "version": 3,
      "changeset": 70513126,
      "user": "wvdp",
      "uid": 436419,
      "nodes": [
        561271808,
        561271809,
        561271810,
        561271811,
        561271808
      ],
      "tags": {
        "amenity": "parking"
      }
    },
    {
      "type": "way",
      "id": 44188274,
      "timestamp": "2017-11-23T11:54:59Z",
      "version": 2,
      "changeset": 54024336,
      "user": "Paul David baron Von Weenraid",
      "uid": 6521966,
      "nodes": [
        561271821,
        561271824,
        561271827,
        561271830,
        561271821
      ],
      "tags": {
        "access": "customers",
        "amenity": "parking"
      }
    },
    {
      "type": "way",
      "id": 45260656,
      "timestamp": "2019-02-25T22:18:36Z",
      "version": 6,
      "changeset": 67564204,
      "user": "Searchie",
      "uid": 7622368,
      "nodes": [
        977897629,
        1255969904,
        1255961134,
        574798851,
        574798852,
        977898988,
        1255961136,
        977897629
      ],
      "tags": {
        "amenity": "parking",
        "name": "Logtsebaan P"
      }
    },
    {
      "type": "way",
      "id": 45260665,
      "timestamp": "2015-03-22T19:48:45Z",
      "version": 2,
      "changeset": 29664268,
      "user": "Andre Engels",
      "uid": 4054,
      "nodes": [
        574798881,
        574798882,
        574798883,
        574798889,
        574798891,
        574798881
      ],
      "tags": {
        "amenity": "parking"
      }
    },
    {
      "type": "way",
      "id": 219813335,
      "timestamp": "2018-02-20T21:32:06Z",
      "version": 2,
      "changeset": 56533048,
      "user": "Jarien",
      "uid": 395348,
      "nodes": [
        2289426599,
        2289426597,
        2289426618,
        2289426619,
        2289426599
      ],
      "tags": {
        "amenity": "parking",
        "parking": "surface"
      }
    },
    {
      "type": "way",
      "id": 219878067,
      "timestamp": "2013-05-03T08:32:56Z",
      "version": 1,
      "changeset": 15957166,
      "user": "Jarien",
      "uid": 395348,
      "nodes": [
        2290106991,
        2290106992,
        2290106994,
        2290106993,
        2290106991
      ],
      "tags": {
        "amenity": "parking",
        "fee": "no",
        "name": "Klein Oisterwijk",
        "parking": "surface",
        "source": "gps"
      }
    },
    {
      "type": "way",
      "id": 454850490,
      "timestamp": "2018-10-14T09:52:50Z",
      "version": 2,
      "changeset": 63504531,
      "user": "FrankOverman",
      "uid": 1987570,
      "nodes": [
        978658572,
        4513444917,
        978692996,
        978723909,
        978677630,
        978661634,
        978687116,
        978658572
      ],
      "tags": {
        "amenity": "parking"
      }
    },
    {
      "type": "way",
      "id": 467906131,
      "timestamp": "2018-02-20T21:01:19Z",
      "version": 2,
      "changeset": 56532471,
      "user": "Jarien",
      "uid": 395348,
      "nodes": [
        4624904770,
        4624904769,
        4624904768,
        4624904767,
        4624904770
      ],
      "tags": {
        "access": "customers",
        "amenity": "parking",
        "capacity": "28",
        "parking": "surface"
      }
    },
    {
      "type": "way",
      "id": 538832977,
      "timestamp": "2019-12-20T15:30:37Z",
      "version": 2,
      "changeset": 78689461,
      "user": "FrankOverman",
      "uid": 1987570,
      "nodes": [
        5214987536,
        5214987537,
        2824053328,
        2824053343,
        7072370596,
        5214987538,
        5214987536
      ],
      "tags": {
        "amenity": "parking"
      }
    },
    {
      "type": "way",
      "id": 664367033,
      "timestamp": "2019-01-18T10:24:31Z",
      "version": 1,
      "changeset": 66421512,
      "user": "pointseven",
      "uid": 4355310,
      "nodes": [
        978293342,
        6218319218,
        978351185,
        978293342
      ],
      "tags": {
        "amenity": "parking"
      }
    },
    {
      "type": "way",
      "id": 677951103,
      "timestamp": "2019-03-19T17:46:13Z",
      "version": 1,
      "changeset": 68304072,
      "user": "FrankOverman",
      "uid": 1987570,
      "nodes": [
        2825876342,
        2825876258,
        6347917397,
        6347917396,
        6347917394,
        6347917395,
        2825876342
      ],
      "tags": {
        "amenity": "parking"
      }
    },
    {
      "type": "way",
      "id": 768306924,
      "timestamp": "2020-01-30T20:13:51Z",
      "version": 1,
      "changeset": 80336052,
      "user": "FrankOverman",
      "uid": 1987570,
      "nodes": [
        7173078460,
        7173078459,
        7173078458,
        7173078457,
        7173078456,
        7173078455,
        7173078454,
        7173078460
      ],
      "tags": {
        "amenity": "parking"
      }
    },
    {
      "type": "way",
      "id": 768714254,
      "timestamp": "2020-02-01T07:56:22Z",
      "version": 1,
      "changeset": 80401825,
      "user": "FrankOverman",
      "uid": 1987570,
      "nodes": [
        7176736536,
        7176736535,
        7176736534,
        7176736533,
        7176736536
      ],
      "tags": {
        "access": "destination",
        "amenity": "parking"
      }
    },
    {
      "type": "way",
      "id": 790434233,
      "timestamp": "2020-04-10T15:19:12Z",
      "version": 1,
      "changeset": 83371905,
      "user": "WatskeBart",
      "uid": 11006501,
      "nodes": [
        7389770773,
        7389770774,
        7389770775,
        7389770776,
        7389770777,
        7389770778,
        7389770773
      ],
      "tags": {
        "access": "yes",
        "amenity": "parking",
        "capacity": "15",
        "fee": "no",
        "parking": "surface",
        "surface": "ground"
      }
    },
    {
      "type": "way",
      "id": 790444411,
      "timestamp": "2020-04-17T12:58:23Z",
      "version": 4,
      "changeset": 83708580,
      "user": "WatskeBart",
      "uid": 11006501,
      "nodes": [
        7389853952,
        7389853953,
        7389853954,
        7397492953,
        7389853955,
        7389853956,
        7389853958,
        7389853952
      ],
      "tags": {
        "access": "yes",
        "amenity": "parking",
        "capacity": "8",
        "fee": "no",
        "parking": "surface",
        "surface": "ground"
      }
    },
    {
      "type": "way",
      "id": 790444421,
      "timestamp": "2020-04-13T15:20:18Z",
      "version": 2,
      "changeset": 83485017,
      "user": "WatskeBart",
      "uid": 11006501,
      "nodes": [
        7389866985,
        7389866986,
        7398770913,
        7389866987,
        7389866985
      ],
      "tags": {
        "access": "yes",
        "amenity": "parking",
        "capacity": "8",
        "fee": "no",
        "parking": "surface",
        "surface": "paving_stones"
      }
    },
    {
      "type": "way",
      "id": 790444422,
      "timestamp": "2020-04-13T10:50:11Z",
      "version": 3,
      "changeset": 83470905,
      "user": "WatskeBart",
      "uid": 11006501,
      "nodes": [
        7389866988,
        7389866989,
        7389866990,
        7389866992,
        7389866993,
        7389866994,
        7389866995,
        7389866996,
        7389866988
      ],
      "tags": {
        "access": "yes",
        "amenity": "parking",
        "capacity": "15",
        "fee": "no",
        "surface": "paving_stones"
      }
    },
    {
      "type": "node",
      "id": 978658572,
      "lat": 51.5194737,
      "lon": 5.1856914
    },
    {
      "type": "node",
      "id": 978661634,
      "lat": 51.5188235,
      "lon": 5.1850571
    },
    {
      "type": "node",
      "id": 978677630,
      "lat": 51.5185738,
      "lon": 5.1859344
    },
    {
      "type": "node",
      "id": 978687116,
      "lat": 51.5194379,
      "lon": 5.1856562
    },
    {
      "type": "node",
      "id": 978692996,
      "lat": 51.5189002,
      "lon": 5.1862511
    },
    {
      "type": "node",
      "id": 978723909,
      "lat": 51.51862,
      "lon": 5.1859856
    },
    {
      "type": "node",
      "id": 4513444917,
      "lat": 51.5191961,
      "lon": 5.1865265
    },
    {
      "type": "node",
      "id": 2289426597,
      "lat": 51.5452977,
      "lon": 5.1862092
    },
    {
      "type": "node",
      "id": 2289426599,
      "lat": 51.5452985,
      "lon": 5.1865006
    },
    {
      "type": "node",
      "id": 2289426618,
      "lat": 51.5455476,
      "lon": 5.1862076
    },
    {
      "type": "node",
      "id": 2289426619,
      "lat": 51.5455484,
      "lon": 5.186499
    },
    {
      "type": "node",
      "id": 2824053328,
      "lat": 51.5431709,
      "lon": 5.186123
    },
    {
      "type": "node",
      "id": 2824053343,
      "lat": 51.543181,
      "lon": 5.1860537
    },
    {
      "type": "node",
      "id": 5214987536,
      "lat": 51.5435333,
      "lon": 5.1858052
    },
    {
      "type": "node",
      "id": 5214987537,
      "lat": 51.5434695,
      "lon": 5.1862383
    },
    {
      "type": "node",
      "id": 5214987538,
      "lat": 51.5431554,
      "lon": 5.1856458
    },
    {
      "type": "node",
      "id": 7072370596,
      "lat": 51.5430978,
      "lon": 5.1860197
    },
    {
      "type": "node",
      "id": 7389853952,
      "lat": 51.5106138,
      "lon": 5.2288151
    },
    {
      "type": "node",
      "id": 7389853953,
      "lat": 51.5106311,
      "lon": 5.2289182
    },
    {
      "type": "node",
      "id": 7389853954,
      "lat": 51.5106404,
      "lon": 5.2291318
    },
    {
      "type": "node",
      "id": 7389853955,
      "lat": 51.5105935,
      "lon": 5.2292535
    },
    {
      "type": "node",
      "id": 7389853956,
      "lat": 51.5105642,
      "lon": 5.2292533
    },
    {
      "type": "node",
      "id": 7389853958,
      "lat": 51.5105619,
      "lon": 5.2288054
    },
    {
      "type": "node",
      "id": 7397492953,
      "lat": 51.5106255,
      "lon": 5.2292186
    },
    {
      "type": "node",
      "id": 7389770773,
      "lat": 51.5128934,
      "lon": 5.2303531
    },
    {
      "type": "node",
      "id": 7389770774,
      "lat": 51.5132741,
      "lon": 5.2305387
    },
    {
      "type": "node",
      "id": 7389770775,
      "lat": 51.5133277,
      "lon": 5.2304524
    },
    {
      "type": "node",
      "id": 7389770776,
      "lat": 51.5129807,
      "lon": 5.2302743
    },
    {
      "type": "node",
      "id": 7389770777,
      "lat": 51.5129161,
      "lon": 5.2302376
    },
    {
      "type": "node",
      "id": 7389770778,
      "lat": 51.5128934,
      "lon": 5.2302797
    },
    {
      "type": "node",
      "id": 7389866985,
      "lat": 51.5164425,
      "lon": 5.2245692
    },
    {
      "type": "node",
      "id": 7389866986,
      "lat": 51.5166136,
      "lon": 5.2245317
    },
    {
      "type": "node",
      "id": 7389866987,
      "lat": 51.5165459,
      "lon": 5.2241735
    },
    {
      "type": "node",
      "id": 7389866988,
      "lat": 51.5167449,
      "lon": 5.2245034
    },
    {
      "type": "node",
      "id": 7389866989,
      "lat": 51.5167428,
      "lon": 5.2244679
    },
    {
      "type": "node",
      "id": 7389866990,
      "lat": 51.5167053,
      "lon": 5.2244225
    },
    {
      "type": "node",
      "id": 7389866992,
      "lat": 51.5166868,
      "lon": 5.2241545
    },
    {
      "type": "node",
      "id": 7389866993,
      "lat": 51.5167906,
      "lon": 5.2241472
    },
    {
      "type": "node",
      "id": 7389866994,
      "lat": 51.5168402,
      "lon": 5.2244008
    },
    {
      "type": "node",
      "id": 7389866995,
      "lat": 51.5168071,
      "lon": 5.2244664
    },
    {
      "type": "node",
      "id": 7389866996,
      "lat": 51.5168095,
      "lon": 5.2244908
    },
    {
      "type": "node",
      "id": 7398770913,
      "lat": 51.5165871,
      "lon": 5.2242015
    },
    {
      "type": "node",
      "id": 978293342,
      "lat": 51.5457251,
      "lon": 5.1977913
    },
    {
      "type": "node",
      "id": 978351185,
      "lat": 51.5454299,
      "lon": 5.1985765
    },
    {
      "type": "node",
      "id": 6218319218,
      "lat": 51.5453066,
      "lon": 5.1970496
    },
    {
      "type": "node",
      "id": 7173078454,
      "lat": 51.5509018,
      "lon": 5.1981358
    },
    {
      "type": "node",
      "id": 7173078455,
      "lat": 51.5508718,
      "lon": 5.1978488
    },
    {
      "type": "node",
      "id": 7173078456,
      "lat": 51.5508101,
      "lon": 5.1975082
    },
    {
      "type": "node",
      "id": 7173078457,
      "lat": 51.5508526,
      "lon": 5.1971327
    },
    {
      "type": "node",
      "id": 7173078458,
      "lat": 51.5507359,
      "lon": 5.1970656
    },
    {
      "type": "node",
      "id": 7173078459,
      "lat": 51.5507301,
      "lon": 5.1983531
    },
    {
      "type": "node",
      "id": 7173078460,
      "lat": 51.550901,
      "lon": 5.1983464
    },
    {
      "type": "node",
      "id": 4624904767,
      "lat": 51.5437087,
      "lon": 5.2203867
    },
    {
      "type": "node",
      "id": 4624904768,
      "lat": 51.5437079,
      "lon": 5.2196988
    },
    {
      "type": "node",
      "id": 4624904769,
      "lat": 51.5438542,
      "lon": 5.2197823
    },
    {
      "type": "node",
      "id": 4624904770,
      "lat": 51.5438608,
      "lon": 5.2203838
    },
    {
      "type": "node",
      "id": 2290106991,
      "lat": 51.5535745,
      "lon": 5.2259485
    },
    {
      "type": "node",
      "id": 2290106992,
      "lat": 51.5537344,
      "lon": 5.2266424
    },
    {
      "type": "node",
      "id": 7176736533,
      "lat": 51.5630642,
      "lon": 5.1983821
    },
    {
      "type": "node",
      "id": 7176736534,
      "lat": 51.5630652,
      "lon": 5.1984988
    },
    {
      "type": "node",
      "id": 7176736535,
      "lat": 51.563264,
      "lon": 5.1984944
    },
    {
      "type": "node",
      "id": 7176736536,
      "lat": 51.563263,
      "lon": 5.1983777
    },
    {
      "type": "node",
      "id": 2290106993,
      "lat": 51.5539592,
      "lon": 5.2257192
    },
    {
      "type": "node",
      "id": 2290106994,
      "lat": 51.5541191,
      "lon": 5.2264131
    },
    {
      "type": "node",
      "id": 561271605,
      "lat": 51.5201325,
      "lon": 5.2648299
    },
    {
      "type": "node",
      "id": 561271808,
      "lat": 51.5193727,
      "lon": 5.2686324
    },
    {
      "type": "node",
      "id": 561271809,
      "lat": 51.5193567,
      "lon": 5.2687687
    },
    {
      "type": "node",
      "id": 561271810,
      "lat": 51.5190528,
      "lon": 5.2687346
    },
    {
      "type": "node",
      "id": 561271811,
      "lat": 51.5190561,
      "lon": 5.2686022
    },
    {
      "type": "node",
      "id": 1180818559,
      "lat": 51.5200879,
      "lon": 5.2648558
    },
    {
      "type": "node",
      "id": 1180835135,
      "lat": 51.5200466,
      "lon": 5.2644477
    },
    {
      "type": "node",
      "id": 6421390884,
      "lat": 51.520002,
      "lon": 5.2644736
    },
    {
      "type": "node",
      "id": 561271821,
      "lat": 51.5186693,
      "lon": 5.2716184
    },
    {
      "type": "node",
      "id": 561271824,
      "lat": 51.5187579,
      "lon": 5.2717602
    },
    {
      "type": "node",
      "id": 561271827,
      "lat": 51.5185135,
      "lon": 5.2721543
    },
    {
      "type": "node",
      "id": 561271830,
      "lat": 51.518425,
      "lon": 5.2720125
    },
    {
      "type": "node",
      "id": 574798881,
      "lat": 51.5201568,
      "lon": 5.2726506
    },
    {
      "type": "node",
      "id": 574798882,
      "lat": 51.5203105,
      "lon": 5.2732593
    },
    {
      "type": "node",
      "id": 574798883,
      "lat": 51.5206517,
      "lon": 5.2730473
    },
    {
      "type": "node",
      "id": 574798889,
      "lat": 51.5206089,
      "lon": 5.2729321
    },
    {
      "type": "node",
      "id": 574798891,
      "lat": 51.5202206,
      "lon": 5.2726302
    },
    {
      "type": "node",
      "id": 2825876258,
      "lat": 51.5180063,
      "lon": 5.2734915
    },
    {
      "type": "node",
      "id": 2825876342,
      "lat": 51.5181095,
      "lon": 5.2736054
    },
    {
      "type": "node",
      "id": 6347917394,
      "lat": 51.5178607,
      "lon": 5.2736192
    },
    {
      "type": "node",
      "id": 6347917395,
      "lat": 51.5180265,
      "lon": 5.2737987
    },
    {
      "type": "node",
      "id": 6347917396,
      "lat": 51.5178495,
      "lon": 5.2736071
    },
    {
      "type": "node",
      "id": 6347917397,
      "lat": 51.5179319,
      "lon": 5.27341
    },
    {
      "type": "node",
      "id": 977897629,
      "lat": 51.5431146,
      "lon": 5.2687855
    },
    {
      "type": "node",
      "id": 977898988,
      "lat": 51.5432471,
      "lon": 5.2688216
    },
    {
      "type": "node",
      "id": 1255961136,
      "lat": 51.5432138,
      "lon": 5.2688137
    },
    {
      "type": "node",
      "id": 574798851,
      "lat": 51.5429285,
      "lon": 5.2695863
    },
    {
      "type": "node",
      "id": 574798852,
      "lat": 51.5430909,
      "lon": 5.2696634
    },
    {
      "type": "node",
      "id": 1255961134,
      "lat": 51.5429674,
      "lon": 5.2695006
    },
    {
      "type": "node",
      "id": 1255969904,
      "lat": 51.543019,
      "lon": 5.2693236
    }
  ]
}