{
  "version": 0.6,
  "generator": "Overpass API 0.7.57 93a4d346",
  "osm3s": {
    "timestamp_osm_base": "2021-12-11T03:27:24Z",
    "timestamp_areas_base": "2021-12-10T20:57:31Z",
    "copyright": "The data included in this document is from www.openstreetmap.org. The data is made available under ODbL."
  },
  "elements": [
    {
      "type": "node",
      "id": 4988457620,
      "lat": 51.1454981,
      "lon": 4.3870591
    },
    {
      "type": "node",
      "id": 4988457721,
      "lat": 51.1457326,
      "lon": 4.386777
    },
    {
      "type": "node",
      "id": 8441485381,
      "lat": 51.1457327,
      "lon": 4.3870472
    },
    {
      "type": "node",
      "id": 8441485398,
      "lat": 51.1454799,
      "lon": 4.3860327
    },
    {
      "type": "node",
      "id": 8441485399,
      "lat": 51.1457037,
      "lon": 4.3859602
    },
    {
      "type": "node",
      "id": 8441485400,
      "lat": 51.145723,
      "lon": 4.3859763
    },
    {
      "type": "way",
      "id": 23280934,
      "nodes": [
        251976930,
        251975851
      ],
      "tags": {
        "highway": "pedestrian",
        "name": "Vorstenhuislaan",
        "surface": "concrete"
      }
    },
    {
      "type": "way",
      "id": 41050446,
      "nodes": [
        499489364,
        500192155
      ],
      "tags": {
        "highway": "footway",
        "surface": "paving_stones"
      }
    },
    {
      "type": "way",
      "id": 53763548,
      "nodes": [
        678833820,
        1833201049,
        1833201047,
        678833821,
        678833822,
        678833823,
        678833824,
        1833201035,
        1833201033,
        1833201031,
        1833201018,
        678833825,
        1833201007,
        5141999996,
        5141999994,
        5141999998,
        1833200983,
        1833200976,
        5141999993,
        5142000002,
        5141999999,
        678833819
      ],
      "tags": {
        "bicycle": "designated",
        "highway": "path"
      }
    },
    {
      "type": "way",
      "id": 61300850,
      "nodes": [
        765806268,
        765806270,
        765806274,
        765806258
      ],
      "tags": {
        "bicycle": "yes",
        "highway": "footway",
        "segregated": "no"
      }
    },
    {
      "type": "way",
      "id": 100016274,
      "nodes": [
        1156345447,
        8596100323,
        1163048161,
        1156345448,
        8596100324,
        1156345449,
        8596100325,
        8596100326,
        1156345450,
        1156345451,
        8596100327,
        1156345452,
        8596100328,
        8596100329,
        8596100330,
        8596100331,
        8596100332,
        1156345454,
        1156345455,
        8596100319,
        8596100320,
        262201531
      ],
      "tags": {
        "bicycle": "yes",
        "foot": "yes",
        "highway": "track",
        "motor_vehicle": "no",
        "name": "Potaerdestraat",
        "surface": "unpaved",
        "tracktype": "grade3"
      }
    },
    {
      "type": "way",
      "id": 135289320,
      "nodes": [
        1485881400,
        1485881370,
        1485881411,
        1485881351,
        1485881400
      ],
      "tags": {
        "leisure": "pitch",
        "sport": "tennis"
      }
    },
    {
      "type": "way",
      "id": 135289327,
      "nodes": [
        1485881406,
        1485881388,
        1485881397,
        1485881318,
        1485881406
      ],
      "tags": {
        "access": "private",
        "leisure": "pitch",
        "sport": "tennis"
      }
    },
    {
      "type": "way",
      "id": 152993133,
      "nodes": [
        1657510823,
        2108718479,
        2104340832,
        2108718807,
        2707498774,
        1657510820
      ],
      "tags": {
        "highway": "path",
        "lit": "yes",
        "name": "Jan Stobbaertslaan"
      }
    },
    {
      "type": "way",
      "id": 176886951,
      "nodes": [
        1873738051,
        1873738202,
        1873738169,
        1873738100,
        1873738051
      ],
      "tags": {
        "access": "private",
        "leisure": "pitch",
        "sport": "soccer"
      }
    },
    {
      "type": "way",
      "id": 200444428,
      "nodes": [
        1485881415,
        1485881356
      ],
      "tags": {
        "bicycle": "yes",
        "foot": "yes",
        "highway": "path"
      }
    },
    {
      "type": "way",
      "id": 200444429,
      "nodes": [
        2104340832,
        2104340831,
        2104340828
      ],
      "tags": {
        "bicycle": "yes",
        "foot": "yes",
        "highway": "path"
      }
    },
    {
      "type": "way",
      "id": 200444430,
      "nodes": [
        2104340840,
        2104340841,
        2104340846,
        1485881368
      ],
      "tags": {
        "bicycle": "no",
        "foot": "yes",
        "highway": "path"
      }
    },
    {
      "type": "way",
      "id": 200444431,
      "nodes": [
        1485873011,
        1485881390
      ],
      "tags": {
        "bicycle": "yes",
        "foot": "yes",
        "highway": "path"
      }
    },
    {
      "type": "way",
      "id": 200444432,
      "nodes": [
        2104340834,
        2106368645,
        2104340838,
        2104340840,
        2104340836,
        1485881376
      ],
      "tags": {
        "bicycle": "no",
        "foot": "yes",
        "highway": "path"
      }
    },
    {
      "type": "way",
      "id": 200672036,
      "nodes": [
        2106368529,
        2106368533,
        2106368671,
        2106368673,
        2106368677,
        2106368679,
        2106368684,
        2106368682,
        2106368675,
        2106368669,
        2106368663,
        2106368657,
        2106368651,
        2106368645,
        2106368639,
        2106368614,
        2106368630,
        2106368529
      ],
      "tags": {
        "dog": "no",
        "leisure": "playground",
        "name": "Schuurveld",
        "video": "https://www.youtube.com/watch?v=it9FRTgiZUg&list=PLpTlCwUs8-qzH_ZK2Hh3VI4ODGaFFJIox&index=4"
      }
    },
    {
      "type": "way",
      "id": 509654980,
      "nodes": [
        4988457620,
        8441485398,
        8441485399,
        8441485400,
        4988457721,
        8441485381,
        4988457620
      ],
      "tags": {
        "bicycle": "no",
        "dog": "no",
        "leisure": "park",
        "name": "Speelplein Mastboomstraat",
        "note": "Een nogal droge naam, maar dat is wat op het bordje staat..."
      }
    },
    {
      "type": "way",
      "id": 509654984,
      "nodes": [
        4988457731,
        4988457721,
        8441485377,
        4988457730,
        4988457723,
        4988457778,
        4988457779,
        4988457729,
        4988457731
      ],
      "tags": {
        "landuse": "residential"
      }
    },
    {
      "type": "way",
      "id": 509654985,
      "nodes": [
        494767352,
        4988457767,
        4988457766,
        4988457765,
        4988457770,
        4988457737,
        4988457736,
        4988457735,
        4988457734,
        4988457620,
        4988457733,
        301605945,
        301605946,
        4988457732,
        301605947,
        301605948,
        4988457749,
        4988457752,
        4988457747,
        4988457746,
        4988457745,
        4988457744,
        4988457753,
        4988457754,
        4988457755,
        4988457756,
        4988457757,
        304617981,
        304617982,
        4988457738,
        4988457758,
        4988457762,
        494767352
      ],
      "tags": {
        "landuse": "residential"
      }
    },
    {
      "type": "way",
      "id": 509654999,
      "nodes": [
        4988457841,
        4988457840,
        4988457839,
        4988457838
      ],
      "tags": {
        "bicycle": "designated",
        "foot": "designated",
        "highway": "path",
        "oneway": "no",
        "segregated": "yes"
      }
    },
    {
      "type": "way",
      "id": 563959255,
      "nodes": [
        5434329634,
        5434329633,
        5434329632,
        5434329631
      ],
      "tags": {
        "highway": "path"
      }
    },
    {
      "type": "way",
      "id": 563959503,
      "nodes": [
        765806263,
        5434331115,
        5434331114,
        765806253
      ],
      "tags": {
        "highway": "path"
      }
    },
    {
      "type": "way",
      "id": 563959504,
      "nodes": [
        5434331224,
        5434331119,
        5434331118,
        5434331117,
        5434331116
      ],
      "tags": {
        "highway": "path"
      }
    },
    {
      "type": "way",
      "id": 563959506,
      "nodes": [
        5434331225,
        5434331224,
        5434331223,
        5434331222,
        5434331221,
        5434331120
      ],
      "tags": {
        "highway": "path"
      }
    },
    {
      "type": "way",
      "id": 812911263,
      "nodes": [
        7593050599,
        7593050598,
        7593050597,
        7593050596
      ],
      "tags": {
        "highway": "footway"
      }
    },
    {
      "type": "way",
      "id": 861067006,
      "nodes": [
        8025420597,
        8025420625
      ],
      "tags": {
        "highway": "footway"
      }
    },
    {
      "type": "way",
      "id": 909154808,
      "nodes": [
        8441485386,
        8441485385,
        8441485384,
        8441485383,
        8441485386
      ],
      "tags": {
        "leisure": "pitch",
        "sport": "soccer"
      }
    },
    {
      "type": "way",
      "id": 909154809,
      "nodes": [
        8441485392,
        8441485391,
        8441485390,
        8441485389,
        8441485388,
        8441485392
      ],
      "tags": {
        "leisure": "playground"
      }
    },
    {
      "type": "way",
      "id": 909154810,
      "nodes": [
        8441485396,
        8441485395,
        8441485394,
        8441485393,
        8441485396
      ],
      "tags": {
        "leisure": "pitch",
        "sport": "basketball"
      }
    },
    {
      "type": "way",
      "id": 912513641,
      "nodes": [
        8476890604,
        8476890603,
        8476890602,
        8476890601,
        8476890604
      ],
      "tags": {
        "leisure": "pitch",
        "sport": "basketball",
        "surface": "paved"
      }
    },
    {
      "type": "way",
      "id": 912513642,
      "nodes": [
        8476890608,
        8476890607,
        8476890606,
        8476890605,
        8476890608
      ],
      "tags": {
        "leisure": "pitch",
        "sport": "soccer",
        "surface": "grass"
      }
    },
    {
      "type": "way",
      "id": 912513643,
      "nodes": [
        8476890615,
        8476890614,
        8476890613,
        8476890612,
        8476890611,
        8476890610,
        8380531663,
        8476890609,
        8476890615
      ],
      "tags": {
        "access": "yes",
        "dog": "no",
        "leisure": "playground",
        "name": "Buerstede",
        "operator": "Gemeente Aartselaar",
        "surface": "grass"
      }
    },
    {
      "type": "way",
      "id": 930227521,
      "nodes": [
        3407467109,
        2051950441
      ],
      "tags": {
        "bicycle": "yes",
        "foot": "yes",
        "highway": "path",
        "name": "Beukennotendreef"
      }
    },
    {
      "type": "way",
      "id": 930683326,
      "nodes": [
        1485709404,
        3407467114,
        3407467115,
        3407467118,
        3407467120,
        3407467122,
        3407467121,
        3407467119,
        3407467117,
        3407467116,
        3407467114
      ],
      "tags": {
        "highway": "footway"
      }
    },
    {
      "type": "area",
      "id": 3600052411,
      "tags": {
        "ISO3166-1": "BE",
        "ISO3166-1:alpha2": "BE",
        "ISO3166-1:alpha3": "BEL",
        "ISO3166-1:numeric": "056",
        "TMC:cid_58:tabcd_1:Class": "Area",
        "TMC:cid_58:tabcd_1:LCLversion": "8.00",
        "TMC:cid_58:tabcd_1:LocationCode": "3",
        "admin_level": "2",
        "alt_name:ay": "Bilgasuyu",
        "alt_name:bar": "Bejgien",
        "alt_name:ckb": "بلژیک",
        "alt_name:eo": "Belgujo",
        "alt_name:frp": "Bèlg·ica",
        "alt_name:fur": "Belgjiche;Belgje",
        "alt_name:fy": "België;it Belzelân",
        "alt_name:kbd": "Белгэ",
        "alt_name:ksh": "Belgien",
        "alt_name:ku": "Belcîka",
        "alt_name:la": "Belgium",
        "alt_name:li": "Belzjiek",
        "alt_name:mzn": "بلجیک",
        "alt_name:qu": "Bilgasuyu",
        "alt_name:rw": "Ububirigi",
        "alt_name:so": "Belgium",
        "alt_name:war": "Bélgica",
        "boundary": "administrative",
        "currency": "EUR",
        "flag": "http://upload.wikimedia.org/wikipedia/commons/6/65/Flag_of_Belgium.svg",
        "int_name": "Belgium",
        "name": "België / Belgique / Belgien",
        "name:ace": "Bèlgia",
        "name:ady": "Белгие",
        "name:af": "België",
        "name:ak": "Belgium",
        "name:als": "Belgie",
        "name:am": "ቤልጅግ",
        "name:an": "Belchica",
        "name:ang": "Belgice",
        "name:ar": "بلجيكا",
        "name:arc": "ܒܠܓܝܩܐ",
        "name:arz": "بلجيكا",
        "name:ast": "Bélxica",
        "name:av": "Бе́льгия",
        "name:ay": "Bilkiya",
        "name:az": "Belçika",
        "name:azb": "بلژیک",
        "name:ba": "Бе́льгия",
        "name:bar": "Bäigien",
        "name:bat-smg": "Belgėjė",
        "name:bcl": "Belhika",
        "name:be": "Бeльгія",
        "name:be-tarask": "Бэ́льгія",
        "name:bg": "Белгия",
        "name:bh": "बेल्जियम",
        "name:bi": "Beljiom",
        "name:bm": "Bɛliziki",
        "name:bn": "বেলজিয়াম",
        "name:bo": "པེར་ཅིན།",
        "name:bpy": "বেলজিয়াম",
        "name:br": "Belgia",
        "name:bs": "Belgija",
        "name:bug": "Belgia",
        "name:bxr": "Бельги",
        "name:ca": "Bèlgica",
        "name:cbk-zam": "Bélgica",
        "name:cdo": "Bī-lé-sì",
        "name:ce": "Бельги",
        "name:ceb": "Belhika",
        "name:chr": "ᏇᎵᏥᎥᎻ",
        "name:ckb": "بەلجیکا",
        "name:co": "Belgica",
        "name:crh": "Belçika",
        "name:cs": "Belgie",
        "name:csb": "Belgijskô",
        "name:cu": "Бє́лгїѥ",
        "name:cv": "Бельги",
        "name:cy": "Gwlad Belg",
        "name:da": "Belgien",
        "name:de": "Belgien",
        "name:din": "Beljiem",
        "name:diq": "Belçıka",
        "name:dsb": "Belgiska",
        "name:dty": "बेल्जियम",
        "name:dv": "ބެލްޖިއަމް",
        "name:dz": "བེལ་ཇིཡམ",
        "name:ee": "Belgium",
        "name:el": "Βέλγιο",
        "name:eml": "Bélgi",
        "name:en": "Belgium",
        "name:eo": "Belgio",
        "name:es": "Bélgica",
        "name:et": "Belgia",
        "name:eu": "Belgika",
        "name:ext": "Bélgica",
        "name:fa": "بلژیک",
        "name:ff": "Beljik",
        "name:fi": "Belgia",
        "name:fiu-vro": "Belgiä",
        "name:fo": "Belgia",
        "name:fr": "Belgique",
        "name:frp": "Bèlg·ique",
        "name:frr": "Bälgien",
        "name:fur": "Belgjo",
        "name:fy": "Belgje",
        "name:ga": "an Bheilg",
        "name:gag": "Belgiya",
        "name:gd": "a' Bheilg",
        "name:gl": "Bélxica",
        "name:gn": "Véyhika",
        "name:gom": "बेल्जियम",
        "name:gu": "બેલ્જિયમ",
        "name:gv": "Velg",
        "name:ha": "Beljik",
        "name:hak": "Pí-li-sṳ̀",
        "name:haw": "Pelekiuma",
        "name:he": "בֶּלְגְיָה",
        "name:hi": "बेल्जियम",
        "name:hif": "Belgium",
        "name:hr": "Belgija",
        "name:hsb": "Belgiska",
        "name:ht": "Bèljik",
        "name:hu": "Belgium",
        "name:hy": "Բելգիա",
        "name:ia": "Belgica",
        "name:id": "Belgia",
        "name:ie": "Belgia",
        "name:ig": "Belgium",
        "name:ilo": "Belhika",
        "name:io": "Belgia",
        "name:is": "Belgía",
        "name:it": "Belgio",
        "name:ja": "ベルギー",
        "name:jam": "Beljiom",
        "name:jbo": "beldjym",
        "name:jv": "Bèlgia",
        "name:ka": "ბელგია",
        "name:kaa": "Belgiya",
        "name:kab": "Biljik",
        "name:kbd": "Белгиэ",
        "name:kbp": "Pɛliziki",
        "name:kg": "Belezi",
        "name:ki": "Ubelgiji",
        "name:kk": "Бельгия",
        "name:kl": "Belgia",
        "name:km": "បែលហ្ស៉ិក",
        "name:kn": "ಬೆಲ್ಜಿಯಂ",
        "name:ko": "벨기에",
        "name:koi": "Белгия",
        "name:krc": "Бельгия",
        "name:ks": "बेल्जियम",
        "name:ksh": "Beljie",
        "name:ku": "Belçîka",
        "name:kv": "Бельгия",
        "name:kw": "Pow Belg",
        "name:ky": "Бельгия",
        "name:la": "Belgica",
        "name:lad": "Beljika",
        "name:lb": "Belsch",
        "name:lez": "Бельгия",
        "name:lg": "Bubirigi",
        "name:li": "Belsj",
        "name:lij": "Belgiò",
        "name:lmo": "Belgi",
        "name:ln": "Bɛ́ljika",
        "name:lo": "ປະເທດແບນຊິກ",
        "name:lrc": "بلجیک",
        "name:lt": "Belgija",
        "name:ltg": "Beļgeja",
        "name:lv": "Beļģija",
        "name:lzh": "比利時",
        "name:mai": "बेल्जियम",
        "name:mdf": "Бельгие",
        "name:mg": "Belzika",
        "name:mhr": "Бельгий",
        "name:mi": "Pehiamu",
        "name:mk": "Белгија",
        "name:ml": "ബെൽജിയം",
        "name:mn": "Бельги",
        "name:mr": "बेल्जियम",
        "name:ms": "Belgium",
        "name:mt": "Belġju",
        "name:mwl": "Bélgica",
        "name:my": "ဘယ်လ်ဂျီယမ်နိုင်ငံ",
        "name:myv": "Бельгия",
        "name:mzn": "بلژیک",
        "name:na": "Berdjiyum",
        "name:nah": "Belgica",
        "name:nan": "Pe̍k-ní-gī",
        "name:nap": "Belge",
        "name:nb": "Belgia",
        "name:nds": "Belgien",
        "name:nds-nl": "België",
        "name:ne": "बेल्जियम",
        "name:new": "बेल्जियम",
        "name:nl": "België",
        "name:nn": "Belgia",
        "name:no": "Belgia",
        "name:nov": "Belgia",
        "name:nrm": "Belgique",
        "name:nso": "Belgium",
        "name:oc": "Belgica",
        "name:olo": "Bel’gii",
        "name:om": "Beeljiyeem",
        "name:or": "ବେଲଜିଅମ",
        "name:os": "Бельги",
        "name:pa": "ਬੈਲਜੀਅਮ",
        "name:pag": "Belhika",
        "name:pam": "Belgika",
        "name:pap": "Bélgika",
        "name:pcd": "Bergike",
        "name:pdc": "Belgien",
        "name:pfl": "Belgje",
        "name:pi": "बेल्जियम",
        "name:pih": "Beljum",
        "name:pl": "Belgia",
        "name:pms": "Belgi",
        "name:pnb": "بیلجیم",
        "name:pnt": "Βέλγιον",
        "name:ps": "بلجیم",
        "name:pt": "Bélgica",
        "name:qu": "Bilhika",
        "name:rm": "Belgia",
        "name:rmy": "Beljiya",
        "name:rn": "Ububirigi",
        "name:ro": "Belgia",
        "name:roa-rup": "Belghia",
        "name:roa-tara": "Bèlge",
        "name:ru": "Бельгия",
        "name:rue": "Белґія",
        "name:rw": "Ububiligi",
        "name:sa": "बेल्जियम",
        "name:sah": "Бельгия",
        "name:sc": "Bèlgiu",
        "name:scn": "Belgiu",
        "name:sco": "Belgium",
        "name:sd": "بيلجيم",
        "name:se": "Belgia",
        "name:sg": "Bêleze",
        "name:sh": "Belgija",
        "name:si": "බෙල්ජියම්",
        "name:sk": "Belgicko",
        "name:sl": "Bélgija",
        "name:sm": "Peleseuma",
        "name:smn": "Belgia",
        "name:sms": "Belgia",
        "name:sn": "Belgium",
        "name:so": "Beljim",
        "name:sq": "Belgjika",
        "name:sr": "Белгија",
        "name:srn": "Belgikondre",
        "name:ss": "iBhelijiyamu",
        "name:stq": "Belgien",
        "name:su": "Bélgia",
        "name:sv": "Belgien",
        "name:sw": "Ubelgiji",
        "name:szl": "Belgijo",
        "name:ta": "பெல்ஜியம்",
        "name:te": "బెల్జియం",
        "name:tet": "Béljika",
        "name:tg": "Белгия",
        "name:th": "เบลเยียม",
        "name:ti": "ቤልጄም",
        "name:tk": "Belgiýa",
        "name:tl": "Belhika",
        "name:to": "Pelesiume",
        "name:tok": "ma Pesije",
        "name:tpi": "Beljiam",
        "name:tr": "Belçika",
        "name:ts": "Belgium",
        "name:tt": "Бе́льгия",
        "name:tum": "Belgium",
        "name:tw": "Belgium",
        "name:tzl": "Belxhíc",
        "name:udm": "Бельгия",
        "name:ug": "بېلگىيە",
        "name:uk": "Бе́льгія",
        "name:ur": "بلجئیم",
        "name:uz": "Belgiya",
        "name:vec": "Belgio",
        "name:vep": "Bel'gii",
        "name:vi": "Bỉ",
        "name:vls": "België",
        "name:vo": "Belgän",
        "name:wa": "Beldjike",
        "name:war": "Belhika",
        "name:wo": "Belsik",
        "name:wuu": "比利时",
        "name:xal": "Бельҗмудин Нутг",
        "name:xmf": "ბელგია",
        "name:yi": "בעלגיע",
        "name:yo": "Bẹ́ljíọ̀m",
        "name:yue": "比利時",
        "name:zea": "Belhië",
        "name:zh": "比利时 / 比利時",
        "name:zh-Hans": "比利时",
        "name:zh-Hant": "比利時",
        "name:zh_pinyin": "Bǐlìshí",
        "name:zu": "i-Belgium",
        "official_name": "Koninkrijk België / Royaume de Belgique / Königreich Belgien",
        "official_name:af": "Koninkryk van België",
        "official_name:als": "Königriich Belgie",
        "official_name:am": "የቤልጅግ መንግሥት",
        "official_name:an": "Reino de Belchica",
        "official_name:ang": "Belgice Cynerīce",
        "official_name:ar": "مملكة بلجيكا",
        "official_name:arc": "ܡܠܟܘܬܐ ܕܒܠܓܝܩܐ",
        "official_name:ast": "Reinu de Bélxica",
        "official_name:av": "Ханлъи Бе́льгия",
        "official_name:ay": "Bilhika Qhapaqsuyu",
        "official_name:az": "Belçika Krallığı",
        "official_name:azb": "بلژیک کراللیغی",
        "official_name:ba": "Бельгия Короллеге",
        "official_name:bar": "Kinigraich Bäigien",
        "official_name:bat-smg": "Belgėjės Karalīstė",
        "official_name:be": "Каралеўства Бельгія",
        "official_name:be-tarask": "Каралеўства Бельгія",
        "official_name:bg": "Кралство Белгия",
        "official_name:bm": "Bɛliziki Mansamara",
        "official_name:bn": "রাজতন্ত্রী বেলজিয়াম",
        "official_name:bo": "Kraljevina Belgija",
        "official_name:bpy": "রাজতান্ত্রিক বেলজিয়াম",
        "official_name:br": "Rouantelezh Belgia",
        "official_name:bs": "Kraljevina Belgija",
        "official_name:ca": "Regne de Bèlgica",
        "official_name:ce": "Монархи Бельги",
        "official_name:chr": "ᎤᎬᏫᏳᎯ ᎨᏒ ᎾᎿ ᎠᏲᎳᏂ",
        "official_name:co": "Regnu di Belgica",
        "official_name:crh": "Belçika Qırallığı",
        "official_name:cs": "Belgické království",
        "official_name:cu": "Кралѥ́вьство Бє́лгїѥ",
        "official_name:cy": "Teyrnas Gwlad Belg",
        "official_name:da": "Kongeriget Belgien",
        "official_name:de": "Königreich Belgien",
        "official_name:din": "Mäcŋaknhom ke Beljiem",
        "official_name:dsb": "Kralojstwo Belgiskej",
        "official_name:el": "Βασίλειο του Βελγίου",
        "official_name:eml": "Regno dal Bèlgi",
        "official_name:en": "Kingdom of Belgium",
        "official_name:eo": "Reĝlando Belgio",
        "official_name:es": "Reino de Bélgica",
        "official_name:et": "Belgia Kuningriik",
        "official_name:eu": "Belgikako Erresuma",
        "official_name:fa": "پادشاهی بلژیک",
        "official_name:fi": "Belgian kuningaskunta",
        "official_name:fiu-vro": "Belgiä Kuningriik",
        "official_name:fr": "Royaume de Belgique",
        "official_name:frp": "Royômo de Bèlg·ique",
        "official_name:frr": "Könangrik Belgien",
        "official_name:ga": "Ríocht na Beilge",
        "official_name:gd": "Rìoghachd na Beilge",
        "official_name:gl": "Reino de Bélxica",
        "official_name:gn": "Tetã Véyhika",
        "official_name:gv": "Reeriaght ny Belg",
        "official_name:he": "ממלכת בלגיה",
        "official_name:hi": "किंगडम ऑफ़ बेल्जियम",
        "official_name:hr": "Kraljevina Belgija",
        "official_name:hsb": "Belgiske kralestwo",
        "official_name:hu": "Belga Királyság",
        "official_name:hy": "Բելգիայի Թագավորություն",
        "official_name:ia": "Regno de Belgica",
        "official_name:id": "Kerajaan Belgia",
        "official_name:ig": "Obodoézè nke Belgium",
        "official_name:ilo": "Pagarian ti Belhika",
        "official_name:io": "Rejio di Belgia",
        "official_name:is": "Konungsríkið Belgía",
        "official_name:it": "Regno del Belgio",
        "official_name:ja": "ベルギー王国",
        "official_name:jam": "Kindom a Beljiom",
        "official_name:ka": "ბელგიის სამეფო",
        "official_name:kab": "Tigelda n Biljik",
        "official_name:kbd": "Белгэ Пэщтыхьей",
        "official_name:kg": "Nsi ya ntotila ya Belezi",
        "official_name:kk": "Бельгия Корольдігі",
        "official_name:kl": "Kunngeqarfik Belgia",
        "official_name:kn": "ಬೆಲ್ಜಿಯಂ ಸಂಸ್ಥಾನ",
        "official_name:ko": "벨기에 왕국",
        "official_name:koi": "Короля Белгия",
        "official_name:krc": "Бельгия Королевство",
        "official_name:ku": "Keyaniya Belçîkayê",
        "official_name:kv": "Бельгия Корольув",
        "official_name:kw": "Ruwvaneth Belgek",
        "official_name:ky": "Бельгия Королдугу",
        "official_name:la": "Regnum Belgicum",
        "official_name:lad": "Reyno de Beljika",
        "official_name:lb": "Kinnekräich Belsch",
        "official_name:lg": "Obwakabaka bwa Bubirigi",
        "official_name:li": "Keuninkriek Belsj",
        "official_name:lij": "Regno do Belgio",
        "official_name:lmo": "Regn del Belgi",
        "official_name:ln": "Mani ya Bɛ́ljika",
        "official_name:lo": "ລາຊະອານາຈັກແບນຊິກ",
        "official_name:lt": "Belgijos Karalystė",
        "official_name:lv": "Beļģijas Karaliste",
        "official_name:lzh": "比利時王國",
        "official_name:mdf": "Бельгие Оцязорксшись",
        "official_name:mk": "Кралство Белгија",
        "official_name:mn": "Бельгийн Вант Улс",
        "official_name:mr": "बेल्जियमचे राजतंत्र",
        "official_name:ms": "Kerajaan Belgium",
        "official_name:mt": "Renju tal-Belġju",
        "official_name:my": "ကင်းဒမ်းအော့ဖ် ဘယ်လ်ဂျီယမ်",
        "official_name:myv": "Бельгия Масторось",
        "official_name:nah": "Huēyitlahtohcāyōtl Belgica",
        "official_name:nan": "Pe̍k-ní-gī-kok",
        "official_name:nds": "Königriek vun Belgien",
        "official_name:nds-nl": "Koninkriek België",
        "official_name:new": "बेल्जियम राजतन्त्र",
        "official_name:nl": "Koninkrijk België",
        "official_name:nn": "Kongeriket Belgia",
        "official_name:no": "Kongeriket Belgia",
        "official_name:oc": "Reialme de Belgica",
        "official_name:olo": "Bel’gien kuningaskundu",
        "official_name:os": "Бельгийы Къаролад",
        "official_name:pa": "ਬੈਲਜੀਅਮ ਦੀ ਰਾਜਸ਼ਾਹੀ",
        "official_name:pam": "Ka-ariyan ning Belgika",
        "official_name:pap": "Reino Bélgika",
        "official_name:pcd": "Roéyôme d’ Bergike",
        "official_name:pfl": "Royaume de Belgique",
        "official_name:pl": "Królestwo Belgii",
        "official_name:pnt": "Βασίλειον τη Βελγί",
        "official_name:ps": "د بلجیم بادشاهي",
        "official_name:pt": "Reino da Bélgica",
        "official_name:qu": "Bilhika Qhapaqsuyu",
        "official_name:rm": "Reginavel da la Belgia",
        "official_name:rmy": "Thangaripen Beljiyako",
        "official_name:rn": "Irepuburika y’Ububirigi",
        "official_name:ro": "Regatul Belgiei",
        "official_name:roa-tara": "Regne d'u Bèlgie",
        "official_name:ru": "Королевство Бельгия",
        "official_name:rue": "Белґіцьке кралёвство",
        "official_name:rw": "Igihugu cy’Ububirigi",
        "official_name:sah": "Бельгия Хоруоллуга",
        "official_name:sc": "Rennu de Bèlgiu",
        "official_name:sco": "Kinrick o Belgium",
        "official_name:sd": "بيلجيم جي شهنشاهيت",
        "official_name:se": "Belgia gonagasriika",
        "official_name:sg": "Ködörö-gbïä tî Bêleze",
        "official_name:sh": "Kraljevina Belgija",
        "official_name:sk": "Belgické kráľovstvo",
        "official_name:sl": "Kraljevína Bélgija",
        "official_name:sm": "Malo o Peleseuma",
        "official_name:sq": "Mbretëria e Belgjikës",
        "official_name:sr": "Краљевина Белгија",
        "official_name:su": "Karajaan Bélgia",
        "official_name:sv": "Konungariket Belgien",
        "official_name:sw": "Ufalme wa Ubelgiji",
        "official_name:szl": "Krůlestwo Belgije",
        "official_name:ta": "பெல்ஜியம் இராச்சியம்",
        "official_name:te": "బెల్జియం రాజ్యం",
        "official_name:tet": "Reinu Béljika nian",
        "official_name:tg": "Шоҳигарии Бeлгия",
        "official_name:th": "ราชอาณาจักรเบลเยียม",
        "official_name:tk": "Belgiýa korollygy",
        "official_name:tl": "Kaharian ng Belhika",
        "official_name:tr": "Belçika Krallığı",
        "official_name:tt": "Бе́льгия Корольлеге́",
        "official_name:udm": "Королевство Бельгия",
        "official_name:ug": "بېلگىيە پادىشاھلىقى",
        "official_name:uk": "Королі́вство Бе́льгія",
        "official_name:ur": "مملکت بلجئیم",
        "official_name:uz": "Belgiya Qirolligi",
        "official_name:vec": "Regno del Belgio",
        "official_name:vep": "Bel'gijan Kunigahuz",
        "official_name:vi": "Vương quốc Bỉ",
        "official_name:vls": "Keunienkryk België",
        "official_name:vo": "Regän Belgäna",
        "official_name:wa": "Royåme di Beldjike",
        "official_name:war": "Ginhadi-an han Belhika",
        "official_name:wo": "Ruwaayom bu Beljik",
        "official_name:xal": "Бельҗмудин Орн Нутг",
        "official_name:xmf": "ბელგიაშ ომაფე",
        "official_name:yi": "קעניגרייך פון בעלגיע",
        "official_name:yo": "Ilẹ̀ọba Bẹ́ljíọ̀m",
        "official_name:yue": "比利時王國",
        "official_name:zea": "Konienkriek België",
        "official_name:zh": "比利时王国 / 比利時王國",
        "official_name:zh-Hans": "比利时王国",
        "official_name:zh-Hant": "比利時王國",
        "timezone": "Europe/Brussels",
        "type": "boundary",
        "wikidata": "Q31",
        "wikipedia": "nl:België"
      }
    },
    {
      "type": "area",
      "id": 3600053114,
      "tags": {
        "ISO3166-2": "BE-VAN",
        "admin_level": "6",
        "alt_name:ar": "أنتفيرب",
        "alt_name:es": "Antuerpia",
        "alt_name:mk": "Антверп",
        "border_type": "province",
        "boundary": "administrative",
        "capital": "6",
        "name": "Antwerpen",
        "name:ar": "أنتويرب",
        "name:ca": "Anvers",
        "name:cs": "Antverpy",
        "name:de": "Antwerpen",
        "name:el": "Αμβέρσα",
        "name:en": "Antwerp",
        "name:eo": "Antverpeno",
        "name:es": "Amberes",
        "name:fi": "Antwerpen",
        "name:fr": "Anvers",
        "name:he": "אנטוורפן",
        "name:hr": "Antwerpen",
        "name:hu": "Antwerpen",
        "name:hy": "Անտվերպեն",
        "name:it": "Anversa",
        "name:ja": "アントワープ",
        "name:ka": "ანტვერპენი",
        "name:kn": "ಆಂಟ್ವೆರ್ಪ್",
        "name:la": "Antverpia",
        "name:lt": "Antverpenas",
        "name:lv": "Antverpene",
        "name:mk": "Антверпен",
        "name:nds": "Antwarp",
        "name:nds-nl": "Antwaarp",
        "name:nl": "Antwerpen",
        "name:pcd": "Anvérse",
        "name:pl": "Antwerpia",
        "name:pt": "Antuérpia",
        "name:ru": "Антверпен",
        "name:sk": "Antverpy",
        "name:sr": "Антверпен",
        "name:tzl": "Anviarça",
        "name:uk": "Антверпен",
        "name:vls": "Antwerpn",
        "name:wa": "Anverse",
        "name:zh": "安特卫普",
        "official_name": "Provincie Antwerpen",
        "official_name:ar": "مقاطعة أنتويرب",
        "official_name:nl": "Provincie Antwerpen",
        "old_name:de": "Antorf",
        "population": "1802719",
        "population:date": "2014-01-01",
        "ref:INS": "10000",
        "ref:nuts": "BE21",
        "ref:nuts:2": "BE21",
        "source:population": "wiki/ADSEI",
        "type": "boundary",
        "website": "https://www.provincieantwerpen.be/",
        "wikidata": "Q1116",
        "wikipedia": "nl:Antwerpen (provincie)"
      }
    },
    {
      "type": "area",
      "id": 3600053134,
      "tags": {
        "ISO3166-2": "BE-VLG",
        "admin_level": "4",
        "border_type": "state",
        "boundary": "administrative",
        "default_language": "nl",
        "name": "Vlaanderen",
        "name:ar": "فلاندر",
        "name:br": "Flandrez",
        "name:ca": "Flandes",
        "name:de": "Flandern",
        "name:el": "Φλάνδρα",
        "name:en": "Flanders",
        "name:eo": "Flandrio",
        "name:es": "Flandes",
        "name:et": "Flandria",
        "name:fi": "Flanderi",
        "name:fr": "Flandre",
        "name:fy": "Flaanderen",
        "name:hu": "Flandria",
        "name:ja": "フランデレン地域",
        "name:ka": "ფლანდრია",
        "name:ko": "플라망 지역",
        "name:lb": "Flandern",
        "name:li": "Vlaondere",
        "name:lt": "Flandrija",
        "name:nl": "Vlaanderen",
        "name:pcd": "Flande",
        "name:pt": "Flandres",
        "name:ru": "Фландрия",
        "name:sk": "Flámsko",
        "name:th": "เขตฟลามส์",
        "name:tzl": "Flemphäts",
        "name:vls": "Vloandern",
        "name:wa": "Flande",
        "name:zh": "弗拉芒大區",
        "name:zh-Hans": "弗拉芒大区",
        "name:zh-Hant": "弗拉芒大區",
        "nat_name": "Vlaams Gewest",
        "nat_name:ar": "الإقليم الفلامندي",
        "nat_name:be": "Фламандскі рэгіён",
        "nat_name:bg": "Фламандски регион",
        "nat_name:ca": "Regió flamenca",
        "nat_name:de": "Flämische Region",
        "nat_name:el": "Φλαμανδική Περιοχή",
        "nat_name:en": "Flemish Region",
        "nat_name:eo": "Flandra Regiono",
        "nat_name:fr": "Région flamande",
        "nat_name:fy": "Flaamsk Gewest",
        "nat_name:lb": "Flämesch Regioun",
        "nat_name:li": "Vlaondere Gewes",
        "nat_name:mk": "Фламански регион",
        "nat_name:nl": "Vlaams Gewest",
        "nat_name:os": "Фламандийы регион",
        "nat_name:pcd": "Région flaminke",
        "nat_name:pl": "Region Flamandzki",
        "nat_name:ru": "Фламандский регион",
        "nat_name:sk": "Flámsky región",
        "nat_name:tr": "Flaman Bölgesi",
        "nat_name:vls": "Vlams Gewest",
        "nat_name:wa": "Redjon flaminde",
        "ref:INS": "02000",
        "ref:nuts:1": "BE2",
        "source:name:br": "ofis publik ar brezhoneg",
        "type": "boundary",
        "website": "https://www.vlaanderen.be/",
        "wikidata": "Q9337",
        "wikipedia": "nl:Vlaams Gewest"
      }
    },
    {
      "type": "area",
      "id": 3600053136,
      "tags": {
        "boundary": "political",
        "default_language": "nl",
        "euro_const": "BE",
        "name": "Vlaamse Gemeenschap - Communauté flamande",
        "name:ar": "المجتمع الفلامندي",
        "name:ca": "Comunitat flamenca",
        "name:de": "Flämische Gemeinschaft",
        "name:en": "Flemish Community",
        "name:fr": "Communauté flamande",
        "name:fy": "Frânske Mienskip",
        "name:hu": "Flamand közösség",
        "name:lt": "Flamandų bendruomenė",
        "name:nl": "Vlaamse Gemeenschap",
        "name:sk": "Flámske spoločenstvo",
        "political_division": "linguistic_community",
        "type": "boundary",
        "wikidata": "Q9331",
        "wikipedia": "nl:Vlaamse Gemeenschap"
      }
    },
    {
      "type": "area",
      "id": 3600058545,
      "tags": {
        "admin_level": "8",
        "boundary": "administrative",
        "name": "Aartselaar",
        "name:nl": "Aartselaar",
        "name:ru": "Артселар",
        "ref:INS": "11001",
        "type": "boundary",
        "website": "https://www.aartselaar.be/",
        "wikidata": "Q303246",
        "wikipedia": "nl:Aartselaar"
      }
    },
    {
      "type": "area",
      "id": 3600937244,
      "tags": {
        "ISO3166-1": "BE",
        "admin_level": "2",
        "flag": "http://upload.wikimedia.org/wikipedia/commons/6/65/Flag_of_Belgium.svg",
        "land_area": "administrative",
        "name": "België / Belgique / Belgien (land mass)",
        "name:ar": "بلجيكا (كتلة اليابسة)",
        "name:ca": "Bèlgica (terra)",
        "name:de": "Belgien (Landmasse)",
        "name:en": "Belgium (land mass)",
        "name:fr": "Belgique (terres)",
        "name:lt": "Belgija (žemė)",
        "name:nl": "België (land)",
        "type": "land_area"
      }
    },
    {
      "type": "area",
      "id": 3601902793,
      "tags": {
        "admin_level": "7",
        "alt_name:ar": "أنتفيرب",
        "alt_name:es": "Antuerpia",
        "alt_name:mk": "Антверп",
        "boundary": "administrative",
        "capital": "6",
        "name": "Antwerpen",
        "name:ar": "أنتويرب",
        "name:ca": "Anvers",
        "name:cs": "Antverpy",
        "name:de": "Antwerpen",
        "name:el": "Αμβέρσα",
        "name:en": "Antwerp",
        "name:eo": "Antverpeno",
        "name:es": "Amberes",
        "name:fi": "Antwerpen",
        "name:fr": "Anvers",
        "name:he": "אנטוורפן",
        "name:hr": "Antwerpen",
        "name:hy": "Անտվերպեն",
        "name:it": "Anversa",
        "name:ja": "アントワープ",
        "name:ka": "ანტვერპენი",
        "name:kn": "ಆಂಟ್ವೆರ್ಪ್",
        "name:la": "Antverpia",
        "name:lt": "Antverpenas",
        "name:lv": "Antverpene",
        "name:mk": "Антверпен",
        "name:nds": "Antwarp",
        "name:nds-nl": "Antwaarp",
        "name:nl": "Antwerpen",
        "name:pcd": "Anvérse",
        "name:pl": "Antwerpia",
        "name:pt": "Antuérpia",
        "name:ru": "Антверпен",
        "name:sk": "Antverpy",
        "name:sr": "Антверпен",
        "name:tzl": "Anviarça",
        "name:uk": "Антверпен",
        "name:vls": "Antwerpn",
        "name:wa": "Anverse",
        "name:zh": "安特卫普",
        "official_name": "Arrondissement Antwerpen",
        "official_name:ar": "دائرة أنتويرب",
        "official_name:nl": "Arrondissement Antwerpen",
        "old_name:de": "Antorf",
        "ref:INS": "11000",
        "ref:nuts": "BE211",
        "ref:nuts:3": "BE211",
        "type": "boundary",
        "wikidata": "Q90895",
        "wikipedia": "nl:Arrondissement Antwerpen"
      }
    },
    {
      "type": "area",
      "id": 3603363508,
      "tags": {
        "boundary": "postal_code",
        "note": "2630 Aartselaar",
        "postal_code": "2630",
        "type": "boundary"
      }
    },
    {
      "type": "area",
      "id": 3612728392,
      "tags": {
        "boundary": "administrative_cooperation",
        "name": "Benelux",
        "note": "Caribbean Netherlands (BES islands) joined the Benelux per the 2012-01-01 revision of the Benelux Treaty.",
        "official_name": "Benelux Unie / Union Benelux",
        "official_name:-2012-01-01": "Benelux Economische Unie / Union économique Benelux",
        "official_name:de": "Benelux-Union",
        "official_name:de:-2012-01-01": "Benelux-Wirtschaftsunion",
        "official_name:en": "Benelux Union",
        "official_name:en:-2012-01-01": "Benelux Economic Union",
        "official_name:fr": "Union Benelux",
        "official_name:fr:-2012-01-01": "Union économique Benelux",
        "official_name:lb": "Benelux-Unioun",
        "official_name:nl": "Benelux Unie",
        "official_name:nl:-2012-01-01": "Benelux Economische Unie",
        "source": "https://www.parlementairemonitor.nl/9353000/1/j9vvij5epmj1ey0/vhy97r97ikz8",
        "type": "boundary",
        "website": "https://benelux.int/",
        "wikidata": "Q13116",
        "wikipedia": "nl:Benelux"
      }
    },
    {
      "type": "area",
      "id": 3613325281,
      "tags": {
        "boundary": "administrative_cooperation",
        "description:en": "Treaty organisation of the Netherlands and the Flemish Community. Has an association agreement with Suriname and collaborates with other countries within the Kingdom of the Netherlands.",
        "description:nl": "Verdragsorganisatie van Nederland en de Vlaamse Gemeenschap. Heeft een associatieovereenkomst met Suriname en werkt samen met andere landen binnen het Koninkrijk der Nederlanden.",
        "name": "Nederlandse Taalunie",
        "name:en": "Dutch Language Union",
        "name:fr": "Union linguistique néerlandaise",
        "name:nl": "Nederlandse Taalunie",
        "short_name": "Taalunie",
        "short_name:en": "Language Union",
        "short_name:fr": "Union linguistique",
        "short_name:nl": "Taalunie",
        "source": "https://taalunie.org/informatie/36/verdragen-overeenkomsten-en-regelingen",
        "type": "boundary",
        "website": "https://taalunie.org/",
        "wikidata": "Q152299",
        "wikipedia": "nl:Nederlandse Taalunie"
      }
    },
    {
      "type": "node",
      "id": 4988457620,
      "lat": 51.1454981,
      "lon": 4.3870591,
      "timestamp": "2021-02-20T20:22:14Z",
      "version": 2,
      "changeset": 99658913,
      "user": "Pieter Vander Vennet",
      "uid": 3818858
    },
    {
      "type": "node",
      "id": 4988457721,
      "lat": 51.1457326,
      "lon": 4.386777,
      "timestamp": "2021-02-20T20:22:14Z",
      "version": 2,
      "changeset": 99658913,
      "user": "Pieter Vander Vennet",
      "uid": 3818858
    },
    {
      "type": "node",
      "id": 8441485381,
      "lat": 51.1457327,
      "lon": 4.3870472,
      "timestamp": "2021-02-20T20:22:14Z",
      "version": 1,
      "changeset": 99658913,
      "user": "Pieter Vander Vennet",
      "uid": 3818858
    },
    {
      "type": "node",
      "id": 8441485398,
      "lat": 51.1454799,
      "lon": 4.3860327,
      "timestamp": "2021-02-20T20:22:14Z",
      "version": 1,
      "changeset": 99658913,
      "user": "Pieter Vander Vennet",
      "uid": 3818858
    },
    {
      "type": "node",
      "id": 8441485399,
      "lat": 51.1457037,
      "lon": 4.3859602,
      "timestamp": "2021-02-20T20:22:14Z",
      "version": 1,
      "changeset": 99658913,
      "user": "Pieter Vander Vennet",
      "uid": 3818858
    },
    {
      "type": "node",
      "id": 8441485400,
      "lat": 51.145723,
      "lon": 4.3859763,
      "timestamp": "2021-02-20T20:22:14Z",
      "version": 1,
      "changeset": 99658913,
      "user": "Pieter Vander Vennet",
      "uid": 3818858
    },
    {
      "type": "way",
      "id": 23280934,
      "timestamp": "2017-06-13T05:32:09Z",
      "version": 3,
      "changeset": 49487877,
      "user": "clupu",
      "uid": 4565459,
      "nodes": [
        251976930,
        251975851
      ],
      "tags": {
        "highway": "pedestrian",
        "name": "Vorstenhuislaan",
        "surface": "concrete"
      }
    },
    {
      "type": "way",
      "id": 41050446,
      "timestamp": "2020-04-02T13:10:28Z",
      "version": 3,
      "changeset": 82982690,
      "user": "Pieter Vander Vennet",
      "uid": 3818858,
      "nodes": [
        499489364,
        500192155
      ],
      "tags": {
        "highway": "footway",
        "surface": "paving_stones"
      }
    },
    {
      "type": "way",
      "id": 53763548,
      "timestamp": "2017-10-02T01:21:32Z",
      "version": 5,
      "changeset": 52550507,
      "user": "henke54",
      "uid": 71942,
      "nodes": [
        678833820,
        1833201049,
        1833201047,
        678833821,
        678833822,
        678833823,
        678833824,
        1833201035,
        1833201033,
        1833201031,
        1833201018,
        678833825,
        1833201007,
        5141999996,
        5141999994,
        5141999998,
        1833200983,
        1833200976,
        5141999993,
        5142000002,
        5141999999,
        678833819
      ],
      "tags": {
        "bicycle": "designated",
        "highway": "path"
      }
    },
    {
      "type": "way",
      "id": 61300850,
      "timestamp": "2021-03-01T19:17:36Z",
      "version": 2,
      "changeset": 100226675,
      "user": "Pieter Vander Vennet",
      "uid": 3818858,
      "nodes": [
        765806268,
        765806270,
        765806274,
        765806258
      ],
      "tags": {
        "bicycle": "yes",
        "highway": "footway",
        "segregated": "no"
      }
    },
    {
      "type": "way",
      "id": 100016274,
      "timestamp": "2021-04-05T18:24:58Z",
      "version": 6,
      "changeset": 102352004,
      "user": "Pieter Vander Vennet",
      "uid": 3818858,
      "nodes": [
        1156345447,
        8596100323,
        1163048161,
        1156345448,
        8596100324,
        1156345449,
        8596100325,
        8596100326,
        1156345450,
        1156345451,
        8596100327,
        1156345452,
        8596100328,
        8596100329,
        8596100330,
        8596100331,
        8596100332,
        1156345454,
        1156345455,
        8596100319,
        8596100320,
        262201531
      ],
      "tags": {
        "bicycle": "yes",
        "foot": "yes",
        "highway": "track",
        "motor_vehicle": "no",
        "name": "Potaerdestraat",
        "surface": "unpaved",
        "tracktype": "grade3"
      }
    },
    {
      "type": "way",
      "id": 135289320,
      "timestamp": "2011-10-30T16:32:29Z",
      "version": 1,
      "changeset": 9694868,
      "user": "meet00",
      "uid": 310392,
      "nodes": [
        1485881400,
        1485881370,
        1485881411,
        1485881351,
        1485881400
      ],
      "tags": {
        "leisure": "pitch",
        "sport": "tennis"
      }
    },
    {
      "type": "way",
      "id": 135289327,
      "timestamp": "2011-10-30T16:32:30Z",
      "version": 1,
      "changeset": 9694868,
      "user": "meet00",
      "uid": 310392,
      "nodes": [
        1485881406,
        1485881388,
        1485881397,
        1485881318,
        1485881406
      ],
      "tags": {
        "access": "private",
        "leisure": "pitch",
        "sport": "tennis"
      }
    },
    {
      "type": "way",
      "id": 152993133,
      "timestamp": "2014-03-08T20:09:12Z",
      "version": 5,
      "changeset": 20993756,
      "user": "escada",
      "uid": 436365,
      "nodes": [
        1657510823,
        2108718479,
        2104340832,
        2108718807,
        2707498774,
        1657510820
      ],
      "tags": {
        "highway": "path",
        "lit": "yes",
        "name": "Jan Stobbaertslaan"
      }
    },
    {
      "type": "way",
      "id": 176886951,
      "timestamp": "2012-08-19T23:35:31Z",
      "version": 1,
      "changeset": 12790104,
      "user": "btrs",
      "uid": 194111,
      "nodes": [
        1873738051,
        1873738202,
        1873738169,
        1873738100,
        1873738051
      ],
      "tags": {
        "access": "private",
        "leisure": "pitch",
        "sport": "soccer"
      }
    },
    {
      "type": "way",
      "id": 200444428,
      "timestamp": "2013-01-10T15:06:39Z",
      "version": 1,
      "changeset": 14598939,
      "user": "Renrew1968",
      "uid": 1112163,
      "nodes": [
        1485881415,
        1485881356
      ],
      "tags": {
        "bicycle": "yes",
        "foot": "yes",
        "highway": "path"
      }
    },
    {
      "type": "way",
      "id": 200444429,
      "timestamp": "2013-01-10T15:06:39Z",
      "version": 1,
      "changeset": 14598939,
      "user": "Renrew1968",
      "uid": 1112163,
      "nodes": [
        2104340832,
        2104340831,
        2104340828
      ],
      "tags": {
        "bicycle": "yes",
        "foot": "yes",
        "highway": "path"
      }
    },
    {
      "type": "way",
      "id": 200444430,
      "timestamp": "2013-01-10T15:06:39Z",
      "version": 1,
      "changeset": 14598939,
      "user": "Renrew1968",
      "uid": 1112163,
      "nodes": [
        2104340840,
        2104340841,
        2104340846,
        1485881368
      ],
      "tags": {
        "bicycle": "no",
        "foot": "yes",
        "highway": "path"
      }
    },
    {
      "type": "way",
      "id": 200444431,
      "timestamp": "2017-10-20T13:26:38Z",
      "version": 2,
      "changeset": 53098310,
      "user": "collectiam",
      "uid": 2069104,
      "nodes": [
        1485873011,
        1485881390
      ],
      "tags": {
        "bicycle": "yes",
        "foot": "yes",
        "highway": "path"
      }
    },
    {
      "type": "way",
      "id": 200444432,
      "timestamp": "2013-01-11T21:39:55Z",
      "version": 2,
      "changeset": 14615820,
      "user": "escada",
      "uid": 436365,
      "nodes": [
        2104340834,
        2106368645,
        2104340838,
        2104340840,
        2104340836,
        1485881376
      ],
      "tags": {
        "bicycle": "no",
        "foot": "yes",
        "highway": "path"
      }
    },
    {
      "type": "way",
      "id": 200672036,
      "timestamp": "2021-06-03T11:49:34Z",
      "version": 2,
      "changeset": 105776011,
      "user": "Siel Createlli",
      "uid": 13457794,
      "nodes": [
        2106368529,
        2106368533,
        2106368671,
        2106368673,
        2106368677,
        2106368679,
        2106368684,
        2106368682,
        2106368675,
        2106368669,
        2106368663,
        2106368657,
        2106368651,
        2106368645,
        2106368639,
        2106368614,
        2106368630,
        2106368529
      ],
      "tags": {
        "dog": "no",
        "leisure": "playground",
        "name": "Schuurveld",
        "video": "https://www.youtube.com/watch?v=it9FRTgiZUg&list=PLpTlCwUs8-qzH_ZK2Hh3VI4ODGaFFJIox&index=4"
      }
    },
    {
      "type": "way",
      "id": 509654980,
      "timestamp": "2021-02-20T20:27:39Z",
      "version": 3,
      "changeset": 99659070,
      "user": "Pieter Vander Vennet",
      "uid": 3818858,
      "nodes": [
        4988457620,
        8441485398,
        8441485399,
        8441485400,
        4988457721,
        8441485381,
        4988457620
      ],
      "tags": {
        "bicycle": "no",
        "dog": "no",
        "leisure": "park",
        "name": "Speelplein Mastboomstraat",
        "note": "Een nogal droge naam, maar dat is wat op het bordje staat..."
      }
    },
    {
      "type": "way",
      "id": 509654984,
      "timestamp": "2021-02-20T20:22:14Z",
      "version": 2,
      "changeset": 99658913,
      "user": "Pieter Vander Vennet",
      "uid": 3818858,
      "nodes": [
        4988457731,
        4988457721,
        8441485377,
        4988457730,
        4988457723,
        4988457778,
        4988457779,
        4988457729,
        4988457731
      ],
      "tags": {
        "landuse": "residential"
      }
    },
    {
      "type": "way",
      "id": 509654985,
      "timestamp": "2017-10-20T13:26:42Z",
      "version": 2,
      "changeset": 53098310,
      "user": "collectiam",
      "uid": 2069104,
      "nodes": [
        494767352,
        4988457767,
        4988457766,
        4988457765,
        4988457770,
        4988457737,
        4988457736,
        4988457735,
        4988457734,
        4988457620,
        4988457733,
        301605945,
        301605946,
        4988457732,
        301605947,
        301605948,
        4988457749,
        4988457752,
        4988457747,
        4988457746,
        4988457745,
        4988457744,
        4988457753,
        4988457754,
        4988457755,
        4988457756,
        4988457757,
        304617981,
        304617982,
        4988457738,
        4988457758,
        4988457762,
        494767352
      ],
      "tags": {
        "landuse": "residential"
      }
    },
    {
      "type": "way",
      "id": 509654999,
      "timestamp": "2019-12-19T11:07:34Z",
      "version": 2,
      "changeset": 78633928,
      "user": "JanFi",
      "uid": 672253,
      "nodes": [
        4988457841,
        4988457840,
        4988457839,
        4988457838
      ],
      "tags": {
        "bicycle": "designated",
        "foot": "designated",
        "highway": "path",
        "oneway": "no",
        "segregated": "yes"
      }
    },
    {
      "type": "way",
      "id": 563959255,
      "timestamp": "2018-02-24T23:44:18Z",
      "version": 1,
      "changeset": 56648700,
      "user": "wegspotter",
      "uid": 428001,
      "nodes": [
        5434329634,
        5434329633,
        5434329632,
        5434329631
      ],
      "tags": {
        "highway": "path"
      }
    },
    {
      "type": "way",
      "id": 563959503,
      "timestamp": "2018-02-24T23:45:20Z",
      "version": 1,
      "changeset": 56648719,
      "user": "wegspotter",
      "uid": 428001,
      "nodes": [
        765806263,
        5434331115,
        5434331114,
        765806253
      ],
      "tags": {
        "highway": "path"
      }
    },
    {
      "type": "way",
      "id": 563959504,
      "timestamp": "2018-02-24T23:45:20Z",
      "version": 1,
      "changeset": 56648719,
      "user": "wegspotter",
      "uid": 428001,
      "nodes": [
        5434331224,
        5434331119,
        5434331118,
        5434331117,
        5434331116
      ],
      "tags": {
        "highway": "path"
      }
    },
    {
      "type": "way",
      "id": 563959506,
      "timestamp": "2018-02-24T23:45:20Z",
      "version": 1,
      "changeset": 56648719,
      "user": "wegspotter",
      "uid": 428001,
      "nodes": [
        5434331225,
        5434331224,
        5434331223,
        5434331222,
        5434331221,
        5434331120
      ],
      "tags": {
        "highway": "path"
      }
    },
    {
      "type": "way",
      "id": 812911263,
      "timestamp": "2020-06-04T17:01:32Z",
      "version": 1,
      "changeset": 86200375,
      "user": "Jakka",
      "uid": 2403313,
      "nodes": [
        7593050599,
        7593050598,
        7593050597,
        7593050596
      ],
      "tags": {
        "highway": "footway"
      }
    },
    {
      "type": "way",
      "id": 861067006,
      "timestamp": "2020-10-20T13:29:47Z",
      "version": 1,
      "changeset": 92772163,
      "user": "Erin76",
      "uid": 8982454,
      "nodes": [
        8025420597,
        8025420625
      ],
      "tags": {
        "highway": "footway"
      }
    },
    {
      "type": "way",
      "id": 909154808,
      "timestamp": "2021-02-20T20:22:14Z",
      "version": 1,
      "changeset": 99658913,
      "user": "Pieter Vander Vennet",
      "uid": 3818858,
      "nodes": [
        8441485386,
        8441485385,
        8441485384,
        8441485383,
        8441485386
      ],
      "tags": {
        "leisure": "pitch",
        "sport": "soccer"
      }
    },
    {
      "type": "way",
      "id": 909154809,
      "timestamp": "2021-02-20T20:22:14Z",
      "version": 1,
      "changeset": 99658913,
      "user": "Pieter Vander Vennet",
      "uid": 3818858,
      "nodes": [
        8441485392,
        8441485391,
        8441485390,
        8441485389,
        8441485388,
        8441485392
      ],
      "tags": {
        "leisure": "playground"
      }
    },
    {
      "type": "way",
      "id": 909154810,
      "timestamp": "2021-02-20T20:22:14Z",
      "version": 1,
      "changeset": 99658913,
      "user": "Pieter Vander Vennet",
      "uid": 3818858,
      "nodes": [
        8441485396,
        8441485395,
        8441485394,
        8441485393,
        8441485396
      ],
      "tags": {
        "leisure": "pitch",
        "sport": "basketball"
      }
    },
    {
      "type": "way",
      "id": 912513641,
      "timestamp": "2021-03-01T19:17:36Z",
      "version": 1,
      "changeset": 100226675,
      "user": "Pieter Vander Vennet",
      "uid": 3818858,
      "nodes": [
        8476890604,
        8476890603,
        8476890602,
        8476890601,
        8476890604
      ],
      "tags": {
        "leisure": "pitch",
        "sport": "basketball",
        "surface": "paved"
      }
    },
    {
      "type": "way",
      "id": 912513642,
      "timestamp": "2021-03-01T19:17:36Z",
      "version": 1,
      "changeset": 100226675,
      "user": "Pieter Vander Vennet",
      "uid": 3818858,
      "nodes": [
        8476890608,
        8476890607,
        8476890606,
        8476890605,
        8476890608
      ],
      "tags": {
        "leisure": "pitch",
        "sport": "soccer",
        "surface": "grass"
      }
    },
    {
      "type": "way",
      "id": 912513643,
      "timestamp": "2021-03-01T19:17:36Z",
      "version": 1,
      "changeset": 100226675,
      "user": "Pieter Vander Vennet",
      "uid": 3818858,
      "nodes": [
        8476890615,
        8476890614,
        8476890613,
        8476890612,
        8476890611,
        8476890610,
        8380531663,
        8476890609,
        8476890615
      ],
      "tags": {
        "access": "yes",
        "dog": "no",
        "leisure": "playground",
        "name": "Buerstede",
        "operator": "Gemeente Aartselaar",
        "surface": "grass"
      }
    },
    {
      "type": "way",
      "id": 930227521,
      "timestamp": "2021-04-13T11:00:46Z",
      "version": 1,
      "changeset": 102861764,
      "user": "Globelotter",
      "uid": 6141733,
      "nodes": [
        3407467109,
        2051950441
      ],
      "tags": {
        "bicycle": "yes",
        "foot": "yes",
        "highway": "path",
        "name": "Beukennotendreef"
      }
    },
    {
      "type": "way",
      "id": 930683326,
      "timestamp": "2021-04-14T14:06:01Z",
      "version": 1,
      "changeset": 102935422,
      "user": "Globelotter",
      "uid": 6141733,
      "nodes": [
        1485709404,
        3407467114,
        3407467115,
        3407467118,
        3407467120,
        3407467122,
        3407467121,
        3407467119,
        3407467117,
        3407467116,
        3407467114
      ],
      "tags": {
        "highway": "footway"
      }
    },
    {
      "type": "area",
      "id": 3600052411,
      "tags": {
        "ISO3166-1": "BE",
        "ISO3166-1:alpha2": "BE",
        "ISO3166-1:alpha3": "BEL",
        "ISO3166-1:numeric": "056",
        "TMC:cid_58:tabcd_1:Class": "Area",
        "TMC:cid_58:tabcd_1:LCLversion": "8.00",
        "TMC:cid_58:tabcd_1:LocationCode": "3",
        "admin_level": "2",
        "alt_name:ay": "Bilgasuyu",
        "alt_name:bar": "Bejgien",
        "alt_name:ckb": "بلژیک",
        "alt_name:eo": "Belgujo",
        "alt_name:frp": "Bèlg·ica",
        "alt_name:fur": "Belgjiche;Belgje",
        "alt_name:fy": "België;it Belzelân",
        "alt_name:kbd": "Белгэ",
        "alt_name:ksh": "Belgien",
        "alt_name:ku": "Belcîka",
        "alt_name:la": "Belgium",
        "alt_name:li": "Belzjiek",
        "alt_name:mzn": "بلجیک",
        "alt_name:qu": "Bilgasuyu",
        "alt_name:rw": "Ububirigi",
        "alt_name:so": "Belgium",
        "alt_name:war": "Bélgica",
        "boundary": "administrative",
        "currency": "EUR",
        "flag": "http://upload.wikimedia.org/wikipedia/commons/6/65/Flag_of_Belgium.svg",
        "int_name": "Belgium",
        "name": "België / Belgique / Belgien",
        "name:ace": "Bèlgia",
        "name:ady": "Белгие",
        "name:af": "België",
        "name:ak": "Belgium",
        "name:als": "Belgie",
        "name:am": "ቤልጅግ",
        "name:an": "Belchica",
        "name:ang": "Belgice",
        "name:ar": "بلجيكا",
        "name:arc": "ܒܠܓܝܩܐ",
        "name:arz": "بلجيكا",
        "name:ast": "Bélxica",
        "name:av": "Бе́льгия",
        "name:ay": "Bilkiya",
        "name:az": "Belçika",
        "name:azb": "بلژیک",
        "name:ba": "Бе́льгия",
        "name:bar": "Bäigien",
        "name:bat-smg": "Belgėjė",
        "name:bcl": "Belhika",
        "name:be": "Бeльгія",
        "name:be-tarask": "Бэ́льгія",
        "name:bg": "Белгия",
        "name:bh": "बेल्जियम",
        "name:bi": "Beljiom",
        "name:bm": "Bɛliziki",
        "name:bn": "বেলজিয়াম",
        "name:bo": "པེར་ཅིན།",
        "name:bpy": "বেলজিয়াম",
        "name:br": "Belgia",
        "name:bs": "Belgija",
        "name:bug": "Belgia",
        "name:bxr": "Бельги",
        "name:ca": "Bèlgica",
        "name:cbk-zam": "Bélgica",
        "name:cdo": "Bī-lé-sì",
        "name:ce": "Бельги",
        "name:ceb": "Belhika",
        "name:chr": "ᏇᎵᏥᎥᎻ",
        "name:ckb": "بەلجیکا",
        "name:co": "Belgica",
        "name:crh": "Belçika",
        "name:cs": "Belgie",
        "name:csb": "Belgijskô",
        "name:cu": "Бє́лгїѥ",
        "name:cv": "Бельги",
        "name:cy": "Gwlad Belg",
        "name:da": "Belgien",
        "name:de": "Belgien",
        "name:din": "Beljiem",
        "name:diq": "Belçıka",
        "name:dsb": "Belgiska",
        "name:dty": "बेल्जियम",
        "name:dv": "ބެލްޖިއަމް",
        "name:dz": "བེལ་ཇིཡམ",
        "name:ee": "Belgium",
        "name:el": "Βέλγιο",
        "name:eml": "Bélgi",
        "name:en": "Belgium",
        "name:eo": "Belgio",
        "name:es": "Bélgica",
        "name:et": "Belgia",
        "name:eu": "Belgika",
        "name:ext": "Bélgica",
        "name:fa": "بلژیک",
        "name:ff": "Beljik",
        "name:fi": "Belgia",
        "name:fiu-vro": "Belgiä",
        "name:fo": "Belgia",
        "name:fr": "Belgique",
        "name:frp": "Bèlg·ique",
        "name:frr": "Bälgien",
        "name:fur": "Belgjo",
        "name:fy": "Belgje",
        "name:ga": "an Bheilg",
        "name:gag": "Belgiya",
        "name:gd": "a' Bheilg",
        "name:gl": "Bélxica",
        "name:gn": "Véyhika",
        "name:gom": "बेल्जियम",
        "name:gu": "બેલ્જિયમ",
        "name:gv": "Velg",
        "name:ha": "Beljik",
        "name:hak": "Pí-li-sṳ̀",
        "name:haw": "Pelekiuma",
        "name:he": "בֶּלְגְיָה",
        "name:hi": "बेल्जियम",
        "name:hif": "Belgium",
        "name:hr": "Belgija",
        "name:hsb": "Belgiska",
        "name:ht": "Bèljik",
        "name:hu": "Belgium",
        "name:hy": "Բելգիա",
        "name:ia": "Belgica",
        "name:id": "Belgia",
        "name:ie": "Belgia",
        "name:ig": "Belgium",
        "name:ilo": "Belhika",
        "name:io": "Belgia",
        "name:is": "Belgía",
        "name:it": "Belgio",
        "name:ja": "ベルギー",
        "name:jam": "Beljiom",
        "name:jbo": "beldjym",
        "name:jv": "Bèlgia",
        "name:ka": "ბელგია",
        "name:kaa": "Belgiya",
        "name:kab": "Biljik",
        "name:kbd": "Белгиэ",
        "name:kbp": "Pɛliziki",
        "name:kg": "Belezi",
        "name:ki": "Ubelgiji",
        "name:kk": "Бельгия",
        "name:kl": "Belgia",
        "name:km": "បែលហ្ស៉ិក",
        "name:kn": "ಬೆಲ್ಜಿಯಂ",
        "name:ko": "벨기에",
        "name:koi": "Белгия",
        "name:krc": "Бельгия",
        "name:ks": "बेल्जियम",
        "name:ksh": "Beljie",
        "name:ku": "Belçîka",
        "name:kv": "Бельгия",
        "name:kw": "Pow Belg",
        "name:ky": "Бельгия",
        "name:la": "Belgica",
        "name:lad": "Beljika",
        "name:lb": "Belsch",
        "name:lez": "Бельгия",
        "name:lg": "Bubirigi",
        "name:li": "Belsj",
        "name:lij": "Belgiò",
        "name:lmo": "Belgi",
        "name:ln": "Bɛ́ljika",
        "name:lo": "ປະເທດແບນຊິກ",
        "name:lrc": "بلجیک",
        "name:lt": "Belgija",
        "name:ltg": "Beļgeja",
        "name:lv": "Beļģija",
        "name:lzh": "比利時",
        "name:mai": "बेल्जियम",
        "name:mdf": "Бельгие",
        "name:mg": "Belzika",
        "name:mhr": "Бельгий",
        "name:mi": "Pehiamu",
        "name:mk": "Белгија",
        "name:ml": "ബെൽജിയം",
        "name:mn": "Бельги",
        "name:mr": "बेल्जियम",
        "name:ms": "Belgium",
        "name:mt": "Belġju",
        "name:mwl": "Bélgica",
        "name:my": "ဘယ်လ်ဂျီယမ်နိုင်ငံ",
        "name:myv": "Бельгия",
        "name:mzn": "بلژیک",
        "name:na": "Berdjiyum",
        "name:nah": "Belgica",
        "name:nan": "Pe̍k-ní-gī",
        "name:nap": "Belge",
        "name:nb": "Belgia",
        "name:nds": "Belgien",
        "name:nds-nl": "België",
        "name:ne": "बेल्जियम",
        "name:new": "बेल्जियम",
        "name:nl": "België",
        "name:nn": "Belgia",
        "name:no": "Belgia",
        "name:nov": "Belgia",
        "name:nrm": "Belgique",
        "name:nso": "Belgium",
        "name:oc": "Belgica",
        "name:olo": "Bel’gii",
        "name:om": "Beeljiyeem",
        "name:or": "ବେଲଜିଅମ",
        "name:os": "Бельги",
        "name:pa": "ਬੈਲਜੀਅਮ",
        "name:pag": "Belhika",
        "name:pam": "Belgika",
        "name:pap": "Bélgika",
        "name:pcd": "Bergike",
        "name:pdc": "Belgien",
        "name:pfl": "Belgje",
        "name:pi": "बेल्जियम",
        "name:pih": "Beljum",
        "name:pl": "Belgia",
        "name:pms": "Belgi",
        "name:pnb": "بیلجیم",
        "name:pnt": "Βέλγιον",
        "name:ps": "بلجیم",
        "name:pt": "Bélgica",
        "name:qu": "Bilhika",
        "name:rm": "Belgia",
        "name:rmy": "Beljiya",
        "name:rn": "Ububirigi",
        "name:ro": "Belgia",
        "name:roa-rup": "Belghia",
        "name:roa-tara": "Bèlge",
        "name:ru": "Бельгия",
        "name:rue": "Белґія",
        "name:rw": "Ububiligi",
        "name:sa": "बेल्जियम",
        "name:sah": "Бельгия",
        "name:sc": "Bèlgiu",
        "name:scn": "Belgiu",
        "name:sco": "Belgium",
        "name:sd": "بيلجيم",
        "name:se": "Belgia",
        "name:sg": "Bêleze",
        "name:sh": "Belgija",
        "name:si": "බෙල්ජියම්",
        "name:sk": "Belgicko",
        "name:sl": "Bélgija",
        "name:sm": "Peleseuma",
        "name:smn": "Belgia",
        "name:sms": "Belgia",
        "name:sn": "Belgium",
        "name:so": "Beljim",
        "name:sq": "Belgjika",
        "name:sr": "Белгија",
        "name:srn": "Belgikondre",
        "name:ss": "iBhelijiyamu",
        "name:stq": "Belgien",
        "name:su": "Bélgia",
        "name:sv": "Belgien",
        "name:sw": "Ubelgiji",
        "name:szl": "Belgijo",
        "name:ta": "பெல்ஜியம்",
        "name:te": "బెల్జియం",
        "name:tet": "Béljika",
        "name:tg": "Белгия",
        "name:th": "เบลเยียม",
        "name:ti": "ቤልጄም",
        "name:tk": "Belgiýa",
        "name:tl": "Belhika",
        "name:to": "Pelesiume",
        "name:tok": "ma Pesije",
        "name:tpi": "Beljiam",
        "name:tr": "Belçika",
        "name:ts": "Belgium",
        "name:tt": "Бе́льгия",
        "name:tum": "Belgium",
        "name:tw": "Belgium",
        "name:tzl": "Belxhíc",
        "name:udm": "Бельгия",
        "name:ug": "بېلگىيە",
        "name:uk": "Бе́льгія",
        "name:ur": "بلجئیم",
        "name:uz": "Belgiya",
        "name:vec": "Belgio",
        "name:vep": "Bel'gii",
        "name:vi": "Bỉ",
        "name:vls": "België",
        "name:vo": "Belgän",
        "name:wa": "Beldjike",
        "name:war": "Belhika",
        "name:wo": "Belsik",
        "name:wuu": "比利时",
        "name:xal": "Бельҗмудин Нутг",
        "name:xmf": "ბელგია",
        "name:yi": "בעלגיע",
        "name:yo": "Bẹ́ljíọ̀m",
        "name:yue": "比利時",
        "name:zea": "Belhië",
        "name:zh": "比利时 / 比利時",
        "name:zh-Hans": "比利时",
        "name:zh-Hant": "比利時",
        "name:zh_pinyin": "Bǐlìshí",
        "name:zu": "i-Belgium",
        "official_name": "Koninkrijk België / Royaume de Belgique / Königreich Belgien",
        "official_name:af": "Koninkryk van België",
        "official_name:als": "Königriich Belgie",
        "official_name:am": "የቤልጅግ መንግሥት",
        "official_name:an": "Reino de Belchica",
        "official_name:ang": "Belgice Cynerīce",
        "official_name:ar": "مملكة بلجيكا",
        "official_name:arc": "ܡܠܟܘܬܐ ܕܒܠܓܝܩܐ",
        "official_name:ast": "Reinu de Bélxica",
        "official_name:av": "Ханлъи Бе́льгия",
        "official_name:ay": "Bilhika Qhapaqsuyu",
        "official_name:az": "Belçika Krallığı",
        "official_name:azb": "بلژیک کراللیغی",
        "official_name:ba": "Бельгия Короллеге",
        "official_name:bar": "Kinigraich Bäigien",
        "official_name:bat-smg": "Belgėjės Karalīstė",
        "official_name:be": "Каралеўства Бельгія",
        "official_name:be-tarask": "Каралеўства Бельгія",
        "official_name:bg": "Кралство Белгия",
        "official_name:bm": "Bɛliziki Mansamara",
        "official_name:bn": "রাজতন্ত্রী বেলজিয়াম",
        "official_name:bo": "Kraljevina Belgija",
        "official_name:bpy": "রাজতান্ত্রিক বেলজিয়াম",
        "official_name:br": "Rouantelezh Belgia",
        "official_name:bs": "Kraljevina Belgija",
        "official_name:ca": "Regne de Bèlgica",
        "official_name:ce": "Монархи Бельги",
        "official_name:chr": "ᎤᎬᏫᏳᎯ ᎨᏒ ᎾᎿ ᎠᏲᎳᏂ",
        "official_name:co": "Regnu di Belgica",
        "official_name:crh": "Belçika Qırallığı",
        "official_name:cs": "Belgické království",
        "official_name:cu": "Кралѥ́вьство Бє́лгїѥ",
        "official_name:cy": "Teyrnas Gwlad Belg",
        "official_name:da": "Kongeriget Belgien",
        "official_name:de": "Königreich Belgien",
        "official_name:din": "Mäcŋaknhom ke Beljiem",
        "official_name:dsb": "Kralojstwo Belgiskej",
        "official_name:el": "Βασίλειο του Βελγίου",
        "official_name:eml": "Regno dal Bèlgi",
        "official_name:en": "Kingdom of Belgium",
        "official_name:eo": "Reĝlando Belgio",
        "official_name:es": "Reino de Bélgica",
        "official_name:et": "Belgia Kuningriik",
        "official_name:eu": "Belgikako Erresuma",
        "official_name:fa": "پادشاهی بلژیک",
        "official_name:fi": "Belgian kuningaskunta",
        "official_name:fiu-vro": "Belgiä Kuningriik",
        "official_name:fr": "Royaume de Belgique",
        "official_name:frp": "Royômo de Bèlg·ique",
        "official_name:frr": "Könangrik Belgien",
        "official_name:ga": "Ríocht na Beilge",
        "official_name:gd": "Rìoghachd na Beilge",
        "official_name:gl": "Reino de Bélxica",
        "official_name:gn": "Tetã Véyhika",
        "official_name:gv": "Reeriaght ny Belg",
        "official_name:he": "ממלכת בלגיה",
        "official_name:hi": "किंगडम ऑफ़ बेल्जियम",
        "official_name:hr": "Kraljevina Belgija",
        "official_name:hsb": "Belgiske kralestwo",
        "official_name:hu": "Belga Királyság",
        "official_name:hy": "Բելգիայի Թագավորություն",
        "official_name:ia": "Regno de Belgica",
        "official_name:id": "Kerajaan Belgia",
        "official_name:ig": "Obodoézè nke Belgium",
        "official_name:ilo": "Pagarian ti Belhika",
        "official_name:io": "Rejio di Belgia",
        "official_name:is": "Konungsríkið Belgía",
        "official_name:it": "Regno del Belgio",
        "official_name:ja": "ベルギー王国",
        "official_name:jam": "Kindom a Beljiom",
        "official_name:ka": "ბელგიის სამეფო",
        "official_name:kab": "Tigelda n Biljik",
        "official_name:kbd": "Белгэ Пэщтыхьей",
        "official_name:kg": "Nsi ya ntotila ya Belezi",
        "official_name:kk": "Бельгия Корольдігі",
        "official_name:kl": "Kunngeqarfik Belgia",
        "official_name:kn": "ಬೆಲ್ಜಿಯಂ ಸಂಸ್ಥಾನ",
        "official_name:ko": "벨기에 왕국",
        "official_name:koi": "Короля Белгия",
        "official_name:krc": "Бельгия Королевство",
        "official_name:ku": "Keyaniya Belçîkayê",
        "official_name:kv": "Бельгия Корольув",
        "official_name:kw": "Ruwvaneth Belgek",
        "official_name:ky": "Бельгия Королдугу",
        "official_name:la": "Regnum Belgicum",
        "official_name:lad": "Reyno de Beljika",
        "official_name:lb": "Kinnekräich Belsch",
        "official_name:lg": "Obwakabaka bwa Bubirigi",
        "official_name:li": "Keuninkriek Belsj",
        "official_name:lij": "Regno do Belgio",
        "official_name:lmo": "Regn del Belgi",
        "official_name:ln": "Mani ya Bɛ́ljika",
        "official_name:lo": "ລາຊະອານາຈັກແບນຊິກ",
        "official_name:lt": "Belgijos Karalystė",
        "official_name:lv": "Beļģijas Karaliste",
        "official_name:lzh": "比利時王國",
        "official_name:mdf": "Бельгие Оцязорксшись",
        "official_name:mk": "Кралство Белгија",
        "official_name:mn": "Бельгийн Вант Улс",
        "official_name:mr": "बेल्जियमचे राजतंत्र",
        "official_name:ms": "Kerajaan Belgium",
        "official_name:mt": "Renju tal-Belġju",
        "official_name:my": "ကင်းဒမ်းအော့ဖ် ဘယ်လ်ဂျီယမ်",
        "official_name:myv": "Бельгия Масторось",
        "official_name:nah": "Huēyitlahtohcāyōtl Belgica",
        "official_name:nan": "Pe̍k-ní-gī-kok",
        "official_name:nds": "Königriek vun Belgien",
        "official_name:nds-nl": "Koninkriek België",
        "official_name:new": "बेल्जियम राजतन्त्र",
        "official_name:nl": "Koninkrijk België",
        "official_name:nn": "Kongeriket Belgia",
        "official_name:no": "Kongeriket Belgia",
        "official_name:oc": "Reialme de Belgica",
        "official_name:olo": "Bel’gien kuningaskundu",
        "official_name:os": "Бельгийы Къаролад",
        "official_name:pa": "ਬੈਲਜੀਅਮ ਦੀ ਰਾਜਸ਼ਾਹੀ",
        "official_name:pam": "Ka-ariyan ning Belgika",
        "official_name:pap": "Reino Bélgika",
        "official_name:pcd": "Roéyôme d’ Bergike",
        "official_name:pfl": "Royaume de Belgique",
        "official_name:pl": "Królestwo Belgii",
        "official_name:pnt": "Βασίλειον τη Βελγί",
        "official_name:ps": "د بلجیم بادشاهي",
        "official_name:pt": "Reino da Bélgica",
        "official_name:qu": "Bilhika Qhapaqsuyu",
        "official_name:rm": "Reginavel da la Belgia",
        "official_name:rmy": "Thangaripen Beljiyako",
        "official_name:rn": "Irepuburika y’Ububirigi",
        "official_name:ro": "Regatul Belgiei",
        "official_name:roa-tara": "Regne d'u Bèlgie",
        "official_name:ru": "Королевство Бельгия",
        "official_name:rue": "Белґіцьке кралёвство",
        "official_name:rw": "Igihugu cy’Ububirigi",
        "official_name:sah": "Бельгия Хоруоллуга",
        "official_name:sc": "Rennu de Bèlgiu",
        "official_name:sco": "Kinrick o Belgium",
        "official_name:sd": "بيلجيم جي شهنشاهيت",
        "official_name:se": "Belgia gonagasriika",
        "official_name:sg": "Ködörö-gbïä tî Bêleze",
        "official_name:sh": "Kraljevina Belgija",
        "official_name:sk": "Belgické kráľovstvo",
        "official_name:sl": "Kraljevína Bélgija",
        "official_name:sm": "Malo o Peleseuma",
        "official_name:sq": "Mbretëria e Belgjikës",
        "official_name:sr": "Краљевина Белгија",
        "official_name:su": "Karajaan Bélgia",
        "official_name:sv": "Konungariket Belgien",
        "official_name:sw": "Ufalme wa Ubelgiji",
        "official_name:szl": "Krůlestwo Belgije",
        "official_name:ta": "பெல்ஜியம் இராச்சியம்",
        "official_name:te": "బెల్జియం రాజ్యం",
        "official_name:tet": "Reinu Béljika nian",
        "official_name:tg": "Шоҳигарии Бeлгия",
        "official_name:th": "ราชอาณาจักรเบลเยียม",
        "official_name:tk": "Belgiýa korollygy",
        "official_name:tl": "Kaharian ng Belhika",
        "official_name:tr": "Belçika Krallığı",
        "official_name:tt": "Бе́льгия Корольлеге́",
        "official_name:udm": "Королевство Бельгия",
        "official_name:ug": "بېلگىيە پادىشاھلىقى",
        "official_name:uk": "Королі́вство Бе́льгія",
        "official_name:ur": "مملکت بلجئیم",
        "official_name:uz": "Belgiya Qirolligi",
        "official_name:vec": "Regno del Belgio",
        "official_name:vep": "Bel'gijan Kunigahuz",
        "official_name:vi": "Vương quốc Bỉ",
        "official_name:vls": "Keunienkryk België",
        "official_name:vo": "Regän Belgäna",
        "official_name:wa": "Royåme di Beldjike",
        "official_name:war": "Ginhadi-an han Belhika",
        "official_name:wo": "Ruwaayom bu Beljik",
        "official_name:xal": "Бельҗмудин Орн Нутг",
        "official_name:xmf": "ბელგიაშ ომაფე",
        "official_name:yi": "קעניגרייך פון בעלגיע",
        "official_name:yo": "Ilẹ̀ọba Bẹ́ljíọ̀m",
        "official_name:yue": "比利時王國",
        "official_name:zea": "Konienkriek België",
        "official_name:zh": "比利时王国 / 比利時王國",
        "official_name:zh-Hans": "比利时王国",
        "official_name:zh-Hant": "比利時王國",
        "timezone": "Europe/Brussels",
        "type": "boundary",
        "wikidata": "Q31",
        "wikipedia": "nl:België"
      }
    },
    {
      "type": "area",
      "id": 3600053114,
      "tags": {
        "ISO3166-2": "BE-VAN",
        "admin_level": "6",
        "alt_name:ar": "أنتفيرب",
        "alt_name:es": "Antuerpia",
        "alt_name:mk": "Антверп",
        "border_type": "province",
        "boundary": "administrative",
        "capital": "6",
        "name": "Antwerpen",
        "name:ar": "أنتويرب",
        "name:ca": "Anvers",
        "name:cs": "Antverpy",
        "name:de": "Antwerpen",
        "name:el": "Αμβέρσα",
        "name:en": "Antwerp",
        "name:eo": "Antverpeno",
        "name:es": "Amberes",
        "name:fi": "Antwerpen",
        "name:fr": "Anvers",
        "name:he": "אנטוורפן",
        "name:hr": "Antwerpen",
        "name:hu": "Antwerpen",
        "name:hy": "Անտվերպեն",
        "name:it": "Anversa",
        "name:ja": "アントワープ",
        "name:ka": "ანტვერპენი",
        "name:kn": "ಆಂಟ್ವೆರ್ಪ್",
        "name:la": "Antverpia",
        "name:lt": "Antverpenas",
        "name:lv": "Antverpene",
        "name:mk": "Антверпен",
        "name:nds": "Antwarp",
        "name:nds-nl": "Antwaarp",
        "name:nl": "Antwerpen",
        "name:pcd": "Anvérse",
        "name:pl": "Antwerpia",
        "name:pt": "Antuérpia",
        "name:ru": "Антверпен",
        "name:sk": "Antverpy",
        "name:sr": "Антверпен",
        "name:tzl": "Anviarça",
        "name:uk": "Антверпен",
        "name:vls": "Antwerpn",
        "name:wa": "Anverse",
        "name:zh": "安特卫普",
        "official_name": "Provincie Antwerpen",
        "official_name:ar": "مقاطعة أنتويرب",
        "official_name:nl": "Provincie Antwerpen",
        "old_name:de": "Antorf",
        "population": "1802719",
        "population:date": "2014-01-01",
        "ref:INS": "10000",
        "ref:nuts": "BE21",
        "ref:nuts:2": "BE21",
        "source:population": "wiki/ADSEI",
        "type": "boundary",
        "website": "https://www.provincieantwerpen.be/",
        "wikidata": "Q1116",
        "wikipedia": "nl:Antwerpen (provincie)"
      }
    },
    {
      "type": "area",
      "id": 3600053134,
      "tags": {
        "ISO3166-2": "BE-VLG",
        "admin_level": "4",
        "border_type": "state",
        "boundary": "administrative",
        "default_language": "nl",
        "name": "Vlaanderen",
        "name:ar": "فلاندر",
        "name:br": "Flandrez",
        "name:ca": "Flandes",
        "name:de": "Flandern",
        "name:el": "Φλάνδρα",
        "name:en": "Flanders",
        "name:eo": "Flandrio",
        "name:es": "Flandes",
        "name:et": "Flandria",
        "name:fi": "Flanderi",
        "name:fr": "Flandre",
        "name:fy": "Flaanderen",
        "name:hu": "Flandria",
        "name:ja": "フランデレン地域",
        "name:ka": "ფლანდრია",
        "name:ko": "플라망 지역",
        "name:lb": "Flandern",
        "name:li": "Vlaondere",
        "name:lt": "Flandrija",
        "name:nl": "Vlaanderen",
        "name:pcd": "Flande",
        "name:pt": "Flandres",
        "name:ru": "Фландрия",
        "name:sk": "Flámsko",
        "name:th": "เขตฟลามส์",
        "name:tzl": "Flemphäts",
        "name:vls": "Vloandern",
        "name:wa": "Flande",
        "name:zh": "弗拉芒大區",
        "name:zh-Hans": "弗拉芒大区",
        "name:zh-Hant": "弗拉芒大區",
        "nat_name": "Vlaams Gewest",
        "nat_name:ar": "الإقليم الفلامندي",
        "nat_name:be": "Фламандскі рэгіён",
        "nat_name:bg": "Фламандски регион",
        "nat_name:ca": "Regió flamenca",
        "nat_name:de": "Flämische Region",
        "nat_name:el": "Φλαμανδική Περιοχή",
        "nat_name:en": "Flemish Region",
        "nat_name:eo": "Flandra Regiono",
        "nat_name:fr": "Région flamande",
        "nat_name:fy": "Flaamsk Gewest",
        "nat_name:lb": "Flämesch Regioun",
        "nat_name:li": "Vlaondere Gewes",
        "nat_name:mk": "Фламански регион",
        "nat_name:nl": "Vlaams Gewest",
        "nat_name:os": "Фламандийы регион",
        "nat_name:pcd": "Région flaminke",
        "nat_name:pl": "Region Flamandzki",
        "nat_name:ru": "Фламандский регион",
        "nat_name:sk": "Flámsky región",
        "nat_name:tr": "Flaman Bölgesi",
        "nat_name:vls": "Vlams Gewest",
        "nat_name:wa": "Redjon flaminde",
        "ref:INS": "02000",
        "ref:nuts:1": "BE2",
        "source:name:br": "ofis publik ar brezhoneg",
        "type": "boundary",
        "website": "https://www.vlaanderen.be/",
        "wikidata": "Q9337",
        "wikipedia": "nl:Vlaams Gewest"
      }
    },
    {
      "type": "area",
      "id": 3600053136,
      "tags": {
        "boundary": "political",
        "default_language": "nl",
        "euro_const": "BE",
        "name": "Vlaamse Gemeenschap - Communauté flamande",
        "name:ar": "المجتمع الفلامندي",
        "name:ca": "Comunitat flamenca",
        "name:de": "Flämische Gemeinschaft",
        "name:en": "Flemish Community",
        "name:fr": "Communauté flamande",
        "name:fy": "Frânske Mienskip",
        "name:hu": "Flamand közösség",
        "name:lt": "Flamandų bendruomenė",
        "name:nl": "Vlaamse Gemeenschap",
        "name:sk": "Flámske spoločenstvo",
        "political_division": "linguistic_community",
        "type": "boundary",
        "wikidata": "Q9331",
        "wikipedia": "nl:Vlaamse Gemeenschap"
      }
    },
    {
      "type": "area",
      "id": 3600058545,
      "tags": {
        "admin_level": "8",
        "boundary": "administrative",
        "name": "Aartselaar",
        "name:nl": "Aartselaar",
        "name:ru": "Артселар",
        "ref:INS": "11001",
        "type": "boundary",
        "website": "https://www.aartselaar.be/",
        "wikidata": "Q303246",
        "wikipedia": "nl:Aartselaar"
      }
    },
    {
      "type": "area",
      "id": 3600937244,
      "tags": {
        "ISO3166-1": "BE",
        "admin_level": "2",
        "flag": "http://upload.wikimedia.org/wikipedia/commons/6/65/Flag_of_Belgium.svg",
        "land_area": "administrative",
        "name": "België / Belgique / Belgien (land mass)",
        "name:ar": "بلجيكا (كتلة اليابسة)",
        "name:ca": "Bèlgica (terra)",
        "name:de": "Belgien (Landmasse)",
        "name:en": "Belgium (land mass)",
        "name:fr": "Belgique (terres)",
        "name:lt": "Belgija (žemė)",
        "name:nl": "België (land)",
        "type": "land_area"
      }
    },
    {
      "type": "area",
      "id": 3601902793,
      "tags": {
        "admin_level": "7",
        "alt_name:ar": "أنتفيرب",
        "alt_name:es": "Antuerpia",
        "alt_name:mk": "Антверп",
        "boundary": "administrative",
        "capital": "6",
        "name": "Antwerpen",
        "name:ar": "أنتويرب",
        "name:ca": "Anvers",
        "name:cs": "Antverpy",
        "name:de": "Antwerpen",
        "name:el": "Αμβέρσα",
        "name:en": "Antwerp",
        "name:eo": "Antverpeno",
        "name:es": "Amberes",
        "name:fi": "Antwerpen",
        "name:fr": "Anvers",
        "name:he": "אנטוורפן",
        "name:hr": "Antwerpen",
        "name:hy": "Անտվերպեն",
        "name:it": "Anversa",
        "name:ja": "アントワープ",
        "name:ka": "ანტვერპენი",
        "name:kn": "ಆಂಟ್ವೆರ್ಪ್",
        "name:la": "Antverpia",
        "name:lt": "Antverpenas",
        "name:lv": "Antverpene",
        "name:mk": "Антверпен",
        "name:nds": "Antwarp",
        "name:nds-nl": "Antwaarp",
        "name:nl": "Antwerpen",
        "name:pcd": "Anvérse",
        "name:pl": "Antwerpia",
        "name:pt": "Antuérpia",
        "name:ru": "Антверпен",
        "name:sk": "Antverpy",
        "name:sr": "Антверпен",
        "name:tzl": "Anviarça",
        "name:uk": "Антверпен",
        "name:vls": "Antwerpn",
        "name:wa": "Anverse",
        "name:zh": "安特卫普",
        "official_name": "Arrondissement Antwerpen",
        "official_name:ar": "دائرة أنتويرب",
        "official_name:nl": "Arrondissement Antwerpen",
        "old_name:de": "Antorf",
        "ref:INS": "11000",
        "ref:nuts": "BE211",
        "ref:nuts:3": "BE211",
        "type": "boundary",
        "wikidata": "Q90895",
        "wikipedia": "nl:Arrondissement Antwerpen"
      }
    },
    {
      "type": "area",
      "id": 3603363508,
      "tags": {
        "boundary": "postal_code",
        "note": "2630 Aartselaar",
        "postal_code": "2630",
        "type": "boundary"
      }
    },
    {
      "type": "area",
      "id": 3612728392,
      "tags": {
        "boundary": "administrative_cooperation",
        "name": "Benelux",
        "note": "Caribbean Netherlands (BES islands) joined the Benelux per the 2012-01-01 revision of the Benelux Treaty.",
        "official_name": "Benelux Unie / Union Benelux",
        "official_name:-2012-01-01": "Benelux Economische Unie / Union économique Benelux",
        "official_name:de": "Benelux-Union",
        "official_name:de:-2012-01-01": "Benelux-Wirtschaftsunion",
        "official_name:en": "Benelux Union",
        "official_name:en:-2012-01-01": "Benelux Economic Union",
        "official_name:fr": "Union Benelux",
        "official_name:fr:-2012-01-01": "Union économique Benelux",
        "official_name:lb": "Benelux-Unioun",
        "official_name:nl": "Benelux Unie",
        "official_name:nl:-2012-01-01": "Benelux Economische Unie",
        "source": "https://www.parlementairemonitor.nl/9353000/1/j9vvij5epmj1ey0/vhy97r97ikz8",
        "type": "boundary",
        "website": "https://benelux.int/",
        "wikidata": "Q13116",
        "wikipedia": "nl:Benelux"
      }
    },
    {
      "type": "area",
      "id": 3613325281,
      "tags": {
        "boundary": "administrative_cooperation",
        "description:en": "Treaty organisation of the Netherlands and the Flemish Community. Has an association agreement with Suriname and collaborates with other countries within the Kingdom of the Netherlands.",
        "description:nl": "Verdragsorganisatie van Nederland en de Vlaamse Gemeenschap. Heeft een associatieovereenkomst met Suriname en werkt samen met andere landen binnen het Koninkrijk der Nederlanden.",
        "name": "Nederlandse Taalunie",
        "name:en": "Dutch Language Union",
        "name:fr": "Union linguistique néerlandaise",
        "name:nl": "Nederlandse Taalunie",
        "short_name": "Taalunie",
        "short_name:en": "Language Union",
        "short_name:fr": "Union linguistique",
        "short_name:nl": "Taalunie",
        "source": "https://taalunie.org/informatie/36/verdragen-overeenkomsten-en-regelingen",
        "type": "boundary",
        "website": "https://taalunie.org/",
        "wikidata": "Q152299",
        "wikipedia": "nl:Nederlandse Taalunie"
      }
    },
    {
      "type": "node",
      "id": 262201531,
      "lat": 51.1344133,
      "lon": 4.3725586
    },
    {
      "type": "node",
      "id": 765806253,
      "lat": 51.1409409,
      "lon": 4.374143
    },
    {
      "type": "node",
      "id": 765806258,
      "lat": 51.1399129,
      "lon": 4.3735803
    },
    {
      "type": "node",
      "id": 765806263,
      "lat": 51.1409785,
      "lon": 4.373603
    },
    {
      "type": "node",
      "id": 765806268,
      "lat": 51.1392748,
      "lon": 4.372636
    },
    {
      "type": "node",
      "id": 765806270,
      "lat": 51.1391463,
      "lon": 4.3729807
    },
    {
      "type": "node",
      "id": 765806274,
      "lat": 51.139766,
      "lon": 4.3735451
    },
    {
      "type": "node",
      "id": 1156345447,
      "lat": 51.1382802,
      "lon": 4.3726133
    },
    {
      "type": "node",
      "id": 1156345448,
      "lat": 51.1376111,
      "lon": 4.3717317
    },
    {
      "type": "node",
      "id": 1156345449,
      "lat": 51.1373847,
      "lon": 4.3715554
    },
    {
      "type": "node",
      "id": 1156345450,
      "lat": 51.1371735,
      "lon": 4.3717424
    },
    {
      "type": "node",
      "id": 1156345451,
      "lat": 51.1357884,
      "lon": 4.3716842
    },
    {
      "type": "node",
      "id": 1156345452,
      "lat": 51.1356312,
      "lon": 4.3716877
    },
    {
      "type": "node",
      "id": 1156345454,
      "lat": 51.1354989,
      "lon": 4.372234
    },
    {
      "type": "node",
      "id": 1156345455,
      "lat": 51.1350866,
      "lon": 4.3724934
    },
    {
      "type": "node",
      "id": 1163048161,
      "lat": 51.1379342,
      "lon": 4.3721938
    },
    {
      "type": "node",
      "id": 4988457838,
      "lat": 51.1381693,
      "lon": 4.3777204
    },
    {
      "type": "node",
      "id": 5434331114,
      "lat": 51.1408961,
      "lon": 4.3740606
    },
    {
      "type": "node",
      "id": 5434331115,
      "lat": 51.1409331,
      "lon": 4.3736637
    },
    {
      "type": "node",
      "id": 8380531663,
      "lat": 51.1391661,
      "lon": 4.3729851
    },
    {
      "type": "node",
      "id": 8476890601,
      "lat": 51.1387191,
      "lon": 4.3728317
    },
    {
      "type": "node",
      "id": 8476890602,
      "lat": 51.138681,
      "lon": 4.3728861
    },
    {
      "type": "node",
      "id": 8476890603,
      "lat": 51.1387156,
      "lon": 4.3729477
    },
    {
      "type": "node",
      "id": 8476890604,
      "lat": 51.1387537,
      "lon": 4.3728933
    },
    {
      "type": "node",
      "id": 8476890605,
      "lat": 51.1388156,
      "lon": 4.3726951
    },
    {
      "type": "node",
      "id": 8476890606,
      "lat": 51.1387697,
      "lon": 4.3728406
    },
    {
      "type": "node",
      "id": 8476890607,
      "lat": 51.1390188,
      "lon": 4.3730403
    },
    {
      "type": "node",
      "id": 8476890608,
      "lat": 51.1390647,
      "lon": 4.3728948
    },
    {
      "type": "node",
      "id": 8476890609,
      "lat": 51.1391442,
      "lon": 4.3729331
    },
    {
      "type": "node",
      "id": 8476890610,
      "lat": 51.1398384,
      "lon": 4.373547
    },
    {
      "type": "node",
      "id": 8476890611,
      "lat": 51.1398232,
      "lon": 4.3735993
    },
    {
      "type": "node",
      "id": 8476890612,
      "lat": 51.1390668,
      "lon": 4.3734169
    },
    {
      "type": "node",
      "id": 8476890613,
      "lat": 51.1390903,
      "lon": 4.3730696
    },
    {
      "type": "node",
      "id": 8476890614,
      "lat": 51.138593,
      "lon": 4.3729904
    },
    {
      "type": "node",
      "id": 8476890615,
      "lat": 51.1387908,
      "lon": 4.3725935
    },
    {
      "type": "node",
      "id": 8596100319,
      "lat": 51.1348964,
      "lon": 4.3725318
    },
    {
      "type": "node",
      "id": 8596100320,
      "lat": 51.1347381,
      "lon": 4.3725532
    },
    {
      "type": "node",
      "id": 8596100323,
      "lat": 51.1381378,
      "lon": 4.3724929
    },
    {
      "type": "node",
      "id": 8596100324,
      "lat": 51.1374133,
      "lon": 4.3715662
    },
    {
      "type": "node",
      "id": 8596100325,
      "lat": 51.1373611,
      "lon": 4.3715662
    },
    {
      "type": "node",
      "id": 8596100326,
      "lat": 51.1372029,
      "lon": 4.3717244
    },
    {
      "type": "node",
      "id": 8596100327,
      "lat": 51.1356773,
      "lon": 4.3716788
    },
    {
      "type": "node",
      "id": 8596100328,
      "lat": 51.13561,
      "lon": 4.3717043
    },
    {
      "type": "node",
      "id": 8596100329,
      "lat": 51.135599,
      "lon": 4.3717325
    },
    {
      "type": "node",
      "id": 8596100330,
      "lat": 51.1355898,
      "lon": 4.3717928
    },
    {
      "type": "node",
      "id": 8596100331,
      "lat": 51.1355494,
      "lon": 4.372104
    },
    {
      "type": "node",
      "id": 8596100332,
      "lat": 51.13553,
      "lon": 4.3721791
    },
    {
      "type": "node",
      "id": 5434329631,
      "lat": 51.1422021,
      "lon": 4.3747719
    },
    {
      "type": "node",
      "id": 5434329632,
      "lat": 51.1418923,
      "lon": 4.3749055
    },
    {
      "type": "node",
      "id": 5434329633,
      "lat": 51.1418889,
      "lon": 4.3750745
    },
    {
      "type": "node",
      "id": 5434329634,
      "lat": 51.1415665,
      "lon": 4.3750852
    },
    {
      "type": "node",
      "id": 5434331116,
      "lat": 51.1418652,
      "lon": 4.3723254
    },
    {
      "type": "node",
      "id": 5434331117,
      "lat": 51.1418172,
      "lon": 4.3723528
    },
    {
      "type": "node",
      "id": 5434331118,
      "lat": 51.1415187,
      "lon": 4.3725586
    },
    {
      "type": "node",
      "id": 5434331119,
      "lat": 51.141655,
      "lon": 4.3730065
    },
    {
      "type": "node",
      "id": 5434331120,
      "lat": 51.1415746,
      "lon": 4.3736448
    },
    {
      "type": "node",
      "id": 5434331221,
      "lat": 51.1416281,
      "lon": 4.3735886
    },
    {
      "type": "node",
      "id": 5434331222,
      "lat": 51.1417223,
      "lon": 4.373441
    },
    {
      "type": "node",
      "id": 5434331223,
      "lat": 51.1416988,
      "lon": 4.3731996
    },
    {
      "type": "node",
      "id": 5434331224,
      "lat": 51.141655,
      "lon": 4.3730548
    },
    {
      "type": "node",
      "id": 5434331225,
      "lat": 51.1410593,
      "lon": 4.3729266
    },
    {
      "type": "node",
      "id": 4988457839,
      "lat": 51.1381322,
      "lon": 4.3780542
    },
    {
      "type": "node",
      "id": 4988457840,
      "lat": 51.1381122,
      "lon": 4.378235
    },
    {
      "type": "node",
      "id": 4988457841,
      "lat": 51.1380926,
      "lon": 4.3784112
    },
    {
      "type": "node",
      "id": 1485881411,
      "lat": 51.1389449,
      "lon": 4.3908355
    },
    {
      "type": "node",
      "id": 1657510823,
      "lat": 51.1408889,
      "lon": 4.3882466
    },
    {
      "type": "node",
      "id": 2108718479,
      "lat": 51.1409971,
      "lon": 4.388219
    },
    {
      "type": "node",
      "id": 301605946,
      "lat": 51.145402,
      "lon": 4.3840195
    },
    {
      "type": "node",
      "id": 301605947,
      "lat": 51.1454023,
      "lon": 4.3825985
    },
    {
      "type": "node",
      "id": 301605948,
      "lat": 51.1442433,
      "lon": 4.3826296
    },
    {
      "type": "node",
      "id": 4988457732,
      "lat": 51.1454687,
      "lon": 4.383902
    },
    {
      "type": "node",
      "id": 4988457749,
      "lat": 51.1442718,
      "lon": 4.3842671
    },
    {
      "type": "node",
      "id": 7593050596,
      "lat": 51.1425948,
      "lon": 4.379626
    },
    {
      "type": "node",
      "id": 7593050597,
      "lat": 51.1425893,
      "lon": 4.3794731
    },
    {
      "type": "node",
      "id": 7593050598,
      "lat": 51.1425822,
      "lon": 4.379295
    },
    {
      "type": "node",
      "id": 7593050599,
      "lat": 51.1425739,
      "lon": 4.3789701
    },
    {
      "type": "node",
      "id": 301605945,
      "lat": 51.1454168,
      "lon": 4.3859002
    },
    {
      "type": "node",
      "id": 304617981,
      "lat": 51.1443165,
      "lon": 4.3894838
    },
    {
      "type": "node",
      "id": 304617982,
      "lat": 51.1440124,
      "lon": 4.3895094
    },
    {
      "type": "node",
      "id": 494767352,
      "lat": 51.1443405,
      "lon": 4.3906406
    },
    {
      "type": "node",
      "id": 678833819,
      "lat": 51.1469252,
      "lon": 4.3852997
    },
    {
      "type": "node",
      "id": 1485873011,
      "lat": 51.1424794,
      "lon": 4.3896125
    },
    {
      "type": "node",
      "id": 1485881390,
      "lat": 51.1426673,
      "lon": 4.3904707
    },
    {
      "type": "node",
      "id": 1657510820,
      "lat": 51.1435057,
      "lon": 4.3875673
    },
    {
      "type": "node",
      "id": 1833200976,
      "lat": 51.147392,
      "lon": 4.3848576
    },
    {
      "type": "node",
      "id": 1833200983,
      "lat": 51.147421,
      "lon": 4.3848342
    },
    {
      "type": "node",
      "id": 2104340828,
      "lat": 51.1414293,
      "lon": 4.3873734
    },
    {
      "type": "node",
      "id": 2104340831,
      "lat": 51.141481,
      "lon": 4.3874795
    },
    {
      "type": "node",
      "id": 2104340832,
      "lat": 51.1415467,
      "lon": 4.388079
    },
    {
      "type": "node",
      "id": 2104340834,
      "lat": 51.1416869,
      "lon": 4.3907542
    },
    {
      "type": "node",
      "id": 2106368639,
      "lat": 51.1416412,
      "lon": 4.3908658
    },
    {
      "type": "node",
      "id": 2106368645,
      "lat": 51.1416996,
      "lon": 4.3907973
    },
    {
      "type": "node",
      "id": 2106368651,
      "lat": 51.1417736,
      "lon": 4.3907315
    },
    {
      "type": "node",
      "id": 2108718807,
      "lat": 51.1434211,
      "lon": 4.3876013
    },
    {
      "type": "node",
      "id": 2707498774,
      "lat": 51.14346,
      "lon": 4.3875914
    },
    {
      "type": "node",
      "id": 4988457620,
      "lat": 51.1454981,
      "lon": 4.3870591
    },
    {
      "type": "node",
      "id": 4988457721,
      "lat": 51.1457326,
      "lon": 4.386777
    },
    {
      "type": "node",
      "id": 4988457723,
      "lat": 51.1460162,
      "lon": 4.3876076
    },
    {
      "type": "node",
      "id": 4988457729,
      "lat": 51.1461748,
      "lon": 4.3857412
    },
    {
      "type": "node",
      "id": 4988457730,
      "lat": 51.145787,
      "lon": 4.3878083
    },
    {
      "type": "node",
      "id": 4988457731,
      "lat": 51.1457326,
      "lon": 4.3858902
    },
    {
      "type": "node",
      "id": 4988457733,
      "lat": 51.1454779,
      "lon": 4.3859702
    },
    {
      "type": "node",
      "id": 4988457734,
      "lat": 51.1455153,
      "lon": 4.3880795
    },
    {
      "type": "node",
      "id": 4988457735,
      "lat": 51.1445685,
      "lon": 4.3888713
    },
    {
      "type": "node",
      "id": 4988457736,
      "lat": 51.1445823,
      "lon": 4.3895406
    },
    {
      "type": "node",
      "id": 4988457737,
      "lat": 51.1450296,
      "lon": 4.3894662
    },
    {
      "type": "node",
      "id": 4988457738,
      "lat": 51.1439732,
      "lon": 4.3895142
    },
    {
      "type": "node",
      "id": 4988457744,
      "lat": 51.1444328,
      "lon": 4.3867833
    },
    {
      "type": "node",
      "id": 4988457745,
      "lat": 51.1439691,
      "lon": 4.3867406
    },
    {
      "type": "node",
      "id": 4988457746,
      "lat": 51.1439632,
      "lon": 4.3863033
    },
    {
      "type": "node",
      "id": 4988457747,
      "lat": 51.1444577,
      "lon": 4.3863104
    },
    {
      "type": "node",
      "id": 4988457752,
      "lat": 51.1444889,
      "lon": 4.385721
    },
    {
      "type": "node",
      "id": 4988457753,
      "lat": 51.1444134,
      "lon": 4.3871498
    },
    {
      "type": "node",
      "id": 4988457754,
      "lat": 51.1443624,
      "lon": 4.3880511
    },
    {
      "type": "node",
      "id": 4988457755,
      "lat": 51.1443468,
      "lon": 4.388243
    },
    {
      "type": "node",
      "id": 4988457756,
      "lat": 51.1443041,
      "lon": 4.3884687
    },
    {
      "type": "node",
      "id": 4988457757,
      "lat": 51.1442906,
      "lon": 4.3889382
    },
    {
      "type": "node",
      "id": 4988457758,
      "lat": 51.1442143,
      "lon": 4.3902338
    },
    {
      "type": "node",
      "id": 4988457762,
      "lat": 51.1442872,
      "lon": 4.3904674
    },
    {
      "type": "node",
      "id": 4988457765,
      "lat": 51.1448209,
      "lon": 4.3898292
    },
    {
      "type": "node",
      "id": 4988457766,
      "lat": 51.1448535,
      "lon": 4.3903581
    },
    {
      "type": "node",
      "id": 4988457767,
      "lat": 51.1444478,
      "lon": 4.3904372
    },
    {
      "type": "node",
      "id": 4988457770,
      "lat": 51.14505,
      "lon": 4.3897449
    },
    {
      "type": "node",
      "id": 4988457778,
      "lat": 51.1466192,
      "lon": 4.3870794
    },
    {
      "type": "node",
      "id": 4988457779,
      "lat": 51.1464545,
      "lon": 4.385647
    },
    {
      "type": "node",
      "id": 5141999993,
      "lat": 51.1473039,
      "lon": 4.3849678
    },
    {
      "type": "node",
      "id": 5141999994,
      "lat": 51.1475411,
      "lon": 4.3847841
    },
    {
      "type": "node",
      "id": 5141999998,
      "lat": 51.1475016,
      "lon": 4.3848242
    },
    {
      "type": "node",
      "id": 5141999999,
      "lat": 51.1470004,
      "lon": 4.3852463
    },
    {
      "type": "node",
      "id": 5142000002,
      "lat": 51.1470591,
      "lon": 4.3851925
    },
    {
      "type": "node",
      "id": 8441485377,
      "lat": 51.1457643,
      "lon": 4.3869245
    },
    {
      "type": "node",
      "id": 8441485381,
      "lat": 51.1457327,
      "lon": 4.3870472
    },
    {
      "type": "node",
      "id": 8441485383,
      "lat": 51.1457134,
      "lon": 4.3870089
    },
    {
      "type": "node",
      "id": 8441485384,
      "lat": 51.1455988,
      "lon": 4.3870105
    },
    {
      "type": "node",
      "id": 8441485385,
      "lat": 51.1455961,
      "lon": 4.3865401
    },
    {
      "type": "node",
      "id": 8441485386,
      "lat": 51.1457107,
      "lon": 4.3865384
    },
    {
      "type": "node",
      "id": 8441485388,
      "lat": 51.1456608,
      "lon": 4.3862982
    },
    {
      "type": "node",
      "id": 8441485389,
      "lat": 51.1456532,
      "lon": 4.3863042
    },
    {
      "type": "node",
      "id": 8441485390,
      "lat": 51.1455846,
      "lon": 4.3863089
    },
    {
      "type": "node",
      "id": 8441485391,
      "lat": 51.1455838,
      "lon": 4.3861802
    },
    {
      "type": "node",
      "id": 8441485392,
      "lat": 51.1456578,
      "lon": 4.3861775
    },
    {
      "type": "node",
      "id": 8441485393,
      "lat": 51.1456073,
      "lon": 4.3865168
    },
    {
      "type": "node",
      "id": 8441485394,
      "lat": 51.1455556,
      "lon": 4.3865168
    },
    {
      "type": "node",
      "id": 8441485395,
      "lat": 51.1455556,
      "lon": 4.3864337
    },
    {
      "type": "node",
      "id": 8441485396,
      "lat": 51.1456073,
      "lon": 4.3864337
    },
    {
      "type": "node",
      "id": 8441485398,
      "lat": 51.1454799,
      "lon": 4.3860327
    },
    {
      "type": "node",
      "id": 8441485399,
      "lat": 51.1457037,
      "lon": 4.3859602
    },
    {
      "type": "node",
      "id": 8441485400,
      "lat": 51.145723,
      "lon": 4.3859763
    },
    {
      "type": "node",
      "id": 1485709404,
      "lat": 51.1378255,
      "lon": 4.3946479
    },
    {
      "type": "node",
      "id": 1485881318,
      "lat": 51.1388245,
      "lon": 4.3913625
    },
    {
      "type": "node",
      "id": 1485881351,
      "lat": 51.1388035,
      "lon": 4.3912646
    },
    {
      "type": "node",
      "id": 1485881356,
      "lat": 51.1402698,
      "lon": 4.393429
    },
    {
      "type": "node",
      "id": 1485881370,
      "lat": 51.1392327,
      "lon": 4.3910675
    },
    {
      "type": "node",
      "id": 1485881388,
      "lat": 51.1388254,
      "lon": 4.3919379
    },
    {
      "type": "node",
      "id": 1485881397,
      "lat": 51.1386798,
      "lon": 4.3918185
    },
    {
      "type": "node",
      "id": 1485881400,
      "lat": 51.139098,
      "lon": 4.391498
    },
    {
      "type": "node",
      "id": 1485881406,
      "lat": 51.1389701,
      "lon": 4.3914805
    },
    {
      "type": "node",
      "id": 1485881415,
      "lat": 51.1408342,
      "lon": 4.393337
    },
    {
      "type": "node",
      "id": 2051950441,
      "lat": 51.1386619,
      "lon": 4.393816
    },
    {
      "type": "node",
      "id": 3407467109,
      "lat": 51.1376759,
      "lon": 4.3962226
    },
    {
      "type": "node",
      "id": 3407467114,
      "lat": 51.1380012,
      "lon": 4.394304
    },
    {
      "type": "node",
      "id": 3407467115,
      "lat": 51.1381013,
      "lon": 4.3941436
    },
    {
      "type": "node",
      "id": 3407467116,
      "lat": 51.1381014,
      "lon": 4.3943021
    },
    {
      "type": "node",
      "id": 3407467117,
      "lat": 51.1381659,
      "lon": 4.3943361
    },
    {
      "type": "node",
      "id": 3407467118,
      "lat": 51.1381774,
      "lon": 4.3941022
    },
    {
      "type": "node",
      "id": 3407467119,
      "lat": 51.1382209,
      "lon": 4.3943456
    },
    {
      "type": "node",
      "id": 3407467120,
      "lat": 51.1382477,
      "lon": 4.3941342
    },
    {
      "type": "node",
      "id": 3407467121,
      "lat": 51.1382557,
      "lon": 4.3942961
    },
    {
      "type": "node",
      "id": 3407467122,
      "lat": 51.1382663,
      "lon": 4.3942274
    },
    {
      "type": "node",
      "id": 1485881368,
      "lat": 51.1420918,
      "lon": 4.3917917
    },
    {
      "type": "node",
      "id": 1485881376,
      "lat": 51.1413895,
      "lon": 4.3918261
    },
    {
      "type": "node",
      "id": 2104340836,
      "lat": 51.1417416,
      "lon": 4.3916646
    },
    {
      "type": "node",
      "id": 2104340838,
      "lat": 51.141796,
      "lon": 4.3911242
    },
    {
      "type": "node",
      "id": 2104340840,
      "lat": 51.1418065,
      "lon": 4.3914848
    },
    {
      "type": "node",
      "id": 2104340841,
      "lat": 51.1419283,
      "lon": 4.3916116
    },
    {
      "type": "node",
      "id": 2104340846,
      "lat": 51.1420249,
      "lon": 4.3916711
    },
    {
      "type": "node",
      "id": 2106368529,
      "lat": 51.1414349,
      "lon": 4.3916385
    },
    {
      "type": "node",
      "id": 2106368533,
      "lat": 51.1414422,
      "lon": 4.3918605
    },
    {
      "type": "node",
      "id": 2106368614,
      "lat": 51.1415897,
      "lon": 4.3909973
    },
    {
      "type": "node",
      "id": 2106368630,
      "lat": 51.1416172,
      "lon": 4.3916193
    },
    {
      "type": "node",
      "id": 2106368657,
      "lat": 51.1418115,
      "lon": 4.3909781
    },
    {
      "type": "node",
      "id": 2106368663,
      "lat": 51.1419,
      "lon": 4.3909538
    },
    {
      "type": "node",
      "id": 2106368669,
      "lat": 51.1419456,
      "lon": 4.3910795
    },
    {
      "type": "node",
      "id": 2106368671,
      "lat": 51.1420178,
      "lon": 4.3918769
    },
    {
      "type": "node",
      "id": 2106368673,
      "lat": 51.1420384,
      "lon": 4.3917893
    },
    {
      "type": "node",
      "id": 2106368675,
      "lat": 51.1420496,
      "lon": 4.3911466
    },
    {
      "type": "node",
      "id": 2106368677,
      "lat": 51.1420814,
      "lon": 4.3916632
    },
    {
      "type": "node",
      "id": 2106368679,
      "lat": 51.1421381,
      "lon": 4.3915673
    },
    {
      "type": "node",
      "id": 2106368682,
      "lat": 51.1421605,
      "lon": 4.3913234
    },
    {
      "type": "node",
      "id": 2106368684,
      "lat": 51.1421887,
      "lon": 4.3915207
    },
    {
      "type": "node",
      "id": 251975851,
      "lat": 51.1518877,
      "lon": 4.3885169
    },
    {
      "type": "node",
      "id": 251976930,
      "lat": 51.1516335,
      "lon": 4.3885902
    },
    {
      "type": "node",
      "id": 499489364,
      "lat": 51.1517607,
      "lon": 4.3902129
    },
    {
      "type": "node",
      "id": 500192155,
      "lat": 51.1514434,
      "lon": 4.3902513
    },
    {
      "type": "node",
      "id": 678833820,
      "lat": 51.1493121,
      "lon": 4.3845076
    },
    {
      "type": "node",
      "id": 678833821,
      "lat": 51.1489496,
      "lon": 4.3846375
    },
    {
      "type": "node",
      "id": 678833822,
      "lat": 51.1486894,
      "lon": 4.3847632
    },
    {
      "type": "node",
      "id": 678833823,
      "lat": 51.1483991,
      "lon": 4.3848491
    },
    {
      "type": "node",
      "id": 678833824,
      "lat": 51.1483005,
      "lon": 4.3848647
    },
    {
      "type": "node",
      "id": 678833825,
      "lat": 51.1478973,
      "lon": 4.3846646
    },
    {
      "type": "node",
      "id": 1833201007,
      "lat": 51.1478267,
      "lon": 4.3846223
    },
    {
      "type": "node",
      "id": 1833201018,
      "lat": 51.147972,
      "lon": 4.3847437
    },
    {
      "type": "node",
      "id": 1833201031,
      "lat": 51.1480524,
      "lon": 4.3848045
    },
    {
      "type": "node",
      "id": 1833201033,
      "lat": 51.14813,
      "lon": 4.3848494
    },
    {
      "type": "node",
      "id": 1833201035,
      "lat": 51.1482034,
      "lon": 4.3848629
    },
    {
      "type": "node",
      "id": 1833201047,
      "lat": 51.1491345,
      "lon": 4.3845503
    },
    {
      "type": "node",
      "id": 1833201049,
      "lat": 51.1492037,
      "lon": 4.3845233
    },
    {
      "type": "node",
      "id": 5141999996,
      "lat": 51.1477077,
      "lon": 4.3846283
    },
    {
      "type": "node",
      "id": 1873738051,
      "lat": 51.152225,
      "lon": 4.3930716
    },
    {
      "type": "node",
      "id": 1873738100,
      "lat": 51.1512651,
      "lon": 4.393215
    },
    {
      "type": "node",
      "id": 1873738169,
      "lat": 51.1513176,
      "lon": 4.3941084
    },
    {
      "type": "node",
      "id": 1873738202,
      "lat": 51.1522775,
      "lon": 4.3939651
    },
    {
      "type": "node",
      "id": 8025420597,
      "lat": 51.1488713,
      "lon": 4.3940657
    },
    {
      "type": "node",
      "id": 8025420625,
      "lat": 51.1485467,
      "lon": 4.3941599
    }
  ]
}