{
  "version": 0.6,
  "generator": "Overpass API 0.7.56.8 7d656e78",
  "osm3s": {
    "timestamp_osm_base": "2021-12-11T03:25:24Z",
    "timestamp_areas_base": "2021-12-09T15:18:39Z",
    "copyright": "The data included in this document is from www.openstreetmap.org. The data is made available under ODbL."
  },
  "elements": [
    {
      "type": "node",
      "id": 2340411871,
      "lat": 51.094551,
      "lon": 4.3456988,
      "tags": {
        "leisure": "playground"
      }
    },
    {
      "type": "node",
      "id": 8142472034,
      "lat": 51.0883457,
      "lon": 4.3287528
    },
    {
      "type": "node",
      "id": 8142472035,
      "lat": 51.088626,
      "lon": 4.3297273
    },
    {
      "type": "node",
      "id": 8142472036,
      "lat": 51.0881635,
      "lon": 4.3290648
    },
    {
      "type": "node",
      "id": 8142472037,
      "lat": 51.088595,
      "lon": 4.3282525
    },
    {
      "type": "node",
      "id": 8142472038,
      "lat": 51.0890575,
      "lon": 4.3289244
    },
    {
      "type": "way",
      "id": 28036708,
      "nodes": [
        4432587993,
        307853029,
        3662879306,
        307853032,
        307853034,
        307853037,
        3662879336,
        307853040,
        3662879345,
        3662879346,
        3662879347,
        307853043,
        3662879351,
        3662879356,
        3662879357,
        307853048,
        3662879362,
        307853050,
        1477708160,
        1477708164,
        307853052,
        8142467387
      ],
      "tags": {
        "highway": "path",
        "horse": "no",
        "surface": "unpaved"
      }
    },
    {
      "type": "way",
      "id": 100199087,
      "nodes": [
        262331299,
        1477709065,
        1158180650,
        1158180683
      ],
      "tags": {
        "highway": "path"
      }
    },
    {
      "type": "way",
      "id": 115841170,
      "nodes": [
        1307628861,
        1307628886,
        1307628871,
        1307628883,
        1307628869,
        1307628859,
        1307628878,
        1307628889,
        1307628875
      ],
      "tags": {
        "bicycle": "yes",
        "highway": "path",
        "lit": "yes",
        "surface": "paved",
        "vehicle": "no"
      }
    },
    {
      "type": "way",
      "id": 132121695,
      "nodes": [
        262362350,
        1454044394,
        1454044395,
        1454044392,
        1454044391,
        1454044387,
        1454044386,
        1454044385,
        1454044388,
        1454044389,
        1454044390,
        1454044393
      ],
      "tags": {
        "highway": "footway"
      }
    },
    {
      "type": "way",
      "id": 132121700,
      "nodes": [
        1454044390,
        1454044391
      ],
      "tags": {
        "highway": "footway"
      }
    },
    {
      "type": "way",
      "id": 132121701,
      "nodes": [
        1454044386,
        8737046431,
        1477689250,
        1454044383,
        1477688588,
        1454044382,
        1477688585,
        1477688579,
        1454044381
      ],
      "tags": {
        "highway": "footway"
      }
    },
    {
      "type": "way",
      "id": 132229872,
      "nodes": [
        1455070911,
        1455070871,
        1455070804,
        1455070790,
        1455070911
      ],
      "tags": {
        "leisure": "pitch",
        "sport": "rugby_league"
      }
    },
    {
      "type": "way",
      "id": 134389271,
      "nodes": [
        1477708164,
        1477708167,
        1477708173,
        1477708174,
        1477708169,
        1477708165,
        1477708163,
        1477708162,
        1477708159,
        1477708157
      ],
      "tags": {
        "highway": "footway",
        "surface": "paving_stones"
      }
    },
    {
      "type": "way",
      "id": 134389273,
      "nodes": [
        307853050,
        1477708144,
        1477708153,
        1477708157,
        1477708155,
        1477708151,
        1477708130,
        1477708127,
        1477708119,
        3662879353,
        1477708120,
        3662879348,
        307853043
      ],
      "tags": {
        "highway": "footway",
        "surface": "paving_stones"
      }
    },
    {
      "type": "way",
      "id": 134389277,
      "nodes": [
        262361553,
        1477708076,
        1477708091,
        1477708114,
        1477708115,
        1477708116
      ],
      "tags": {
        "highway": "footway"
      }
    },
    {
      "type": "way",
      "id": 173163596,
      "nodes": [
        262210261,
        1839905114,
        1839905123,
        6987264604,
        1839905153
      ],
      "tags": {
        "bicycle": "no",
        "highway": "path",
        "surface": "grass",
        "tracktype": "grade5"
      }
    },
    {
      "type": "way",
      "id": 189059646,
      "nodes": [
        3991007819,
        1997043496,
        1997043501,
        1997043505,
        1997043513,
        1997043523,
        1997043531,
        1997043527,
        5223825662,
        1997043533,
        1997043537,
        5223825663,
        1997043542
      ],
      "tags": {
        "highway": "track"
      }
    },
    {
      "type": "way",
      "id": 189059654,
      "nodes": [
        1997043540,
        1997043545,
        1997043539,
        1997043535,
        1997043529,
        1997043525
      ],
      "tags": {
        "highway": "track",
        "surface": "dirt",
        "tracktype": "grade3"
      }
    },
    {
      "type": "way",
      "id": 225088750,
      "nodes": [
        2339126699,
        2339126686,
        2339126677,
        2339126675,
        2339126672
      ],
      "tags": {
        "highway": "footway",
        "surface": "ground",
        "tracktype": "grade4"
      }
    },
    {
      "type": "way",
      "id": 225232264,
      "nodes": [
        2340411856,
        2340411853
      ],
      "tags": {
        "highway": "path",
        "surface": "unpaved"
      }
    },
    {
      "type": "way",
      "id": 225232271,
      "nodes": [
        2340411884,
        2340411879,
        2340411876,
        2340411878,
        2340411884
      ],
      "tags": {
        "boules": "petanque",
        "leisure": "pitch",
        "sport": "boules"
      }
    },
    {
      "type": "way",
      "id": 361781606,
      "nodes": [
        3662134481,
        3662134482,
        3662134483,
        3662134485,
        3662134487,
        3662134493,
        3662134497,
        3662134507,
        3662134509,
        3662134511,
        3662134513,
        3662134512,
        3662134496,
        3662134494,
        3662134495,
        3662134498,
        3662134503,
        3662134506,
        3662134505,
        3662134501
      ],
      "tags": {
        "highway": "track",
        "surface": "dirt",
        "tracktype": "grade5"
      }
    },
    {
      "type": "way",
      "id": 361875616,
      "nodes": [
        307853043,
        3662879339
      ],
      "tags": {
        "highway": "path",
        "surface": "dirt"
      }
    },
    {
      "type": "way",
      "id": 445911373,
      "nodes": [
        4432587991,
        4414896670,
        5105531983,
        4432587993
      ],
      "tags": {
        "highway": "path",
        "surface": "unpaved"
      }
    },
    {
      "type": "way",
      "id": 445912555,
      "nodes": [
        4432587991,
        4414781890,
        8142472078,
        4414781484,
        4414781488,
        8142472079,
        4414781483,
        4414781487,
        4414781485,
        4414781480,
        8142472080,
        4414781482,
        4414781481,
        4414781486,
        4414781478,
        4414781891
      ],
      "tags": {
        "highway": "path",
        "name": "Leipark",
        "surface": "unpaved"
      }
    },
    {
      "type": "way",
      "id": 539913955,
      "nodes": [
        5223825664,
        5223825665,
        5223825666
      ],
      "tags": {
        "highway": "pedestrian",
        "name": "Noeveren"
      }
    },
    {
      "type": "way",
      "id": 539913956,
      "nodes": [
        5223825665,
        5223825667
      ],
      "tags": {
        "highway": "footway"
      }
    },
    {
      "type": "way",
      "id": 613050564,
      "nodes": [
        5801680894,
        5801680895,
        5801680896,
        5801680897,
        5801680898,
        5801680899,
        5801680894
      ],
      "tags": {
        "access": "private",
        "leisure": "playground",
        "name": "Chiro Ruisbroek",
        "operator": "Chiro Ruisbroek",
        "surface": "grass"
      }
    },
    {
      "type": "way",
      "id": 669341864,
      "nodes": [
        6267920635,
        6267920634,
        6267920633,
        6267920632,
        6267920635
      ],
      "tags": {
        "leisure": "pitch",
        "sport": "basketball"
      }
    },
    {
      "type": "way",
      "id": 669342358,
      "nodes": [
        6267932881,
        6267932880,
        6267932879,
        6267932878,
        6267932881
      ],
      "tags": {
        "archery": "popinjay",
        "leisure": "pitch",
        "sport": "archery"
      }
    },
    {
      "type": "way",
      "id": 805843129,
      "nodes": [
        1454044395,
        7535731455,
        7535731454,
        7535731453
      ],
      "tags": {
        "footway": "sidewalk",
        "highway": "footway"
      }
    },
    {
      "type": "way",
      "id": 805843130,
      "nodes": [
        7535731458,
        7535731457
      ],
      "tags": {
        "highway": "footway"
      }
    },
    {
      "type": "way",
      "id": 805843131,
      "nodes": [
        7535731462,
        7535731460,
        7535731459
      ],
      "tags": {
        "footway": "sidewalk",
        "highway": "footway"
      }
    },
    {
      "type": "way",
      "id": 805843132,
      "nodes": [
        7535731475,
        7535731463,
        7535731462,
        7535731458,
        7535731461,
        262362348
      ],
      "tags": {
        "footway": "sidewalk",
        "highway": "footway"
      }
    },
    {
      "type": "way",
      "id": 874691287,
      "nodes": [
        8142472038,
        8142472035,
        8142472036,
        8142472034,
        8142472037,
        8142472038
      ],
      "tags": {
        "leisure": "park"
      }
    },
    {
      "type": "way",
      "id": 874691288,
      "nodes": [
        4414781483,
        8142472041,
        8142472040,
        8142472039,
        8142472046
      ],
      "tags": {
        "highway": "path",
        "name": "Leipark"
      }
    },
    {
      "type": "way",
      "id": 874691289,
      "nodes": [
        4414781485,
        8142472075,
        8142472074,
        8142472073,
        8142472072,
        8142472071,
        8142472070,
        8142472069,
        8142472068,
        8142472067,
        8142472066,
        8142472065,
        8142472064,
        8142472063,
        8142472062,
        8142472061,
        8142472060,
        8142472059,
        8142472058,
        8142472057,
        8142472056,
        8142472055,
        8142472054,
        8142472053,
        8142472052,
        8142472051,
        8142472050,
        8142472049,
        8142472048,
        8142472047,
        8142472046,
        8142472045,
        8142472044,
        8142472043,
        8142472042,
        4414781488
      ],
      "tags": {
        "highway": "path",
        "name": "Leipark"
      }
    },
    {
      "type": "way",
      "id": 943598645,
      "nodes": [
        1251632583,
        2339126699
      ],
      "tags": {
        "highway": "pedestrian",
        "name": "Noeveren",
        "surface": "ground",
        "tracktype": "grade4"
      }
    },
    {
      "type": "way",
      "id": 943627350,
      "nodes": [
        8737046430,
        8737046429,
        8737046428,
        8737046427,
        8737046426,
        8737046425,
        8737046424,
        8737046423
      ],
      "tags": {
        "highway": "path"
      }
    },
    {
      "type": "way",
      "id": 943627351,
      "nodes": [
        262362839,
        8737046431,
        8737046433
      ],
      "tags": {
        "highway": "path"
      }
    },
    {
      "type": "way",
      "id": 943627352,
      "nodes": [
        8737046432,
        1454044392
      ],
      "tags": {
        "highway": "path"
      }
    },
    {
      "type": "way",
      "id": 943627353,
      "nodes": [
        262362344,
        8737046444,
        8737046443,
        8737046442,
        8737046441,
        8737046440,
        8737046439,
        8737046438,
        8737046437,
        8737046436,
        8737046435,
        8737046434,
        8737046433
      ],
      "tags": {
        "highway": "path"
      }
    },
    {
      "type": "area",
      "id": 3600052411,
      "tags": {
        "ISO3166-1": "BE",
        "ISO3166-1:alpha2": "BE",
        "ISO3166-1:alpha3": "BEL",
        "ISO3166-1:numeric": "056",
        "TMC:cid_58:tabcd_1:Class": "Area",
        "TMC:cid_58:tabcd_1:LCLversion": "8.00",
        "TMC:cid_58:tabcd_1:LocationCode": "3",
        "admin_level": "2",
        "alt_name:ay": "Bilgasuyu",
        "alt_name:bar": "Bejgien",
        "alt_name:ckb": "بلژیک",
        "alt_name:eo": "Belgujo",
        "alt_name:frp": "Bèlg·ica",
        "alt_name:fur": "Belgjiche;Belgje",
        "alt_name:fy": "België;it Belzelân",
        "alt_name:kbd": "Белгэ",
        "alt_name:ksh": "Belgien",
        "alt_name:ku": "Belcîka",
        "alt_name:la": "Belgium",
        "alt_name:li": "Belzjiek",
        "alt_name:mzn": "بلجیک",
        "alt_name:qu": "Bilgasuyu",
        "alt_name:rw": "Ububirigi",
        "alt_name:so": "Belgium",
        "alt_name:war": "Bélgica",
        "boundary": "administrative",
        "currency": "EUR",
        "flag": "http://upload.wikimedia.org/wikipedia/commons/6/65/Flag_of_Belgium.svg",
        "int_name": "Belgium",
        "name": "België / Belgique / Belgien",
        "name:ace": "Bèlgia",
        "name:ady": "Белгие",
        "name:af": "België",
        "name:ak": "Belgium",
        "name:als": "Belgie",
        "name:am": "ቤልጅግ",
        "name:an": "Belchica",
        "name:ang": "Belgice",
        "name:ar": "بلجيكا",
        "name:arc": "ܒܠܓܝܩܐ",
        "name:arz": "بلجيكا",
        "name:ast": "Bélxica",
        "name:av": "Бе́льгия",
        "name:ay": "Bilkiya",
        "name:az": "Belçika",
        "name:azb": "بلژیک",
        "name:ba": "Бе́льгия",
        "name:bar": "Bäigien",
        "name:bat-smg": "Belgėjė",
        "name:bcl": "Belhika",
        "name:be": "Бeльгія",
        "name:be-tarask": "Бэ́льгія",
        "name:bg": "Белгия",
        "name:bh": "बेल्जियम",
        "name:bi": "Beljiom",
        "name:bm": "Bɛliziki",
        "name:bn": "বেলজিয়াম",
        "name:bo": "པེར་ཅིན།",
        "name:bpy": "বেলজিয়াম",
        "name:br": "Belgia",
        "name:bs": "Belgija",
        "name:bug": "Belgia",
        "name:bxr": "Бельги",
        "name:ca": "Bèlgica",
        "name:cbk-zam": "Bélgica",
        "name:cdo": "Bī-lé-sì",
        "name:ce": "Бельги",
        "name:ceb": "Belhika",
        "name:chr": "ᏇᎵᏥᎥᎻ",
        "name:ckb": "بەلجیکا",
        "name:co": "Belgica",
        "name:crh": "Belçika",
        "name:cs": "Belgie",
        "name:csb": "Belgijskô",
        "name:cu": "Бє́лгїѥ",
        "name:cv": "Бельги",
        "name:cy": "Gwlad Belg",
        "name:da": "Belgien",
        "name:de": "Belgien",
        "name:din": "Beljiem",
        "name:diq": "Belçıka",
        "name:dsb": "Belgiska",
        "name:dty": "बेल्जियम",
        "name:dv": "ބެލްޖިއަމް",
        "name:dz": "བེལ་ཇིཡམ",
        "name:ee": "Belgium",
        "name:el": "Βέλγιο",
        "name:eml": "Bélgi",
        "name:en": "Belgium",
        "name:eo": "Belgio",
        "name:es": "Bélgica",
        "name:et": "Belgia",
        "name:eu": "Belgika",
        "name:ext": "Bélgica",
        "name:fa": "بلژیک",
        "name:ff": "Beljik",
        "name:fi": "Belgia",
        "name:fiu-vro": "Belgiä",
        "name:fo": "Belgia",
        "name:fr": "Belgique",
        "name:frp": "Bèlg·ique",
        "name:frr": "Bälgien",
        "name:fur": "Belgjo",
        "name:fy": "Belgje",
        "name:ga": "an Bheilg",
        "name:gag": "Belgiya",
        "name:gd": "a' Bheilg",
        "name:gl": "Bélxica",
        "name:gn": "Véyhika",
        "name:gom": "बेल्जियम",
        "name:gu": "બેલ્જિયમ",
        "name:gv": "Velg",
        "name:ha": "Beljik",
        "name:hak": "Pí-li-sṳ̀",
        "name:haw": "Pelekiuma",
        "name:he": "בֶּלְגְיָה",
        "name:hi": "बेल्जियम",
        "name:hif": "Belgium",
        "name:hr": "Belgija",
        "name:hsb": "Belgiska",
        "name:ht": "Bèljik",
        "name:hu": "Belgium",
        "name:hy": "Բելգիա",
        "name:ia": "Belgica",
        "name:id": "Belgia",
        "name:ie": "Belgia",
        "name:ig": "Belgium",
        "name:ilo": "Belhika",
        "name:io": "Belgia",
        "name:is": "Belgía",
        "name:it": "Belgio",
        "name:ja": "ベルギー",
        "name:jam": "Beljiom",
        "name:jbo": "beldjym",
        "name:jv": "Bèlgia",
        "name:ka": "ბელგია",
        "name:kaa": "Belgiya",
        "name:kab": "Biljik",
        "name:kbd": "Белгиэ",
        "name:kbp": "Pɛliziki",
        "name:kg": "Belezi",
        "name:ki": "Ubelgiji",
        "name:kk": "Бельгия",
        "name:kl": "Belgia",
        "name:km": "បែលហ្ស៉ិក",
        "name:kn": "ಬೆಲ್ಜಿಯಂ",
        "name:ko": "벨기에",
        "name:koi": "Белгия",
        "name:krc": "Бельгия",
        "name:ks": "बेल्जियम",
        "name:ksh": "Beljie",
        "name:ku": "Belçîka",
        "name:kv": "Бельгия",
        "name:kw": "Pow Belg",
        "name:ky": "Бельгия",
        "name:la": "Belgica",
        "name:lad": "Beljika",
        "name:lb": "Belsch",
        "name:lez": "Бельгия",
        "name:lg": "Bubirigi",
        "name:li": "Belsj",
        "name:lij": "Belgiò",
        "name:lmo": "Belgi",
        "name:ln": "Bɛ́ljika",
        "name:lo": "ປະເທດແບນຊິກ",
        "name:lrc": "بلجیک",
        "name:lt": "Belgija",
        "name:ltg": "Beļgeja",
        "name:lv": "Beļģija",
        "name:lzh": "比利時",
        "name:mai": "बेल्जियम",
        "name:mdf": "Бельгие",
        "name:mg": "Belzika",
        "name:mhr": "Бельгий",
        "name:mi": "Pehiamu",
        "name:mk": "Белгија",
        "name:ml": "ബെൽജിയം",
        "name:mn": "Бельги",
        "name:mr": "बेल्जियम",
        "name:ms": "Belgium",
        "name:mt": "Belġju",
        "name:mwl": "Bélgica",
        "name:my": "ဘယ်လ်ဂျီယမ်နိုင်ငံ",
        "name:myv": "Бельгия",
        "name:mzn": "بلژیک",
        "name:na": "Berdjiyum",
        "name:nah": "Belgica",
        "name:nan": "Pe̍k-ní-gī",
        "name:nap": "Belge",
        "name:nb": "Belgia",
        "name:nds": "Belgien",
        "name:nds-nl": "België",
        "name:ne": "बेल्जियम",
        "name:new": "बेल्जियम",
        "name:nl": "België",
        "name:nn": "Belgia",
        "name:no": "Belgia",
        "name:nov": "Belgia",
        "name:nrm": "Belgique",
        "name:nso": "Belgium",
        "name:oc": "Belgica",
        "name:olo": "Bel’gii",
        "name:om": "Beeljiyeem",
        "name:or": "ବେଲଜିଅମ",
        "name:os": "Бельги",
        "name:pa": "ਬੈਲਜੀਅਮ",
        "name:pag": "Belhika",
        "name:pam": "Belgika",
        "name:pap": "Bélgika",
        "name:pcd": "Bergike",
        "name:pdc": "Belgien",
        "name:pfl": "Belgje",
        "name:pi": "बेल्जियम",
        "name:pih": "Beljum",
        "name:pl": "Belgia",
        "name:pms": "Belgi",
        "name:pnb": "بیلجیم",
        "name:pnt": "Βέλγιον",
        "name:ps": "بلجیم",
        "name:pt": "Bélgica",
        "name:qu": "Bilhika",
        "name:rm": "Belgia",
        "name:rmy": "Beljiya",
        "name:rn": "Ububirigi",
        "name:ro": "Belgia",
        "name:roa-rup": "Belghia",
        "name:roa-tara": "Bèlge",
        "name:ru": "Бельгия",
        "name:rue": "Белґія",
        "name:rw": "Ububiligi",
        "name:sa": "बेल्जियम",
        "name:sah": "Бельгия",
        "name:sc": "Bèlgiu",
        "name:scn": "Belgiu",
        "name:sco": "Belgium",
        "name:sd": "بيلجيم",
        "name:se": "Belgia",
        "name:sg": "Bêleze",
        "name:sh": "Belgija",
        "name:si": "බෙල්ජියම්",
        "name:sk": "Belgicko",
        "name:sl": "Bélgija",
        "name:sm": "Peleseuma",
        "name:smn": "Belgia",
        "name:sms": "Belgia",
        "name:sn": "Belgium",
        "name:so": "Beljim",
        "name:sq": "Belgjika",
        "name:sr": "Белгија",
        "name:srn": "Belgikondre",
        "name:ss": "iBhelijiyamu",
        "name:stq": "Belgien",
        "name:su": "Bélgia",
        "name:sv": "Belgien",
        "name:sw": "Ubelgiji",
        "name:szl": "Belgijo",
        "name:ta": "பெல்ஜியம்",
        "name:te": "బెల్జియం",
        "name:tet": "Béljika",
        "name:tg": "Белгия",
        "name:th": "เบลเยียม",
        "name:ti": "ቤልጄም",
        "name:tk": "Belgiýa",
        "name:tl": "Belhika",
        "name:to": "Pelesiume",
        "name:tok": "ma Pesije",
        "name:tpi": "Beljiam",
        "name:tr": "Belçika",
        "name:ts": "Belgium",
        "name:tt": "Бе́льгия",
        "name:tum": "Belgium",
        "name:tw": "Belgium",
        "name:tzl": "Belxhíc",
        "name:udm": "Бельгия",
        "name:ug": "بېلگىيە",
        "name:uk": "Бе́льгія",
        "name:ur": "بلجئیم",
        "name:uz": "Belgiya",
        "name:vec": "Belgio",
        "name:vep": "Bel'gii",
        "name:vi": "Bỉ",
        "name:vls": "België",
        "name:vo": "Belgän",
        "name:wa": "Beldjike",
        "name:war": "Belhika",
        "name:wo": "Belsik",
        "name:wuu": "比利时",
        "name:xal": "Бельҗмудин Нутг",
        "name:xmf": "ბელგია",
        "name:yi": "בעלגיע",
        "name:yo": "Bẹ́ljíọ̀m",
        "name:yue": "比利時",
        "name:zea": "Belhië",
        "name:zh": "比利时 / 比利時",
        "name:zh-Hans": "比利时",
        "name:zh-Hant": "比利時",
        "name:zh_pinyin": "Bǐlìshí",
        "name:zu": "i-Belgium",
        "official_name": "Koninkrijk België / Royaume de Belgique / Königreich Belgien",
        "official_name:af": "Koninkryk van België",
        "official_name:als": "Königriich Belgie",
        "official_name:am": "የቤልጅግ መንግሥት",
        "official_name:an": "Reino de Belchica",
        "official_name:ang": "Belgice Cynerīce",
        "official_name:ar": "مملكة بلجيكا",
        "official_name:arc": "ܡܠܟܘܬܐ ܕܒܠܓܝܩܐ",
        "official_name:ast": "Reinu de Bélxica",
        "official_name:av": "Ханлъи Бе́льгия",
        "official_name:ay": "Bilhika Qhapaqsuyu",
        "official_name:az": "Belçika Krallığı",
        "official_name:azb": "بلژیک کراللیغی",
        "official_name:ba": "Бельгия Короллеге",
        "official_name:bar": "Kinigraich Bäigien",
        "official_name:bat-smg": "Belgėjės Karalīstė",
        "official_name:be": "Каралеўства Бельгія",
        "official_name:be-tarask": "Каралеўства Бельгія",
        "official_name:bg": "Кралство Белгия",
        "official_name:bm": "Bɛliziki Mansamara",
        "official_name:bn": "রাজতন্ত্রী বেলজিয়াম",
        "official_name:bo": "Kraljevina Belgija",
        "official_name:bpy": "রাজতান্ত্রিক বেলজিয়াম",
        "official_name:br": "Rouantelezh Belgia",
        "official_name:bs": "Kraljevina Belgija",
        "official_name:ca": "Regne de Bèlgica",
        "official_name:ce": "Монархи Бельги",
        "official_name:chr": "ᎤᎬᏫᏳᎯ ᎨᏒ ᎾᎿ ᎠᏲᎳᏂ",
        "official_name:co": "Regnu di Belgica",
        "official_name:crh": "Belçika Qırallığı",
        "official_name:cs": "Belgické království",
        "official_name:cu": "Кралѥ́вьство Бє́лгїѥ",
        "official_name:cy": "Teyrnas Gwlad Belg",
        "official_name:da": "Kongeriget Belgien",
        "official_name:de": "Königreich Belgien",
        "official_name:din": "Mäcŋaknhom ke Beljiem",
        "official_name:dsb": "Kralojstwo Belgiskej",
        "official_name:el": "Βασίλειο του Βελγίου",
        "official_name:eml": "Regno dal Bèlgi",
        "official_name:en": "Kingdom of Belgium",
        "official_name:eo": "Reĝlando Belgio",
        "official_name:es": "Reino de Bélgica",
        "official_name:et": "Belgia Kuningriik",
        "official_name:eu": "Belgikako Erresuma",
        "official_name:fa": "پادشاهی بلژیک",
        "official_name:fi": "Belgian kuningaskunta",
        "official_name:fiu-vro": "Belgiä Kuningriik",
        "official_name:fr": "Royaume de Belgique",
        "official_name:frp": "Royômo de Bèlg·ique",
        "official_name:frr": "Könangrik Belgien",
        "official_name:ga": "Ríocht na Beilge",
        "official_name:gd": "Rìoghachd na Beilge",
        "official_name:gl": "Reino de Bélxica",
        "official_name:gn": "Tetã Véyhika",
        "official_name:gv": "Reeriaght ny Belg",
        "official_name:he": "ממלכת בלגיה",
        "official_name:hi": "किंगडम ऑफ़ बेल्जियम",
        "official_name:hr": "Kraljevina Belgija",
        "official_name:hsb": "Belgiske kralestwo",
        "official_name:hu": "Belga Királyság",
        "official_name:hy": "Բելգիայի Թագավորություն",
        "official_name:ia": "Regno de Belgica",
        "official_name:id": "Kerajaan Belgia",
        "official_name:ig": "Obodoézè nke Belgium",
        "official_name:ilo": "Pagarian ti Belhika",
        "official_name:io": "Rejio di Belgia",
        "official_name:is": "Konungsríkið Belgía",
        "official_name:it": "Regno del Belgio",
        "official_name:ja": "ベルギー王国",
        "official_name:jam": "Kindom a Beljiom",
        "official_name:ka": "ბელგიის სამეფო",
        "official_name:kab": "Tigelda n Biljik",
        "official_name:kbd": "Белгэ Пэщтыхьей",
        "official_name:kg": "Nsi ya ntotila ya Belezi",
        "official_name:kk": "Бельгия Корольдігі",
        "official_name:kl": "Kunngeqarfik Belgia",
        "official_name:kn": "ಬೆಲ್ಜಿಯಂ ಸಂಸ್ಥಾನ",
        "official_name:ko": "벨기에 왕국",
        "official_name:koi": "Короля Белгия",
        "official_name:krc": "Бельгия Королевство",
        "official_name:ku": "Keyaniya Belçîkayê",
        "official_name:kv": "Бельгия Корольув",
        "official_name:kw": "Ruwvaneth Belgek",
        "official_name:ky": "Бельгия Королдугу",
        "official_name:la": "Regnum Belgicum",
        "official_name:lad": "Reyno de Beljika",
        "official_name:lb": "Kinnekräich Belsch",
        "official_name:lg": "Obwakabaka bwa Bubirigi",
        "official_name:li": "Keuninkriek Belsj",
        "official_name:lij": "Regno do Belgio",
        "official_name:lmo": "Regn del Belgi",
        "official_name:ln": "Mani ya Bɛ́ljika",
        "official_name:lo": "ລາຊະອານາຈັກແບນຊິກ",
        "official_name:lt": "Belgijos Karalystė",
        "official_name:lv": "Beļģijas Karaliste",
        "official_name:lzh": "比利時王國",
        "official_name:mdf": "Бельгие Оцязорксшись",
        "official_name:mk": "Кралство Белгија",
        "official_name:mn": "Бельгийн Вант Улс",
        "official_name:mr": "बेल्जियमचे राजतंत्र",
        "official_name:ms": "Kerajaan Belgium",
        "official_name:mt": "Renju tal-Belġju",
        "official_name:my": "ကင်းဒမ်းအော့ဖ် ဘယ်လ်ဂျီယမ်",
        "official_name:myv": "Бельгия Масторось",
        "official_name:nah": "Huēyitlahtohcāyōtl Belgica",
        "official_name:nan": "Pe̍k-ní-gī-kok",
        "official_name:nds": "Königriek vun Belgien",
        "official_name:nds-nl": "Koninkriek België",
        "official_name:new": "बेल्जियम राजतन्त्र",
        "official_name:nl": "Koninkrijk België",
        "official_name:nn": "Kongeriket Belgia",
        "official_name:no": "Kongeriket Belgia",
        "official_name:oc": "Reialme de Belgica",
        "official_name:olo": "Bel’gien kuningaskundu",
        "official_name:os": "Бельгийы Къаролад",
        "official_name:pa": "ਬੈਲਜੀਅਮ ਦੀ ਰਾਜਸ਼ਾਹੀ",
        "official_name:pam": "Ka-ariyan ning Belgika",
        "official_name:pap": "Reino Bélgika",
        "official_name:pcd": "Roéyôme d’ Bergike",
        "official_name:pfl": "Royaume de Belgique",
        "official_name:pl": "Królestwo Belgii",
        "official_name:pnt": "Βασίλειον τη Βελγί",
        "official_name:ps": "د بلجیم بادشاهي",
        "official_name:pt": "Reino da Bélgica",
        "official_name:qu": "Bilhika Qhapaqsuyu",
        "official_name:rm": "Reginavel da la Belgia",
        "official_name:rmy": "Thangaripen Beljiyako",
        "official_name:rn": "Irepuburika y’Ububirigi",
        "official_name:ro": "Regatul Belgiei",
        "official_name:roa-tara": "Regne d'u Bèlgie",
        "official_name:ru": "Королевство Бельгия",
        "official_name:rue": "Белґіцьке кралёвство",
        "official_name:rw": "Igihugu cy’Ububirigi",
        "official_name:sah": "Бельгия Хоруоллуга",
        "official_name:sc": "Rennu de Bèlgiu",
        "official_name:sco": "Kinrick o Belgium",
        "official_name:sd": "بيلجيم جي شهنشاهيت",
        "official_name:se": "Belgia gonagasriika",
        "official_name:sg": "Ködörö-gbïä tî Bêleze",
        "official_name:sh": "Kraljevina Belgija",
        "official_name:sk": "Belgické kráľovstvo",
        "official_name:sl": "Kraljevína Bélgija",
        "official_name:sm": "Malo o Peleseuma",
        "official_name:sq": "Mbretëria e Belgjikës",
        "official_name:sr": "Краљевина Белгија",
        "official_name:su": "Karajaan Bélgia",
        "official_name:sv": "Konungariket Belgien",
        "official_name:sw": "Ufalme wa Ubelgiji",
        "official_name:szl": "Krůlestwo Belgije",
        "official_name:ta": "பெல்ஜியம் இராச்சியம்",
        "official_name:te": "బెల్జియం రాజ్యం",
        "official_name:tet": "Reinu Béljika nian",
        "official_name:tg": "Шоҳигарии Бeлгия",
        "official_name:th": "ราชอาณาจักรเบลเยียม",
        "official_name:tk": "Belgiýa korollygy",
        "official_name:tl": "Kaharian ng Belhika",
        "official_name:tr": "Belçika Krallığı",
        "official_name:tt": "Бе́льгия Корольлеге́",
        "official_name:udm": "Королевство Бельгия",
        "official_name:ug": "بېلگىيە پادىشاھلىقى",
        "official_name:uk": "Королі́вство Бе́льгія",
        "official_name:ur": "مملکت بلجئیم",
        "official_name:uz": "Belgiya Qirolligi",
        "official_name:vec": "Regno del Belgio",
        "official_name:vep": "Bel'gijan Kunigahuz",
        "official_name:vi": "Vương quốc Bỉ",
        "official_name:vls": "Keunienkryk België",
        "official_name:vo": "Regän Belgäna",
        "official_name:wa": "Royåme di Beldjike",
        "official_name:war": "Ginhadi-an han Belhika",
        "official_name:wo": "Ruwaayom bu Beljik",
        "official_name:xal": "Бельҗмудин Орн Нутг",
        "official_name:xmf": "ბელგიაშ ომაფე",
        "official_name:yi": "קעניגרייך פון בעלגיע",
        "official_name:yo": "Ilẹ̀ọba Bẹ́ljíọ̀m",
        "official_name:yue": "比利時王國",
        "official_name:zea": "Konienkriek België",
        "official_name:zh": "比利时王国 / 比利時王國",
        "official_name:zh-Hans": "比利时王国",
        "official_name:zh-Hant": "比利時王國",
        "timezone": "Europe/Brussels",
        "type": "boundary",
        "wikidata": "Q31",
        "wikipedia": "nl:België"
      }
    },
    {
      "type": "area",
      "id": 3600053114,
      "tags": {
        "ISO3166-2": "BE-VAN",
        "admin_level": "6",
        "alt_name:ar": "أنتفيرب",
        "alt_name:es": "Antuerpia",
        "alt_name:mk": "Антверп",
        "border_type": "province",
        "boundary": "administrative",
        "capital": "6",
        "name": "Antwerpen",
        "name:ar": "أنتويرب",
        "name:ca": "Anvers",
        "name:cs": "Antverpy",
        "name:de": "Antwerpen",
        "name:el": "Αμβέρσα",
        "name:en": "Antwerp",
        "name:eo": "Antverpeno",
        "name:es": "Amberes",
        "name:fi": "Antwerpen",
        "name:fr": "Anvers",
        "name:he": "אנטוורפן",
        "name:hr": "Antwerpen",
        "name:hu": "Antwerpen",
        "name:hy": "Անտվերպեն",
        "name:it": "Anversa",
        "name:ja": "アントワープ",
        "name:ka": "ანტვერპენი",
        "name:kn": "ಆಂಟ್ವೆರ್ಪ್",
        "name:la": "Antverpia",
        "name:lt": "Antverpenas",
        "name:lv": "Antverpene",
        "name:mk": "Антверпен",
        "name:nds": "Antwarp",
        "name:nds-nl": "Antwaarp",
        "name:nl": "Antwerpen",
        "name:pcd": "Anvérse",
        "name:pl": "Antwerpia",
        "name:pt": "Antuérpia",
        "name:ru": "Антверпен",
        "name:sk": "Antverpy",
        "name:sr": "Антверпен",
        "name:tzl": "Anviarça",
        "name:uk": "Антверпен",
        "name:vls": "Antwerpn",
        "name:wa": "Anverse",
        "name:zh": "安特卫普",
        "official_name": "Provincie Antwerpen",
        "official_name:ar": "مقاطعة أنتويرب",
        "official_name:nl": "Provincie Antwerpen",
        "old_name:de": "Antorf",
        "population": "1802719",
        "population:date": "2014-01-01",
        "ref:INS": "10000",
        "ref:nuts": "BE21",
        "ref:nuts:2": "BE21",
        "source:population": "wiki/ADSEI",
        "type": "boundary",
        "website": "https://www.provincieantwerpen.be/",
        "wikidata": "Q1116",
        "wikipedia": "nl:Antwerpen (provincie)"
      }
    },
    {
      "type": "area",
      "id": 3600053134,
      "tags": {
        "ISO3166-2": "BE-VLG",
        "admin_level": "4",
        "border_type": "state",
        "boundary": "administrative",
        "default_language": "nl",
        "name": "Vlaanderen",
        "name:ar": "فلاندر",
        "name:br": "Flandrez",
        "name:ca": "Flandes",
        "name:de": "Flandern",
        "name:el": "Φλάνδρα",
        "name:en": "Flanders",
        "name:eo": "Flandrio",
        "name:es": "Flandes",
        "name:et": "Flandria",
        "name:fi": "Flanderi",
        "name:fr": "Flandre",
        "name:fy": "Flaanderen",
        "name:hu": "Flandria",
        "name:ja": "フランデレン地域",
        "name:ka": "ფლანდრია",
        "name:ko": "플라망 지역",
        "name:lb": "Flandern",
        "name:li": "Vlaondere",
        "name:lt": "Flandrija",
        "name:nl": "Vlaanderen",
        "name:pcd": "Flande",
        "name:pt": "Flandres",
        "name:ru": "Фландрия",
        "name:sk": "Flámsko",
        "name:th": "เขตฟลามส์",
        "name:tzl": "Flemphäts",
        "name:vls": "Vloandern",
        "name:wa": "Flande",
        "name:zh": "弗拉芒大區",
        "name:zh-Hans": "弗拉芒大区",
        "name:zh-Hant": "弗拉芒大區",
        "nat_name": "Vlaams Gewest",
        "nat_name:ar": "الإقليم الفلامندي",
        "nat_name:be": "Фламандскі рэгіён",
        "nat_name:bg": "Фламандски регион",
        "nat_name:ca": "Regió flamenca",
        "nat_name:de": "Flämische Region",
        "nat_name:el": "Φλαμανδική Περιοχή",
        "nat_name:en": "Flemish Region",
        "nat_name:eo": "Flandra Regiono",
        "nat_name:fr": "Région flamande",
        "nat_name:fy": "Flaamsk Gewest",
        "nat_name:lb": "Flämesch Regioun",
        "nat_name:li": "Vlaondere Gewes",
        "nat_name:mk": "Фламански регион",
        "nat_name:nl": "Vlaams Gewest",
        "nat_name:os": "Фламандийы регион",
        "nat_name:pcd": "Région flaminke",
        "nat_name:pl": "Region Flamandzki",
        "nat_name:ru": "Фламандский регион",
        "nat_name:sk": "Flámsky región",
        "nat_name:tr": "Flaman Bölgesi",
        "nat_name:vls": "Vlams Gewest",
        "nat_name:wa": "Redjon flaminde",
        "ref:INS": "02000",
        "ref:nuts:1": "BE2",
        "source:name:br": "ofis publik ar brezhoneg",
        "type": "boundary",
        "website": "https://www.vlaanderen.be/",
        "wikidata": "Q9337",
        "wikipedia": "nl:Vlaams Gewest"
      }
    },
    {
      "type": "area",
      "id": 3600053136,
      "tags": {
        "boundary": "political",
        "default_language": "nl",
        "euro_const": "BE",
        "name": "Vlaamse Gemeenschap - Communauté flamande",
        "name:ar": "المجتمع الفلامندي",
        "name:ca": "Comunitat flamenca",
        "name:de": "Flämische Gemeinschaft",
        "name:en": "Flemish Community",
        "name:fr": "Communauté flamande",
        "name:fy": "Frânske Mienskip",
        "name:hu": "Flamand közösség",
        "name:lt": "Flamandų bendruomenė",
        "name:nl": "Vlaamse Gemeenschap",
        "name:sk": "Flámske spoločenstvo",
        "political_division": "linguistic_community",
        "type": "boundary",
        "wikidata": "Q9331",
        "wikipedia": "nl:Vlaamse Gemeenschap"
      }
    },
    {
      "type": "area",
      "id": 3600391117,
      "tags": {
        "admin_level": "8",
        "boundary": "administrative",
        "loc_name": "Puus-Sintamans",
        "name": "Puurs-Sint-Amands",
        "name:fr": "Puers-Saint-Amand",
        "name:nl": "Puurs-Sint-Amands",
        "ref:INS": "12041",
        "type": "boundary",
        "wikidata": "Q45202943",
        "wikipedia": "nl:Puurs-Sint-Amands"
      }
    },
    {
      "type": "area",
      "id": 3600937244,
      "tags": {
        "ISO3166-1": "BE",
        "admin_level": "2",
        "flag": "http://upload.wikimedia.org/wikipedia/commons/6/65/Flag_of_Belgium.svg",
        "land_area": "administrative",
        "name": "België / Belgique / Belgien (land mass)",
        "name:ar": "بلجيكا (كتلة اليابسة)",
        "name:ca": "Bèlgica (terra)",
        "name:de": "Belgien (Landmasse)",
        "name:en": "Belgium (land mass)",
        "name:fr": "Belgique (terres)",
        "name:lt": "Belgija (žemė)",
        "name:nl": "België (land)",
        "type": "land_area"
      }
    },
    {
      "type": "area",
      "id": 3602524403,
      "tags": {
        "admin_level": "7",
        "alt_name:la": "Mechlinia",
        "boundary": "administrative",
        "name": "Mechelen",
        "name:de": "Mecheln",
        "name:fr": "Malines",
        "name:la": "Maclinia",
        "name:nl": "Mechelen",
        "name:ru": "Мехелен",
        "name:vls": "Mecheln",
        "official_name": "Arrondissement Mechelen",
        "official_name:nl": "Arrondissement Mechelen",
        "old_name:en": "Mechlin",
        "ref:INS": "12000",
        "ref:nuts": "BE212",
        "ref:nuts:3": "BE212",
        "type": "boundary",
        "wikidata": "Q90905",
        "wikipedia": "nl:Arrondissement Mechelen"
      }
    },
    {
      "type": "area",
      "id": 3603363546,
      "tags": {
        "boundary": "postal_code",
        "note": "2870 Puurs",
        "postal_code": "2870",
        "type": "boundary"
      }
    },
    {
      "type": "area",
      "id": 3603896698,
      "tags": {
        "admin_level": "9",
        "boundary": "administrative",
        "loc_name": "Roasbroek",
        "name": "Ruisbroek",
        "name:fr": "Ruysbroeck",
        "name:nl": "Ruisbroek",
        "old_ref:INS": "12032",
        "ref:INS": "12030B",
        "type": "boundary",
        "wikidata": "Q2802222",
        "wikipedia": "nl:Ruisbroek (Antwerpen)"
      }
    },
    {
      "type": "area",
      "id": 3612728392,
      "tags": {
        "boundary": "administrative_cooperation",
        "name": "Benelux",
        "note": "Caribbean Netherlands (BES islands) joined the Benelux per the 2012-01-01 revision of the Benelux Treaty.",
        "official_name": "Benelux Unie / Union Benelux",
        "official_name:-2012-01-01": "Benelux Economische Unie / Union économique Benelux",
        "official_name:de": "Benelux-Union",
        "official_name:de:-2012-01-01": "Benelux-Wirtschaftsunion",
        "official_name:en": "Benelux Union",
        "official_name:en:-2012-01-01": "Benelux Economic Union",
        "official_name:fr": "Union Benelux",
        "official_name:fr:-2012-01-01": "Union économique Benelux",
        "official_name:lb": "Benelux-Unioun",
        "official_name:nl": "Benelux Unie",
        "official_name:nl:-2012-01-01": "Benelux Economische Unie",
        "source": "https://www.parlementairemonitor.nl/9353000/1/j9vvij5epmj1ey0/vhy97r97ikz8",
        "type": "boundary",
        "website": "https://benelux.int/",
        "wikidata": "Q13116",
        "wikipedia": "nl:Benelux"
      }
    },
    {
      "type": "area",
      "id": 3613325281,
      "tags": {
        "boundary": "administrative_cooperation",
        "description:en": "Treaty organisation of the Netherlands and the Flemish Community. Has an association agreement with Suriname and collaborates with other countries within the Kingdom of the Netherlands.",
        "description:nl": "Verdragsorganisatie van Nederland en de Vlaamse Gemeenschap. Heeft een associatieovereenkomst met Suriname en werkt samen met andere landen binnen het Koninkrijk der Nederlanden.",
        "name": "Nederlandse Taalunie",
        "name:en": "Dutch Language Union",
        "name:fr": "Union linguistique néerlandaise",
        "name:nl": "Nederlandse Taalunie",
        "short_name": "Taalunie",
        "short_name:en": "Language Union",
        "short_name:fr": "Union linguistique",
        "short_name:nl": "Taalunie",
        "source": "https://taalunie.org/informatie/36/verdragen-overeenkomsten-en-regelingen",
        "type": "boundary",
        "website": "https://taalunie.org/",
        "wikidata": "Q152299",
        "wikipedia": "nl:Nederlandse Taalunie"
      }
    },
    {
      "type": "node",
      "id": 2340411871,
      "lat": 51.094551,
      "lon": 4.3456988,
      "timestamp": "2013-06-11T11:14:08Z",
      "version": 1,
      "changeset": 16508707,
      "user": "escada",
      "uid": 436365,
      "tags": {
        "leisure": "playground"
      }
    },
    {
      "type": "node",
      "id": 8142472034,
      "lat": 51.0883457,
      "lon": 4.3287528,
      "timestamp": "2020-11-19T13:19:40Z",
      "version": 1,
      "changeset": 94439375,
      "user": "Jakka",
      "uid": 2403313
    },
    {
      "type": "node",
      "id": 8142472035,
      "lat": 51.088626,
      "lon": 4.3297273,
      "timestamp": "2020-11-19T13:19:40Z",
      "version": 1,
      "changeset": 94439375,
      "user": "Jakka",
      "uid": 2403313
    },
    {
      "type": "node",
      "id": 8142472036,
      "lat": 51.0881635,
      "lon": 4.3290648,
      "timestamp": "2020-11-19T13:19:40Z",
      "version": 1,
      "changeset": 94439375,
      "user": "Jakka",
      "uid": 2403313
    },
    {
      "type": "node",
      "id": 8142472037,
      "lat": 51.088595,
      "lon": 4.3282525,
      "timestamp": "2020-11-19T13:19:40Z",
      "version": 1,
      "changeset": 94439375,
      "user": "Jakka",
      "uid": 2403313
    },
    {
      "type": "node",
      "id": 8142472038,
      "lat": 51.0890575,
      "lon": 4.3289244,
      "timestamp": "2020-11-19T13:19:40Z",
      "version": 1,
      "changeset": 94439375,
      "user": "Jakka",
      "uid": 2403313
    },
    {
      "type": "way",
      "id": 28036708,
      "timestamp": "2020-11-19T13:19:40Z",
      "version": 5,
      "changeset": 94439375,
      "user": "Jakka",
      "uid": 2403313,
      "nodes": [
        4432587993,
        307853029,
        3662879306,
        307853032,
        307853034,
        307853037,
        3662879336,
        307853040,
        3662879345,
        3662879346,
        3662879347,
        307853043,
        3662879351,
        3662879356,
        3662879357,
        307853048,
        3662879362,
        307853050,
        1477708160,
        1477708164,
        307853052,
        8142467387
      ],
      "tags": {
        "highway": "path",
        "horse": "no",
        "surface": "unpaved"
      }
    },
    {
      "type": "way",
      "id": 100199087,
      "timestamp": "2012-07-27T14:45:39Z",
      "version": 3,
      "changeset": 12512458,
      "user": "Eimai",
      "uid": 6072,
      "nodes": [
        262331299,
        1477709065,
        1158180650,
        1158180683
      ],
      "tags": {
        "highway": "path"
      }
    },
    {
      "type": "way",
      "id": 115841170,
      "timestamp": "2013-06-28T10:34:33Z",
      "version": 2,
      "changeset": 16737667,
      "user": "escada",
      "uid": 436365,
      "nodes": [
        1307628861,
        1307628886,
        1307628871,
        1307628883,
        1307628869,
        1307628859,
        1307628878,
        1307628889,
        1307628875
      ],
      "tags": {
        "bicycle": "yes",
        "highway": "path",
        "lit": "yes",
        "surface": "paved",
        "vehicle": "no"
      }
    },
    {
      "type": "way",
      "id": 132121695,
      "timestamp": "2011-10-03T18:18:04Z",
      "version": 1,
      "changeset": 9462841,
      "user": "TAA",
      "uid": 69418,
      "nodes": [
        262362350,
        1454044394,
        1454044395,
        1454044392,
        1454044391,
        1454044387,
        1454044386,
        1454044385,
        1454044388,
        1454044389,
        1454044390,
        1454044393
      ],
      "tags": {
        "highway": "footway"
      }
    },
    {
      "type": "way",
      "id": 132121700,
      "timestamp": "2011-10-03T18:18:04Z",
      "version": 1,
      "changeset": 9462841,
      "user": "TAA",
      "uid": 69418,
      "nodes": [
        1454044390,
        1454044391
      ],
      "tags": {
        "highway": "footway"
      }
    },
    {
      "type": "way",
      "id": 132121701,
      "timestamp": "2021-05-16T20:20:23Z",
      "version": 4,
      "changeset": 104784111,
      "user": "wegspotter",
      "uid": 428001,
      "nodes": [
        1454044386,
        8737046431,
        1477689250,
        1454044383,
        1477688588,
        1454044382,
        1477688585,
        1477688579,
        1454044381
      ],
      "tags": {
        "highway": "footway"
      }
    },
    {
      "type": "way",
      "id": 132229872,
      "timestamp": "2013-06-28T19:30:51Z",
      "version": 2,
      "changeset": 16743734,
      "user": "escada",
      "uid": 436365,
      "nodes": [
        1455070911,
        1455070871,
        1455070804,
        1455070790,
        1455070911
      ],
      "tags": {
        "leisure": "pitch",
        "sport": "rugby_league"
      }
    },
    {
      "type": "way",
      "id": 134389271,
      "timestamp": "2015-07-23T11:02:28Z",
      "version": 2,
      "changeset": 32822755,
      "user": "escada",
      "uid": 436365,
      "nodes": [
        1477708164,
        1477708167,
        1477708173,
        1477708174,
        1477708169,
        1477708165,
        1477708163,
        1477708162,
        1477708159,
        1477708157
      ],
      "tags": {
        "highway": "footway",
        "surface": "paving_stones"
      }
    },
    {
      "type": "way",
      "id": 134389273,
      "timestamp": "2015-07-23T11:02:28Z",
      "version": 2,
      "changeset": 32822755,
      "user": "escada",
      "uid": 436365,
      "nodes": [
        307853050,
        1477708144,
        1477708153,
        1477708157,
        1477708155,
        1477708151,
        1477708130,
        1477708127,
        1477708119,
        3662879353,
        1477708120,
        3662879348,
        307853043
      ],
      "tags": {
        "highway": "footway",
        "surface": "paving_stones"
      }
    },
    {
      "type": "way",
      "id": 134389277,
      "timestamp": "2011-10-23T11:40:57Z",
      "version": 1,
      "changeset": 9631824,
      "user": "TAA",
      "uid": 69418,
      "nodes": [
        262361553,
        1477708076,
        1477708091,
        1477708114,
        1477708115,
        1477708116
      ],
      "tags": {
        "highway": "footway"
      }
    },
    {
      "type": "way",
      "id": 173163596,
      "timestamp": "2019-11-18T13:47:56Z",
      "version": 4,
      "changeset": 77230278,
      "user": "A127",
      "uid": 9374269,
      "nodes": [
        262210261,
        1839905114,
        1839905123,
        6987264604,
        1839905153
      ],
      "tags": {
        "bicycle": "no",
        "highway": "path",
        "surface": "grass",
        "tracktype": "grade5"
      }
    },
    {
      "type": "way",
      "id": 189059646,
      "timestamp": "2019-09-27T15:50:42Z",
      "version": 4,
      "changeset": 75015863,
      "user": "ratrun",
      "uid": 474183,
      "nodes": [
        3991007819,
        1997043496,
        1997043501,
        1997043505,
        1997043513,
        1997043523,
        1997043531,
        1997043527,
        5223825662,
        1997043533,
        1997043537,
        5223825663,
        1997043542
      ],
      "tags": {
        "highway": "track"
      }
    },
    {
      "type": "way",
      "id": 189059654,
      "timestamp": "2021-11-07T10:20:00Z",
      "version": 3,
      "changeset": 113473575,
      "user": "staf",
      "uid": 377797,
      "nodes": [
        1997043540,
        1997043545,
        1997043539,
        1997043535,
        1997043529,
        1997043525
      ],
      "tags": {
        "highway": "track",
        "surface": "dirt",
        "tracktype": "grade3"
      }
    },
    {
      "type": "way",
      "id": 225088750,
      "timestamp": "2021-05-16T18:16:00Z",
      "version": 2,
      "changeset": 104780162,
      "user": "wegspotter",
      "uid": 428001,
      "nodes": [
        2339126699,
        2339126686,
        2339126677,
        2339126675,
        2339126672
      ],
      "tags": {
        "highway": "footway",
        "surface": "ground",
        "tracktype": "grade4"
      }
    },
    {
      "type": "way",
      "id": 225232264,
      "timestamp": "2013-06-11T11:14:22Z",
      "version": 1,
      "changeset": 16508707,
      "user": "escada",
      "uid": 436365,
      "nodes": [
        2340411856,
        2340411853
      ],
      "tags": {
        "highway": "path",
        "surface": "unpaved"
      }
    },
    {
      "type": "way",
      "id": 225232271,
      "timestamp": "2014-05-15T15:41:24Z",
      "version": 2,
      "changeset": 22354688,
      "user": "escada",
      "uid": 436365,
      "nodes": [
        2340411884,
        2340411879,
        2340411876,
        2340411878,
        2340411884
      ],
      "tags": {
        "boules": "petanque",
        "leisure": "pitch",
        "sport": "boules"
      }
    },
    {
      "type": "way",
      "id": 361781606,
      "timestamp": "2015-07-22T19:00:26Z",
      "version": 1,
      "changeset": 32809808,
      "user": "escada",
      "uid": 436365,
      "nodes": [
        3662134481,
        3662134482,
        3662134483,
        3662134485,
        3662134487,
        3662134493,
        3662134497,
        3662134507,
        3662134509,
        3662134511,
        3662134513,
        3662134512,
        3662134496,
        3662134494,
        3662134495,
        3662134498,
        3662134503,
        3662134506,
        3662134505,
        3662134501
      ],
      "tags": {
        "highway": "track",
        "surface": "dirt",
        "tracktype": "grade5"
      }
    },
    {
      "type": "way",
      "id": 361875616,
      "timestamp": "2015-07-23T11:02:24Z",
      "version": 1,
      "changeset": 32822755,
      "user": "escada",
      "uid": 436365,
      "nodes": [
        307853043,
        3662879339
      ],
      "tags": {
        "highway": "path",
        "surface": "dirt"
      }
    },
    {
      "type": "way",
      "id": 445911373,
      "timestamp": "2017-09-14T15:20:08Z",
      "version": 2,
      "changeset": 52041657,
      "user": "JosV",
      "uid": 170722,
      "nodes": [
        4432587991,
        4414896670,
        5105531983,
        4432587993
      ],
      "tags": {
        "highway": "path",
        "surface": "unpaved"
      }
    },
    {
      "type": "way",
      "id": 445912555,
      "timestamp": "2020-11-19T13:19:40Z",
      "version": 2,
      "changeset": 94439375,
      "user": "Jakka",
      "uid": 2403313,
      "nodes": [
        4432587991,
        4414781890,
        8142472078,
        4414781484,
        4414781488,
        8142472079,
        4414781483,
        4414781487,
        4414781485,
        4414781480,
        8142472080,
        4414781482,
        4414781481,
        4414781486,
        4414781478,
        4414781891
      ],
      "tags": {
        "highway": "path",
        "name": "Leipark",
        "surface": "unpaved"
      }
    },
    {
      "type": "way",
      "id": 539913955,
      "timestamp": "2021-05-16T18:16:00Z",
      "version": 2,
      "changeset": 104780162,
      "user": "wegspotter",
      "uid": 428001,
      "nodes": [
        5223825664,
        5223825665,
        5223825666
      ],
      "tags": {
        "highway": "pedestrian",
        "name": "Noeveren"
      }
    },
    {
      "type": "way",
      "id": 539913956,
      "timestamp": "2017-11-11T21:45:18Z",
      "version": 1,
      "changeset": 53700782,
      "user": "koninklijke",
      "uid": 2029979,
      "nodes": [
        5223825665,
        5223825667
      ],
      "tags": {
        "highway": "footway"
      }
    },
    {
      "type": "way",
      "id": 613050564,
      "timestamp": "2018-08-01T15:06:27Z",
      "version": 1,
      "changeset": 61267019,
      "user": "klauwer",
      "uid": 460284,
      "nodes": [
        5801680894,
        5801680895,
        5801680896,
        5801680897,
        5801680898,
        5801680899,
        5801680894
      ],
      "tags": {
        "access": "private",
        "leisure": "playground",
        "name": "Chiro Ruisbroek",
        "operator": "Chiro Ruisbroek",
        "surface": "grass"
      }
    },
    {
      "type": "way",
      "id": 669341864,
      "timestamp": "2019-02-09T13:55:03Z",
      "version": 1,
      "changeset": 67049740,
      "user": "L'imaginaire",
      "uid": 654234,
      "nodes": [
        6267920635,
        6267920634,
        6267920633,
        6267920632,
        6267920635
      ],
      "tags": {
        "leisure": "pitch",
        "sport": "basketball"
      }
    },
    {
      "type": "way",
      "id": 669342358,
      "timestamp": "2019-02-09T13:56:27Z",
      "version": 1,
      "changeset": 67049771,
      "user": "L'imaginaire",
      "uid": 654234,
      "nodes": [
        6267932881,
        6267932880,
        6267932879,
        6267932878,
        6267932881
      ],
      "tags": {
        "archery": "popinjay",
        "leisure": "pitch",
        "sport": "archery"
      }
    },
    {
      "type": "way",
      "id": 805843129,
      "timestamp": "2020-05-19T03:28:52Z",
      "version": 1,
      "changeset": 85410507,
      "user": "escada",
      "uid": 436365,
      "nodes": [
        1454044395,
        7535731455,
        7535731454,
        7535731453
      ],
      "tags": {
        "footway": "sidewalk",
        "highway": "footway"
      }
    },
    {
      "type": "way",
      "id": 805843130,
      "timestamp": "2020-05-19T03:28:52Z",
      "version": 1,
      "changeset": 85410507,
      "user": "escada",
      "uid": 436365,
      "nodes": [
        7535731458,
        7535731457
      ],
      "tags": {
        "highway": "footway"
      }
    },
    {
      "type": "way",
      "id": 805843131,
      "timestamp": "2020-05-19T03:28:52Z",
      "version": 1,
      "changeset": 85410507,
      "user": "escada",
      "uid": 436365,
      "nodes": [
        7535731462,
        7535731460,
        7535731459
      ],
      "tags": {
        "footway": "sidewalk",
        "highway": "footway"
      }
    },
    {
      "type": "way",
      "id": 805843132,
      "timestamp": "2020-05-19T03:28:52Z",
      "version": 1,
      "changeset": 85410507,
      "user": "escada",
      "uid": 436365,
      "nodes": [
        7535731475,
        7535731463,
        7535731462,
        7535731458,
        7535731461,
        262362348
      ],
      "tags": {
        "footway": "sidewalk",
        "highway": "footway"
      }
    },
    {
      "type": "way",
      "id": 874691287,
      "timestamp": "2020-11-19T13:19:40Z",
      "version": 1,
      "changeset": 94439375,
      "user": "Jakka",
      "uid": 2403313,
      "nodes": [
        8142472038,
        8142472035,
        8142472036,
        8142472034,
        8142472037,
        8142472038
      ],
      "tags": {
        "leisure": "park"
      }
    },
    {
      "type": "way",
      "id": 874691288,
      "timestamp": "2020-11-19T13:19:40Z",
      "version": 1,
      "changeset": 94439375,
      "user": "Jakka",
      "uid": 2403313,
      "nodes": [
        4414781483,
        8142472041,
        8142472040,
        8142472039,
        8142472046
      ],
      "tags": {
        "highway": "path",
        "name": "Leipark"
      }
    },
    {
      "type": "way",
      "id": 874691289,
      "timestamp": "2020-11-19T13:19:40Z",
      "version": 1,
      "changeset": 94439375,
      "user": "Jakka",
      "uid": 2403313,
      "nodes": [
        4414781485,
        8142472075,
        8142472074,
        8142472073,
        8142472072,
        8142472071,
        8142472070,
        8142472069,
        8142472068,
        8142472067,
        8142472066,
        8142472065,
        8142472064,
        8142472063,
        8142472062,
        8142472061,
        8142472060,
        8142472059,
        8142472058,
        8142472057,
        8142472056,
        8142472055,
        8142472054,
        8142472053,
        8142472052,
        8142472051,
        8142472050,
        8142472049,
        8142472048,
        8142472047,
        8142472046,
        8142472045,
        8142472044,
        8142472043,
        8142472042,
        4414781488
      ],
      "tags": {
        "highway": "path",
        "name": "Leipark"
      }
    },
    {
      "type": "way",
      "id": 943598645,
      "timestamp": "2021-05-16T18:16:00Z",
      "version": 1,
      "changeset": 104780162,
      "user": "wegspotter",
      "uid": 428001,
      "nodes": [
        1251632583,
        2339126699
      ],
      "tags": {
        "highway": "pedestrian",
        "name": "Noeveren",
        "surface": "ground",
        "tracktype": "grade4"
      }
    },
    {
      "type": "way",
      "id": 943627350,
      "timestamp": "2021-05-16T20:20:23Z",
      "version": 1,
      "changeset": 104784111,
      "user": "wegspotter",
      "uid": 428001,
      "nodes": [
        8737046430,
        8737046429,
        8737046428,
        8737046427,
        8737046426,
        8737046425,
        8737046424,
        8737046423
      ],
      "tags": {
        "highway": "path"
      }
    },
    {
      "type": "way",
      "id": 943627351,
      "timestamp": "2021-05-16T20:20:23Z",
      "version": 1,
      "changeset": 104784111,
      "user": "wegspotter",
      "uid": 428001,
      "nodes": [
        262362839,
        8737046431,
        8737046433
      ],
      "tags": {
        "highway": "path"
      }
    },
    {
      "type": "way",
      "id": 943627352,
      "timestamp": "2021-05-16T20:20:23Z",
      "version": 1,
      "changeset": 104784111,
      "user": "wegspotter",
      "uid": 428001,
      "nodes": [
        8737046432,
        1454044392
      ],
      "tags": {
        "highway": "path"
      }
    },
    {
      "type": "way",
      "id": 943627353,
      "timestamp": "2021-05-16T20:20:23Z",
      "version": 1,
      "changeset": 104784111,
      "user": "wegspotter",
      "uid": 428001,
      "nodes": [
        262362344,
        8737046444,
        8737046443,
        8737046442,
        8737046441,
        8737046440,
        8737046439,
        8737046438,
        8737046437,
        8737046436,
        8737046435,
        8737046434,
        8737046433
      ],
      "tags": {
        "highway": "path"
      }
    },
    {
      "type": "area",
      "id": 3600052411,
      "tags": {
        "ISO3166-1": "BE",
        "ISO3166-1:alpha2": "BE",
        "ISO3166-1:alpha3": "BEL",
        "ISO3166-1:numeric": "056",
        "TMC:cid_58:tabcd_1:Class": "Area",
        "TMC:cid_58:tabcd_1:LCLversion": "8.00",
        "TMC:cid_58:tabcd_1:LocationCode": "3",
        "admin_level": "2",
        "alt_name:ay": "Bilgasuyu",
        "alt_name:bar": "Bejgien",
        "alt_name:ckb": "بلژیک",
        "alt_name:eo": "Belgujo",
        "alt_name:frp": "Bèlg·ica",
        "alt_name:fur": "Belgjiche;Belgje",
        "alt_name:fy": "België;it Belzelân",
        "alt_name:kbd": "Белгэ",
        "alt_name:ksh": "Belgien",
        "alt_name:ku": "Belcîka",
        "alt_name:la": "Belgium",
        "alt_name:li": "Belzjiek",
        "alt_name:mzn": "بلجیک",
        "alt_name:qu": "Bilgasuyu",
        "alt_name:rw": "Ububirigi",
        "alt_name:so": "Belgium",
        "alt_name:war": "Bélgica",
        "boundary": "administrative",
        "currency": "EUR",
        "flag": "http://upload.wikimedia.org/wikipedia/commons/6/65/Flag_of_Belgium.svg",
        "int_name": "Belgium",
        "name": "België / Belgique / Belgien",
        "name:ace": "Bèlgia",
        "name:ady": "Белгие",
        "name:af": "België",
        "name:ak": "Belgium",
        "name:als": "Belgie",
        "name:am": "ቤልጅግ",
        "name:an": "Belchica",
        "name:ang": "Belgice",
        "name:ar": "بلجيكا",
        "name:arc": "ܒܠܓܝܩܐ",
        "name:arz": "بلجيكا",
        "name:ast": "Bélxica",
        "name:av": "Бе́льгия",
        "name:ay": "Bilkiya",
        "name:az": "Belçika",
        "name:azb": "بلژیک",
        "name:ba": "Бе́льгия",
        "name:bar": "Bäigien",
        "name:bat-smg": "Belgėjė",
        "name:bcl": "Belhika",
        "name:be": "Бeльгія",
        "name:be-tarask": "Бэ́льгія",
        "name:bg": "Белгия",
        "name:bh": "बेल्जियम",
        "name:bi": "Beljiom",
        "name:bm": "Bɛliziki",
        "name:bn": "বেলজিয়াম",
        "name:bo": "པེར་ཅིན།",
        "name:bpy": "বেলজিয়াম",
        "name:br": "Belgia",
        "name:bs": "Belgija",
        "name:bug": "Belgia",
        "name:bxr": "Бельги",
        "name:ca": "Bèlgica",
        "name:cbk-zam": "Bélgica",
        "name:cdo": "Bī-lé-sì",
        "name:ce": "Бельги",
        "name:ceb": "Belhika",
        "name:chr": "ᏇᎵᏥᎥᎻ",
        "name:ckb": "بەلجیکا",
        "name:co": "Belgica",
        "name:crh": "Belçika",
        "name:cs": "Belgie",
        "name:csb": "Belgijskô",
        "name:cu": "Бє́лгїѥ",
        "name:cv": "Бельги",
        "name:cy": "Gwlad Belg",
        "name:da": "Belgien",
        "name:de": "Belgien",
        "name:din": "Beljiem",
        "name:diq": "Belçıka",
        "name:dsb": "Belgiska",
        "name:dty": "बेल्जियम",
        "name:dv": "ބެލްޖިއަމް",
        "name:dz": "བེལ་ཇིཡམ",
        "name:ee": "Belgium",
        "name:el": "Βέλγιο",
        "name:eml": "Bélgi",
        "name:en": "Belgium",
        "name:eo": "Belgio",
        "name:es": "Bélgica",
        "name:et": "Belgia",
        "name:eu": "Belgika",
        "name:ext": "Bélgica",
        "name:fa": "بلژیک",
        "name:ff": "Beljik",
        "name:fi": "Belgia",
        "name:fiu-vro": "Belgiä",
        "name:fo": "Belgia",
        "name:fr": "Belgique",
        "name:frp": "Bèlg·ique",
        "name:frr": "Bälgien",
        "name:fur": "Belgjo",
        "name:fy": "Belgje",
        "name:ga": "an Bheilg",
        "name:gag": "Belgiya",
        "name:gd": "a' Bheilg",
        "name:gl": "Bélxica",
        "name:gn": "Véyhika",
        "name:gom": "बेल्जियम",
        "name:gu": "બેલ્જિયમ",
        "name:gv": "Velg",
        "name:ha": "Beljik",
        "name:hak": "Pí-li-sṳ̀",
        "name:haw": "Pelekiuma",
        "name:he": "בֶּלְגְיָה",
        "name:hi": "बेल्जियम",
        "name:hif": "Belgium",
        "name:hr": "Belgija",
        "name:hsb": "Belgiska",
        "name:ht": "Bèljik",
        "name:hu": "Belgium",
        "name:hy": "Բելգիա",
        "name:ia": "Belgica",
        "name:id": "Belgia",
        "name:ie": "Belgia",
        "name:ig": "Belgium",
        "name:ilo": "Belhika",
        "name:io": "Belgia",
        "name:is": "Belgía",
        "name:it": "Belgio",
        "name:ja": "ベルギー",
        "name:jam": "Beljiom",
        "name:jbo": "beldjym",
        "name:jv": "Bèlgia",
        "name:ka": "ბელგია",
        "name:kaa": "Belgiya",
        "name:kab": "Biljik",
        "name:kbd": "Белгиэ",
        "name:kbp": "Pɛliziki",
        "name:kg": "Belezi",
        "name:ki": "Ubelgiji",
        "name:kk": "Бельгия",
        "name:kl": "Belgia",
        "name:km": "បែលហ្ស៉ិក",
        "name:kn": "ಬೆಲ್ಜಿಯಂ",
        "name:ko": "벨기에",
        "name:koi": "Белгия",
        "name:krc": "Бельгия",
        "name:ks": "बेल्जियम",
        "name:ksh": "Beljie",
        "name:ku": "Belçîka",
        "name:kv": "Бельгия",
        "name:kw": "Pow Belg",
        "name:ky": "Бельгия",
        "name:la": "Belgica",
        "name:lad": "Beljika",
        "name:lb": "Belsch",
        "name:lez": "Бельгия",
        "name:lg": "Bubirigi",
        "name:li": "Belsj",
        "name:lij": "Belgiò",
        "name:lmo": "Belgi",
        "name:ln": "Bɛ́ljika",
        "name:lo": "ປະເທດແບນຊິກ",
        "name:lrc": "بلجیک",
        "name:lt": "Belgija",
        "name:ltg": "Beļgeja",
        "name:lv": "Beļģija",
        "name:lzh": "比利時",
        "name:mai": "बेल्जियम",
        "name:mdf": "Бельгие",
        "name:mg": "Belzika",
        "name:mhr": "Бельгий",
        "name:mi": "Pehiamu",
        "name:mk": "Белгија",
        "name:ml": "ബെൽജിയം",
        "name:mn": "Бельги",
        "name:mr": "बेल्जियम",
        "name:ms": "Belgium",
        "name:mt": "Belġju",
        "name:mwl": "Bélgica",
        "name:my": "ဘယ်လ်ဂျီယမ်နိုင်ငံ",
        "name:myv": "Бельгия",
        "name:mzn": "بلژیک",
        "name:na": "Berdjiyum",
        "name:nah": "Belgica",
        "name:nan": "Pe̍k-ní-gī",
        "name:nap": "Belge",
        "name:nb": "Belgia",
        "name:nds": "Belgien",
        "name:nds-nl": "België",
        "name:ne": "बेल्जियम",
        "name:new": "बेल्जियम",
        "name:nl": "België",
        "name:nn": "Belgia",
        "name:no": "Belgia",
        "name:nov": "Belgia",
        "name:nrm": "Belgique",
        "name:nso": "Belgium",
        "name:oc": "Belgica",
        "name:olo": "Bel’gii",
        "name:om": "Beeljiyeem",
        "name:or": "ବେଲଜିଅମ",
        "name:os": "Бельги",
        "name:pa": "ਬੈਲਜੀਅਮ",
        "name:pag": "Belhika",
        "name:pam": "Belgika",
        "name:pap": "Bélgika",
        "name:pcd": "Bergike",
        "name:pdc": "Belgien",
        "name:pfl": "Belgje",
        "name:pi": "बेल्जियम",
        "name:pih": "Beljum",
        "name:pl": "Belgia",
        "name:pms": "Belgi",
        "name:pnb": "بیلجیم",
        "name:pnt": "Βέλγιον",
        "name:ps": "بلجیم",
        "name:pt": "Bélgica",
        "name:qu": "Bilhika",
        "name:rm": "Belgia",
        "name:rmy": "Beljiya",
        "name:rn": "Ububirigi",
        "name:ro": "Belgia",
        "name:roa-rup": "Belghia",
        "name:roa-tara": "Bèlge",
        "name:ru": "Бельгия",
        "name:rue": "Белґія",
        "name:rw": "Ububiligi",
        "name:sa": "बेल्जियम",
        "name:sah": "Бельгия",
        "name:sc": "Bèlgiu",
        "name:scn": "Belgiu",
        "name:sco": "Belgium",
        "name:sd": "بيلجيم",
        "name:se": "Belgia",
        "name:sg": "Bêleze",
        "name:sh": "Belgija",
        "name:si": "බෙල්ජියම්",
        "name:sk": "Belgicko",
        "name:sl": "Bélgija",
        "name:sm": "Peleseuma",
        "name:smn": "Belgia",
        "name:sms": "Belgia",
        "name:sn": "Belgium",
        "name:so": "Beljim",
        "name:sq": "Belgjika",
        "name:sr": "Белгија",
        "name:srn": "Belgikondre",
        "name:ss": "iBhelijiyamu",
        "name:stq": "Belgien",
        "name:su": "Bélgia",
        "name:sv": "Belgien",
        "name:sw": "Ubelgiji",
        "name:szl": "Belgijo",
        "name:ta": "பெல்ஜியம்",
        "name:te": "బెల్జియం",
        "name:tet": "Béljika",
        "name:tg": "Белгия",
        "name:th": "เบลเยียม",
        "name:ti": "ቤልጄም",
        "name:tk": "Belgiýa",
        "name:tl": "Belhika",
        "name:to": "Pelesiume",
        "name:tok": "ma Pesije",
        "name:tpi": "Beljiam",
        "name:tr": "Belçika",
        "name:ts": "Belgium",
        "name:tt": "Бе́льгия",
        "name:tum": "Belgium",
        "name:tw": "Belgium",
        "name:tzl": "Belxhíc",
        "name:udm": "Бельгия",
        "name:ug": "بېلگىيە",
        "name:uk": "Бе́льгія",
        "name:ur": "بلجئیم",
        "name:uz": "Belgiya",
        "name:vec": "Belgio",
        "name:vep": "Bel'gii",
        "name:vi": "Bỉ",
        "name:vls": "België",
        "name:vo": "Belgän",
        "name:wa": "Beldjike",
        "name:war": "Belhika",
        "name:wo": "Belsik",
        "name:wuu": "比利时",
        "name:xal": "Бельҗмудин Нутг",
        "name:xmf": "ბელგია",
        "name:yi": "בעלגיע",
        "name:yo": "Bẹ́ljíọ̀m",
        "name:yue": "比利時",
        "name:zea": "Belhië",
        "name:zh": "比利时 / 比利時",
        "name:zh-Hans": "比利时",
        "name:zh-Hant": "比利時",
        "name:zh_pinyin": "Bǐlìshí",
        "name:zu": "i-Belgium",
        "official_name": "Koninkrijk België / Royaume de Belgique / Königreich Belgien",
        "official_name:af": "Koninkryk van België",
        "official_name:als": "Königriich Belgie",
        "official_name:am": "የቤልጅግ መንግሥት",
        "official_name:an": "Reino de Belchica",
        "official_name:ang": "Belgice Cynerīce",
        "official_name:ar": "مملكة بلجيكا",
        "official_name:arc": "ܡܠܟܘܬܐ ܕܒܠܓܝܩܐ",
        "official_name:ast": "Reinu de Bélxica",
        "official_name:av": "Ханлъи Бе́льгия",
        "official_name:ay": "Bilhika Qhapaqsuyu",
        "official_name:az": "Belçika Krallığı",
        "official_name:azb": "بلژیک کراللیغی",
        "official_name:ba": "Бельгия Короллеге",
        "official_name:bar": "Kinigraich Bäigien",
        "official_name:bat-smg": "Belgėjės Karalīstė",
        "official_name:be": "Каралеўства Бельгія",
        "official_name:be-tarask": "Каралеўства Бельгія",
        "official_name:bg": "Кралство Белгия",
        "official_name:bm": "Bɛliziki Mansamara",
        "official_name:bn": "রাজতন্ত্রী বেলজিয়াম",
        "official_name:bo": "Kraljevina Belgija",
        "official_name:bpy": "রাজতান্ত্রিক বেলজিয়াম",
        "official_name:br": "Rouantelezh Belgia",
        "official_name:bs": "Kraljevina Belgija",
        "official_name:ca": "Regne de Bèlgica",
        "official_name:ce": "Монархи Бельги",
        "official_name:chr": "ᎤᎬᏫᏳᎯ ᎨᏒ ᎾᎿ ᎠᏲᎳᏂ",
        "official_name:co": "Regnu di Belgica",
        "official_name:crh": "Belçika Qırallığı",
        "official_name:cs": "Belgické království",
        "official_name:cu": "Кралѥ́вьство Бє́лгїѥ",
        "official_name:cy": "Teyrnas Gwlad Belg",
        "official_name:da": "Kongeriget Belgien",
        "official_name:de": "Königreich Belgien",
        "official_name:din": "Mäcŋaknhom ke Beljiem",
        "official_name:dsb": "Kralojstwo Belgiskej",
        "official_name:el": "Βασίλειο του Βελγίου",
        "official_name:eml": "Regno dal Bèlgi",
        "official_name:en": "Kingdom of Belgium",
        "official_name:eo": "Reĝlando Belgio",
        "official_name:es": "Reino de Bélgica",
        "official_name:et": "Belgia Kuningriik",
        "official_name:eu": "Belgikako Erresuma",
        "official_name:fa": "پادشاهی بلژیک",
        "official_name:fi": "Belgian kuningaskunta",
        "official_name:fiu-vro": "Belgiä Kuningriik",
        "official_name:fr": "Royaume de Belgique",
        "official_name:frp": "Royômo de Bèlg·ique",
        "official_name:frr": "Könangrik Belgien",
        "official_name:ga": "Ríocht na Beilge",
        "official_name:gd": "Rìoghachd na Beilge",
        "official_name:gl": "Reino de Bélxica",
        "official_name:gn": "Tetã Véyhika",
        "official_name:gv": "Reeriaght ny Belg",
        "official_name:he": "ממלכת בלגיה",
        "official_name:hi": "किंगडम ऑफ़ बेल्जियम",
        "official_name:hr": "Kraljevina Belgija",
        "official_name:hsb": "Belgiske kralestwo",
        "official_name:hu": "Belga Királyság",
        "official_name:hy": "Բելգիայի Թագավորություն",
        "official_name:ia": "Regno de Belgica",
        "official_name:id": "Kerajaan Belgia",
        "official_name:ig": "Obodoézè nke Belgium",
        "official_name:ilo": "Pagarian ti Belhika",
        "official_name:io": "Rejio di Belgia",
        "official_name:is": "Konungsríkið Belgía",
        "official_name:it": "Regno del Belgio",
        "official_name:ja": "ベルギー王国",
        "official_name:jam": "Kindom a Beljiom",
        "official_name:ka": "ბელგიის სამეფო",
        "official_name:kab": "Tigelda n Biljik",
        "official_name:kbd": "Белгэ Пэщтыхьей",
        "official_name:kg": "Nsi ya ntotila ya Belezi",
        "official_name:kk": "Бельгия Корольдігі",
        "official_name:kl": "Kunngeqarfik Belgia",
        "official_name:kn": "ಬೆಲ್ಜಿಯಂ ಸಂಸ್ಥಾನ",
        "official_name:ko": "벨기에 왕국",
        "official_name:koi": "Короля Белгия",
        "official_name:krc": "Бельгия Королевство",
        "official_name:ku": "Keyaniya Belçîkayê",
        "official_name:kv": "Бельгия Корольув",
        "official_name:kw": "Ruwvaneth Belgek",
        "official_name:ky": "Бельгия Королдугу",
        "official_name:la": "Regnum Belgicum",
        "official_name:lad": "Reyno de Beljika",
        "official_name:lb": "Kinnekräich Belsch",
        "official_name:lg": "Obwakabaka bwa Bubirigi",
        "official_name:li": "Keuninkriek Belsj",
        "official_name:lij": "Regno do Belgio",
        "official_name:lmo": "Regn del Belgi",
        "official_name:ln": "Mani ya Bɛ́ljika",
        "official_name:lo": "ລາຊະອານາຈັກແບນຊິກ",
        "official_name:lt": "Belgijos Karalystė",
        "official_name:lv": "Beļģijas Karaliste",
        "official_name:lzh": "比利時王國",
        "official_name:mdf": "Бельгие Оцязорксшись",
        "official_name:mk": "Кралство Белгија",
        "official_name:mn": "Бельгийн Вант Улс",
        "official_name:mr": "बेल्जियमचे राजतंत्र",
        "official_name:ms": "Kerajaan Belgium",
        "official_name:mt": "Renju tal-Belġju",
        "official_name:my": "ကင်းဒမ်းအော့ဖ် ဘယ်လ်ဂျီယမ်",
        "official_name:myv": "Бельгия Масторось",
        "official_name:nah": "Huēyitlahtohcāyōtl Belgica",
        "official_name:nan": "Pe̍k-ní-gī-kok",
        "official_name:nds": "Königriek vun Belgien",
        "official_name:nds-nl": "Koninkriek België",
        "official_name:new": "बेल्जियम राजतन्त्र",
        "official_name:nl": "Koninkrijk België",
        "official_name:nn": "Kongeriket Belgia",
        "official_name:no": "Kongeriket Belgia",
        "official_name:oc": "Reialme de Belgica",
        "official_name:olo": "Bel’gien kuningaskundu",
        "official_name:os": "Бельгийы Къаролад",
        "official_name:pa": "ਬੈਲਜੀਅਮ ਦੀ ਰਾਜਸ਼ਾਹੀ",
        "official_name:pam": "Ka-ariyan ning Belgika",
        "official_name:pap": "Reino Bélgika",
        "official_name:pcd": "Roéyôme d’ Bergike",
        "official_name:pfl": "Royaume de Belgique",
        "official_name:pl": "Królestwo Belgii",
        "official_name:pnt": "Βασίλειον τη Βελγί",
        "official_name:ps": "د بلجیم بادشاهي",
        "official_name:pt": "Reino da Bélgica",
        "official_name:qu": "Bilhika Qhapaqsuyu",
        "official_name:rm": "Reginavel da la Belgia",
        "official_name:rmy": "Thangaripen Beljiyako",
        "official_name:rn": "Irepuburika y’Ububirigi",
        "official_name:ro": "Regatul Belgiei",
        "official_name:roa-tara": "Regne d'u Bèlgie",
        "official_name:ru": "Королевство Бельгия",
        "official_name:rue": "Белґіцьке кралёвство",
        "official_name:rw": "Igihugu cy’Ububirigi",
        "official_name:sah": "Бельгия Хоруоллуга",
        "official_name:sc": "Rennu de Bèlgiu",
        "official_name:sco": "Kinrick o Belgium",
        "official_name:sd": "بيلجيم جي شهنشاهيت",
        "official_name:se": "Belgia gonagasriika",
        "official_name:sg": "Ködörö-gbïä tî Bêleze",
        "official_name:sh": "Kraljevina Belgija",
        "official_name:sk": "Belgické kráľovstvo",
        "official_name:sl": "Kraljevína Bélgija",
        "official_name:sm": "Malo o Peleseuma",
        "official_name:sq": "Mbretëria e Belgjikës",
        "official_name:sr": "Краљевина Белгија",
        "official_name:su": "Karajaan Bélgia",
        "official_name:sv": "Konungariket Belgien",
        "official_name:sw": "Ufalme wa Ubelgiji",
        "official_name:szl": "Krůlestwo Belgije",
        "official_name:ta": "பெல்ஜியம் இராச்சியம்",
        "official_name:te": "బెల్జియం రాజ్యం",
        "official_name:tet": "Reinu Béljika nian",
        "official_name:tg": "Шоҳигарии Бeлгия",
        "official_name:th": "ราชอาณาจักรเบลเยียม",
        "official_name:tk": "Belgiýa korollygy",
        "official_name:tl": "Kaharian ng Belhika",
        "official_name:tr": "Belçika Krallığı",
        "official_name:tt": "Бе́льгия Корольлеге́",
        "official_name:udm": "Королевство Бельгия",
        "official_name:ug": "بېلگىيە پادىشاھلىقى",
        "official_name:uk": "Королі́вство Бе́льгія",
        "official_name:ur": "مملکت بلجئیم",
        "official_name:uz": "Belgiya Qirolligi",
        "official_name:vec": "Regno del Belgio",
        "official_name:vep": "Bel'gijan Kunigahuz",
        "official_name:vi": "Vương quốc Bỉ",
        "official_name:vls": "Keunienkryk België",
        "official_name:vo": "Regän Belgäna",
        "official_name:wa": "Royåme di Beldjike",
        "official_name:war": "Ginhadi-an han Belhika",
        "official_name:wo": "Ruwaayom bu Beljik",
        "official_name:xal": "Бельҗмудин Орн Нутг",
        "official_name:xmf": "ბელგიაშ ომაფე",
        "official_name:yi": "קעניגרייך פון בעלגיע",
        "official_name:yo": "Ilẹ̀ọba Bẹ́ljíọ̀m",
        "official_name:yue": "比利時王國",
        "official_name:zea": "Konienkriek België",
        "official_name:zh": "比利时王国 / 比利時王國",
        "official_name:zh-Hans": "比利时王国",
        "official_name:zh-Hant": "比利時王國",
        "timezone": "Europe/Brussels",
        "type": "boundary",
        "wikidata": "Q31",
        "wikipedia": "nl:België"
      }
    },
    {
      "type": "area",
      "id": 3600053114,
      "tags": {
        "ISO3166-2": "BE-VAN",
        "admin_level": "6",
        "alt_name:ar": "أنتفيرب",
        "alt_name:es": "Antuerpia",
        "alt_name:mk": "Антверп",
        "border_type": "province",
        "boundary": "administrative",
        "capital": "6",
        "name": "Antwerpen",
        "name:ar": "أنتويرب",
        "name:ca": "Anvers",
        "name:cs": "Antverpy",
        "name:de": "Antwerpen",
        "name:el": "Αμβέρσα",
        "name:en": "Antwerp",
        "name:eo": "Antverpeno",
        "name:es": "Amberes",
        "name:fi": "Antwerpen",
        "name:fr": "Anvers",
        "name:he": "אנטוורפן",
        "name:hr": "Antwerpen",
        "name:hu": "Antwerpen",
        "name:hy": "Անտվերպեն",
        "name:it": "Anversa",
        "name:ja": "アントワープ",
        "name:ka": "ანტვერპენი",
        "name:kn": "ಆಂಟ್ವೆರ್ಪ್",
        "name:la": "Antverpia",
        "name:lt": "Antverpenas",
        "name:lv": "Antverpene",
        "name:mk": "Антверпен",
        "name:nds": "Antwarp",
        "name:nds-nl": "Antwaarp",
        "name:nl": "Antwerpen",
        "name:pcd": "Anvérse",
        "name:pl": "Antwerpia",
        "name:pt": "Antuérpia",
        "name:ru": "Антверпен",
        "name:sk": "Antverpy",
        "name:sr": "Антверпен",
        "name:tzl": "Anviarça",
        "name:uk": "Антверпен",
        "name:vls": "Antwerpn",
        "name:wa": "Anverse",
        "name:zh": "安特卫普",
        "official_name": "Provincie Antwerpen",
        "official_name:ar": "مقاطعة أنتويرب",
        "official_name:nl": "Provincie Antwerpen",
        "old_name:de": "Antorf",
        "population": "1802719",
        "population:date": "2014-01-01",
        "ref:INS": "10000",
        "ref:nuts": "BE21",
        "ref:nuts:2": "BE21",
        "source:population": "wiki/ADSEI",
        "type": "boundary",
        "website": "https://www.provincieantwerpen.be/",
        "wikidata": "Q1116",
        "wikipedia": "nl:Antwerpen (provincie)"
      }
    },
    {
      "type": "area",
      "id": 3600053134,
      "tags": {
        "ISO3166-2": "BE-VLG",
        "admin_level": "4",
        "border_type": "state",
        "boundary": "administrative",
        "default_language": "nl",
        "name": "Vlaanderen",
        "name:ar": "فلاندر",
        "name:br": "Flandrez",
        "name:ca": "Flandes",
        "name:de": "Flandern",
        "name:el": "Φλάνδρα",
        "name:en": "Flanders",
        "name:eo": "Flandrio",
        "name:es": "Flandes",
        "name:et": "Flandria",
        "name:fi": "Flanderi",
        "name:fr": "Flandre",
        "name:fy": "Flaanderen",
        "name:hu": "Flandria",
        "name:ja": "フランデレン地域",
        "name:ka": "ფლანდრია",
        "name:ko": "플라망 지역",
        "name:lb": "Flandern",
        "name:li": "Vlaondere",
        "name:lt": "Flandrija",
        "name:nl": "Vlaanderen",
        "name:pcd": "Flande",
        "name:pt": "Flandres",
        "name:ru": "Фландрия",
        "name:sk": "Flámsko",
        "name:th": "เขตฟลามส์",
        "name:tzl": "Flemphäts",
        "name:vls": "Vloandern",
        "name:wa": "Flande",
        "name:zh": "弗拉芒大區",
        "name:zh-Hans": "弗拉芒大区",
        "name:zh-Hant": "弗拉芒大區",
        "nat_name": "Vlaams Gewest",
        "nat_name:ar": "الإقليم الفلامندي",
        "nat_name:be": "Фламандскі рэгіён",
        "nat_name:bg": "Фламандски регион",
        "nat_name:ca": "Regió flamenca",
        "nat_name:de": "Flämische Region",
        "nat_name:el": "Φλαμανδική Περιοχή",
        "nat_name:en": "Flemish Region",
        "nat_name:eo": "Flandra Regiono",
        "nat_name:fr": "Région flamande",
        "nat_name:fy": "Flaamsk Gewest",
        "nat_name:lb": "Flämesch Regioun",
        "nat_name:li": "Vlaondere Gewes",
        "nat_name:mk": "Фламански регион",
        "nat_name:nl": "Vlaams Gewest",
        "nat_name:os": "Фламандийы регион",
        "nat_name:pcd": "Région flaminke",
        "nat_name:pl": "Region Flamandzki",
        "nat_name:ru": "Фламандский регион",
        "nat_name:sk": "Flámsky región",
        "nat_name:tr": "Flaman Bölgesi",
        "nat_name:vls": "Vlams Gewest",
        "nat_name:wa": "Redjon flaminde",
        "ref:INS": "02000",
        "ref:nuts:1": "BE2",
        "source:name:br": "ofis publik ar brezhoneg",
        "type": "boundary",
        "website": "https://www.vlaanderen.be/",
        "wikidata": "Q9337",
        "wikipedia": "nl:Vlaams Gewest"
      }
    },
    {
      "type": "area",
      "id": 3600053136,
      "tags": {
        "boundary": "political",
        "default_language": "nl",
        "euro_const": "BE",
        "name": "Vlaamse Gemeenschap - Communauté flamande",
        "name:ar": "المجتمع الفلامندي",
        "name:ca": "Comunitat flamenca",
        "name:de": "Flämische Gemeinschaft",
        "name:en": "Flemish Community",
        "name:fr": "Communauté flamande",
        "name:fy": "Frânske Mienskip",
        "name:hu": "Flamand közösség",
        "name:lt": "Flamandų bendruomenė",
        "name:nl": "Vlaamse Gemeenschap",
        "name:sk": "Flámske spoločenstvo",
        "political_division": "linguistic_community",
        "type": "boundary",
        "wikidata": "Q9331",
        "wikipedia": "nl:Vlaamse Gemeenschap"
      }
    },
    {
      "type": "area",
      "id": 3600391117,
      "tags": {
        "admin_level": "8",
        "boundary": "administrative",
        "loc_name": "Puus-Sintamans",
        "name": "Puurs-Sint-Amands",
        "name:fr": "Puers-Saint-Amand",
        "name:nl": "Puurs-Sint-Amands",
        "ref:INS": "12041",
        "type": "boundary",
        "wikidata": "Q45202943",
        "wikipedia": "nl:Puurs-Sint-Amands"
      }
    },
    {
      "type": "area",
      "id": 3600937244,
      "tags": {
        "ISO3166-1": "BE",
        "admin_level": "2",
        "flag": "http://upload.wikimedia.org/wikipedia/commons/6/65/Flag_of_Belgium.svg",
        "land_area": "administrative",
        "name": "België / Belgique / Belgien (land mass)",
        "name:ar": "بلجيكا (كتلة اليابسة)",
        "name:ca": "Bèlgica (terra)",
        "name:de": "Belgien (Landmasse)",
        "name:en": "Belgium (land mass)",
        "name:fr": "Belgique (terres)",
        "name:lt": "Belgija (žemė)",
        "name:nl": "België (land)",
        "type": "land_area"
      }
    },
    {
      "type": "area",
      "id": 3602524403,
      "tags": {
        "admin_level": "7",
        "alt_name:la": "Mechlinia",
        "boundary": "administrative",
        "name": "Mechelen",
        "name:de": "Mecheln",
        "name:fr": "Malines",
        "name:la": "Maclinia",
        "name:nl": "Mechelen",
        "name:ru": "Мехелен",
        "name:vls": "Mecheln",
        "official_name": "Arrondissement Mechelen",
        "official_name:nl": "Arrondissement Mechelen",
        "old_name:en": "Mechlin",
        "ref:INS": "12000",
        "ref:nuts": "BE212",
        "ref:nuts:3": "BE212",
        "type": "boundary",
        "wikidata": "Q90905",
        "wikipedia": "nl:Arrondissement Mechelen"
      }
    },
    {
      "type": "area",
      "id": 3603363546,
      "tags": {
        "boundary": "postal_code",
        "note": "2870 Puurs",
        "postal_code": "2870",
        "type": "boundary"
      }
    },
    {
      "type": "area",
      "id": 3603896698,
      "tags": {
        "admin_level": "9",
        "boundary": "administrative",
        "loc_name": "Roasbroek",
        "name": "Ruisbroek",
        "name:fr": "Ruysbroeck",
        "name:nl": "Ruisbroek",
        "old_ref:INS": "12032",
        "ref:INS": "12030B",
        "type": "boundary",
        "wikidata": "Q2802222",
        "wikipedia": "nl:Ruisbroek (Antwerpen)"
      }
    },
    {
      "type": "area",
      "id": 3612728392,
      "tags": {
        "boundary": "administrative_cooperation",
        "name": "Benelux",
        "note": "Caribbean Netherlands (BES islands) joined the Benelux per the 2012-01-01 revision of the Benelux Treaty.",
        "official_name": "Benelux Unie / Union Benelux",
        "official_name:-2012-01-01": "Benelux Economische Unie / Union économique Benelux",
        "official_name:de": "Benelux-Union",
        "official_name:de:-2012-01-01": "Benelux-Wirtschaftsunion",
        "official_name:en": "Benelux Union",
        "official_name:en:-2012-01-01": "Benelux Economic Union",
        "official_name:fr": "Union Benelux",
        "official_name:fr:-2012-01-01": "Union économique Benelux",
        "official_name:lb": "Benelux-Unioun",
        "official_name:nl": "Benelux Unie",
        "official_name:nl:-2012-01-01": "Benelux Economische Unie",
        "source": "https://www.parlementairemonitor.nl/9353000/1/j9vvij5epmj1ey0/vhy97r97ikz8",
        "type": "boundary",
        "website": "https://benelux.int/",
        "wikidata": "Q13116",
        "wikipedia": "nl:Benelux"
      }
    },
    {
      "type": "area",
      "id": 3613325281,
      "tags": {
        "boundary": "administrative_cooperation",
        "description:en": "Treaty organisation of the Netherlands and the Flemish Community. Has an association agreement with Suriname and collaborates with other countries within the Kingdom of the Netherlands.",
        "description:nl": "Verdragsorganisatie van Nederland en de Vlaamse Gemeenschap. Heeft een associatieovereenkomst met Suriname en werkt samen met andere landen binnen het Koninkrijk der Nederlanden.",
        "name": "Nederlandse Taalunie",
        "name:en": "Dutch Language Union",
        "name:fr": "Union linguistique néerlandaise",
        "name:nl": "Nederlandse Taalunie",
        "short_name": "Taalunie",
        "short_name:en": "Language Union",
        "short_name:fr": "Union linguistique",
        "short_name:nl": "Taalunie",
        "source": "https://taalunie.org/informatie/36/verdragen-overeenkomsten-en-regelingen",
        "type": "boundary",
        "website": "https://taalunie.org/",
        "wikidata": "Q152299",
        "wikipedia": "nl:Nederlandse Taalunie"
      }
    },
    {
      "type": "node",
      "id": 3662134501,
      "lat": 51.0948491,
      "lon": 4.318434
    },
    {
      "type": "node",
      "id": 3662134505,
      "lat": 51.0949013,
      "lon": 4.3187584
    },
    {
      "type": "node",
      "id": 3662134494,
      "lat": 51.0939925,
      "lon": 4.3214114
    },
    {
      "type": "node",
      "id": 3662134495,
      "lat": 51.0940003,
      "lon": 4.3213033
    },
    {
      "type": "node",
      "id": 3662134496,
      "lat": 51.0941518,
      "lon": 4.3217607
    },
    {
      "type": "node",
      "id": 3662134497,
      "lat": 51.0946192,
      "lon": 4.3244428
    },
    {
      "type": "node",
      "id": 3662134498,
      "lat": 51.0947838,
      "lon": 4.3196358
    },
    {
      "type": "node",
      "id": 3662134503,
      "lat": 51.0948804,
      "lon": 4.3193905
    },
    {
      "type": "node",
      "id": 3662134506,
      "lat": 51.094917,
      "lon": 4.3191285
    },
    {
      "type": "node",
      "id": 3662134507,
      "lat": 51.0950632,
      "lon": 4.3237401
    },
    {
      "type": "node",
      "id": 3662134509,
      "lat": 51.0951468,
      "lon": 4.323869
    },
    {
      "type": "node",
      "id": 3662134511,
      "lat": 51.095199,
      "lon": 4.3238648
    },
    {
      "type": "node",
      "id": 3662134512,
      "lat": 51.0952147,
      "lon": 4.3237401
    },
    {
      "type": "node",
      "id": 3662134513,
      "lat": 51.095233,
      "lon": 4.3238232
    },
    {
      "type": "node",
      "id": 1307628861,
      "lat": 51.0872681,
      "lon": 4.3313709
    },
    {
      "type": "node",
      "id": 1307628871,
      "lat": 51.0870978,
      "lon": 4.331604
    },
    {
      "type": "node",
      "id": 1307628883,
      "lat": 51.0870692,
      "lon": 4.3317586
    },
    {
      "type": "node",
      "id": 1307628886,
      "lat": 51.087179,
      "lon": 4.3314267
    },
    {
      "type": "node",
      "id": 1455070790,
      "lat": 51.085064,
      "lon": 4.3287075
    },
    {
      "type": "node",
      "id": 1455070804,
      "lat": 51.0846186,
      "lon": 4.3294117
    },
    {
      "type": "node",
      "id": 1455070871,
      "lat": 51.0852637,
      "lon": 4.3304458
    },
    {
      "type": "node",
      "id": 1455070911,
      "lat": 51.0857091,
      "lon": 4.3297415
    },
    {
      "type": "node",
      "id": 4414781890,
      "lat": 51.0885492,
      "lon": 4.3295793
    },
    {
      "type": "node",
      "id": 4432587991,
      "lat": 51.0885716,
      "lon": 4.32962
    },
    {
      "type": "node",
      "id": 5801680894,
      "lat": 51.0850515,
      "lon": 4.3308469
    },
    {
      "type": "node",
      "id": 5801680895,
      "lat": 51.0846707,
      "lon": 4.3314531
    },
    {
      "type": "node",
      "id": 5801680896,
      "lat": 51.0844719,
      "lon": 4.3311527
    },
    {
      "type": "node",
      "id": 5801680897,
      "lat": 51.0841889,
      "lon": 4.3316194
    },
    {
      "type": "node",
      "id": 5801680898,
      "lat": 51.0839496,
      "lon": 4.3311956
    },
    {
      "type": "node",
      "id": 5801680899,
      "lat": 51.084637,
      "lon": 4.3301496
    },
    {
      "type": "node",
      "id": 6267920632,
      "lat": 51.0844698,
      "lon": 4.3312079
    },
    {
      "type": "node",
      "id": 6267920633,
      "lat": 51.0843731,
      "lon": 4.3313563
    },
    {
      "type": "node",
      "id": 6267920634,
      "lat": 51.0845595,
      "lon": 4.3316643
    },
    {
      "type": "node",
      "id": 6267920635,
      "lat": 51.0846563,
      "lon": 4.3315159
    },
    {
      "type": "node",
      "id": 6267932878,
      "lat": 51.0849617,
      "lon": 4.3300141
    },
    {
      "type": "node",
      "id": 6267932879,
      "lat": 51.0848741,
      "lon": 4.3298719
    },
    {
      "type": "node",
      "id": 6267932880,
      "lat": 51.084677,
      "lon": 4.3301683
    },
    {
      "type": "node",
      "id": 6267932881,
      "lat": 51.0847705,
      "lon": 4.3303084
    },
    {
      "type": "node",
      "id": 8142472034,
      "lat": 51.0883457,
      "lon": 4.3287528
    },
    {
      "type": "node",
      "id": 8142472036,
      "lat": 51.0881635,
      "lon": 4.3290648
    },
    {
      "type": "node",
      "id": 8142472037,
      "lat": 51.088595,
      "lon": 4.3282525
    },
    {
      "type": "node",
      "id": 8142472039,
      "lat": 51.0885613,
      "lon": 4.3291631
    },
    {
      "type": "node",
      "id": 8142472040,
      "lat": 51.0885992,
      "lon": 4.3291524
    },
    {
      "type": "node",
      "id": 8142472043,
      "lat": 51.0885916,
      "lon": 4.3292731
    },
    {
      "type": "node",
      "id": 8142472044,
      "lat": 51.0885731,
      "lon": 4.3292315
    },
    {
      "type": "node",
      "id": 8142472045,
      "lat": 51.0885562,
      "lon": 4.3291953
    },
    {
      "type": "node",
      "id": 8142472046,
      "lat": 51.0885386,
      "lon": 4.3291618
    },
    {
      "type": "node",
      "id": 8142472047,
      "lat": 51.0885023,
      "lon": 4.3291551
    },
    {
      "type": "node",
      "id": 8142472048,
      "lat": 51.0884636,
      "lon": 4.3291605
    },
    {
      "type": "node",
      "id": 8142472049,
      "lat": 51.0884518,
      "lon": 4.3291725
    },
    {
      "type": "node",
      "id": 8142472050,
      "lat": 51.0884248,
      "lon": 4.3291913
    },
    {
      "type": "node",
      "id": 8142472051,
      "lat": 51.0883962,
      "lon": 4.3291967
    },
    {
      "type": "node",
      "id": 8142472052,
      "lat": 51.0883617,
      "lon": 4.3291886
    },
    {
      "type": "node",
      "id": 8142472053,
      "lat": 51.0883406,
      "lon": 4.3291645
    },
    {
      "type": "node",
      "id": 8142472054,
      "lat": 51.0883229,
      "lon": 4.3291269
    },
    {
      "type": "node",
      "id": 8142472055,
      "lat": 51.0883195,
      "lon": 4.3290679
    },
    {
      "type": "node",
      "id": 8142472056,
      "lat": 51.0883364,
      "lon": 4.3290116
    },
    {
      "type": "node",
      "id": 8142472057,
      "lat": 51.0883633,
      "lon": 4.328966
    },
    {
      "type": "node",
      "id": 8142472058,
      "lat": 51.0884147,
      "lon": 4.3288963
    },
    {
      "type": "node",
      "id": 8142472059,
      "lat": 51.0884451,
      "lon": 4.3288493
    },
    {
      "type": "node",
      "id": 8142472060,
      "lat": 51.088456,
      "lon": 4.3288131
    },
    {
      "type": "node",
      "id": 8142472061,
      "lat": 51.0884543,
      "lon": 4.3287782
    },
    {
      "type": "node",
      "id": 8142472062,
      "lat": 51.0884459,
      "lon": 4.328746
    },
    {
      "type": "node",
      "id": 8142472063,
      "lat": 51.088456,
      "lon": 4.3287152
    },
    {
      "type": "node",
      "id": 8142472064,
      "lat": 51.0884754,
      "lon": 4.3286897
    },
    {
      "type": "node",
      "id": 8142472065,
      "lat": 51.0884998,
      "lon": 4.3286924
    },
    {
      "type": "node",
      "id": 8142472066,
      "lat": 51.0885226,
      "lon": 4.3287286
    },
    {
      "type": "node",
      "id": 8142472067,
      "lat": 51.0885436,
      "lon": 4.3287554
    },
    {
      "type": "node",
      "id": 8142472068,
      "lat": 51.0885689,
      "lon": 4.3287635
    },
    {
      "type": "node",
      "id": 8142472069,
      "lat": 51.0885874,
      "lon": 4.3287474
    },
    {
      "type": "node",
      "id": 8142472078,
      "lat": 51.0885929,
      "lon": 4.3294971
    },
    {
      "type": "node",
      "id": 262362344,
      "lat": 51.0878102,
      "lon": 4.3339455
    },
    {
      "type": "node",
      "id": 262362348,
      "lat": 51.0864124,
      "lon": 4.3341889
    },
    {
      "type": "node",
      "id": 262362350,
      "lat": 51.0861767,
      "lon": 4.3340369
    },
    {
      "type": "node",
      "id": 262362839,
      "lat": 51.0850462,
      "lon": 4.3331119
    },
    {
      "type": "node",
      "id": 1307628859,
      "lat": 51.0870692,
      "lon": 4.3322349
    },
    {
      "type": "node",
      "id": 1307628869,
      "lat": 51.0870517,
      "lon": 4.3319841
    },
    {
      "type": "node",
      "id": 1307628875,
      "lat": 51.0869976,
      "lon": 4.3326023
    },
    {
      "type": "node",
      "id": 1307628878,
      "lat": 51.0870946,
      "lon": 4.3323793
    },
    {
      "type": "node",
      "id": 1307628889,
      "lat": 51.0870071,
      "lon": 4.3325009
    },
    {
      "type": "node",
      "id": 1454044381,
      "lat": 51.0838768,
      "lon": 4.3359163
    },
    {
      "type": "node",
      "id": 1454044382,
      "lat": 51.0843798,
      "lon": 4.3351816
    },
    {
      "type": "node",
      "id": 1454044383,
      "lat": 51.0851456,
      "lon": 4.3341236
    },
    {
      "type": "node",
      "id": 1454044385,
      "lat": 51.08535,
      "lon": 4.3335214
    },
    {
      "type": "node",
      "id": 1454044386,
      "lat": 51.0854492,
      "lon": 4.3337165
    },
    {
      "type": "node",
      "id": 1454044387,
      "lat": 51.0855918,
      "lon": 4.3339645
    },
    {
      "type": "node",
      "id": 1454044388,
      "lat": 51.085647,
      "lon": 4.3331055
    },
    {
      "type": "node",
      "id": 1454044389,
      "lat": 51.0856989,
      "lon": 4.3331985
    },
    {
      "type": "node",
      "id": 1454044390,
      "lat": 51.0857418,
      "lon": 4.3331396
    },
    {
      "type": "node",
      "id": 1454044391,
      "lat": 51.0859293,
      "lon": 4.333506
    },
    {
      "type": "node",
      "id": 1454044392,
      "lat": 51.0859789,
      "lon": 4.3334387
    },
    {
      "type": "node",
      "id": 1454044393,
      "lat": 51.0860525,
      "lon": 4.332731
    },
    {
      "type": "node",
      "id": 1454044394,
      "lat": 51.0861688,
      "lon": 4.3339438
    },
    {
      "type": "node",
      "id": 1454044395,
      "lat": 51.0862243,
      "lon": 4.3338638
    },
    {
      "type": "node",
      "id": 1477688579,
      "lat": 51.0839043,
      "lon": 4.3358765
    },
    {
      "type": "node",
      "id": 1477688585,
      "lat": 51.0843451,
      "lon": 4.3352382
    },
    {
      "type": "node",
      "id": 1477688588,
      "lat": 51.0844118,
      "lon": 4.3351441
    },
    {
      "type": "node",
      "id": 1477689250,
      "lat": 51.0851824,
      "lon": 4.3340779
    },
    {
      "type": "node",
      "id": 7535731453,
      "lat": 51.0864573,
      "lon": 4.3341256
    },
    {
      "type": "node",
      "id": 7535731454,
      "lat": 51.0864027,
      "lon": 4.3340193
    },
    {
      "type": "node",
      "id": 7535731455,
      "lat": 51.0863458,
      "lon": 4.334089
    },
    {
      "type": "node",
      "id": 7535731457,
      "lat": 51.0863761,
      "lon": 4.334488
    },
    {
      "type": "node",
      "id": 7535731458,
      "lat": 51.086332,
      "lon": 4.3344069
    },
    {
      "type": "node",
      "id": 7535731459,
      "lat": 51.0863092,
      "lon": 4.3345959
    },
    {
      "type": "node",
      "id": 7535731460,
      "lat": 51.0862599,
      "lon": 4.3345088
    },
    {
      "type": "node",
      "id": 7535731461,
      "lat": 51.0863989,
      "lon": 4.3343136
    },
    {
      "type": "node",
      "id": 7535731462,
      "lat": 51.0863071,
      "lon": 4.3344417
    },
    {
      "type": "node",
      "id": 7535731463,
      "lat": 51.0861988,
      "lon": 4.3342473
    },
    {
      "type": "node",
      "id": 7535731475,
      "lat": 51.0861248,
      "lon": 4.3341089
    },
    {
      "type": "node",
      "id": 8737046423,
      "lat": 51.0870009,
      "lon": 4.3326267
    },
    {
      "type": "node",
      "id": 8737046424,
      "lat": 51.0869035,
      "lon": 4.3326473
    },
    {
      "type": "node",
      "id": 8737046425,
      "lat": 51.0868807,
      "lon": 4.3326782
    },
    {
      "type": "node",
      "id": 8737046426,
      "lat": 51.0866828,
      "lon": 4.3325816
    },
    {
      "type": "node",
      "id": 8737046427,
      "lat": 51.086489,
      "lon": 4.3325454
    },
    {
      "type": "node",
      "id": 8737046428,
      "lat": 51.0862759,
      "lon": 4.3328512
    },
    {
      "type": "node",
      "id": 8737046429,
      "lat": 51.0862734,
      "lon": 4.3329209
    },
    {
      "type": "node",
      "id": 8737046430,
      "lat": 51.0862079,
      "lon": 4.3330039
    },
    {
      "type": "node",
      "id": 8737046431,
      "lat": 51.0854162,
      "lon": 4.3337611
    },
    {
      "type": "node",
      "id": 8737046432,
      "lat": 51.0862436,
      "lon": 4.3330667
    },
    {
      "type": "node",
      "id": 8737046433,
      "lat": 51.0858208,
      "lon": 4.3345299
    },
    {
      "type": "node",
      "id": 8737046434,
      "lat": 51.0860973,
      "lon": 4.3349621
    },
    {
      "type": "node",
      "id": 8737046435,
      "lat": 51.0862152,
      "lon": 4.3349674
    },
    {
      "type": "node",
      "id": 8737046436,
      "lat": 51.0863568,
      "lon": 4.3349701
    },
    {
      "type": "node",
      "id": 8737046437,
      "lat": 51.0866617,
      "lon": 4.3347341
    },
    {
      "type": "node",
      "id": 8737046438,
      "lat": 51.0868016,
      "lon": 4.3347207
    },
    {
      "type": "node",
      "id": 8737046439,
      "lat": 51.0869886,
      "lon": 4.3344417
    },
    {
      "type": "node",
      "id": 8737046440,
      "lat": 51.0870694,
      "lon": 4.3344122
    },
    {
      "type": "node",
      "id": 8737046441,
      "lat": 51.0871688,
      "lon": 4.3343747
    },
    {
      "type": "node",
      "id": 8737046442,
      "lat": 51.0872632,
      "lon": 4.3343961
    },
    {
      "type": "node",
      "id": 8737046443,
      "lat": 51.0873794,
      "lon": 4.3343881
    },
    {
      "type": "node",
      "id": 8737046444,
      "lat": 51.0874788,
      "lon": 4.3343639
    },
    {
      "type": "node",
      "id": 262361553,
      "lat": 51.0887409,
      "lon": 4.3314724
    },
    {
      "type": "node",
      "id": 307853029,
      "lat": 51.0890601,
      "lon": 4.3303413
    },
    {
      "type": "node",
      "id": 307853032,
      "lat": 51.0890119,
      "lon": 4.3304226
    },
    {
      "type": "node",
      "id": 307853034,
      "lat": 51.0890396,
      "lon": 4.3305013
    },
    {
      "type": "node",
      "id": 307853037,
      "lat": 51.089125,
      "lon": 4.3305562
    },
    {
      "type": "node",
      "id": 307853040,
      "lat": 51.0892292,
      "lon": 4.3305398
    },
    {
      "type": "node",
      "id": 307853043,
      "lat": 51.0892904,
      "lon": 4.330752
    },
    {
      "type": "node",
      "id": 307853048,
      "lat": 51.0893711,
      "lon": 4.3309677
    },
    {
      "type": "node",
      "id": 307853050,
      "lat": 51.0894415,
      "lon": 4.3310855
    },
    {
      "type": "node",
      "id": 307853052,
      "lat": 51.0895583,
      "lon": 4.3311686
    },
    {
      "type": "node",
      "id": 1477708076,
      "lat": 51.0887703,
      "lon": 4.3314162
    },
    {
      "type": "node",
      "id": 1477708091,
      "lat": 51.0888249,
      "lon": 4.3313025
    },
    {
      "type": "node",
      "id": 1477708114,
      "lat": 51.0890536,
      "lon": 4.3309148
    },
    {
      "type": "node",
      "id": 1477708115,
      "lat": 51.0890872,
      "lon": 4.33088
    },
    {
      "type": "node",
      "id": 1477708116,
      "lat": 51.0890956,
      "lon": 4.3308791
    },
    {
      "type": "node",
      "id": 1477708119,
      "lat": 51.0893293,
      "lon": 4.3305542
    },
    {
      "type": "node",
      "id": 1477708120,
      "lat": 51.089336,
      "lon": 4.3306646
    },
    {
      "type": "node",
      "id": 1477708127,
      "lat": 51.0893521,
      "lon": 4.330558
    },
    {
      "type": "node",
      "id": 1477708130,
      "lat": 51.0893863,
      "lon": 4.3305738
    },
    {
      "type": "node",
      "id": 1477708144,
      "lat": 51.0894256,
      "lon": 4.3310178
    },
    {
      "type": "node",
      "id": 1477708151,
      "lat": 51.0894182,
      "lon": 4.3306207
    },
    {
      "type": "node",
      "id": 1477708153,
      "lat": 51.089422,
      "lon": 4.3309173
    },
    {
      "type": "node",
      "id": 1477708155,
      "lat": 51.0894357,
      "lon": 4.3306737
    },
    {
      "type": "node",
      "id": 1477708157,
      "lat": 51.0894424,
      "lon": 4.3307539
    },
    {
      "type": "node",
      "id": 1477708159,
      "lat": 51.089469,
      "lon": 4.3307562
    },
    {
      "type": "node",
      "id": 1477708160,
      "lat": 51.0894756,
      "lon": 4.3311125
    },
    {
      "type": "node",
      "id": 1477708162,
      "lat": 51.0895004,
      "lon": 4.3307614
    },
    {
      "type": "node",
      "id": 1477708163,
      "lat": 51.0895327,
      "lon": 4.3307887
    },
    {
      "type": "node",
      "id": 1477708164,
      "lat": 51.0895367,
      "lon": 4.3311096
    },
    {
      "type": "node",
      "id": 1477708165,
      "lat": 51.0895654,
      "lon": 4.3308205
    },
    {
      "type": "node",
      "id": 1477708167,
      "lat": 51.0895688,
      "lon": 4.3310701
    },
    {
      "type": "node",
      "id": 1477708169,
      "lat": 51.0895825,
      "lon": 4.3308817
    },
    {
      "type": "node",
      "id": 1477708173,
      "lat": 51.0895868,
      "lon": 4.3310141
    },
    {
      "type": "node",
      "id": 1477708174,
      "lat": 51.0895892,
      "lon": 4.3309483
    },
    {
      "type": "node",
      "id": 3662134481,
      "lat": 51.0923519,
      "lon": 4.3287978
    },
    {
      "type": "node",
      "id": 3662134482,
      "lat": 51.0924645,
      "lon": 4.3284479
    },
    {
      "type": "node",
      "id": 3662134483,
      "lat": 51.0925329,
      "lon": 4.327801
    },
    {
      "type": "node",
      "id": 3662134485,
      "lat": 51.0926086,
      "lon": 4.3275482
    },
    {
      "type": "node",
      "id": 3662134487,
      "lat": 51.0927083,
      "lon": 4.3274364
    },
    {
      "type": "node",
      "id": 3662134493,
      "lat": 51.0935485,
      "lon": 4.3260729
    },
    {
      "type": "node",
      "id": 3662879306,
      "lat": 51.0890392,
      "lon": 4.3303795
    },
    {
      "type": "node",
      "id": 3662879336,
      "lat": 51.0891756,
      "lon": 4.3305386
    },
    {
      "type": "node",
      "id": 3662879339,
      "lat": 51.0891923,
      "lon": 4.3308563
    },
    {
      "type": "node",
      "id": 3662879345,
      "lat": 51.0892637,
      "lon": 4.3305613
    },
    {
      "type": "node",
      "id": 3662879346,
      "lat": 51.0892869,
      "lon": 4.330605
    },
    {
      "type": "node",
      "id": 3662879347,
      "lat": 51.0892896,
      "lon": 4.3306655
    },
    {
      "type": "node",
      "id": 3662879348,
      "lat": 51.0893151,
      "lon": 4.330716
    },
    {
      "type": "node",
      "id": 3662879351,
      "lat": 51.0893245,
      "lon": 4.3307826
    },
    {
      "type": "node",
      "id": 3662879353,
      "lat": 51.0893394,
      "lon": 4.3306091
    },
    {
      "type": "node",
      "id": 3662879356,
      "lat": 51.0893461,
      "lon": 4.3308295
    },
    {
      "type": "node",
      "id": 3662879357,
      "lat": 51.0893572,
      "lon": 4.3308849
    },
    {
      "type": "node",
      "id": 3662879362,
      "lat": 51.0894094,
      "lon": 4.3310521
    },
    {
      "type": "node",
      "id": 4414781478,
      "lat": 51.0889691,
      "lon": 4.3284408
    },
    {
      "type": "node",
      "id": 4414781480,
      "lat": 51.0887864,
      "lon": 4.3287336
    },
    {
      "type": "node",
      "id": 4414781481,
      "lat": 51.0888881,
      "lon": 4.328594
    },
    {
      "type": "node",
      "id": 4414781482,
      "lat": 51.0888465,
      "lon": 4.328661
    },
    {
      "type": "node",
      "id": 4414781483,
      "lat": 51.0886692,
      "lon": 4.3291202
    },
    {
      "type": "node",
      "id": 4414781484,
      "lat": 51.0886139,
      "lon": 4.329449
    },
    {
      "type": "node",
      "id": 4414781485,
      "lat": 51.0887331,
      "lon": 4.328838
    },
    {
      "type": "node",
      "id": 4414781486,
      "lat": 51.0889308,
      "lon": 4.3285123
    },
    {
      "type": "node",
      "id": 4414781487,
      "lat": 51.0887026,
      "lon": 4.328939
    },
    {
      "type": "node",
      "id": 4414781488,
      "lat": 51.0886226,
      "lon": 4.3293753
    },
    {
      "type": "node",
      "id": 4414781891,
      "lat": 51.0890393,
      "lon": 4.3283161
    },
    {
      "type": "node",
      "id": 4414896670,
      "lat": 51.088941,
      "lon": 4.3301791
    },
    {
      "type": "node",
      "id": 4432587993,
      "lat": 51.0890269,
      "lon": 4.3302974
    },
    {
      "type": "node",
      "id": 5105531983,
      "lat": 51.0890064,
      "lon": 4.3302677
    },
    {
      "type": "node",
      "id": 8142467387,
      "lat": 51.0896144,
      "lon": 4.3313009
    },
    {
      "type": "node",
      "id": 8142472035,
      "lat": 51.088626,
      "lon": 4.3297273
    },
    {
      "type": "node",
      "id": 8142472038,
      "lat": 51.0890575,
      "lon": 4.3289244
    },
    {
      "type": "node",
      "id": 8142472041,
      "lat": 51.0886337,
      "lon": 4.3291417
    },
    {
      "type": "node",
      "id": 8142472042,
      "lat": 51.0886059,
      "lon": 4.3293348
    },
    {
      "type": "node",
      "id": 8142472070,
      "lat": 51.0886043,
      "lon": 4.3287313
    },
    {
      "type": "node",
      "id": 8142472071,
      "lat": 51.0886236,
      "lon": 4.3287192
    },
    {
      "type": "node",
      "id": 8142472072,
      "lat": 51.0886489,
      "lon": 4.3287139
    },
    {
      "type": "node",
      "id": 8142472073,
      "lat": 51.088675,
      "lon": 4.3287353
    },
    {
      "type": "node",
      "id": 8142472074,
      "lat": 51.0886961,
      "lon": 4.3287648
    },
    {
      "type": "node",
      "id": 8142472075,
      "lat": 51.0887155,
      "lon": 4.3288051
    },
    {
      "type": "node",
      "id": 8142472079,
      "lat": 51.0886342,
      "lon": 4.3293395
    },
    {
      "type": "node",
      "id": 8142472080,
      "lat": 51.0888199,
      "lon": 4.3286703
    },
    {
      "type": "node",
      "id": 262331299,
      "lat": 51.0928707,
      "lon": 4.3338662
    },
    {
      "type": "node",
      "id": 1158180650,
      "lat": 51.0919957,
      "lon": 4.3360105
    },
    {
      "type": "node",
      "id": 1158180683,
      "lat": 51.0919788,
      "lon": 4.3360518
    },
    {
      "type": "node",
      "id": 1477709065,
      "lat": 51.0928089,
      "lon": 4.334001
    },
    {
      "type": "node",
      "id": 1251632583,
      "lat": 51.0939606,
      "lon": 4.3494176
    },
    {
      "type": "node",
      "id": 1997043496,
      "lat": 51.0945731,
      "lon": 4.3476936
    },
    {
      "type": "node",
      "id": 1997043501,
      "lat": 51.094728,
      "lon": 4.348009
    },
    {
      "type": "node",
      "id": 1997043505,
      "lat": 51.0950642,
      "lon": 4.3485877
    },
    {
      "type": "node",
      "id": 2339126672,
      "lat": 51.0933921,
      "lon": 4.3488499
    },
    {
      "type": "node",
      "id": 2339126675,
      "lat": 51.0934013,
      "lon": 4.3490713
    },
    {
      "type": "node",
      "id": 2339126677,
      "lat": 51.0934485,
      "lon": 4.3491591
    },
    {
      "type": "node",
      "id": 2339126686,
      "lat": 51.0935771,
      "lon": 4.3492865
    },
    {
      "type": "node",
      "id": 2339126699,
      "lat": 51.0936475,
      "lon": 4.3493504
    },
    {
      "type": "node",
      "id": 2340411853,
      "lat": 51.0940502,
      "lon": 4.3470306
    },
    {
      "type": "node",
      "id": 2340411856,
      "lat": 51.0943109,
      "lon": 4.3472882
    },
    {
      "type": "node",
      "id": 2340411876,
      "lat": 51.0945774,
      "lon": 4.3457447
    },
    {
      "type": "node",
      "id": 2340411878,
      "lat": 51.094606,
      "lon": 4.3457662
    },
    {
      "type": "node",
      "id": 2340411879,
      "lat": 51.0946151,
      "lon": 4.3456175
    },
    {
      "type": "node",
      "id": 2340411884,
      "lat": 51.0946438,
      "lon": 4.3456391
    },
    {
      "type": "node",
      "id": 3991007819,
      "lat": 51.0943057,
      "lon": 4.3473477
    },
    {
      "type": "node",
      "id": 5223825664,
      "lat": 51.0947526,
      "lon": 4.3495382
    },
    {
      "type": "node",
      "id": 5223825665,
      "lat": 51.0946358,
      "lon": 4.349877
    },
    {
      "type": "node",
      "id": 5223825666,
      "lat": 51.0942104,
      "lon": 4.3495252
    },
    {
      "type": "node",
      "id": 5223825667,
      "lat": 51.094619,
      "lon": 4.3499285
    },
    {
      "type": "node",
      "id": 262210261,
      "lat": 51.0964524,
      "lon": 4.3401843
    },
    {
      "type": "node",
      "id": 1839905114,
      "lat": 51.096649,
      "lon": 4.3404417
    },
    {
      "type": "node",
      "id": 1839905123,
      "lat": 51.0968491,
      "lon": 4.3407577
    },
    {
      "type": "node",
      "id": 1839905153,
      "lat": 51.0972172,
      "lon": 4.341333
    },
    {
      "type": "node",
      "id": 6987264604,
      "lat": 51.0971891,
      "lon": 4.341289
    },
    {
      "type": "node",
      "id": 1997043513,
      "lat": 51.0952847,
      "lon": 4.3489916
    },
    {
      "type": "node",
      "id": 1997043523,
      "lat": 51.0956515,
      "lon": 4.3497182
    },
    {
      "type": "node",
      "id": 1997043527,
      "lat": 51.0956393,
      "lon": 4.3501874
    },
    {
      "type": "node",
      "id": 1997043529,
      "lat": 51.0957264,
      "lon": 4.3515791
    },
    {
      "type": "node",
      "id": 1997043531,
      "lat": 51.0957064,
      "lon": 4.3499183
    },
    {
      "type": "node",
      "id": 1997043533,
      "lat": 51.0957539,
      "lon": 4.3505085
    },
    {
      "type": "node",
      "id": 1997043537,
      "lat": 51.0958219,
      "lon": 4.3505104
    },
    {
      "type": "node",
      "id": 1997043539,
      "lat": 51.0959943,
      "lon": 4.3515791
    },
    {
      "type": "node",
      "id": 1997043540,
      "lat": 51.0960878,
      "lon": 4.350412
    },
    {
      "type": "node",
      "id": 1997043542,
      "lat": 51.0962693,
      "lon": 4.3501102
    },
    {
      "type": "node",
      "id": 1997043545,
      "lat": 51.0963228,
      "lon": 4.3508412
    },
    {
      "type": "node",
      "id": 5223825662,
      "lat": 51.095635,
      "lon": 4.3503378
    },
    {
      "type": "node",
      "id": 5223825663,
      "lat": 51.0962165,
      "lon": 4.3500188
    },
    {
      "type": "node",
      "id": 1997043525,
      "lat": 51.0956541,
      "lon": 4.3515978
    },
    {
      "type": "node",
      "id": 1997043535,
      "lat": 51.0959337,
      "lon": 4.3516538
    }
  ]
}