{
  "version": 0.6,
  "generator": "Overpass API 0.7.57 93a4d346",
  "osm3s": {
    "timestamp_osm_base": "2021-12-11T03:34:22Z",
    "timestamp_areas_base": "2021-12-10T20:57:31Z",
    "copyright": "The data included in this document is from www.openstreetmap.org. The data is made available under ODbL."
  },
  "elements": [
    {
      "type": "node",
      "id": 1116218182,
      "lat": 51.147955,
      "lon": 4.5481206
    },
    {
      "type": "node",
      "id": 1116218233,
      "lat": 51.1482598,
      "lon": 4.5511202
    },
    {
      "type": "node",
      "id": 1116218324,
      "lat": 51.1492702,
      "lon": 4.5494458
    },
    {
      "type": "node",
      "id": 1116218401,
      "lat": 51.1474328,
      "lon": 4.5479625
    },
    {
      "type": "node",
      "id": 1116218584,
      "lat": 51.1481147,
      "lon": 4.552006
    },
    {
      "type": "node",
      "id": 1116218657,
      "lat": 51.1495389,
      "lon": 4.5487951
    },
    {
      "type": "node",
      "id": 1118811416,
      "lat": 51.1488247,
      "lon": 4.5493937
    },
    {
      "type": "node",
      "id": 1118811568,
      "lat": 51.1504603,
      "lon": 4.5498681
    },
    {
      "type": "node",
      "id": 1118812507,
      "lat": 51.1505192,
      "lon": 4.5494327
    },
    {
      "type": "node",
      "id": 4277861500,
      "lat": 51.1457352,
      "lon": 4.5507304
    },
    {
      "type": "node",
      "id": 4277861501,
      "lat": 51.1457509,
      "lon": 4.5504978
    },
    {
      "type": "node",
      "id": 4277861512,
      "lat": 51.1459802,
      "lon": 4.5484788
    },
    {
      "type": "node",
      "id": 4277861514,
      "lat": 51.1459854,
      "lon": 4.5493179
    },
    {
      "type": "node",
      "id": 4277861515,
      "lat": 51.1460011,
      "lon": 4.5469832
    },
    {
      "type": "node",
      "id": 4277861610,
      "lat": 51.1495089,
      "lon": 4.5490604
    },
    {
      "type": "node",
      "id": 6947535293,
      "lat": 51.1502429,
      "lon": 4.5493309
    },
    {
      "type": "node",
      "id": 6947535324,
      "lat": 51.148038,
      "lon": 4.5481559
    },
    {
      "type": "way",
      "id": 46150864,
      "nodes": [
        588398297,
        588398298,
        588398299,
        588398300,
        588398297
      ],
      "tags": {
        "leisure": "pitch",
        "sport": "tennis"
      }
    },
    {
      "type": "way",
      "id": 46150865,
      "nodes": [
        588398301,
        588398302,
        588398303,
        588398304,
        588398305,
        588398306,
        588398307,
        588398308,
        588398301
      ],
      "tags": {
        "leisure": "pitch",
        "sport": "tennis"
      }
    },
    {
      "type": "way",
      "id": 46150866,
      "nodes": [
        588398309,
        588398310,
        588398311,
        588398312,
        588398309
      ],
      "tags": {
        "leisure": "pitch",
        "sport": "tennis"
      }
    },
    {
      "type": "way",
      "id": 89944075,
      "nodes": [
        1042562578,
        1042563250,
        1042562770,
        1042562179,
        1042562578
      ],
      "tags": {
        "leisure": "pitch",
        "sport": "hockey"
      }
    },
    {
      "type": "way",
      "id": 89944115,
      "nodes": [
        1042564197,
        1042562775,
        1042562405,
        1042564270,
        1042564197
      ],
      "tags": {
        "leisure": "pitch",
        "sport": "hockey"
      }
    },
    {
      "type": "way",
      "id": 96590441,
      "nodes": [
        1116218584,
        1118811471,
        1118811916,
        1118811298,
        1118811639,
        1118812157,
        1118811444,
        1118811819,
        4277861611,
        1118812507,
        1118811568,
        1116218324,
        1118811416,
        1116218233,
        1116218584
      ],
      "tags": {
        "landuse": "farmland"
      }
    },
    {
      "type": "way",
      "id": 96590444,
      "nodes": [
        1116218182,
        1118812589,
        288993609,
        4613767649,
        288993616,
        288993610,
        588392178,
        254100878,
        588392181,
        6292199040,
        6292199039,
        254101964,
        4277861515,
        1116218401,
        1116218182
      ],
      "tags": {
        "landuse": "industrial"
      }
    },
    {
      "type": "way",
      "id": 96590456,
      "nodes": [
        1118811371,
        1118530460,
        1118530557,
        1118530371,
        1118530513,
        1118530550,
        1118530359,
        4244686305,
        1118530505,
        1118530449,
        1118530510,
        1118530304,
        1118530403,
        1118530302,
        1118812314,
        7844377398,
        1118811749,
        1118812589,
        1116218182,
        6947535324,
        1116218657,
        1116218291,
        1116218212,
        1116218404,
        4277861612,
        1118811414,
        1118811782,
        1118812432,
        1118812428,
        1118811543,
        1118812015,
        1118811341,
        1118811712,
        1118812221,
        1118811467,
        1118811912,
        1118811293,
        1118811371
      ],
      "tags": {
        "landuse": "farmland"
      }
    },
    {
      "type": "way",
      "id": 287479289,
      "nodes": [
        2910818728,
        2910818729,
        2910818730,
        2910818731,
        2910818732,
        2910818733
      ],
      "tags": {
        "highway": "path"
      }
    },
    {
      "type": "way",
      "id": 287479533,
      "nodes": [
        2910823023,
        2910823024,
        2910823025,
        2910823026,
        2910823027,
        2910823028,
        5348700810
      ],
      "tags": {
        "highway": "track"
      }
    },
    {
      "type": "way",
      "id": 287479535,
      "nodes": [
        2910823027,
        2910818733
      ],
      "tags": {
        "highway": "track"
      }
    },
    {
      "type": "way",
      "id": 293591006,
      "nodes": [
        1531247071,
        2972053699,
        2972053700,
        2972053701,
        2972053702
      ],
      "tags": {
        "bicycle": "yes",
        "highway": "footway",
        "wheelchair": "yes"
      }
    },
    {
      "type": "way",
      "id": 307302160,
      "nodes": [
        3124015012,
        3124016516,
        3124019858,
        3124015013
      ],
      "tags": {
        "highway": "footway",
        "surface": "paved"
      }
    },
    {
      "type": "way",
      "id": 307302172,
      "nodes": [
        734126504,
        3124016516,
        3124016515
      ],
      "tags": {
        "highway": "footway"
      }
    },
    {
      "type": "way",
      "id": 307302426,
      "nodes": [
        242793482,
        3124019858,
        734126739
      ],
      "tags": {
        "highway": "footway"
      }
    },
    {
      "type": "way",
      "id": 428703604,
      "nodes": [
        4277861515,
        4277861512,
        4277861514,
        4277861501,
        4277861500,
        1116218584,
        1116218233,
        1118811416,
        1116218324,
        1118811568,
        1118812507,
        6947535293,
        4277861610,
        1116218657,
        6947535324,
        1116218182,
        1116218401,
        4277861515
      ],
      "tags": {
        "dog": "leashed",
        "intermittent": "yes",
        "leisure": "park",
        "name": "Provinciaal Overstromingsgebied Plaslaar",
        "opening_hours": "24/7",
        "opening_hours:covid19": "same",
        "operator": "Stad Lier",
        "salt": "no"
      }
    },
    {
      "type": "way",
      "id": 428703605,
      "nodes": [
        4277861612,
        4277861611,
        1118812507,
        6947535293,
        4277861610,
        1116218657,
        1116218291,
        1116218212,
        1116218404,
        4277861612
      ],
      "tags": {
        "landuse": "forest"
      }
    },
    {
      "type": "way",
      "id": 466611341,
      "nodes": [
        4613767649,
        4613767648,
        4613767647,
        1531248656
      ],
      "tags": {
        "highway": "path"
      }
    },
    {
      "type": "way",
      "id": 554207530,
      "nodes": [
        5348700806,
        5348700800
      ],
      "tags": {
        "highway": "path"
      }
    },
    {
      "type": "way",
      "id": 554207531,
      "nodes": [
        5348700792,
        5348700791,
        5348700808
      ],
      "tags": {
        "highway": "path"
      }
    },
    {
      "type": "way",
      "id": 554207532,
      "nodes": [
        5348700810,
        5348700809,
        5348700808,
        5348700807,
        5348700806,
        5348700805,
        5348700804,
        5348700803,
        5348700802,
        5348700801,
        5348700800,
        5348700799,
        5348700798,
        5348700797,
        5348700796,
        5348700795,
        5348700794,
        5348700793,
        5348700792,
        693394222
      ],
      "tags": {
        "highway": "path"
      }
    },
    {
      "type": "way",
      "id": 742096283,
      "nodes": [
        4613767647,
        6947500284,
        6947535285,
        6947535286,
        6947535287,
        288993609,
        6947535288,
        6947535289,
        8068822123,
        6947535290
      ],
      "tags": {
        "highway": "path",
        "surface": "gravel"
      }
    },
    {
      "type": "way",
      "id": 742096284,
      "nodes": [
        6947535290,
        6947535291,
        6947535292,
        6947535293,
        6947535294,
        6947535295,
        6947535296,
        6947535297,
        6947535298,
        6947535299,
        6947535300,
        6947535301,
        6947535302,
        6947535303,
        6947535304,
        6947535325,
        6947535305,
        6947535306,
        6947535327,
        6947535307,
        6947535308,
        6947535309,
        6947535310,
        6947535311,
        6947535313,
        6947535314,
        6947535315,
        6947535316,
        6947535317,
        6947535318,
        6947535319,
        6947535320,
        6947535321,
        6947535322,
        6947535323,
        6947535324,
        6947535290
      ],
      "tags": {
        "bicycle": "permissive",
        "highway": "path",
        "horse": "no",
        "mapillary": "https://www.mapillary.com/map/im/LqWpgIlZUioj3cwAFzk5vl",
        "name": "Provinciaal Overstromingsgebied Plaslaar",
        "note": "bicycle=yes, gezien fietser in voorkomend geval apart schildje naast dat voor gemotoriseerde voertuigen",
        "surface": "compacted"
      }
    },
    {
      "type": "way",
      "id": 775050259,
      "nodes": [
        7230923919,
        7230923926,
        7230923927,
        7230923914,
        7230923924
      ],
      "tags": {
        "highway": "footway"
      }
    },
    {
      "type": "way",
      "id": 865652880,
      "nodes": [
        2910826691,
        8068822121,
        6947535314
      ],
      "tags": {
        "highway": "path",
        "incline": "20%"
      }
    },
    {
      "type": "way",
      "id": 914344979,
      "nodes": [
        8493796082,
        8493796083,
        8493796084,
        8493796085
      ],
      "tags": {
        "highway": "path"
      }
    },
    {
      "type": "way",
      "id": 985426802,
      "nodes": [
        9110068539,
        9110068540,
        9110068541,
        9110068542,
        9110068539
      ],
      "tags": {
        "access": "permit",
        "leisure": "pitch",
        "sport": "hockey"
      }
    },
    {
      "type": "way",
      "id": 1005851822,
      "nodes": [
        5348700810,
        3465564509,
        2910823029
      ],
      "tags": {
        "highway": "track"
      }
    },
    {
      "type": "area",
      "id": 3600052411,
      "tags": {
        "ISO3166-1": "BE",
        "ISO3166-1:alpha2": "BE",
        "ISO3166-1:alpha3": "BEL",
        "ISO3166-1:numeric": "056",
        "TMC:cid_58:tabcd_1:Class": "Area",
        "TMC:cid_58:tabcd_1:LCLversion": "8.00",
        "TMC:cid_58:tabcd_1:LocationCode": "3",
        "admin_level": "2",
        "alt_name:ay": "Bilgasuyu",
        "alt_name:bar": "Bejgien",
        "alt_name:ckb": "بلژیک",
        "alt_name:eo": "Belgujo",
        "alt_name:frp": "Bèlg·ica",
        "alt_name:fur": "Belgjiche;Belgje",
        "alt_name:fy": "België;it Belzelân",
        "alt_name:kbd": "Белгэ",
        "alt_name:ksh": "Belgien",
        "alt_name:ku": "Belcîka",
        "alt_name:la": "Belgium",
        "alt_name:li": "Belzjiek",
        "alt_name:mzn": "بلجیک",
        "alt_name:qu": "Bilgasuyu",
        "alt_name:rw": "Ububirigi",
        "alt_name:so": "Belgium",
        "alt_name:war": "Bélgica",
        "boundary": "administrative",
        "currency": "EUR",
        "flag": "http://upload.wikimedia.org/wikipedia/commons/6/65/Flag_of_Belgium.svg",
        "int_name": "Belgium",
        "name": "België / Belgique / Belgien",
        "name:ace": "Bèlgia",
        "name:ady": "Белгие",
        "name:af": "België",
        "name:ak": "Belgium",
        "name:als": "Belgie",
        "name:am": "ቤልጅግ",
        "name:an": "Belchica",
        "name:ang": "Belgice",
        "name:ar": "بلجيكا",
        "name:arc": "ܒܠܓܝܩܐ",
        "name:arz": "بلجيكا",
        "name:ast": "Bélxica",
        "name:av": "Бе́льгия",
        "name:ay": "Bilkiya",
        "name:az": "Belçika",
        "name:azb": "بلژیک",
        "name:ba": "Бе́льгия",
        "name:bar": "Bäigien",
        "name:bat-smg": "Belgėjė",
        "name:bcl": "Belhika",
        "name:be": "Бeльгія",
        "name:be-tarask": "Бэ́льгія",
        "name:bg": "Белгия",
        "name:bh": "बेल्जियम",
        "name:bi": "Beljiom",
        "name:bm": "Bɛliziki",
        "name:bn": "বেলজিয়াম",
        "name:bo": "པེར་ཅིན།",
        "name:bpy": "বেলজিয়াম",
        "name:br": "Belgia",
        "name:bs": "Belgija",
        "name:bug": "Belgia",
        "name:bxr": "Бельги",
        "name:ca": "Bèlgica",
        "name:cbk-zam": "Bélgica",
        "name:cdo": "Bī-lé-sì",
        "name:ce": "Бельги",
        "name:ceb": "Belhika",
        "name:chr": "ᏇᎵᏥᎥᎻ",
        "name:ckb": "بەلجیکا",
        "name:co": "Belgica",
        "name:crh": "Belçika",
        "name:cs": "Belgie",
        "name:csb": "Belgijskô",
        "name:cu": "Бє́лгїѥ",
        "name:cv": "Бельги",
        "name:cy": "Gwlad Belg",
        "name:da": "Belgien",
        "name:de": "Belgien",
        "name:din": "Beljiem",
        "name:diq": "Belçıka",
        "name:dsb": "Belgiska",
        "name:dty": "बेल्जियम",
        "name:dv": "ބެލްޖިއަމް",
        "name:dz": "བེལ་ཇིཡམ",
        "name:ee": "Belgium",
        "name:el": "Βέλγιο",
        "name:eml": "Bélgi",
        "name:en": "Belgium",
        "name:eo": "Belgio",
        "name:es": "Bélgica",
        "name:et": "Belgia",
        "name:eu": "Belgika",
        "name:ext": "Bélgica",
        "name:fa": "بلژیک",
        "name:ff": "Beljik",
        "name:fi": "Belgia",
        "name:fiu-vro": "Belgiä",
        "name:fo": "Belgia",
        "name:fr": "Belgique",
        "name:frp": "Bèlg·ique",
        "name:frr": "Bälgien",
        "name:fur": "Belgjo",
        "name:fy": "Belgje",
        "name:ga": "an Bheilg",
        "name:gag": "Belgiya",
        "name:gd": "a' Bheilg",
        "name:gl": "Bélxica",
        "name:gn": "Véyhika",
        "name:gom": "बेल्जियम",
        "name:gu": "બેલ્જિયમ",
        "name:gv": "Velg",
        "name:ha": "Beljik",
        "name:hak": "Pí-li-sṳ̀",
        "name:haw": "Pelekiuma",
        "name:he": "בֶּלְגְיָה",
        "name:hi": "बेल्जियम",
        "name:hif": "Belgium",
        "name:hr": "Belgija",
        "name:hsb": "Belgiska",
        "name:ht": "Bèljik",
        "name:hu": "Belgium",
        "name:hy": "Բելգիա",
        "name:ia": "Belgica",
        "name:id": "Belgia",
        "name:ie": "Belgia",
        "name:ig": "Belgium",
        "name:ilo": "Belhika",
        "name:io": "Belgia",
        "name:is": "Belgía",
        "name:it": "Belgio",
        "name:ja": "ベルギー",
        "name:jam": "Beljiom",
        "name:jbo": "beldjym",
        "name:jv": "Bèlgia",
        "name:ka": "ბელგია",
        "name:kaa": "Belgiya",
        "name:kab": "Biljik",
        "name:kbd": "Белгиэ",
        "name:kbp": "Pɛliziki",
        "name:kg": "Belezi",
        "name:ki": "Ubelgiji",
        "name:kk": "Бельгия",
        "name:kl": "Belgia",
        "name:km": "បែលហ្ស៉ិក",
        "name:kn": "ಬೆಲ್ಜಿಯಂ",
        "name:ko": "벨기에",
        "name:koi": "Белгия",
        "name:krc": "Бельгия",
        "name:ks": "बेल्जियम",
        "name:ksh": "Beljie",
        "name:ku": "Belçîka",
        "name:kv": "Бельгия",
        "name:kw": "Pow Belg",
        "name:ky": "Бельгия",
        "name:la": "Belgica",
        "name:lad": "Beljika",
        "name:lb": "Belsch",
        "name:lez": "Бельгия",
        "name:lg": "Bubirigi",
        "name:li": "Belsj",
        "name:lij": "Belgiò",
        "name:lmo": "Belgi",
        "name:ln": "Bɛ́ljika",
        "name:lo": "ປະເທດແບນຊິກ",
        "name:lrc": "بلجیک",
        "name:lt": "Belgija",
        "name:ltg": "Beļgeja",
        "name:lv": "Beļģija",
        "name:lzh": "比利時",
        "name:mai": "बेल्जियम",
        "name:mdf": "Бельгие",
        "name:mg": "Belzika",
        "name:mhr": "Бельгий",
        "name:mi": "Pehiamu",
        "name:mk": "Белгија",
        "name:ml": "ബെൽജിയം",
        "name:mn": "Бельги",
        "name:mr": "बेल्जियम",
        "name:ms": "Belgium",
        "name:mt": "Belġju",
        "name:mwl": "Bélgica",
        "name:my": "ဘယ်လ်ဂျီယမ်နိုင်ငံ",
        "name:myv": "Бельгия",
        "name:mzn": "بلژیک",
        "name:na": "Berdjiyum",
        "name:nah": "Belgica",
        "name:nan": "Pe̍k-ní-gī",
        "name:nap": "Belge",
        "name:nb": "Belgia",
        "name:nds": "Belgien",
        "name:nds-nl": "België",
        "name:ne": "बेल्जियम",
        "name:new": "बेल्जियम",
        "name:nl": "België",
        "name:nn": "Belgia",
        "name:no": "Belgia",
        "name:nov": "Belgia",
        "name:nrm": "Belgique",
        "name:nso": "Belgium",
        "name:oc": "Belgica",
        "name:olo": "Bel’gii",
        "name:om": "Beeljiyeem",
        "name:or": "ବେଲଜିଅମ",
        "name:os": "Бельги",
        "name:pa": "ਬੈਲਜੀਅਮ",
        "name:pag": "Belhika",
        "name:pam": "Belgika",
        "name:pap": "Bélgika",
        "name:pcd": "Bergike",
        "name:pdc": "Belgien",
        "name:pfl": "Belgje",
        "name:pi": "बेल्जियम",
        "name:pih": "Beljum",
        "name:pl": "Belgia",
        "name:pms": "Belgi",
        "name:pnb": "بیلجیم",
        "name:pnt": "Βέλγιον",
        "name:ps": "بلجیم",
        "name:pt": "Bélgica",
        "name:qu": "Bilhika",
        "name:rm": "Belgia",
        "name:rmy": "Beljiya",
        "name:rn": "Ububirigi",
        "name:ro": "Belgia",
        "name:roa-rup": "Belghia",
        "name:roa-tara": "Bèlge",
        "name:ru": "Бельгия",
        "name:rue": "Белґія",
        "name:rw": "Ububiligi",
        "name:sa": "बेल्जियम",
        "name:sah": "Бельгия",
        "name:sc": "Bèlgiu",
        "name:scn": "Belgiu",
        "name:sco": "Belgium",
        "name:sd": "بيلجيم",
        "name:se": "Belgia",
        "name:sg": "Bêleze",
        "name:sh": "Belgija",
        "name:si": "බෙල්ජියම්",
        "name:sk": "Belgicko",
        "name:sl": "Bélgija",
        "name:sm": "Peleseuma",
        "name:smn": "Belgia",
        "name:sms": "Belgia",
        "name:sn": "Belgium",
        "name:so": "Beljim",
        "name:sq": "Belgjika",
        "name:sr": "Белгија",
        "name:srn": "Belgikondre",
        "name:ss": "iBhelijiyamu",
        "name:stq": "Belgien",
        "name:su": "Bélgia",
        "name:sv": "Belgien",
        "name:sw": "Ubelgiji",
        "name:szl": "Belgijo",
        "name:ta": "பெல்ஜியம்",
        "name:te": "బెల్జియం",
        "name:tet": "Béljika",
        "name:tg": "Белгия",
        "name:th": "เบลเยียม",
        "name:ti": "ቤልጄም",
        "name:tk": "Belgiýa",
        "name:tl": "Belhika",
        "name:to": "Pelesiume",
        "name:tok": "ma Pesije",
        "name:tpi": "Beljiam",
        "name:tr": "Belçika",
        "name:ts": "Belgium",
        "name:tt": "Бе́льгия",
        "name:tum": "Belgium",
        "name:tw": "Belgium",
        "name:tzl": "Belxhíc",
        "name:udm": "Бельгия",
        "name:ug": "بېلگىيە",
        "name:uk": "Бе́льгія",
        "name:ur": "بلجئیم",
        "name:uz": "Belgiya",
        "name:vec": "Belgio",
        "name:vep": "Bel'gii",
        "name:vi": "Bỉ",
        "name:vls": "België",
        "name:vo": "Belgän",
        "name:wa": "Beldjike",
        "name:war": "Belhika",
        "name:wo": "Belsik",
        "name:wuu": "比利时",
        "name:xal": "Бельҗмудин Нутг",
        "name:xmf": "ბელგია",
        "name:yi": "בעלגיע",
        "name:yo": "Bẹ́ljíọ̀m",
        "name:yue": "比利時",
        "name:zea": "Belhië",
        "name:zh": "比利时 / 比利時",
        "name:zh-Hans": "比利时",
        "name:zh-Hant": "比利時",
        "name:zh_pinyin": "Bǐlìshí",
        "name:zu": "i-Belgium",
        "official_name": "Koninkrijk België / Royaume de Belgique / Königreich Belgien",
        "official_name:af": "Koninkryk van België",
        "official_name:als": "Königriich Belgie",
        "official_name:am": "የቤልጅግ መንግሥት",
        "official_name:an": "Reino de Belchica",
        "official_name:ang": "Belgice Cynerīce",
        "official_name:ar": "مملكة بلجيكا",
        "official_name:arc": "ܡܠܟܘܬܐ ܕܒܠܓܝܩܐ",
        "official_name:ast": "Reinu de Bélxica",
        "official_name:av": "Ханлъи Бе́льгия",
        "official_name:ay": "Bilhika Qhapaqsuyu",
        "official_name:az": "Belçika Krallığı",
        "official_name:azb": "بلژیک کراللیغی",
        "official_name:ba": "Бельгия Короллеге",
        "official_name:bar": "Kinigraich Bäigien",
        "official_name:bat-smg": "Belgėjės Karalīstė",
        "official_name:be": "Каралеўства Бельгія",
        "official_name:be-tarask": "Каралеўства Бельгія",
        "official_name:bg": "Кралство Белгия",
        "official_name:bm": "Bɛliziki Mansamara",
        "official_name:bn": "রাজতন্ত্রী বেলজিয়াম",
        "official_name:bo": "Kraljevina Belgija",
        "official_name:bpy": "রাজতান্ত্রিক বেলজিয়াম",
        "official_name:br": "Rouantelezh Belgia",
        "official_name:bs": "Kraljevina Belgija",
        "official_name:ca": "Regne de Bèlgica",
        "official_name:ce": "Монархи Бельги",
        "official_name:chr": "ᎤᎬᏫᏳᎯ ᎨᏒ ᎾᎿ ᎠᏲᎳᏂ",
        "official_name:co": "Regnu di Belgica",
        "official_name:crh": "Belçika Qırallığı",
        "official_name:cs": "Belgické království",
        "official_name:cu": "Кралѥ́вьство Бє́лгїѥ",
        "official_name:cy": "Teyrnas Gwlad Belg",
        "official_name:da": "Kongeriget Belgien",
        "official_name:de": "Königreich Belgien",
        "official_name:din": "Mäcŋaknhom ke Beljiem",
        "official_name:dsb": "Kralojstwo Belgiskej",
        "official_name:el": "Βασίλειο του Βελγίου",
        "official_name:eml": "Regno dal Bèlgi",
        "official_name:en": "Kingdom of Belgium",
        "official_name:eo": "Reĝlando Belgio",
        "official_name:es": "Reino de Bélgica",
        "official_name:et": "Belgia Kuningriik",
        "official_name:eu": "Belgikako Erresuma",
        "official_name:fa": "پادشاهی بلژیک",
        "official_name:fi": "Belgian kuningaskunta",
        "official_name:fiu-vro": "Belgiä Kuningriik",
        "official_name:fr": "Royaume de Belgique",
        "official_name:frp": "Royômo de Bèlg·ique",
        "official_name:frr": "Könangrik Belgien",
        "official_name:ga": "Ríocht na Beilge",
        "official_name:gd": "Rìoghachd na Beilge",
        "official_name:gl": "Reino de Bélxica",
        "official_name:gn": "Tetã Véyhika",
        "official_name:gv": "Reeriaght ny Belg",
        "official_name:he": "ממלכת בלגיה",
        "official_name:hi": "किंगडम ऑफ़ बेल्जियम",
        "official_name:hr": "Kraljevina Belgija",
        "official_name:hsb": "Belgiske kralestwo",
        "official_name:hu": "Belga Királyság",
        "official_name:hy": "Բելգիայի Թագավորություն",
        "official_name:ia": "Regno de Belgica",
        "official_name:id": "Kerajaan Belgia",
        "official_name:ig": "Obodoézè nke Belgium",
        "official_name:ilo": "Pagarian ti Belhika",
        "official_name:io": "Rejio di Belgia",
        "official_name:is": "Konungsríkið Belgía",
        "official_name:it": "Regno del Belgio",
        "official_name:ja": "ベルギー王国",
        "official_name:jam": "Kindom a Beljiom",
        "official_name:ka": "ბელგიის სამეფო",
        "official_name:kab": "Tigelda n Biljik",
        "official_name:kbd": "Белгэ Пэщтыхьей",
        "official_name:kg": "Nsi ya ntotila ya Belezi",
        "official_name:kk": "Бельгия Корольдігі",
        "official_name:kl": "Kunngeqarfik Belgia",
        "official_name:kn": "ಬೆಲ್ಜಿಯಂ ಸಂಸ್ಥಾನ",
        "official_name:ko": "벨기에 왕국",
        "official_name:koi": "Короля Белгия",
        "official_name:krc": "Бельгия Королевство",
        "official_name:ku": "Keyaniya Belçîkayê",
        "official_name:kv": "Бельгия Корольув",
        "official_name:kw": "Ruwvaneth Belgek",
        "official_name:ky": "Бельгия Королдугу",
        "official_name:la": "Regnum Belgicum",
        "official_name:lad": "Reyno de Beljika",
        "official_name:lb": "Kinnekräich Belsch",
        "official_name:lg": "Obwakabaka bwa Bubirigi",
        "official_name:li": "Keuninkriek Belsj",
        "official_name:lij": "Regno do Belgio",
        "official_name:lmo": "Regn del Belgi",
        "official_name:ln": "Mani ya Bɛ́ljika",
        "official_name:lo": "ລາຊະອານາຈັກແບນຊິກ",
        "official_name:lt": "Belgijos Karalystė",
        "official_name:lv": "Beļģijas Karaliste",
        "official_name:lzh": "比利時王國",
        "official_name:mdf": "Бельгие Оцязорксшись",
        "official_name:mk": "Кралство Белгија",
        "official_name:mn": "Бельгийн Вант Улс",
        "official_name:mr": "बेल्जियमचे राजतंत्र",
        "official_name:ms": "Kerajaan Belgium",
        "official_name:mt": "Renju tal-Belġju",
        "official_name:my": "ကင်းဒမ်းအော့ဖ် ဘယ်လ်ဂျီယမ်",
        "official_name:myv": "Бельгия Масторось",
        "official_name:nah": "Huēyitlahtohcāyōtl Belgica",
        "official_name:nan": "Pe̍k-ní-gī-kok",
        "official_name:nds": "Königriek vun Belgien",
        "official_name:nds-nl": "Koninkriek België",
        "official_name:new": "बेल्जियम राजतन्त्र",
        "official_name:nl": "Koninkrijk België",
        "official_name:nn": "Kongeriket Belgia",
        "official_name:no": "Kongeriket Belgia",
        "official_name:oc": "Reialme de Belgica",
        "official_name:olo": "Bel’gien kuningaskundu",
        "official_name:os": "Бельгийы Къаролад",
        "official_name:pa": "ਬੈਲਜੀਅਮ ਦੀ ਰਾਜਸ਼ਾਹੀ",
        "official_name:pam": "Ka-ariyan ning Belgika",
        "official_name:pap": "Reino Bélgika",
        "official_name:pcd": "Roéyôme d’ Bergike",
        "official_name:pfl": "Royaume de Belgique",
        "official_name:pl": "Królestwo Belgii",
        "official_name:pnt": "Βασίλειον τη Βελγί",
        "official_name:ps": "د بلجیم بادشاهي",
        "official_name:pt": "Reino da Bélgica",
        "official_name:qu": "Bilhika Qhapaqsuyu",
        "official_name:rm": "Reginavel da la Belgia",
        "official_name:rmy": "Thangaripen Beljiyako",
        "official_name:rn": "Irepuburika y’Ububirigi",
        "official_name:ro": "Regatul Belgiei",
        "official_name:roa-tara": "Regne d'u Bèlgie",
        "official_name:ru": "Королевство Бельгия",
        "official_name:rue": "Белґіцьке кралёвство",
        "official_name:rw": "Igihugu cy’Ububirigi",
        "official_name:sah": "Бельгия Хоруоллуга",
        "official_name:sc": "Rennu de Bèlgiu",
        "official_name:sco": "Kinrick o Belgium",
        "official_name:sd": "بيلجيم جي شهنشاهيت",
        "official_name:se": "Belgia gonagasriika",
        "official_name:sg": "Ködörö-gbïä tî Bêleze",
        "official_name:sh": "Kraljevina Belgija",
        "official_name:sk": "Belgické kráľovstvo",
        "official_name:sl": "Kraljevína Bélgija",
        "official_name:sm": "Malo o Peleseuma",
        "official_name:sq": "Mbretëria e Belgjikës",
        "official_name:sr": "Краљевина Белгија",
        "official_name:su": "Karajaan Bélgia",
        "official_name:sv": "Konungariket Belgien",
        "official_name:sw": "Ufalme wa Ubelgiji",
        "official_name:szl": "Krůlestwo Belgije",
        "official_name:ta": "பெல்ஜியம் இராச்சியம்",
        "official_name:te": "బెల్జియం రాజ్యం",
        "official_name:tet": "Reinu Béljika nian",
        "official_name:tg": "Шоҳигарии Бeлгия",
        "official_name:th": "ราชอาณาจักรเบลเยียม",
        "official_name:tk": "Belgiýa korollygy",
        "official_name:tl": "Kaharian ng Belhika",
        "official_name:tr": "Belçika Krallığı",
        "official_name:tt": "Бе́льгия Корольлеге́",
        "official_name:udm": "Королевство Бельгия",
        "official_name:ug": "بېلگىيە پادىشاھلىقى",
        "official_name:uk": "Королі́вство Бе́льгія",
        "official_name:ur": "مملکت بلجئیم",
        "official_name:uz": "Belgiya Qirolligi",
        "official_name:vec": "Regno del Belgio",
        "official_name:vep": "Bel'gijan Kunigahuz",
        "official_name:vi": "Vương quốc Bỉ",
        "official_name:vls": "Keunienkryk België",
        "official_name:vo": "Regän Belgäna",
        "official_name:wa": "Royåme di Beldjike",
        "official_name:war": "Ginhadi-an han Belhika",
        "official_name:wo": "Ruwaayom bu Beljik",
        "official_name:xal": "Бельҗмудин Орн Нутг",
        "official_name:xmf": "ბელგიაშ ომაფე",
        "official_name:yi": "קעניגרייך פון בעלגיע",
        "official_name:yo": "Ilẹ̀ọba Bẹ́ljíọ̀m",
        "official_name:yue": "比利時王國",
        "official_name:zea": "Konienkriek België",
        "official_name:zh": "比利时王国 / 比利時王國",
        "official_name:zh-Hans": "比利时王国",
        "official_name:zh-Hant": "比利時王國",
        "timezone": "Europe/Brussels",
        "type": "boundary",
        "wikidata": "Q31",
        "wikipedia": "nl:België"
      }
    },
    {
      "type": "area",
      "id": 3600053114,
      "tags": {
        "ISO3166-2": "BE-VAN",
        "admin_level": "6",
        "alt_name:ar": "أنتفيرب",
        "alt_name:es": "Antuerpia",
        "alt_name:mk": "Антверп",
        "border_type": "province",
        "boundary": "administrative",
        "capital": "6",
        "name": "Antwerpen",
        "name:ar": "أنتويرب",
        "name:ca": "Anvers",
        "name:cs": "Antverpy",
        "name:de": "Antwerpen",
        "name:el": "Αμβέρσα",
        "name:en": "Antwerp",
        "name:eo": "Antverpeno",
        "name:es": "Amberes",
        "name:fi": "Antwerpen",
        "name:fr": "Anvers",
        "name:he": "אנטוורפן",
        "name:hr": "Antwerpen",
        "name:hu": "Antwerpen",
        "name:hy": "Անտվերպեն",
        "name:it": "Anversa",
        "name:ja": "アントワープ",
        "name:ka": "ანტვერპენი",
        "name:kn": "ಆಂಟ್ವೆರ್ಪ್",
        "name:la": "Antverpia",
        "name:lt": "Antverpenas",
        "name:lv": "Antverpene",
        "name:mk": "Антверпен",
        "name:nds": "Antwarp",
        "name:nds-nl": "Antwaarp",
        "name:nl": "Antwerpen",
        "name:pcd": "Anvérse",
        "name:pl": "Antwerpia",
        "name:pt": "Antuérpia",
        "name:ru": "Антверпен",
        "name:sk": "Antverpy",
        "name:sr": "Антверпен",
        "name:tzl": "Anviarça",
        "name:uk": "Антверпен",
        "name:vls": "Antwerpn",
        "name:wa": "Anverse",
        "name:zh": "安特卫普",
        "official_name": "Provincie Antwerpen",
        "official_name:ar": "مقاطعة أنتويرب",
        "official_name:nl": "Provincie Antwerpen",
        "old_name:de": "Antorf",
        "population": "1802719",
        "population:date": "2014-01-01",
        "ref:INS": "10000",
        "ref:nuts": "BE21",
        "ref:nuts:2": "BE21",
        "source:population": "wiki/ADSEI",
        "type": "boundary",
        "website": "https://www.provincieantwerpen.be/",
        "wikidata": "Q1116",
        "wikipedia": "nl:Antwerpen (provincie)"
      }
    },
    {
      "type": "area",
      "id": 3600053134,
      "tags": {
        "ISO3166-2": "BE-VLG",
        "admin_level": "4",
        "border_type": "state",
        "boundary": "administrative",
        "default_language": "nl",
        "name": "Vlaanderen",
        "name:ar": "فلاندر",
        "name:br": "Flandrez",
        "name:ca": "Flandes",
        "name:de": "Flandern",
        "name:el": "Φλάνδρα",
        "name:en": "Flanders",
        "name:eo": "Flandrio",
        "name:es": "Flandes",
        "name:et": "Flandria",
        "name:fi": "Flanderi",
        "name:fr": "Flandre",
        "name:fy": "Flaanderen",
        "name:hu": "Flandria",
        "name:ja": "フランデレン地域",
        "name:ka": "ფლანდრია",
        "name:ko": "플라망 지역",
        "name:lb": "Flandern",
        "name:li": "Vlaondere",
        "name:lt": "Flandrija",
        "name:nl": "Vlaanderen",
        "name:pcd": "Flande",
        "name:pt": "Flandres",
        "name:ru": "Фландрия",
        "name:sk": "Flámsko",
        "name:th": "เขตฟลามส์",
        "name:tzl": "Flemphäts",
        "name:vls": "Vloandern",
        "name:wa": "Flande",
        "name:zh": "弗拉芒大區",
        "name:zh-Hans": "弗拉芒大区",
        "name:zh-Hant": "弗拉芒大區",
        "nat_name": "Vlaams Gewest",
        "nat_name:ar": "الإقليم الفلامندي",
        "nat_name:be": "Фламандскі рэгіён",
        "nat_name:bg": "Фламандски регион",
        "nat_name:ca": "Regió flamenca",
        "nat_name:de": "Flämische Region",
        "nat_name:el": "Φλαμανδική Περιοχή",
        "nat_name:en": "Flemish Region",
        "nat_name:eo": "Flandra Regiono",
        "nat_name:fr": "Région flamande",
        "nat_name:fy": "Flaamsk Gewest",
        "nat_name:lb": "Flämesch Regioun",
        "nat_name:li": "Vlaondere Gewes",
        "nat_name:mk": "Фламански регион",
        "nat_name:nl": "Vlaams Gewest",
        "nat_name:os": "Фламандийы регион",
        "nat_name:pcd": "Région flaminke",
        "nat_name:pl": "Region Flamandzki",
        "nat_name:ru": "Фламандский регион",
        "nat_name:sk": "Flámsky región",
        "nat_name:tr": "Flaman Bölgesi",
        "nat_name:vls": "Vlams Gewest",
        "nat_name:wa": "Redjon flaminde",
        "ref:INS": "02000",
        "ref:nuts:1": "BE2",
        "source:name:br": "ofis publik ar brezhoneg",
        "type": "boundary",
        "website": "https://www.vlaanderen.be/",
        "wikidata": "Q9337",
        "wikipedia": "nl:Vlaams Gewest"
      }
    },
    {
      "type": "area",
      "id": 3600053136,
      "tags": {
        "boundary": "political",
        "default_language": "nl",
        "euro_const": "BE",
        "name": "Vlaamse Gemeenschap - Communauté flamande",
        "name:ar": "المجتمع الفلامندي",
        "name:ca": "Comunitat flamenca",
        "name:de": "Flämische Gemeinschaft",
        "name:en": "Flemish Community",
        "name:fr": "Communauté flamande",
        "name:fy": "Frânske Mienskip",
        "name:hu": "Flamand közösség",
        "name:lt": "Flamandų bendruomenė",
        "name:nl": "Vlaamse Gemeenschap",
        "name:sk": "Flámske spoločenstvo",
        "political_division": "linguistic_community",
        "type": "boundary",
        "wikidata": "Q9331",
        "wikipedia": "nl:Vlaamse Gemeenschap"
      }
    },
    {
      "type": "area",
      "id": 3600937244,
      "tags": {
        "ISO3166-1": "BE",
        "admin_level": "2",
        "flag": "http://upload.wikimedia.org/wikipedia/commons/6/65/Flag_of_Belgium.svg",
        "land_area": "administrative",
        "name": "België / Belgique / Belgien (land mass)",
        "name:ar": "بلجيكا (كتلة اليابسة)",
        "name:ca": "Bèlgica (terra)",
        "name:de": "Belgien (Landmasse)",
        "name:en": "Belgium (land mass)",
        "name:fr": "Belgique (terres)",
        "name:lt": "Belgija (žemė)",
        "name:nl": "België (land)",
        "type": "land_area"
      }
    },
    {
      "type": "area",
      "id": 3600964259,
      "tags": {
        "admin_level": "8",
        "boundary": "administrative",
        "name": "Lier",
        "name:bg": "Лийр",
        "name:br": "Lier",
        "name:da": "Lier",
        "name:de": "Lier",
        "name:es": "Lier",
        "name:fr": "Lierre",
        "name:it": "Lier",
        "name:nl": "Lier",
        "name:ru": "Лир",
        "name:sr": "Лир",
        "name:uk": "Лір",
        "name:wa": "Lierre",
        "name:zh": "利尔",
        "ref:INS": "12021",
        "type": "boundary",
        "website": "https://www.lier.be/",
        "wikidata": "Q12460",
        "wikipedia": "nl:Lier (België)"
      }
    },
    {
      "type": "area",
      "id": 3602524403,
      "tags": {
        "admin_level": "7",
        "alt_name:la": "Mechlinia",
        "boundary": "administrative",
        "name": "Mechelen",
        "name:de": "Mecheln",
        "name:fr": "Malines",
        "name:la": "Maclinia",
        "name:nl": "Mechelen",
        "name:ru": "Мехелен",
        "name:vls": "Mecheln",
        "official_name": "Arrondissement Mechelen",
        "official_name:nl": "Arrondissement Mechelen",
        "old_name:en": "Mechlin",
        "ref:INS": "12000",
        "ref:nuts": "BE212",
        "ref:nuts:3": "BE212",
        "type": "boundary",
        "wikidata": "Q90905",
        "wikipedia": "nl:Arrondissement Mechelen"
      }
    },
    {
      "type": "area",
      "id": 3603365990,
      "tags": {
        "boundary": "postal_code",
        "note": "2500 Lier",
        "postal_code": "2500",
        "type": "boundary"
      }
    },
    {
      "type": "area",
      "id": 3603868385,
      "tags": {
        "admin_level": "9",
        "boundary": "administrative",
        "name": "Lier",
        "ref:INS": "12021A",
        "type": "boundary"
      }
    },
    {
      "type": "area",
      "id": 3612728392,
      "tags": {
        "boundary": "administrative_cooperation",
        "name": "Benelux",
        "note": "Caribbean Netherlands (BES islands) joined the Benelux per the 2012-01-01 revision of the Benelux Treaty.",
        "official_name": "Benelux Unie / Union Benelux",
        "official_name:-2012-01-01": "Benelux Economische Unie / Union économique Benelux",
        "official_name:de": "Benelux-Union",
        "official_name:de:-2012-01-01": "Benelux-Wirtschaftsunion",
        "official_name:en": "Benelux Union",
        "official_name:en:-2012-01-01": "Benelux Economic Union",
        "official_name:fr": "Union Benelux",
        "official_name:fr:-2012-01-01": "Union économique Benelux",
        "official_name:lb": "Benelux-Unioun",
        "official_name:nl": "Benelux Unie",
        "official_name:nl:-2012-01-01": "Benelux Economische Unie",
        "source": "https://www.parlementairemonitor.nl/9353000/1/j9vvij5epmj1ey0/vhy97r97ikz8",
        "type": "boundary",
        "website": "https://benelux.int/",
        "wikidata": "Q13116",
        "wikipedia": "nl:Benelux"
      }
    },
    {
      "type": "area",
      "id": 3613325281,
      "tags": {
        "boundary": "administrative_cooperation",
        "description:en": "Treaty organisation of the Netherlands and the Flemish Community. Has an association agreement with Suriname and collaborates with other countries within the Kingdom of the Netherlands.",
        "description:nl": "Verdragsorganisatie van Nederland en de Vlaamse Gemeenschap. Heeft een associatieovereenkomst met Suriname en werkt samen met andere landen binnen het Koninkrijk der Nederlanden.",
        "name": "Nederlandse Taalunie",
        "name:en": "Dutch Language Union",
        "name:fr": "Union linguistique néerlandaise",
        "name:nl": "Nederlandse Taalunie",
        "short_name": "Taalunie",
        "short_name:en": "Language Union",
        "short_name:fr": "Union linguistique",
        "short_name:nl": "Taalunie",
        "source": "https://taalunie.org/informatie/36/verdragen-overeenkomsten-en-regelingen",
        "type": "boundary",
        "website": "https://taalunie.org/",
        "wikidata": "Q152299",
        "wikipedia": "nl:Nederlandse Taalunie"
      }
    },
    {
      "type": "node",
      "id": 1116218182,
      "lat": 51.147955,
      "lon": 4.5481206,
      "timestamp": "2016-07-02T08:59:03Z",
      "version": 2,
      "changeset": 40435879,
      "user": "lodde1949",
      "uid": 138772
    },
    {
      "type": "node",
      "id": 1116218233,
      "lat": 51.1482598,
      "lon": 4.5511202,
      "timestamp": "2011-01-22T22:12:31Z",
      "version": 1,
      "changeset": 7056004,
      "user": "lodde1949",
      "uid": 138772
    },
    {
      "type": "node",
      "id": 1116218324,
      "lat": 51.1492702,
      "lon": 4.5494458,
      "timestamp": "2016-07-02T08:59:03Z",
      "version": 2,
      "changeset": 40435879,
      "user": "lodde1949",
      "uid": 138772
    },
    {
      "type": "node",
      "id": 1116218401,
      "lat": 51.1474328,
      "lon": 4.5479625,
      "timestamp": "2016-07-02T08:59:03Z",
      "version": 2,
      "changeset": 40435879,
      "user": "lodde1949",
      "uid": 138772
    },
    {
      "type": "node",
      "id": 1116218584,
      "lat": 51.1481147,
      "lon": 4.552006,
      "timestamp": "2011-01-22T22:12:41Z",
      "version": 1,
      "changeset": 7056004,
      "user": "lodde1949",
      "uid": 138772
    },
    {
      "type": "node",
      "id": 1116218657,
      "lat": 51.1495389,
      "lon": 4.5487951,
      "timestamp": "2016-07-02T08:59:03Z",
      "version": 2,
      "changeset": 40435879,
      "user": "lodde1949",
      "uid": 138772
    },
    {
      "type": "node",
      "id": 1118811416,
      "lat": 51.1488247,
      "lon": 4.5493937,
      "timestamp": "2016-07-02T08:59:03Z",
      "version": 2,
      "changeset": 40435879,
      "user": "lodde1949",
      "uid": 138772
    },
    {
      "type": "node",
      "id": 1118811568,
      "lat": 51.1504603,
      "lon": 4.5498681,
      "timestamp": "2016-07-02T08:59:03Z",
      "version": 2,
      "changeset": 40435879,
      "user": "lodde1949",
      "uid": 138772
    },
    {
      "type": "node",
      "id": 1118812507,
      "lat": 51.1505192,
      "lon": 4.5494327,
      "timestamp": "2011-01-24T15:46:16Z",
      "version": 1,
      "changeset": 7074370,
      "user": "lodde1949",
      "uid": 138772
    },
    {
      "type": "node",
      "id": 4277861500,
      "lat": 51.1457352,
      "lon": 4.5507304,
      "timestamp": "2016-07-02T08:58:58Z",
      "version": 1,
      "changeset": 40435879,
      "user": "lodde1949",
      "uid": 138772
    },
    {
      "type": "node",
      "id": 4277861501,
      "lat": 51.1457509,
      "lon": 4.5504978,
      "timestamp": "2016-07-02T08:58:58Z",
      "version": 1,
      "changeset": 40435879,
      "user": "lodde1949",
      "uid": 138772
    },
    {
      "type": "node",
      "id": 4277861512,
      "lat": 51.1459802,
      "lon": 4.5484788,
      "timestamp": "2016-07-02T08:58:59Z",
      "version": 1,
      "changeset": 40435879,
      "user": "lodde1949",
      "uid": 138772
    },
    {
      "type": "node",
      "id": 4277861514,
      "lat": 51.1459854,
      "lon": 4.5493179,
      "timestamp": "2016-07-02T08:58:59Z",
      "version": 1,
      "changeset": 40435879,
      "user": "lodde1949",
      "uid": 138772
    },
    {
      "type": "node",
      "id": 4277861515,
      "lat": 51.1460011,
      "lon": 4.5469832,
      "timestamp": "2016-07-02T08:58:59Z",
      "version": 1,
      "changeset": 40435879,
      "user": "lodde1949",
      "uid": 138772
    },
    {
      "type": "node",
      "id": 4277861610,
      "lat": 51.1495089,
      "lon": 4.5490604,
      "timestamp": "2016-07-02T08:59:00Z",
      "version": 1,
      "changeset": 40435879,
      "user": "lodde1949",
      "uid": 138772
    },
    {
      "type": "node",
      "id": 6947535293,
      "lat": 51.1502429,
      "lon": 4.5493309,
      "timestamp": "2019-11-05T07:38:08Z",
      "version": 1,
      "changeset": 76628768,
      "user": "Dejokke",
      "uid": 2117603
    },
    {
      "type": "node",
      "id": 6947535324,
      "lat": 51.148038,
      "lon": 4.5481559,
      "timestamp": "2019-11-05T07:38:08Z",
      "version": 1,
      "changeset": 76628768,
      "user": "Dejokke",
      "uid": 2117603
    },
    {
      "type": "way",
      "id": 46150864,
      "timestamp": "2009-12-13T10:44:27Z",
      "version": 1,
      "changeset": 3361355,
      "user": "lodde1949",
      "uid": 138772,
      "nodes": [
        588398297,
        588398298,
        588398299,
        588398300,
        588398297
      ],
      "tags": {
        "leisure": "pitch",
        "sport": "tennis"
      }
    },
    {
      "type": "way",
      "id": 46150865,
      "timestamp": "2009-12-13T10:44:28Z",
      "version": 1,
      "changeset": 3361355,
      "user": "lodde1949",
      "uid": 138772,
      "nodes": [
        588398301,
        588398302,
        588398303,
        588398304,
        588398305,
        588398306,
        588398307,
        588398308,
        588398301
      ],
      "tags": {
        "leisure": "pitch",
        "sport": "tennis"
      }
    },
    {
      "type": "way",
      "id": 46150866,
      "timestamp": "2009-12-13T10:44:28Z",
      "version": 1,
      "changeset": 3361355,
      "user": "lodde1949",
      "uid": 138772,
      "nodes": [
        588398309,
        588398310,
        588398311,
        588398312,
        588398309
      ],
      "tags": {
        "leisure": "pitch",
        "sport": "tennis"
      }
    },
    {
      "type": "way",
      "id": 89944075,
      "timestamp": "2014-09-09T12:37:18Z",
      "version": 2,
      "changeset": 25327190,
      "user": "Glenn Plas",
      "uid": 497567,
      "nodes": [
        1042562578,
        1042563250,
        1042562770,
        1042562179,
        1042562578
      ],
      "tags": {
        "leisure": "pitch",
        "sport": "hockey"
      }
    },
    {
      "type": "way",
      "id": 89944115,
      "timestamp": "2014-09-09T12:37:18Z",
      "version": 2,
      "changeset": 25327190,
      "user": "Glenn Plas",
      "uid": 497567,
      "nodes": [
        1042564197,
        1042562775,
        1042562405,
        1042564270,
        1042564197
      ],
      "tags": {
        "leisure": "pitch",
        "sport": "hockey"
      }
    },
    {
      "type": "way",
      "id": 96590441,
      "timestamp": "2021-04-04T11:18:35Z",
      "version": 3,
      "changeset": 102266340,
      "user": "sh85",
      "uid": 1721850,
      "nodes": [
        1116218584,
        1118811471,
        1118811916,
        1118811298,
        1118811639,
        1118812157,
        1118811444,
        1118811819,
        4277861611,
        1118812507,
        1118811568,
        1116218324,
        1118811416,
        1116218233,
        1116218584
      ],
      "tags": {
        "landuse": "farmland"
      }
    },
    {
      "type": "way",
      "id": 96590444,
      "timestamp": "2019-02-20T23:33:41Z",
      "version": 8,
      "changeset": 67411237,
      "user": "Fantômas",
      "uid": 9178370,
      "nodes": [
        1116218182,
        1118812589,
        288993609,
        4613767649,
        288993616,
        288993610,
        588392178,
        254100878,
        588392181,
        6292199040,
        6292199039,
        254101964,
        4277861515,
        1116218401,
        1116218182
      ],
      "tags": {
        "landuse": "industrial"
      }
    },
    {
      "type": "way",
      "id": 96590456,
      "timestamp": "2020-08-25T20:12:50Z",
      "version": 5,
      "changeset": 89933254,
      "user": "H4N5-antw",
      "uid": 10846743,
      "nodes": [
        1118811371,
        1118530460,
        1118530557,
        1118530371,
        1118530513,
        1118530550,
        1118530359,
        4244686305,
        1118530505,
        1118530449,
        1118530510,
        1118530304,
        1118530403,
        1118530302,
        1118812314,
        7844377398,
        1118811749,
        1118812589,
        1116218182,
        6947535324,
        1116218657,
        1116218291,
        1116218212,
        1116218404,
        4277861612,
        1118811414,
        1118811782,
        1118812432,
        1118812428,
        1118811543,
        1118812015,
        1118811341,
        1118811712,
        1118812221,
        1118811467,
        1118811912,
        1118811293,
        1118811371
      ],
      "tags": {
        "landuse": "farmland"
      }
    },
    {
      "type": "way",
      "id": 287479289,
      "timestamp": "2014-06-11T12:41:32Z",
      "version": 2,
      "changeset": 22870625,
      "user": "Dejokke",
      "uid": 2117603,
      "nodes": [
        2910818728,
        2910818729,
        2910818730,
        2910818731,
        2910818732,
        2910818733
      ],
      "tags": {
        "highway": "path"
      }
    },
    {
      "type": "way",
      "id": 287479533,
      "timestamp": "2021-11-24T12:53:16Z",
      "version": 4,
      "changeset": 114181272,
      "user": "sh85",
      "uid": 1721850,
      "nodes": [
        2910823023,
        2910823024,
        2910823025,
        2910823026,
        2910823027,
        2910823028,
        5348700810
      ],
      "tags": {
        "highway": "track"
      }
    },
    {
      "type": "way",
      "id": 287479535,
      "timestamp": "2014-06-11T10:23:33Z",
      "version": 1,
      "changeset": 22868376,
      "user": "Dejokke",
      "uid": 2117603,
      "nodes": [
        2910823027,
        2910818733
      ],
      "tags": {
        "highway": "track"
      }
    },
    {
      "type": "way",
      "id": 293591006,
      "timestamp": "2014-07-20T21:00:24Z",
      "version": 1,
      "changeset": 24262280,
      "user": "El RoKa",
      "uid": 2198964,
      "nodes": [
        1531247071,
        2972053699,
        2972053700,
        2972053701,
        2972053702
      ],
      "tags": {
        "bicycle": "yes",
        "highway": "footway",
        "wheelchair": "yes"
      }
    },
    {
      "type": "way",
      "id": 307302160,
      "timestamp": "2014-10-14T16:29:18Z",
      "version": 4,
      "changeset": 26075979,
      "user": "aknx",
      "uid": 2392422,
      "nodes": [
        3124015012,
        3124016516,
        3124019858,
        3124015013
      ],
      "tags": {
        "highway": "footway",
        "surface": "paved"
      }
    },
    {
      "type": "way",
      "id": 307302172,
      "timestamp": "2014-10-12T06:02:53Z",
      "version": 2,
      "changeset": 26018703,
      "user": "zors1843",
      "uid": 233248,
      "nodes": [
        734126504,
        3124016516,
        3124016515
      ],
      "tags": {
        "highway": "footway"
      }
    },
    {
      "type": "way",
      "id": 307302426,
      "timestamp": "2014-10-12T06:02:53Z",
      "version": 2,
      "changeset": 26018703,
      "user": "zors1843",
      "uid": 233248,
      "nodes": [
        242793482,
        3124019858,
        734126739
      ],
      "tags": {
        "highway": "footway"
      }
    },
    {
      "type": "way",
      "id": 428703604,
      "timestamp": "2021-04-04T11:18:35Z",
      "version": 6,
      "changeset": 102266340,
      "user": "sh85",
      "uid": 1721850,
      "nodes": [
        4277861515,
        4277861512,
        4277861514,
        4277861501,
        4277861500,
        1116218584,
        1116218233,
        1118811416,
        1116218324,
        1118811568,
        1118812507,
        6947535293,
        4277861610,
        1116218657,
        6947535324,
        1116218182,
        1116218401,
        4277861515
      ],
      "tags": {
        "dog": "leashed",
        "intermittent": "yes",
        "leisure": "park",
        "name": "Provinciaal Overstromingsgebied Plaslaar",
        "opening_hours": "24/7",
        "opening_hours:covid19": "same",
        "operator": "Stad Lier",
        "salt": "no"
      }
    },
    {
      "type": "way",
      "id": 428703605,
      "timestamp": "2019-11-05T07:38:08Z",
      "version": 2,
      "changeset": 76628768,
      "user": "Dejokke",
      "uid": 2117603,
      "nodes": [
        4277861612,
        4277861611,
        1118812507,
        6947535293,
        4277861610,
        1116218657,
        1116218291,
        1116218212,
        1116218404,
        4277861612
      ],
      "tags": {
        "landuse": "forest"
      }
    },
    {
      "type": "way",
      "id": 466611341,
      "timestamp": "2017-01-17T08:58:20Z",
      "version": 1,
      "changeset": 45237106,
      "user": "JanFi",
      "uid": 672253,
      "nodes": [
        4613767649,
        4613767648,
        4613767647,
        1531248656
      ],
      "tags": {
        "highway": "path"
      }
    },
    {
      "type": "way",
      "id": 554207530,
      "timestamp": "2018-01-19T08:28:22Z",
      "version": 1,
      "changeset": 55571602,
      "user": "wegspotter",
      "uid": 428001,
      "nodes": [
        5348700806,
        5348700800
      ],
      "tags": {
        "highway": "path"
      }
    },
    {
      "type": "way",
      "id": 554207531,
      "timestamp": "2018-01-19T08:28:22Z",
      "version": 1,
      "changeset": 55571602,
      "user": "wegspotter",
      "uid": 428001,
      "nodes": [
        5348700792,
        5348700791,
        5348700808
      ],
      "tags": {
        "highway": "path"
      }
    },
    {
      "type": "way",
      "id": 554207532,
      "timestamp": "2018-01-19T08:28:22Z",
      "version": 1,
      "changeset": 55571602,
      "user": "wegspotter",
      "uid": 428001,
      "nodes": [
        5348700810,
        5348700809,
        5348700808,
        5348700807,
        5348700806,
        5348700805,
        5348700804,
        5348700803,
        5348700802,
        5348700801,
        5348700800,
        5348700799,
        5348700798,
        5348700797,
        5348700796,
        5348700795,
        5348700794,
        5348700793,
        5348700792,
        693394222
      ],
      "tags": {
        "highway": "path"
      }
    },
    {
      "type": "way",
      "id": 742096283,
      "timestamp": "2020-10-31T13:26:52Z",
      "version": 2,
      "changeset": 93338157,
      "user": "H4N5-antw",
      "uid": 10846743,
      "nodes": [
        4613767647,
        6947500284,
        6947535285,
        6947535286,
        6947535287,
        288993609,
        6947535288,
        6947535289,
        8068822123,
        6947535290
      ],
      "tags": {
        "highway": "path",
        "surface": "gravel"
      }
    },
    {
      "type": "way",
      "id": 742096284,
      "timestamp": "2020-10-31T13:26:52Z",
      "version": 2,
      "changeset": 93338157,
      "user": "H4N5-antw",
      "uid": 10846743,
      "nodes": [
        6947535290,
        6947535291,
        6947535292,
        6947535293,
        6947535294,
        6947535295,
        6947535296,
        6947535297,
        6947535298,
        6947535299,
        6947535300,
        6947535301,
        6947535302,
        6947535303,
        6947535304,
        6947535325,
        6947535305,
        6947535306,
        6947535327,
        6947535307,
        6947535308,
        6947535309,
        6947535310,
        6947535311,
        6947535313,
        6947535314,
        6947535315,
        6947535316,
        6947535317,
        6947535318,
        6947535319,
        6947535320,
        6947535321,
        6947535322,
        6947535323,
        6947535324,
        6947535290
      ],
      "tags": {
        "bicycle": "permissive",
        "highway": "path",
        "horse": "no",
        "mapillary": "https://www.mapillary.com/map/im/LqWpgIlZUioj3cwAFzk5vl",
        "name": "Provinciaal Overstromingsgebied Plaslaar",
        "note": "bicycle=yes, gezien fietser in voorkomend geval apart schildje naast dat voor gemotoriseerde voertuigen",
        "surface": "compacted"
      }
    },
    {
      "type": "way",
      "id": 775050259,
      "timestamp": "2020-02-20T16:43:25Z",
      "version": 1,
      "changeset": 81282097,
      "user": "A127",
      "uid": 9374269,
      "nodes": [
        7230923919,
        7230923926,
        7230923927,
        7230923914,
        7230923924
      ],
      "tags": {
        "highway": "footway"
      }
    },
    {
      "type": "way",
      "id": 865652880,
      "timestamp": "2020-10-31T13:26:52Z",
      "version": 1,
      "changeset": 93338157,
      "user": "H4N5-antw",
      "uid": 10846743,
      "nodes": [
        2910826691,
        8068822121,
        6947535314
      ],
      "tags": {
        "highway": "path",
        "incline": "20%"
      }
    },
    {
      "type": "way",
      "id": 914344979,
      "timestamp": "2021-03-07T10:52:34Z",
      "version": 1,
      "changeset": 100568646,
      "user": "SirKillian",
      "uid": 12699429,
      "nodes": [
        8493796082,
        8493796083,
        8493796084,
        8493796085
      ],
      "tags": {
        "highway": "path"
      }
    },
    {
      "type": "way",
      "id": 985426802,
      "timestamp": "2021-09-21T06:56:00Z",
      "version": 1,
      "changeset": 111478083,
      "user": "H4N5-antw",
      "uid": 10846743,
      "nodes": [
        9110068539,
        9110068540,
        9110068541,
        9110068542,
        9110068539
      ],
      "tags": {
        "access": "permit",
        "leisure": "pitch",
        "sport": "hockey"
      }
    },
    {
      "type": "way",
      "id": 1005851822,
      "timestamp": "2021-11-24T12:53:16Z",
      "version": 1,
      "changeset": 114181272,
      "user": "sh85",
      "uid": 1721850,
      "nodes": [
        5348700810,
        3465564509,
        2910823029
      ],
      "tags": {
        "highway": "track"
      }
    },
    {
      "type": "area",
      "id": 3600052411,
      "tags": {
        "ISO3166-1": "BE",
        "ISO3166-1:alpha2": "BE",
        "ISO3166-1:alpha3": "BEL",
        "ISO3166-1:numeric": "056",
        "TMC:cid_58:tabcd_1:Class": "Area",
        "TMC:cid_58:tabcd_1:LCLversion": "8.00",
        "TMC:cid_58:tabcd_1:LocationCode": "3",
        "admin_level": "2",
        "alt_name:ay": "Bilgasuyu",
        "alt_name:bar": "Bejgien",
        "alt_name:ckb": "بلژیک",
        "alt_name:eo": "Belgujo",
        "alt_name:frp": "Bèlg·ica",
        "alt_name:fur": "Belgjiche;Belgje",
        "alt_name:fy": "België;it Belzelân",
        "alt_name:kbd": "Белгэ",
        "alt_name:ksh": "Belgien",
        "alt_name:ku": "Belcîka",
        "alt_name:la": "Belgium",
        "alt_name:li": "Belzjiek",
        "alt_name:mzn": "بلجیک",
        "alt_name:qu": "Bilgasuyu",
        "alt_name:rw": "Ububirigi",
        "alt_name:so": "Belgium",
        "alt_name:war": "Bélgica",
        "boundary": "administrative",
        "currency": "EUR",
        "flag": "http://upload.wikimedia.org/wikipedia/commons/6/65/Flag_of_Belgium.svg",
        "int_name": "Belgium",
        "name": "België / Belgique / Belgien",
        "name:ace": "Bèlgia",
        "name:ady": "Белгие",
        "name:af": "België",
        "name:ak": "Belgium",
        "name:als": "Belgie",
        "name:am": "ቤልጅግ",
        "name:an": "Belchica",
        "name:ang": "Belgice",
        "name:ar": "بلجيكا",
        "name:arc": "ܒܠܓܝܩܐ",
        "name:arz": "بلجيكا",
        "name:ast": "Bélxica",
        "name:av": "Бе́льгия",
        "name:ay": "Bilkiya",
        "name:az": "Belçika",
        "name:azb": "بلژیک",
        "name:ba": "Бе́льгия",
        "name:bar": "Bäigien",
        "name:bat-smg": "Belgėjė",
        "name:bcl": "Belhika",
        "name:be": "Бeльгія",
        "name:be-tarask": "Бэ́льгія",
        "name:bg": "Белгия",
        "name:bh": "बेल्जियम",
        "name:bi": "Beljiom",
        "name:bm": "Bɛliziki",
        "name:bn": "বেলজিয়াম",
        "name:bo": "པེར་ཅིན།",
        "name:bpy": "বেলজিয়াম",
        "name:br": "Belgia",
        "name:bs": "Belgija",
        "name:bug": "Belgia",
        "name:bxr": "Бельги",
        "name:ca": "Bèlgica",
        "name:cbk-zam": "Bélgica",
        "name:cdo": "Bī-lé-sì",
        "name:ce": "Бельги",
        "name:ceb": "Belhika",
        "name:chr": "ᏇᎵᏥᎥᎻ",
        "name:ckb": "بەلجیکا",
        "name:co": "Belgica",
        "name:crh": "Belçika",
        "name:cs": "Belgie",
        "name:csb": "Belgijskô",
        "name:cu": "Бє́лгїѥ",
        "name:cv": "Бельги",
        "name:cy": "Gwlad Belg",
        "name:da": "Belgien",
        "name:de": "Belgien",
        "name:din": "Beljiem",
        "name:diq": "Belçıka",
        "name:dsb": "Belgiska",
        "name:dty": "बेल्जियम",
        "name:dv": "ބެލްޖިއަމް",
        "name:dz": "བེལ་ཇིཡམ",
        "name:ee": "Belgium",
        "name:el": "Βέλγιο",
        "name:eml": "Bélgi",
        "name:en": "Belgium",
        "name:eo": "Belgio",
        "name:es": "Bélgica",
        "name:et": "Belgia",
        "name:eu": "Belgika",
        "name:ext": "Bélgica",
        "name:fa": "بلژیک",
        "name:ff": "Beljik",
        "name:fi": "Belgia",
        "name:fiu-vro": "Belgiä",
        "name:fo": "Belgia",
        "name:fr": "Belgique",
        "name:frp": "Bèlg·ique",
        "name:frr": "Bälgien",
        "name:fur": "Belgjo",
        "name:fy": "Belgje",
        "name:ga": "an Bheilg",
        "name:gag": "Belgiya",
        "name:gd": "a' Bheilg",
        "name:gl": "Bélxica",
        "name:gn": "Véyhika",
        "name:gom": "बेल्जियम",
        "name:gu": "બેલ્જિયમ",
        "name:gv": "Velg",
        "name:ha": "Beljik",
        "name:hak": "Pí-li-sṳ̀",
        "name:haw": "Pelekiuma",
        "name:he": "בֶּלְגְיָה",
        "name:hi": "बेल्जियम",
        "name:hif": "Belgium",
        "name:hr": "Belgija",
        "name:hsb": "Belgiska",
        "name:ht": "Bèljik",
        "name:hu": "Belgium",
        "name:hy": "Բելգիա",
        "name:ia": "Belgica",
        "name:id": "Belgia",
        "name:ie": "Belgia",
        "name:ig": "Belgium",
        "name:ilo": "Belhika",
        "name:io": "Belgia",
        "name:is": "Belgía",
        "name:it": "Belgio",
        "name:ja": "ベルギー",
        "name:jam": "Beljiom",
        "name:jbo": "beldjym",
        "name:jv": "Bèlgia",
        "name:ka": "ბელგია",
        "name:kaa": "Belgiya",
        "name:kab": "Biljik",
        "name:kbd": "Белгиэ",
        "name:kbp": "Pɛliziki",
        "name:kg": "Belezi",
        "name:ki": "Ubelgiji",
        "name:kk": "Бельгия",
        "name:kl": "Belgia",
        "name:km": "បែលហ្ស៉ិក",
        "name:kn": "ಬೆಲ್ಜಿಯಂ",
        "name:ko": "벨기에",
        "name:koi": "Белгия",
        "name:krc": "Бельгия",
        "name:ks": "बेल्जियम",
        "name:ksh": "Beljie",
        "name:ku": "Belçîka",
        "name:kv": "Бельгия",
        "name:kw": "Pow Belg",
        "name:ky": "Бельгия",
        "name:la": "Belgica",
        "name:lad": "Beljika",
        "name:lb": "Belsch",
        "name:lez": "Бельгия",
        "name:lg": "Bubirigi",
        "name:li": "Belsj",
        "name:lij": "Belgiò",
        "name:lmo": "Belgi",
        "name:ln": "Bɛ́ljika",
        "name:lo": "ປະເທດແບນຊິກ",
        "name:lrc": "بلجیک",
        "name:lt": "Belgija",
        "name:ltg": "Beļgeja",
        "name:lv": "Beļģija",
        "name:lzh": "比利時",
        "name:mai": "बेल्जियम",
        "name:mdf": "Бельгие",
        "name:mg": "Belzika",
        "name:mhr": "Бельгий",
        "name:mi": "Pehiamu",
        "name:mk": "Белгија",
        "name:ml": "ബെൽജിയം",
        "name:mn": "Бельги",
        "name:mr": "बेल्जियम",
        "name:ms": "Belgium",
        "name:mt": "Belġju",
        "name:mwl": "Bélgica",
        "name:my": "ဘယ်လ်ဂျီယမ်နိုင်ငံ",
        "name:myv": "Бельгия",
        "name:mzn": "بلژیک",
        "name:na": "Berdjiyum",
        "name:nah": "Belgica",
        "name:nan": "Pe̍k-ní-gī",
        "name:nap": "Belge",
        "name:nb": "Belgia",
        "name:nds": "Belgien",
        "name:nds-nl": "België",
        "name:ne": "बेल्जियम",
        "name:new": "बेल्जियम",
        "name:nl": "België",
        "name:nn": "Belgia",
        "name:no": "Belgia",
        "name:nov": "Belgia",
        "name:nrm": "Belgique",
        "name:nso": "Belgium",
        "name:oc": "Belgica",
        "name:olo": "Bel’gii",
        "name:om": "Beeljiyeem",
        "name:or": "ବେଲଜିଅମ",
        "name:os": "Бельги",
        "name:pa": "ਬੈਲਜੀਅਮ",
        "name:pag": "Belhika",
        "name:pam": "Belgika",
        "name:pap": "Bélgika",
        "name:pcd": "Bergike",
        "name:pdc": "Belgien",
        "name:pfl": "Belgje",
        "name:pi": "बेल्जियम",
        "name:pih": "Beljum",
        "name:pl": "Belgia",
        "name:pms": "Belgi",
        "name:pnb": "بیلجیم",
        "name:pnt": "Βέλγιον",
        "name:ps": "بلجیم",
        "name:pt": "Bélgica",
        "name:qu": "Bilhika",
        "name:rm": "Belgia",
        "name:rmy": "Beljiya",
        "name:rn": "Ububirigi",
        "name:ro": "Belgia",
        "name:roa-rup": "Belghia",
        "name:roa-tara": "Bèlge",
        "name:ru": "Бельгия",
        "name:rue": "Белґія",
        "name:rw": "Ububiligi",
        "name:sa": "बेल्जियम",
        "name:sah": "Бельгия",
        "name:sc": "Bèlgiu",
        "name:scn": "Belgiu",
        "name:sco": "Belgium",
        "name:sd": "بيلجيم",
        "name:se": "Belgia",
        "name:sg": "Bêleze",
        "name:sh": "Belgija",
        "name:si": "බෙල්ජියම්",
        "name:sk": "Belgicko",
        "name:sl": "Bélgija",
        "name:sm": "Peleseuma",
        "name:smn": "Belgia",
        "name:sms": "Belgia",
        "name:sn": "Belgium",
        "name:so": "Beljim",
        "name:sq": "Belgjika",
        "name:sr": "Белгија",
        "name:srn": "Belgikondre",
        "name:ss": "iBhelijiyamu",
        "name:stq": "Belgien",
        "name:su": "Bélgia",
        "name:sv": "Belgien",
        "name:sw": "Ubelgiji",
        "name:szl": "Belgijo",
        "name:ta": "பெல்ஜியம்",
        "name:te": "బెల్జియం",
        "name:tet": "Béljika",
        "name:tg": "Белгия",
        "name:th": "เบลเยียม",
        "name:ti": "ቤልጄም",
        "name:tk": "Belgiýa",
        "name:tl": "Belhika",
        "name:to": "Pelesiume",
        "name:tok": "ma Pesije",
        "name:tpi": "Beljiam",
        "name:tr": "Belçika",
        "name:ts": "Belgium",
        "name:tt": "Бе́льгия",
        "name:tum": "Belgium",
        "name:tw": "Belgium",
        "name:tzl": "Belxhíc",
        "name:udm": "Бельгия",
        "name:ug": "بېلگىيە",
        "name:uk": "Бе́льгія",
        "name:ur": "بلجئیم",
        "name:uz": "Belgiya",
        "name:vec": "Belgio",
        "name:vep": "Bel'gii",
        "name:vi": "Bỉ",
        "name:vls": "België",
        "name:vo": "Belgän",
        "name:wa": "Beldjike",
        "name:war": "Belhika",
        "name:wo": "Belsik",
        "name:wuu": "比利时",
        "name:xal": "Бельҗмудин Нутг",
        "name:xmf": "ბელგია",
        "name:yi": "בעלגיע",
        "name:yo": "Bẹ́ljíọ̀m",
        "name:yue": "比利時",
        "name:zea": "Belhië",
        "name:zh": "比利时 / 比利時",
        "name:zh-Hans": "比利时",
        "name:zh-Hant": "比利時",
        "name:zh_pinyin": "Bǐlìshí",
        "name:zu": "i-Belgium",
        "official_name": "Koninkrijk België / Royaume de Belgique / Königreich Belgien",
        "official_name:af": "Koninkryk van België",
        "official_name:als": "Königriich Belgie",
        "official_name:am": "የቤልጅግ መንግሥት",
        "official_name:an": "Reino de Belchica",
        "official_name:ang": "Belgice Cynerīce",
        "official_name:ar": "مملكة بلجيكا",
        "official_name:arc": "ܡܠܟܘܬܐ ܕܒܠܓܝܩܐ",
        "official_name:ast": "Reinu de Bélxica",
        "official_name:av": "Ханлъи Бе́льгия",
        "official_name:ay": "Bilhika Qhapaqsuyu",
        "official_name:az": "Belçika Krallığı",
        "official_name:azb": "بلژیک کراللیغی",
        "official_name:ba": "Бельгия Короллеге",
        "official_name:bar": "Kinigraich Bäigien",
        "official_name:bat-smg": "Belgėjės Karalīstė",
        "official_name:be": "Каралеўства Бельгія",
        "official_name:be-tarask": "Каралеўства Бельгія",
        "official_name:bg": "Кралство Белгия",
        "official_name:bm": "Bɛliziki Mansamara",
        "official_name:bn": "রাজতন্ত্রী বেলজিয়াম",
        "official_name:bo": "Kraljevina Belgija",
        "official_name:bpy": "রাজতান্ত্রিক বেলজিয়াম",
        "official_name:br": "Rouantelezh Belgia",
        "official_name:bs": "Kraljevina Belgija",
        "official_name:ca": "Regne de Bèlgica",
        "official_name:ce": "Монархи Бельги",
        "official_name:chr": "ᎤᎬᏫᏳᎯ ᎨᏒ ᎾᎿ ᎠᏲᎳᏂ",
        "official_name:co": "Regnu di Belgica",
        "official_name:crh": "Belçika Qırallığı",
        "official_name:cs": "Belgické království",
        "official_name:cu": "Кралѥ́вьство Бє́лгїѥ",
        "official_name:cy": "Teyrnas Gwlad Belg",
        "official_name:da": "Kongeriget Belgien",
        "official_name:de": "Königreich Belgien",
        "official_name:din": "Mäcŋaknhom ke Beljiem",
        "official_name:dsb": "Kralojstwo Belgiskej",
        "official_name:el": "Βασίλειο του Βελγίου",
        "official_name:eml": "Regno dal Bèlgi",
        "official_name:en": "Kingdom of Belgium",
        "official_name:eo": "Reĝlando Belgio",
        "official_name:es": "Reino de Bélgica",
        "official_name:et": "Belgia Kuningriik",
        "official_name:eu": "Belgikako Erresuma",
        "official_name:fa": "پادشاهی بلژیک",
        "official_name:fi": "Belgian kuningaskunta",
        "official_name:fiu-vro": "Belgiä Kuningriik",
        "official_name:fr": "Royaume de Belgique",
        "official_name:frp": "Royômo de Bèlg·ique",
        "official_name:frr": "Könangrik Belgien",
        "official_name:ga": "Ríocht na Beilge",
        "official_name:gd": "Rìoghachd na Beilge",
        "official_name:gl": "Reino de Bélxica",
        "official_name:gn": "Tetã Véyhika",
        "official_name:gv": "Reeriaght ny Belg",
        "official_name:he": "ממלכת בלגיה",
        "official_name:hi": "किंगडम ऑफ़ बेल्जियम",
        "official_name:hr": "Kraljevina Belgija",
        "official_name:hsb": "Belgiske kralestwo",
        "official_name:hu": "Belga Királyság",
        "official_name:hy": "Բելգիայի Թագավորություն",
        "official_name:ia": "Regno de Belgica",
        "official_name:id": "Kerajaan Belgia",
        "official_name:ig": "Obodoézè nke Belgium",
        "official_name:ilo": "Pagarian ti Belhika",
        "official_name:io": "Rejio di Belgia",
        "official_name:is": "Konungsríkið Belgía",
        "official_name:it": "Regno del Belgio",
        "official_name:ja": "ベルギー王国",
        "official_name:jam": "Kindom a Beljiom",
        "official_name:ka": "ბელგიის სამეფო",
        "official_name:kab": "Tigelda n Biljik",
        "official_name:kbd": "Белгэ Пэщтыхьей",
        "official_name:kg": "Nsi ya ntotila ya Belezi",
        "official_name:kk": "Бельгия Корольдігі",
        "official_name:kl": "Kunngeqarfik Belgia",
        "official_name:kn": "ಬೆಲ್ಜಿಯಂ ಸಂಸ್ಥಾನ",
        "official_name:ko": "벨기에 왕국",
        "official_name:koi": "Короля Белгия",
        "official_name:krc": "Бельгия Королевство",
        "official_name:ku": "Keyaniya Belçîkayê",
        "official_name:kv": "Бельгия Корольув",
        "official_name:kw": "Ruwvaneth Belgek",
        "official_name:ky": "Бельгия Королдугу",
        "official_name:la": "Regnum Belgicum",
        "official_name:lad": "Reyno de Beljika",
        "official_name:lb": "Kinnekräich Belsch",
        "official_name:lg": "Obwakabaka bwa Bubirigi",
        "official_name:li": "Keuninkriek Belsj",
        "official_name:lij": "Regno do Belgio",
        "official_name:lmo": "Regn del Belgi",
        "official_name:ln": "Mani ya Bɛ́ljika",
        "official_name:lo": "ລາຊະອານາຈັກແບນຊິກ",
        "official_name:lt": "Belgijos Karalystė",
        "official_name:lv": "Beļģijas Karaliste",
        "official_name:lzh": "比利時王國",
        "official_name:mdf": "Бельгие Оцязорксшись",
        "official_name:mk": "Кралство Белгија",
        "official_name:mn": "Бельгийн Вант Улс",
        "official_name:mr": "बेल्जियमचे राजतंत्र",
        "official_name:ms": "Kerajaan Belgium",
        "official_name:mt": "Renju tal-Belġju",
        "official_name:my": "ကင်းဒမ်းအော့ဖ် ဘယ်လ်ဂျီယမ်",
        "official_name:myv": "Бельгия Масторось",
        "official_name:nah": "Huēyitlahtohcāyōtl Belgica",
        "official_name:nan": "Pe̍k-ní-gī-kok",
        "official_name:nds": "Königriek vun Belgien",
        "official_name:nds-nl": "Koninkriek België",
        "official_name:new": "बेल्जियम राजतन्त्र",
        "official_name:nl": "Koninkrijk België",
        "official_name:nn": "Kongeriket Belgia",
        "official_name:no": "Kongeriket Belgia",
        "official_name:oc": "Reialme de Belgica",
        "official_name:olo": "Bel’gien kuningaskundu",
        "official_name:os": "Бельгийы Къаролад",
        "official_name:pa": "ਬੈਲਜੀਅਮ ਦੀ ਰਾਜਸ਼ਾਹੀ",
        "official_name:pam": "Ka-ariyan ning Belgika",
        "official_name:pap": "Reino Bélgika",
        "official_name:pcd": "Roéyôme d’ Bergike",
        "official_name:pfl": "Royaume de Belgique",
        "official_name:pl": "Królestwo Belgii",
        "official_name:pnt": "Βασίλειον τη Βελγί",
        "official_name:ps": "د بلجیم بادشاهي",
        "official_name:pt": "Reino da Bélgica",
        "official_name:qu": "Bilhika Qhapaqsuyu",
        "official_name:rm": "Reginavel da la Belgia",
        "official_name:rmy": "Thangaripen Beljiyako",
        "official_name:rn": "Irepuburika y’Ububirigi",
        "official_name:ro": "Regatul Belgiei",
        "official_name:roa-tara": "Regne d'u Bèlgie",
        "official_name:ru": "Королевство Бельгия",
        "official_name:rue": "Белґіцьке кралёвство",
        "official_name:rw": "Igihugu cy’Ububirigi",
        "official_name:sah": "Бельгия Хоруоллуга",
        "official_name:sc": "Rennu de Bèlgiu",
        "official_name:sco": "Kinrick o Belgium",
        "official_name:sd": "بيلجيم جي شهنشاهيت",
        "official_name:se": "Belgia gonagasriika",
        "official_name:sg": "Ködörö-gbïä tî Bêleze",
        "official_name:sh": "Kraljevina Belgija",
        "official_name:sk": "Belgické kráľovstvo",
        "official_name:sl": "Kraljevína Bélgija",
        "official_name:sm": "Malo o Peleseuma",
        "official_name:sq": "Mbretëria e Belgjikës",
        "official_name:sr": "Краљевина Белгија",
        "official_name:su": "Karajaan Bélgia",
        "official_name:sv": "Konungariket Belgien",
        "official_name:sw": "Ufalme wa Ubelgiji",
        "official_name:szl": "Krůlestwo Belgije",
        "official_name:ta": "பெல்ஜியம் இராச்சியம்",
        "official_name:te": "బెల్జియం రాజ్యం",
        "official_name:tet": "Reinu Béljika nian",
        "official_name:tg": "Шоҳигарии Бeлгия",
        "official_name:th": "ราชอาณาจักรเบลเยียม",
        "official_name:tk": "Belgiýa korollygy",
        "official_name:tl": "Kaharian ng Belhika",
        "official_name:tr": "Belçika Krallığı",
        "official_name:tt": "Бе́льгия Корольлеге́",
        "official_name:udm": "Королевство Бельгия",
        "official_name:ug": "بېلگىيە پادىشاھلىقى",
        "official_name:uk": "Королі́вство Бе́льгія",
        "official_name:ur": "مملکت بلجئیم",
        "official_name:uz": "Belgiya Qirolligi",
        "official_name:vec": "Regno del Belgio",
        "official_name:vep": "Bel'gijan Kunigahuz",
        "official_name:vi": "Vương quốc Bỉ",
        "official_name:vls": "Keunienkryk België",
        "official_name:vo": "Regän Belgäna",
        "official_name:wa": "Royåme di Beldjike",
        "official_name:war": "Ginhadi-an han Belhika",
        "official_name:wo": "Ruwaayom bu Beljik",
        "official_name:xal": "Бельҗмудин Орн Нутг",
        "official_name:xmf": "ბელგიაშ ომაფე",
        "official_name:yi": "קעניגרייך פון בעלגיע",
        "official_name:yo": "Ilẹ̀ọba Bẹ́ljíọ̀m",
        "official_name:yue": "比利時王國",
        "official_name:zea": "Konienkriek België",
        "official_name:zh": "比利时王国 / 比利時王國",
        "official_name:zh-Hans": "比利时王国",
        "official_name:zh-Hant": "比利時王國",
        "timezone": "Europe/Brussels",
        "type": "boundary",
        "wikidata": "Q31",
        "wikipedia": "nl:België"
      }
    },
    {
      "type": "area",
      "id": 3600053114,
      "tags": {
        "ISO3166-2": "BE-VAN",
        "admin_level": "6",
        "alt_name:ar": "أنتفيرب",
        "alt_name:es": "Antuerpia",
        "alt_name:mk": "Антверп",
        "border_type": "province",
        "boundary": "administrative",
        "capital": "6",
        "name": "Antwerpen",
        "name:ar": "أنتويرب",
        "name:ca": "Anvers",
        "name:cs": "Antverpy",
        "name:de": "Antwerpen",
        "name:el": "Αμβέρσα",
        "name:en": "Antwerp",
        "name:eo": "Antverpeno",
        "name:es": "Amberes",
        "name:fi": "Antwerpen",
        "name:fr": "Anvers",
        "name:he": "אנטוורפן",
        "name:hr": "Antwerpen",
        "name:hu": "Antwerpen",
        "name:hy": "Անտվերպեն",
        "name:it": "Anversa",
        "name:ja": "アントワープ",
        "name:ka": "ანტვერპენი",
        "name:kn": "ಆಂಟ್ವೆರ್ಪ್",
        "name:la": "Antverpia",
        "name:lt": "Antverpenas",
        "name:lv": "Antverpene",
        "name:mk": "Антверпен",
        "name:nds": "Antwarp",
        "name:nds-nl": "Antwaarp",
        "name:nl": "Antwerpen",
        "name:pcd": "Anvérse",
        "name:pl": "Antwerpia",
        "name:pt": "Antuérpia",
        "name:ru": "Антверпен",
        "name:sk": "Antverpy",
        "name:sr": "Антверпен",
        "name:tzl": "Anviarça",
        "name:uk": "Антверпен",
        "name:vls": "Antwerpn",
        "name:wa": "Anverse",
        "name:zh": "安特卫普",
        "official_name": "Provincie Antwerpen",
        "official_name:ar": "مقاطعة أنتويرب",
        "official_name:nl": "Provincie Antwerpen",
        "old_name:de": "Antorf",
        "population": "1802719",
        "population:date": "2014-01-01",
        "ref:INS": "10000",
        "ref:nuts": "BE21",
        "ref:nuts:2": "BE21",
        "source:population": "wiki/ADSEI",
        "type": "boundary",
        "website": "https://www.provincieantwerpen.be/",
        "wikidata": "Q1116",
        "wikipedia": "nl:Antwerpen (provincie)"
      }
    },
    {
      "type": "area",
      "id": 3600053134,
      "tags": {
        "ISO3166-2": "BE-VLG",
        "admin_level": "4",
        "border_type": "state",
        "boundary": "administrative",
        "default_language": "nl",
        "name": "Vlaanderen",
        "name:ar": "فلاندر",
        "name:br": "Flandrez",
        "name:ca": "Flandes",
        "name:de": "Flandern",
        "name:el": "Φλάνδρα",
        "name:en": "Flanders",
        "name:eo": "Flandrio",
        "name:es": "Flandes",
        "name:et": "Flandria",
        "name:fi": "Flanderi",
        "name:fr": "Flandre",
        "name:fy": "Flaanderen",
        "name:hu": "Flandria",
        "name:ja": "フランデレン地域",
        "name:ka": "ფლანდრია",
        "name:ko": "플라망 지역",
        "name:lb": "Flandern",
        "name:li": "Vlaondere",
        "name:lt": "Flandrija",
        "name:nl": "Vlaanderen",
        "name:pcd": "Flande",
        "name:pt": "Flandres",
        "name:ru": "Фландрия",
        "name:sk": "Flámsko",
        "name:th": "เขตฟลามส์",
        "name:tzl": "Flemphäts",
        "name:vls": "Vloandern",
        "name:wa": "Flande",
        "name:zh": "弗拉芒大區",
        "name:zh-Hans": "弗拉芒大区",
        "name:zh-Hant": "弗拉芒大區",
        "nat_name": "Vlaams Gewest",
        "nat_name:ar": "الإقليم الفلامندي",
        "nat_name:be": "Фламандскі рэгіён",
        "nat_name:bg": "Фламандски регион",
        "nat_name:ca": "Regió flamenca",
        "nat_name:de": "Flämische Region",
        "nat_name:el": "Φλαμανδική Περιοχή",
        "nat_name:en": "Flemish Region",
        "nat_name:eo": "Flandra Regiono",
        "nat_name:fr": "Région flamande",
        "nat_name:fy": "Flaamsk Gewest",
        "nat_name:lb": "Flämesch Regioun",
        "nat_name:li": "Vlaondere Gewes",
        "nat_name:mk": "Фламански регион",
        "nat_name:nl": "Vlaams Gewest",
        "nat_name:os": "Фламандийы регион",
        "nat_name:pcd": "Région flaminke",
        "nat_name:pl": "Region Flamandzki",
        "nat_name:ru": "Фламандский регион",
        "nat_name:sk": "Flámsky región",
        "nat_name:tr": "Flaman Bölgesi",
        "nat_name:vls": "Vlams Gewest",
        "nat_name:wa": "Redjon flaminde",
        "ref:INS": "02000",
        "ref:nuts:1": "BE2",
        "source:name:br": "ofis publik ar brezhoneg",
        "type": "boundary",
        "website": "https://www.vlaanderen.be/",
        "wikidata": "Q9337",
        "wikipedia": "nl:Vlaams Gewest"
      }
    },
    {
      "type": "area",
      "id": 3600053136,
      "tags": {
        "boundary": "political",
        "default_language": "nl",
        "euro_const": "BE",
        "name": "Vlaamse Gemeenschap - Communauté flamande",
        "name:ar": "المجتمع الفلامندي",
        "name:ca": "Comunitat flamenca",
        "name:de": "Flämische Gemeinschaft",
        "name:en": "Flemish Community",
        "name:fr": "Communauté flamande",
        "name:fy": "Frânske Mienskip",
        "name:hu": "Flamand közösség",
        "name:lt": "Flamandų bendruomenė",
        "name:nl": "Vlaamse Gemeenschap",
        "name:sk": "Flámske spoločenstvo",
        "political_division": "linguistic_community",
        "type": "boundary",
        "wikidata": "Q9331",
        "wikipedia": "nl:Vlaamse Gemeenschap"
      }
    },
    {
      "type": "area",
      "id": 3600937244,
      "tags": {
        "ISO3166-1": "BE",
        "admin_level": "2",
        "flag": "http://upload.wikimedia.org/wikipedia/commons/6/65/Flag_of_Belgium.svg",
        "land_area": "administrative",
        "name": "België / Belgique / Belgien (land mass)",
        "name:ar": "بلجيكا (كتلة اليابسة)",
        "name:ca": "Bèlgica (terra)",
        "name:de": "Belgien (Landmasse)",
        "name:en": "Belgium (land mass)",
        "name:fr": "Belgique (terres)",
        "name:lt": "Belgija (žemė)",
        "name:nl": "België (land)",
        "type": "land_area"
      }
    },
    {
      "type": "area",
      "id": 3600964259,
      "tags": {
        "admin_level": "8",
        "boundary": "administrative",
        "name": "Lier",
        "name:bg": "Лийр",
        "name:br": "Lier",
        "name:da": "Lier",
        "name:de": "Lier",
        "name:es": "Lier",
        "name:fr": "Lierre",
        "name:it": "Lier",
        "name:nl": "Lier",
        "name:ru": "Лир",
        "name:sr": "Лир",
        "name:uk": "Лір",
        "name:wa": "Lierre",
        "name:zh": "利尔",
        "ref:INS": "12021",
        "type": "boundary",
        "website": "https://www.lier.be/",
        "wikidata": "Q12460",
        "wikipedia": "nl:Lier (België)"
      }
    },
    {
      "type": "area",
      "id": 3602524403,
      "tags": {
        "admin_level": "7",
        "alt_name:la": "Mechlinia",
        "boundary": "administrative",
        "name": "Mechelen",
        "name:de": "Mecheln",
        "name:fr": "Malines",
        "name:la": "Maclinia",
        "name:nl": "Mechelen",
        "name:ru": "Мехелен",
        "name:vls": "Mecheln",
        "official_name": "Arrondissement Mechelen",
        "official_name:nl": "Arrondissement Mechelen",
        "old_name:en": "Mechlin",
        "ref:INS": "12000",
        "ref:nuts": "BE212",
        "ref:nuts:3": "BE212",
        "type": "boundary",
        "wikidata": "Q90905",
        "wikipedia": "nl:Arrondissement Mechelen"
      }
    },
    {
      "type": "area",
      "id": 3603365990,
      "tags": {
        "boundary": "postal_code",
        "note": "2500 Lier",
        "postal_code": "2500",
        "type": "boundary"
      }
    },
    {
      "type": "area",
      "id": 3603868385,
      "tags": {
        "admin_level": "9",
        "boundary": "administrative",
        "name": "Lier",
        "ref:INS": "12021A",
        "type": "boundary"
      }
    },
    {
      "type": "area",
      "id": 3612728392,
      "tags": {
        "boundary": "administrative_cooperation",
        "name": "Benelux",
        "note": "Caribbean Netherlands (BES islands) joined the Benelux per the 2012-01-01 revision of the Benelux Treaty.",
        "official_name": "Benelux Unie / Union Benelux",
        "official_name:-2012-01-01": "Benelux Economische Unie / Union économique Benelux",
        "official_name:de": "Benelux-Union",
        "official_name:de:-2012-01-01": "Benelux-Wirtschaftsunion",
        "official_name:en": "Benelux Union",
        "official_name:en:-2012-01-01": "Benelux Economic Union",
        "official_name:fr": "Union Benelux",
        "official_name:fr:-2012-01-01": "Union économique Benelux",
        "official_name:lb": "Benelux-Unioun",
        "official_name:nl": "Benelux Unie",
        "official_name:nl:-2012-01-01": "Benelux Economische Unie",
        "source": "https://www.parlementairemonitor.nl/9353000/1/j9vvij5epmj1ey0/vhy97r97ikz8",
        "type": "boundary",
        "website": "https://benelux.int/",
        "wikidata": "Q13116",
        "wikipedia": "nl:Benelux"
      }
    },
    {
      "type": "area",
      "id": 3613325281,
      "tags": {
        "boundary": "administrative_cooperation",
        "description:en": "Treaty organisation of the Netherlands and the Flemish Community. Has an association agreement with Suriname and collaborates with other countries within the Kingdom of the Netherlands.",
        "description:nl": "Verdragsorganisatie van Nederland en de Vlaamse Gemeenschap. Heeft een associatieovereenkomst met Suriname en werkt samen met andere landen binnen het Koninkrijk der Nederlanden.",
        "name": "Nederlandse Taalunie",
        "name:en": "Dutch Language Union",
        "name:fr": "Union linguistique néerlandaise",
        "name:nl": "Nederlandse Taalunie",
        "short_name": "Taalunie",
        "short_name:en": "Language Union",
        "short_name:fr": "Union linguistique",
        "short_name:nl": "Taalunie",
        "source": "https://taalunie.org/informatie/36/verdragen-overeenkomsten-en-regelingen",
        "type": "boundary",
        "website": "https://taalunie.org/",
        "wikidata": "Q152299",
        "wikipedia": "nl:Nederlandse Taalunie"
      }
    },
    {
      "type": "node",
      "id": 2910818728,
      "lat": 51.1407501,
      "lon": 4.5249722
    },
    {
      "type": "node",
      "id": 5348700796,
      "lat": 51.1399671,
      "lon": 4.5344675
    },
    {
      "type": "node",
      "id": 5348700797,
      "lat": 51.1397113,
      "lon": 4.5334643
    },
    {
      "type": "node",
      "id": 5348700798,
      "lat": 51.139506,
      "lon": 4.5322466
    },
    {
      "type": "node",
      "id": 5348700799,
      "lat": 51.1405965,
      "lon": 4.5316297
    },
    {
      "type": "node",
      "id": 5348700800,
      "lat": 51.1405831,
      "lon": 4.531517
    },
    {
      "type": "node",
      "id": 5348700801,
      "lat": 51.1405831,
      "lon": 4.5312273
    },
    {
      "type": "node",
      "id": 5348700802,
      "lat": 51.1408961,
      "lon": 4.5305407
    },
    {
      "type": "node",
      "id": 2910818729,
      "lat": 51.1420393,
      "lon": 4.5274403
    },
    {
      "type": "node",
      "id": 2910818730,
      "lat": 51.142359,
      "lon": 4.5280251
    },
    {
      "type": "node",
      "id": 2910818731,
      "lat": 51.1423355,
      "lon": 4.5281431
    },
    {
      "type": "node",
      "id": 588398297,
      "lat": 51.1475168,
      "lon": 4.5332016
    },
    {
      "type": "node",
      "id": 588398298,
      "lat": 51.1475258,
      "lon": 4.533421
    },
    {
      "type": "node",
      "id": 588398301,
      "lat": 51.1467476,
      "lon": 4.534297
    },
    {
      "type": "node",
      "id": 588398302,
      "lat": 51.1470799,
      "lon": 4.5345001
    },
    {
      "type": "node",
      "id": 588398303,
      "lat": 51.1471473,
      "lon": 4.5342014
    },
    {
      "type": "node",
      "id": 588398304,
      "lat": 51.1472515,
      "lon": 4.5342605
    },
    {
      "type": "node",
      "id": 588398305,
      "lat": 51.1473271,
      "lon": 4.5339302
    },
    {
      "type": "node",
      "id": 588398306,
      "lat": 51.1471934,
      "lon": 4.5338516
    },
    {
      "type": "node",
      "id": 588398307,
      "lat": 51.1473321,
      "lon": 4.5332462
    },
    {
      "type": "node",
      "id": 588398308,
      "lat": 51.1470389,
      "lon": 4.5330753
    },
    {
      "type": "node",
      "id": 588398309,
      "lat": 51.1459026,
      "lon": 4.533665
    },
    {
      "type": "node",
      "id": 588398310,
      "lat": 51.146126,
      "lon": 4.5326499
    },
    {
      "type": "node",
      "id": 588398311,
      "lat": 51.1458306,
      "lon": 4.5324755
    },
    {
      "type": "node",
      "id": 588398312,
      "lat": 51.1455953,
      "lon": 4.5334721
    },
    {
      "type": "node",
      "id": 2910818732,
      "lat": 51.1419316,
      "lon": 4.5287868
    },
    {
      "type": "node",
      "id": 2910818733,
      "lat": 51.1430761,
      "lon": 4.5309556
    },
    {
      "type": "node",
      "id": 2910823023,
      "lat": 51.1441681,
      "lon": 4.5316904
    },
    {
      "type": "node",
      "id": 2910823024,
      "lat": 51.1439902,
      "lon": 4.5309373
    },
    {
      "type": "node",
      "id": 2910823025,
      "lat": 51.1439364,
      "lon": 4.5308783
    },
    {
      "type": "node",
      "id": 2910823026,
      "lat": 51.1436537,
      "lon": 4.5310606
    },
    {
      "type": "node",
      "id": 2910823027,
      "lat": 51.1432633,
      "lon": 4.5313664
    },
    {
      "type": "node",
      "id": 2910823028,
      "lat": 51.1432047,
      "lon": 4.5315392
    },
    {
      "type": "node",
      "id": 3465564509,
      "lat": 51.1427947,
      "lon": 4.5333475
    },
    {
      "type": "node",
      "id": 5348700791,
      "lat": 51.1422894,
      "lon": 4.533534
    },
    {
      "type": "node",
      "id": 5348700803,
      "lat": 51.1411922,
      "lon": 4.5303529
    },
    {
      "type": "node",
      "id": 5348700804,
      "lat": 51.141337,
      "lon": 4.5304549
    },
    {
      "type": "node",
      "id": 5348700805,
      "lat": 51.1414144,
      "lon": 4.5307714
    },
    {
      "type": "node",
      "id": 5348700806,
      "lat": 51.1413538,
      "lon": 4.5312488
    },
    {
      "type": "node",
      "id": 5348700807,
      "lat": 51.1417375,
      "lon": 4.5316297
    },
    {
      "type": "node",
      "id": 5348700808,
      "lat": 51.1426428,
      "lon": 4.5319408
    },
    {
      "type": "node",
      "id": 5348700809,
      "lat": 51.1427,
      "lon": 4.5321822
    },
    {
      "type": "node",
      "id": 5348700810,
      "lat": 51.1430186,
      "lon": 4.5323601
    },
    {
      "type": "node",
      "id": 588398299,
      "lat": 51.1477987,
      "lon": 4.5333924
    },
    {
      "type": "node",
      "id": 588398300,
      "lat": 51.1477897,
      "lon": 4.5331731
    },
    {
      "type": "node",
      "id": 1042562179,
      "lat": 51.139978,
      "lon": 4.5379233
    },
    {
      "type": "node",
      "id": 1042562405,
      "lat": 51.140008,
      "lon": 4.5360274
    },
    {
      "type": "node",
      "id": 1042562578,
      "lat": 51.1408711,
      "lon": 4.5379279
    },
    {
      "type": "node",
      "id": 1042562770,
      "lat": 51.1399797,
      "lon": 4.5370924
    },
    {
      "type": "node",
      "id": 1042562775,
      "lat": 51.1408818,
      "lon": 4.5360533
    },
    {
      "type": "node",
      "id": 1042563250,
      "lat": 51.1408727,
      "lon": 4.537097
    },
    {
      "type": "node",
      "id": 1042564197,
      "lat": 51.140872,
      "lon": 4.5368915
    },
    {
      "type": "node",
      "id": 1042564270,
      "lat": 51.1399982,
      "lon": 4.5368655
    },
    {
      "type": "node",
      "id": 5348700794,
      "lat": 51.1407581,
      "lon": 4.5355296
    },
    {
      "type": "node",
      "id": 5348700795,
      "lat": 51.1403205,
      "lon": 4.5356476
    },
    {
      "type": "node",
      "id": 9110068540,
      "lat": 51.1409888,
      "lon": 4.5365782
    },
    {
      "type": "node",
      "id": 9110068541,
      "lat": 51.1409898,
      "lon": 4.5360727
    },
    {
      "type": "node",
      "id": 1531247071,
      "lat": 51.139989,
      "lon": 4.5468968
    },
    {
      "type": "node",
      "id": 2972053699,
      "lat": 51.1400817,
      "lon": 4.5467987
    },
    {
      "type": "node",
      "id": 2972053700,
      "lat": 51.1401339,
      "lon": 4.5467907
    },
    {
      "type": "node",
      "id": 2972053701,
      "lat": 51.1400935,
      "lon": 4.5464152
    },
    {
      "type": "node",
      "id": 2972053702,
      "lat": 51.1400341,
      "lon": 4.5460157
    },
    {
      "type": "node",
      "id": 242793482,
      "lat": 51.1438684,
      "lon": 4.5385431
    },
    {
      "type": "node",
      "id": 693394222,
      "lat": 51.1420916,
      "lon": 4.5356848
    },
    {
      "type": "node",
      "id": 734126504,
      "lat": 51.1438566,
      "lon": 4.5374341
    },
    {
      "type": "node",
      "id": 734126739,
      "lat": 51.1446695,
      "lon": 4.5384635
    },
    {
      "type": "node",
      "id": 2910823029,
      "lat": 51.1423455,
      "lon": 4.5351961
    },
    {
      "type": "node",
      "id": 3124015012,
      "lat": 51.1441867,
      "lon": 4.5360277
    },
    {
      "type": "node",
      "id": 3124015013,
      "lat": 51.1443107,
      "lon": 4.5398164
    },
    {
      "type": "node",
      "id": 3124016515,
      "lat": 51.1446134,
      "lon": 4.537377
    },
    {
      "type": "node",
      "id": 3124016516,
      "lat": 51.1442368,
      "lon": 4.5376999
    },
    {
      "type": "node",
      "id": 3124019858,
      "lat": 51.144256,
      "lon": 4.53825
    },
    {
      "type": "node",
      "id": 5348700792,
      "lat": 51.1418822,
      "lon": 4.5352989
    },
    {
      "type": "node",
      "id": 5348700793,
      "lat": 51.1414076,
      "lon": 4.5353097
    },
    {
      "type": "node",
      "id": 9110068539,
      "lat": 51.1415576,
      "lon": 4.5365767
    },
    {
      "type": "node",
      "id": 9110068542,
      "lat": 51.1415585,
      "lon": 4.5360783
    },
    {
      "type": "node",
      "id": 254100878,
      "lat": 51.14612,
      "lon": 4.5437982
    },
    {
      "type": "node",
      "id": 254101964,
      "lat": 51.1458065,
      "lon": 4.5467454
    },
    {
      "type": "node",
      "id": 588392178,
      "lat": 51.1465017,
      "lon": 4.5430206
    },
    {
      "type": "node",
      "id": 588392181,
      "lat": 51.1455005,
      "lon": 4.5451309
    },
    {
      "type": "node",
      "id": 1116218401,
      "lat": 51.1474328,
      "lon": 4.5479625
    },
    {
      "type": "node",
      "id": 2910826691,
      "lat": 51.1458965,
      "lon": 4.5469341
    },
    {
      "type": "node",
      "id": 4277861515,
      "lat": 51.1460011,
      "lon": 4.5469832
    },
    {
      "type": "node",
      "id": 6292199039,
      "lat": 51.1452578,
      "lon": 4.546811
    },
    {
      "type": "node",
      "id": 6292199040,
      "lat": 51.1451299,
      "lon": 4.5459795
    },
    {
      "type": "node",
      "id": 6947535313,
      "lat": 51.146017,
      "lon": 4.5474297
    },
    {
      "type": "node",
      "id": 6947535314,
      "lat": 51.146113,
      "lon": 4.5472544
    },
    {
      "type": "node",
      "id": 6947535315,
      "lat": 51.1462746,
      "lon": 4.5473101
    },
    {
      "type": "node",
      "id": 6947535316,
      "lat": 51.1464631,
      "lon": 4.5474925
    },
    {
      "type": "node",
      "id": 6947535317,
      "lat": 51.1467996,
      "lon": 4.5476641
    },
    {
      "type": "node",
      "id": 6947535318,
      "lat": 51.1471496,
      "lon": 4.5478572
    },
    {
      "type": "node",
      "id": 6947535319,
      "lat": 51.1472506,
      "lon": 4.5481362
    },
    {
      "type": "node",
      "id": 8068822121,
      "lat": 51.1460785,
      "lon": 4.5472033
    },
    {
      "type": "node",
      "id": 8493796082,
      "lat": 51.1444832,
      "lon": 4.5446844
    },
    {
      "type": "node",
      "id": 8493796083,
      "lat": 51.1445716,
      "lon": 4.5447793
    },
    {
      "type": "node",
      "id": 8493796084,
      "lat": 51.1446793,
      "lon": 4.5455035
    },
    {
      "type": "node",
      "id": 8493796085,
      "lat": 51.145455,
      "lon": 4.5451924
    },
    {
      "type": "node",
      "id": 4277861500,
      "lat": 51.1457352,
      "lon": 4.5507304
    },
    {
      "type": "node",
      "id": 4277861501,
      "lat": 51.1457509,
      "lon": 4.5504978
    },
    {
      "type": "node",
      "id": 4277861512,
      "lat": 51.1459802,
      "lon": 4.5484788
    },
    {
      "type": "node",
      "id": 4277861514,
      "lat": 51.1459854,
      "lon": 4.5493179
    },
    {
      "type": "node",
      "id": 6947535305,
      "lat": 51.1460929,
      "lon": 4.5507862
    },
    {
      "type": "node",
      "id": 6947535306,
      "lat": 51.1459852,
      "lon": 4.550636
    },
    {
      "type": "node",
      "id": 6947535307,
      "lat": 51.1458977,
      "lon": 4.5505609
    },
    {
      "type": "node",
      "id": 6947535308,
      "lat": 51.1458304,
      "lon": 4.5504214
    },
    {
      "type": "node",
      "id": 6947535309,
      "lat": 51.1459449,
      "lon": 4.5498635
    },
    {
      "type": "node",
      "id": 6947535310,
      "lat": 51.1460391,
      "lon": 4.5493378
    },
    {
      "type": "node",
      "id": 6947535311,
      "lat": 51.1460626,
      "lon": 4.5490664
    },
    {
      "type": "node",
      "id": 6947535320,
      "lat": 51.147291,
      "lon": 4.5484259
    },
    {
      "type": "node",
      "id": 6947535321,
      "lat": 51.1474659,
      "lon": 4.5485975
    },
    {
      "type": "node",
      "id": 6947535327,
      "lat": 51.1459485,
      "lon": 4.5506044
    },
    {
      "type": "node",
      "id": 288993610,
      "lat": 51.1480415,
      "lon": 4.5395191
    },
    {
      "type": "node",
      "id": 288993616,
      "lat": 51.1487778,
      "lon": 4.5404355
    },
    {
      "type": "node",
      "id": 1531248656,
      "lat": 51.1507097,
      "lon": 4.538285
    },
    {
      "type": "node",
      "id": 4613767647,
      "lat": 51.1507738,
      "lon": 4.5398633
    },
    {
      "type": "node",
      "id": 4613767648,
      "lat": 51.1502422,
      "lon": 4.5399142
    },
    {
      "type": "node",
      "id": 4613767649,
      "lat": 51.1495786,
      "lon": 4.5413544
    },
    {
      "type": "node",
      "id": 6947500284,
      "lat": 51.1514451,
      "lon": 4.5398429
    },
    {
      "type": "node",
      "id": 6947535285,
      "lat": 51.1514754,
      "lon": 4.5399717
    },
    {
      "type": "node",
      "id": 6947535286,
      "lat": 51.1514232,
      "lon": 4.5402211
    },
    {
      "type": "node",
      "id": 6947535287,
      "lat": 51.1511002,
      "lon": 4.5409427
    },
    {
      "type": "node",
      "id": 7230923914,
      "lat": 51.1476532,
      "lon": 4.5362404
    },
    {
      "type": "node",
      "id": 7230923919,
      "lat": 51.1478439,
      "lon": 4.5358205
    },
    {
      "type": "node",
      "id": 7230923924,
      "lat": 51.1476319,
      "lon": 4.5362872
    },
    {
      "type": "node",
      "id": 7230923926,
      "lat": 51.1478036,
      "lon": 4.5359092
    },
    {
      "type": "node",
      "id": 7230923927,
      "lat": 51.1477369,
      "lon": 4.5360562
    },
    {
      "type": "node",
      "id": 288993609,
      "lat": 51.150462,
      "lon": 4.5423678
    },
    {
      "type": "node",
      "id": 1116218182,
      "lat": 51.147955,
      "lon": 4.5481206
    },
    {
      "type": "node",
      "id": 1116218212,
      "lat": 51.151136,
      "lon": 4.5477536
    },
    {
      "type": "node",
      "id": 1116218291,
      "lat": 51.1496863,
      "lon": 4.5477812
    },
    {
      "type": "node",
      "id": 1118530302,
      "lat": 51.152412,
      "lon": 4.5425538
    },
    {
      "type": "node",
      "id": 1118530304,
      "lat": 51.1528185,
      "lon": 4.5421042
    },
    {
      "type": "node",
      "id": 1118530359,
      "lat": 51.153258,
      "lon": 4.5424931
    },
    {
      "type": "node",
      "id": 1118530371,
      "lat": 51.1530647,
      "lon": 4.5434943
    },
    {
      "type": "node",
      "id": 1118530403,
      "lat": 51.1525492,
      "lon": 4.5426915
    },
    {
      "type": "node",
      "id": 1118530449,
      "lat": 51.1532758,
      "lon": 4.542003
    },
    {
      "type": "node",
      "id": 1118530460,
      "lat": 51.1535505,
      "lon": 4.5439627
    },
    {
      "type": "node",
      "id": 1118530505,
      "lat": 51.1533576,
      "lon": 4.5420162
    },
    {
      "type": "node",
      "id": 1118530510,
      "lat": 51.153065,
      "lon": 4.5418329
    },
    {
      "type": "node",
      "id": 1118530513,
      "lat": 51.1530629,
      "lon": 4.543461
    },
    {
      "type": "node",
      "id": 1118530550,
      "lat": 51.1531424,
      "lon": 4.5430454
    },
    {
      "type": "node",
      "id": 1118530557,
      "lat": 51.153421,
      "lon": 4.5438649
    },
    {
      "type": "node",
      "id": 1118811293,
      "lat": 51.1527885,
      "lon": 4.5445942
    },
    {
      "type": "node",
      "id": 1118811341,
      "lat": 51.1520576,
      "lon": 4.5468066
    },
    {
      "type": "node",
      "id": 1118811371,
      "lat": 51.1532197,
      "lon": 4.5450775
    },
    {
      "type": "node",
      "id": 1118811467,
      "lat": 51.1530209,
      "lon": 4.5457326
    },
    {
      "type": "node",
      "id": 1118811543,
      "lat": 51.152317,
      "lon": 4.5471395
    },
    {
      "type": "node",
      "id": 1118811712,
      "lat": 51.1521519,
      "lon": 4.5462857
    },
    {
      "type": "node",
      "id": 1118811749,
      "lat": 51.150653,
      "lon": 4.5446546
    },
    {
      "type": "node",
      "id": 1118811782,
      "lat": 51.1525595,
      "lon": 4.5476389
    },
    {
      "type": "node",
      "id": 1118811912,
      "lat": 51.1525191,
      "lon": 4.5451043
    },
    {
      "type": "node",
      "id": 1118812015,
      "lat": 51.1523405,
      "lon": 4.5469569
    },
    {
      "type": "node",
      "id": 1118812221,
      "lat": 51.1527818,
      "lon": 4.5466294
    },
    {
      "type": "node",
      "id": 1118812314,
      "lat": 51.1513515,
      "lon": 4.5442543
    },
    {
      "type": "node",
      "id": 1118812428,
      "lat": 51.1517444,
      "lon": 4.5468925
    },
    {
      "type": "node",
      "id": 1118812432,
      "lat": 51.1516871,
      "lon": 4.5472845
    },
    {
      "type": "node",
      "id": 1118812589,
      "lat": 51.1501786,
      "lon": 4.5430671
    },
    {
      "type": "node",
      "id": 4244686305,
      "lat": 51.1533138,
      "lon": 4.5422552
    },
    {
      "type": "node",
      "id": 6947535288,
      "lat": 51.1479842,
      "lon": 4.5478572
    },
    {
      "type": "node",
      "id": 6947535289,
      "lat": 51.1479741,
      "lon": 4.5479806
    },
    {
      "type": "node",
      "id": 6947535290,
      "lat": 51.1480599,
      "lon": 4.548112
    },
    {
      "type": "node",
      "id": 6947535324,
      "lat": 51.148038,
      "lon": 4.5481559
    },
    {
      "type": "node",
      "id": 7844377398,
      "lat": 51.1506691,
      "lon": 4.5446454
    },
    {
      "type": "node",
      "id": 8068822123,
      "lat": 51.1480159,
      "lon": 4.5480478
    },
    {
      "type": "node",
      "id": 1116218233,
      "lat": 51.1482598,
      "lon": 4.5511202
    },
    {
      "type": "node",
      "id": 1116218324,
      "lat": 51.1492702,
      "lon": 4.5494458
    },
    {
      "type": "node",
      "id": 1116218404,
      "lat": 51.1510391,
      "lon": 4.5492318
    },
    {
      "type": "node",
      "id": 1116218584,
      "lat": 51.1481147,
      "lon": 4.552006
    },
    {
      "type": "node",
      "id": 1116218657,
      "lat": 51.1495389,
      "lon": 4.5487951
    },
    {
      "type": "node",
      "id": 1118811298,
      "lat": 51.1494977,
      "lon": 4.5517257
    },
    {
      "type": "node",
      "id": 1118811414,
      "lat": 51.1521553,
      "lon": 4.5495023
    },
    {
      "type": "node",
      "id": 1118811416,
      "lat": 51.1488247,
      "lon": 4.5493937
    },
    {
      "type": "node",
      "id": 1118811444,
      "lat": 51.1519871,
      "lon": 4.5515022
    },
    {
      "type": "node",
      "id": 1118811471,
      "lat": 51.1486383,
      "lon": 4.5521372
    },
    {
      "type": "node",
      "id": 1118811568,
      "lat": 51.1504603,
      "lon": 4.5498681
    },
    {
      "type": "node",
      "id": 1118811639,
      "lat": 51.1494977,
      "lon": 4.5522254
    },
    {
      "type": "node",
      "id": 1118811819,
      "lat": 51.1520792,
      "lon": 4.5498854
    },
    {
      "type": "node",
      "id": 1118811916,
      "lat": 51.1486863,
      "lon": 4.5515081
    },
    {
      "type": "node",
      "id": 1118812157,
      "lat": 51.1512015,
      "lon": 4.551614
    },
    {
      "type": "node",
      "id": 1118812507,
      "lat": 51.1505192,
      "lon": 4.5494327
    },
    {
      "type": "node",
      "id": 4277861610,
      "lat": 51.1495089,
      "lon": 4.5490604
    },
    {
      "type": "node",
      "id": 4277861611,
      "lat": 51.1514087,
      "lon": 4.5496908
    },
    {
      "type": "node",
      "id": 4277861612,
      "lat": 51.1514772,
      "lon": 4.549338
    },
    {
      "type": "node",
      "id": 6947535291,
      "lat": 51.1493168,
      "lon": 4.5487799
    },
    {
      "type": "node",
      "id": 6947535292,
      "lat": 51.1494917,
      "lon": 4.5491232
    },
    {
      "type": "node",
      "id": 6947535293,
      "lat": 51.1502429,
      "lon": 4.5493309
    },
    {
      "type": "node",
      "id": 6947535294,
      "lat": 51.1503195,
      "lon": 4.549488
    },
    {
      "type": "node",
      "id": 6947535295,
      "lat": 51.1503195,
      "lon": 4.5496382
    },
    {
      "type": "node",
      "id": 6947535296,
      "lat": 51.1502522,
      "lon": 4.549649
    },
    {
      "type": "node",
      "id": 6947535297,
      "lat": 51.1499763,
      "lon": 4.549606
    },
    {
      "type": "node",
      "id": 6947535298,
      "lat": 51.1489601,
      "lon": 4.5493378
    },
    {
      "type": "node",
      "id": 6947535299,
      "lat": 51.1487918,
      "lon": 4.5493485
    },
    {
      "type": "node",
      "id": 6947535300,
      "lat": 51.1485563,
      "lon": 4.5499601
    },
    {
      "type": "node",
      "id": 6947535301,
      "lat": 51.1482063,
      "lon": 4.5509579
    },
    {
      "type": "node",
      "id": 6947535302,
      "lat": 51.1481053,
      "lon": 4.5516445
    },
    {
      "type": "node",
      "id": 6947535303,
      "lat": 51.1479976,
      "lon": 4.5517411
    },
    {
      "type": "node",
      "id": 6947535304,
      "lat": 51.1479371,
      "lon": 4.5517411
    },
    {
      "type": "node",
      "id": 6947535322,
      "lat": 51.1476544,
      "lon": 4.5485653
    },
    {
      "type": "node",
      "id": 6947535323,
      "lat": 51.1479842,
      "lon": 4.5482649
    },
    {
      "type": "node",
      "id": 6947535325,
      "lat": 51.1479087,
      "lon": 4.5517264
    }
  ]
}